{"Shape":[[4.362876,51.8352],[4.362886,51.83512],[4.363256,51.83514],[4.363294,51.83529],[4.363351,51.83562],[4.362383,51.8356],[4.362183,51.8356],[4.362207,51.83537],[4.362295,51.83504],[4.36259,51.83456],[4.362716,51.8344],[4.362961,51.83414],[4.363196,51.83397],[4.363072,51.8339],[4.362954,51.83384],[4.362914,51.83384],[4.362954,51.83384],[4.363072,51.8339],[4.363196,51.83397],[4.362961,51.83414],[4.362716,51.8344],[4.36259,51.83456],[4.362263,51.83449],[4.36189,51.8344],[4.361663,51.83434],[4.36149,51.8343],[4.361216,51.83426],[4.360715,51.83423],[4.360428,51.83422],[4.359982,51.83422],[4.359963,51.83443],[4.359956,51.83451],[4.360041,51.83551],[4.360006,51.83558],[4.359909,51.83559],[4.359545,51.83559],[4.359371,51.83561],[4.358798,51.83573],[4.358778,51.83574],[4.358304,51.83594],[4.357912,51.83622],[4.357645,51.83656],[4.357581,51.83673],[4.357536,51.83692],[4.357599,51.83693],[4.358421,51.83695],[4.358706,51.83696],[4.359236,51.83698],[4.359298,51.83698],[4.359346,51.83698],[4.359304,51.83751],[4.359249,51.83808],[4.359207,51.83857],[4.359298,51.83863],[4.359503,51.83864],[4.359298,51.83863],[4.359207,51.83857],[4.358305,51.83854],[4.357405,51.83851],[4.35744,51.83802],[4.3567,51.838],[4.35744,51.83802],[4.357405,51.83851],[4.357304,51.83856],[4.356604,51.83854],[4.356521,51.83856],[4.356054,51.83867],[4.356095,51.83873],[4.356225,51.83888],[4.356655,51.83944],[4.356703,51.8395],[4.356782,51.83951],[4.356853,51.83953],[4.356906,51.83957],[4.35694,51.83961],[4.356953,51.83965],[4.356946,51.83969],[4.356892,51.83976],[4.356812,51.8398],[4.356715,51.83981],[4.35661,51.8398],[4.356521,51.83977],[4.356156,51.83985],[4.354842,51.84018],[4.350435,51.84134],[4.35021,51.84141],[4.350195,51.84144],[4.350135,51.8415],[4.350092,51.84152],[4.350068,51.8416],[4.350081,51.84171],[4.350096,51.84182],[4.350115,51.84187],[4.350371,51.84264],[4.3505,51.84262],[4.351302,51.84253],[4.3524,51.8424],[4.35244,51.8424],[4.352984,51.84244],[4.353347,51.84252],[4.353512,51.84256],[4.354007,51.84272],[4.354433,51.84291],[4.354726,51.84271],[4.354947,51.84259],[4.355422,51.84256],[4.355804,51.84259],[4.355771,51.84275],[4.355771,51.84275],[4.3559,51.8429],[4.355454,51.84306],[4.355878,51.84352],[4.355454,51.84306],[4.354899,51.84327],[4.355058,51.84346],[4.354635,51.84359],[4.35384,51.8438],[4.353803,51.84381],[4.352643,51.84421],[4.352509,51.84411],[4.352471,51.84408],[4.352411,51.84408],[4.352416,51.8438],[4.352426,51.84325],[4.352416,51.8438],[4.352411,51.84408],[4.351998,51.84408],[4.351569,51.84409],[4.351569,51.84381],[4.35157,51.84332],[4.351499,51.84332],[4.35157,51.84332],[4.351569,51.84381],[4.351569,51.84409],[4.351089,51.8441],[4.351015,51.8441],[4.350658,51.8441],[4.350525,51.8441],[4.350395,51.8441],[4.350248,51.8441],[4.350013,51.8441],[4.349563,51.8441],[4.34956,51.84381],[4.349555,51.8434],[4.349551,51.84338],[4.349555,51.8434],[4.34956,51.84381],[4.349563,51.8441],[4.3491,51.8441],[4.348827,51.84428],[4.348561,51.84444],[4.348224,51.84465],[4.348118,51.84472],[4.348224,51.84465],[4.347808,51.84441],[4.347787,51.84439],[4.347499,51.84424],[4.347353,51.84414],[4.347235,51.84409],[4.346725,51.84378],[4.347057,51.84359],[4.3471,51.84357],[4.347419,51.84338],[4.347693,51.84321],[4.347911,51.84306],[4.348071,51.843],[4.348277,51.84294],[4.3484,51.8429],[4.348871,51.84282],[4.34936,51.84275],[4.349819,51.8427],[4.35025,51.84265],[4.350371,51.84264],[4.350115,51.84187],[4.350096,51.84182],[4.350018,51.84171],[4.349961,51.84163],[4.349898,51.84155],[4.349844,51.84155],[4.349792,51.84153],[4.349741,51.84151],[4.349668,51.84145],[4.349641,51.84138],[4.349648,51.84134],[4.349666,51.84131],[4.349733,51.84125],[4.349779,51.84123],[4.349773,51.84107],[4.349725,51.84097],[4.349637,51.84082],[4.349562,51.84072],[4.349473,51.84055],[4.349343,51.84038],[4.349247,51.84026],[4.349227,51.84022],[4.349242,51.84018],[4.349291,51.84015],[4.349341,51.84015],[4.349291,51.84015],[4.349242,51.84018],[4.349227,51.84022],[4.349247,51.84026],[4.349343,51.84038],[4.349473,51.84055],[4.349562,51.84072],[4.349637,51.84082],[4.349725,51.84097],[4.349773,51.84107],[4.349949,51.8412],[4.350004,51.84121],[4.350057,51.84122],[4.350151,51.84123],[4.350306,51.84121],[4.351436,51.84094],[4.353651,51.84037],[4.355665,51.83982],[4.356448,51.83964],[4.356467,51.83959],[4.356505,51.83955],[4.356559,51.83953],[4.356528,51.83948],[4.356172,51.83889],[4.356095,51.83873],[4.356054,51.83867],[4.355865,51.83872],[4.355744,51.83854],[4.355442,51.83807],[4.355262,51.83775],[4.355149,51.83741],[4.355262,51.83775],[4.355442,51.83807],[4.354567,51.83827],[4.354502,51.83861],[4.354394,51.83879],[4.354266,51.83889],[4.353954,51.83899],[4.353641,51.83902],[4.353499,51.83899],[4.353641,51.83902],[4.353954,51.83899],[4.354266,51.83889],[4.354394,51.83879],[4.354502,51.83861],[4.354567,51.83827],[4.354431,51.83799],[4.354358,51.83789],[4.354114,51.83788],[4.353674,51.83787],[4.3535,51.83787],[4.353401,51.83786],[4.353249,51.83786],[4.353267,51.83731],[4.352183,51.83727],[4.35223,51.83674],[4.352281,51.83624],[4.352559,51.83624],[4.3527,51.83624],[4.353416,51.83625],[4.354496,51.83628],[4.354549,51.83569],[4.354558,51.8356],[4.354549,51.83569],[4.354496,51.83628],[4.354723,51.8363],[4.355241,51.83632],[4.355292,51.83623],[4.355379,51.83607],[4.355661,51.83566],[4.356078,51.83521],[4.35621,51.83526],[4.356462,51.83506],[4.35676,51.83488],[4.357081,51.83472],[4.357435,51.83458],[4.35772,51.83448],[4.358244,51.83437],[4.358519,51.8343],[4.358867,51.83425],[4.359239,51.83422],[4.359233,51.8341],[4.359243,51.83399],[4.3593,51.8334],[4.359339,51.8329],[4.358464,51.83288],[4.3575,51.83284],[4.357482,51.83284],[4.35673,51.83325],[4.355743,51.83256],[4.355672,51.83251],[4.35604,51.83231],[4.356162,51.83229],[4.356239,51.83227],[4.356392,51.83227],[4.356502,51.83228],[4.3567,51.8323],[4.357197,51.83241],[4.357409,51.83244],[4.357605,51.83242],[4.358144,51.83232],[4.358191,51.8318],[4.358144,51.83232],[4.357605,51.83242],[4.357409,51.83244],[4.357197,51.83241],[4.3567,51.8323],[4.356392,51.83227],[4.356239,51.83227],[4.356162,51.83229],[4.356112,51.83237],[4.355743,51.83256],[4.355162,51.83287],[4.355031,51.83289],[4.354982,51.83286],[4.354829,51.83276],[4.354083,51.83223],[4.354129,51.83141],[4.354129,51.83141],[4.354129,51.83141],[4.354083,51.83223],[4.354829,51.83276],[4.354982,51.83286],[4.354767,51.83298],[4.35451,51.83318],[4.354292,51.8333],[4.353833,51.83347],[4.353737,51.83353],[4.353667,51.83348],[4.35358,51.83342],[4.353667,51.83348],[4.353737,51.83353],[4.354132,51.83377],[4.354263,51.83387],[4.354307,51.83396],[4.354862,51.83434],[4.35489,51.83435],[4.355624,51.83485],[4.355773,51.83496],[4.35603,51.8348],[4.356064,51.83468],[4.356438,51.83448],[4.35656,51.83442],[4.356722,51.83442],[4.357036,51.83429],[4.357344,51.83449],[4.357435,51.83458],[4.35772,51.83448],[4.358244,51.83437],[4.358519,51.8343],[4.358867,51.83425],[4.359239,51.83422],[4.359355,51.83421],[4.359982,51.83422],[4.360428,51.83422],[4.360715,51.83423],[4.361216,51.83426],[4.36149,51.8343],[4.361445,51.8344],[4.361368,51.83445],[4.361287,51.83451],[4.361287,51.83468],[4.361362,51.83472],[4.361629,51.83485],[4.36163,51.83494],[4.361629,51.83485],[4.361362,51.83472],[4.361287,51.83468],[4.361287,51.83451],[4.361368,51.83445],[4.361445,51.8344],[4.36149,51.8343],[4.361663,51.83434],[4.36189,51.8344],[4.362263,51.83449],[4.36259,51.83456],[4.362295,51.83504],[4.362207,51.83537],[4.362183,51.8356],[4.362249,51.83609],[4.362183,51.8356],[4.362,51.83559],[4.36209,51.83628],[4.362113,51.83641],[4.362199,51.83688],[4.362391,51.8378],[4.362199,51.83688],[4.362395,51.83686],[4.362588,51.83685],[4.362637,51.83716],[4.362693,51.83744],[4.362755,51.83772],[4.362759,51.83774],[4.362813,51.83805],[4.362897,51.83831],[4.362933,51.83848],[4.363002,51.83858],[4.36314,51.83867],[4.363311,51.83872],[4.363814,51.83873],[4.364505,51.83876],[4.364714,51.83876],[4.36481,51.83882],[4.366362,51.83887],[4.367903,51.83892],[4.366362,51.83887],[4.36481,51.83882],[4.364714,51.83876],[4.364704,51.83848],[4.36464,51.83818],[4.364522,51.83761],[4.365499,51.83763],[4.365944,51.83764],[4.365939,51.8376],[4.365883,51.83719],[4.365823,51.83672],[4.36506,51.8367],[4.365064,51.8366],[4.365098,51.83566],[4.364598,51.83564],[4.3645,51.8348],[4.364818,51.83464],[4.3645,51.8348],[4.364598,51.83564],[4.365098,51.83566],[4.365858,51.83567],[4.365995,51.83579],[4.366209,51.83587],[4.366416,51.83591],[4.366599,51.83589],[4.366675,51.83588],[4.366899,51.83581],[4.367046,51.8357],[4.367049,51.83558],[4.367056,51.83533],[4.367445,51.83514],[4.368117,51.83483],[4.367445,51.83514],[4.367056,51.83533],[4.367049,51.83558],[4.367046,51.8357],[4.367727,51.83575],[4.367617,51.8368],[4.368389,51.83685],[4.368356,51.83699],[4.368389,51.83685],[4.368972,51.8369],[4.370177,51.83698],[4.370038,51.8376],[4.370005,51.83772],[4.369893,51.83816],[4.370094,51.83818],[4.36999,51.83858],[4.370255,51.83857],[4.370311,51.83854],[4.370436,51.83859],[4.370712,51.83867],[4.37106,51.83872],[4.371407,51.83873],[4.3717,51.83871],[4.372097,51.83863],[4.372175,51.83837],[4.372507,51.8371],[4.372175,51.83837],[4.372097,51.83863],[4.3717,51.83871],[4.371407,51.83873],[4.371304,51.83873],[4.37106,51.83872],[4.370712,51.83867],[4.370436,51.83859],[4.370311,51.83854],[4.370255,51.83857],[4.36999,51.83858],[4.370094,51.83818],[4.370241,51.83762],[4.3704,51.837],[4.370615,51.83702],[4.370728,51.8366],[4.370615,51.83702],[4.3704,51.837],[4.370177,51.83698],[4.370326,51.83643],[4.370457,51.83588],[4.370462,51.83586],[4.370678,51.83587],[4.370903,51.83588],[4.370893,51.83534],[4.370876,51.83529],[4.370724,51.83487],[4.370527,51.83491],[4.370261,51.83447],[4.369798,51.83403],[4.369971,51.83395],[4.369474,51.83356],[4.369341,51.83345],[4.368838,51.83305],[4.368187,51.83253],[4.368289,51.83248],[4.368187,51.83253],[4.368838,51.83305],[4.369474,51.83356],[4.369971,51.83395],[4.369798,51.83403],[4.369626,51.83411],[4.369594,51.83409],[4.369088,51.83369],[4.368437,51.83317],[4.367792,51.83266],[4.367764,51.83264],[4.367792,51.83266],[4.367483,51.83282],[4.367129,51.83322],[4.366941,51.83331],[4.366846,51.83372],[4.367596,51.83383],[4.366846,51.83372],[4.365999,51.83372],[4.365982,51.83362],[4.365887,51.8331],[4.365628,51.83289],[4.364795,51.83329],[4.363894,51.83372],[4.36375,51.83378],[4.363663,51.83383],[4.363661,51.83393],[4.363647,51.83459],[4.363756,51.83563],[4.363699,51.83563],[4.363351,51.83562],[4.363294,51.83529],[4.363256,51.83514],[4.362886,51.83512],[4.362876,51.8352]],"ShapeMeta":[{"Shape":0,"Attributes":{"profile":"car","time":"0"}},{"Shape":2,"Attributes":{"name":"Lizzy Ansinghstraat","highway":"unclassified","maxspeed":"30","profile":"car","distance":"33.51994","time":"5.363191"}},{"Shape":3,"Attributes":{"name":"Lizzy Ansinghstraat","highway":"unclassified","maxspeed":"30","profile":"car","distance":"50.21994","time":"8.035192"}},{"Shape":4,"Attributes":{"name":"Lizzy Ansinghstraat","highway":"unclassified","maxspeed":"30","profile":"car","distance":"87.71994","time":"14.03519"}},{"Shape":5,"Attributes":{"name":"Sientje Mesdag-van Houtenstraat","highway":"residential","maxspeed":"30","profile":"car","distance":"154.2199","time":"24.67519"}},{"Shape":6,"Attributes":{"name":"Sientje Mesdag-van Houtenstraat","highway":"residential","maxspeed":"30","profile":"car","distance":"167.9199","time":"26.86719"}},{"Shape":9,"Attributes":{"name":"Annie Romein-Verschoorlaan","maxspeed":"50","highway":"tertiary","profile":"car","distance":"287.1199","time":"38.31039"}},{"Shape":10,"Attributes":{"name":"Annie Romein-Verschoorlaan","maxspeed":"50","highway":"tertiary","profile":"car","distance":"307.6199","time":"40.27839"}},{"Shape":12,"Attributes":{"name":"Annie Romein-Verschoorlaan","maxspeed":"50","highway":"tertiary","profile":"car","distance":"365.9199","time":"45.87519"}},{"Shape":14,"Attributes":{"name":"Hadewychplaats","highway":"service","profile":"car","distance":"387.6199","time":"49.34719"}},{"Shape":15,"Attributes":{"name":"Ida Gerhardtplein","highway":"service","profile":"car","distance":"390.3596","time":"49.78554"}},{"Shape":16,"Attributes":{"name":"Ida Gerhardtplein","highway":"service","profile":"car","distance":"393.0993","time":"50.22389"}},{"Shape":18,"Attributes":{"name":"Hadewychplaats","highway":"service","profile":"car","distance":"414.7993","time":"53.69589"}},{"Shape":20,"Attributes":{"name":"Annie Romein-Verschoorlaan","maxspeed":"50","highway":"tertiary","profile":"car","distance":"473.0993","time":"59.29269"}},{"Shape":21,"Attributes":{"name":"Annie Romein-Verschoorlaan","maxspeed":"50","highway":"tertiary","profile":"car","distance":"493.5993","time":"61.26069"}},{"Shape":24,"Attributes":{"name":"Joke Smitlaan","maxspeed":"50","highway":"tertiary","profile":"car","distance":"561.9993","time":"67.82709"}},{"Shape":25,"Attributes":{"name":"Joke Smitlaan","maxspeed":"50","highway":"tertiary","profile":"car","distance":"574.3993","time":"69.01749"}},{"Shape":26,"Attributes":{"name":"Joke Smitlaan","maxspeed":"50","highway":"tertiary","profile":"car","distance":"593.7993","time":"70.87989"}},{"Shape":28,"Attributes":{"name":"Joke Smitlaan","maxspeed":"50","highway":"tertiary","profile":"car","distance":"648.0992","time":"76.09269"}},{"Shape":29,"Attributes":{"name":"Joke Smitlaan","maxspeed":"50","highway":"tertiary","profile":"car","distance":"678.6993","time":"79.03029"}},{"Shape":30,"Attributes":{"name":"Clara Visserstraat","highway":"residential","maxspeed":"30","profile":"car","distance":"702.4756","time":"82.83449"}},{"Shape":33,"Attributes":{"name":"Clara Visserstraat","highway":"residential","maxspeed":"30","profile":"car","distance":"830.1993","time":"103.2703"}},{"Shape":36,"Attributes":{"name":"Wilhelmina Bladergroenstraat","highway":"residential","maxspeed":"30","profile":"car","distance":"873.9993","time":"110.2783"}},{"Shape":37,"Attributes":{"name":"Wilhelmina Bladergroenstraat","highway":"residential","maxspeed":"30","profile":"car","distance":"915.6993","time":"116.9503"}},{"Shape":38,"Attributes":{"name":"Wilhelmina Bladergroenstraat","highway":"residential","maxspeed":"30","profile":"car","distance":"917.2955","time":"117.2057"}},{"Shape":40,"Attributes":{"name":"Wilhelmina Bladergroenstraat","highway":"residential","maxspeed":"30","profile":"car","distance":"998.1992","time":"130.1503"}},{"Shape":41,"Attributes":{"name":"Wilhelmina Bladergroenstraat","highway":"residential","maxspeed":"30","profile":"car","distance":"1039.699","time":"136.7903"}},{"Shape":43,"Attributes":{"name":"Wilhelmina Bladergroenstraat","highway":"residential","maxspeed":"30","profile":"car","distance":"1080.699","time":"143.3503"}},{"Shape":44,"Attributes":{"name":"Maria Rutgers-Hoitsemastraat","highway":"residential","maxspeed":"30","profile":"car","distance":"1085.044","time":"144.0454"}},{"Shape":45,"Attributes":{"name":"Maria Rutgers-Hoitsemastraat","highway":"residential","maxspeed":"30","profile":"car","distance":"1141.6","time":"153.0943"}},{"Shape":48,"Attributes":{"name":"Maria Rutgers-Hoitsemastraat","highway":"residential","maxspeed":"30","profile":"car","distance":"1201.88","time":"162.7391"}},{"Shape":49,"Attributes":{"name":"Maria Rutgers-Hoitsemastraat","highway":"residential","maxspeed":"30","profile":"car","distance":"1205.2","time":"163.2703"}},{"Shape":50,"Attributes":{"name":"Hélène Mercierstraat","highway":"residential","maxspeed":"30","profile":"car","distance":"1264.2","time":"172.7103"}},{"Shape":51,"Attributes":{"name":"Hélène Mercierstraat","highway":"residential","maxspeed":"30","profile":"car","distance":"1327.5","time":"182.8383"}},{"Shape":52,"Attributes":{"name":"Hélène Mercierstraat","highway":"residential","maxspeed":"30","profile":"car","distance":"1382.2","time":"191.5903"}},{"Shape":54,"Attributes":{"name":"Aletta Jacobsstraat","highway":"residential","maxspeed":"30","profile":"car","distance":"1405.201","time":"195.2704"}},{"Shape":56,"Attributes":{"name":"Aletta Jacobsstraat","highway":"residential","maxspeed":"30","profile":"car","distance":"1428.202","time":"198.9505"}},{"Shape":57,"Attributes":{"name":"Aletta Jacobsstraat","highway":"residential","maxspeed":"30","profile":"car","distance":"1490.302","time":"208.8865"}},{"Shape":58,"Attributes":{"name":"Aletta Jacobsstraat","highway":"residential","maxspeed":"30","profile":"car","distance":"1552.102","time":"218.7745"}},{"Shape":59,"Attributes":{"name":"Wilhelmina Bladergroenstraat","highway":"residential","maxspeed":"30","profile":"car","distance":"1606.402","time":"227.4625"}},{"Shape":60,"Attributes":{"name":"Catharina van Tussenbroekstraat","highway":"residential","maxspeed":"30","profile":"car","distance":"1657.261","time":"235.6"}},{"Shape":61,"Attributes":{"name":"Catharina van Tussenbroekstraat","highway":"residential","maxspeed":"30","profile":"car","distance":"1708.12","time":"243.7374"}},{"Shape":62,"Attributes":{"name":"Wilhelmina Bladergroenstraat","highway":"residential","maxspeed":"30","profile":"car","distance":"1762.42","time":"252.4254"}},{"Shape":66,"Attributes":{"name":"Aletta Jacobsstraat","highway":"residential","maxspeed":"30","profile":"car","distance":"1860.22","time":"268.0735"}},{"Shape":67,"Attributes":{"name":"Joke Smitlaan","maxspeed":"50","highway":"tertiary","profile":"car","distance":"1866.72","time":"268.6974"}},{"Shape":70,"Attributes":{"name":"Joke Smitlaan","maxspeed":"50","highway":"tertiary","oneway":"yes","profile":"car","distance":"1962.42","time":"277.8846"}},{"Shape":72,"Attributes":{"name":"Maaswijkweg","maxspeed":"50","highway":"tertiary","junction":"roundabout","profile":"car","distance":"1973.32","time":"278.931"}},{"Shape":75,"Attributes":{"name":"Maaswijkweg","maxspeed":"50","highway":"tertiary","junction":"roundabout","profile":"car","distance":"1988.92","time":"280.4286"}},{"Shape":81,"Attributes":{"name":"Maaswijkweg","maxspeed":"50","highway":"tertiary","junction":"roundabout","profile":"car","distance":"2030.02","time":"284.3742"}},{"Shape":82,"Attributes":{"name":"Maaswijkweg","maxspeed":"50","highway":"tertiary","oneway":"yes","profile":"car","distance":"2056.72","time":"286.9374"}},{"Shape":85,"Attributes":{"name":"Maaswijkweg","maxspeed":"50","highway":"tertiary","oneway":"yes","profile":"car","distance":"2500.42","time":"329.5327"}},{"Shape":88,"Attributes":{"name":"Maaswijkweg","maxspeed":"50","highway":"tertiary","junction":"roundabout","profile":"car","distance":"2515.82","time":"331.011"}},{"Shape":91,"Attributes":{"highway":"unclassified","maxspeed":"50","oneway":"yes","profile":"car","distance":"2549.52","time":"334.2462"}},{"Shape":92,"Attributes":{"name":"Rivierlaan","highway":"unclassified","maxspeed":"50","profile":"car","distance":"2555.12","time":"334.7838"}},{"Shape":93,"Attributes":{"name":"Rivierlaan","highway":"unclassified","maxspeed":"50","profile":"car","distance":"2641.72","time":"343.0974"}},{"Shape":95,"Attributes":{"name":"Indusstraat","highway":"residential","maxspeed":"30","profile":"car","distance":"2706.82","time":"353.5134"}},{"Shape":97,"Attributes":{"name":"Indusstraat","highway":"residential","maxspeed":"30","profile":"car","distance":"2786.32","time":"366.2334"}},{"Shape":99,"Attributes":{"name":"Indusstraat","highway":"residential","maxspeed":"30","profile":"car","distance":"2850.389","time":"376.4844"}},{"Shape":100,"Attributes":{"name":"Indusstraat","highway":"residential","maxspeed":"30","profile":"car","distance":"2862.42","time":"378.4094"}},{"Shape":102,"Attributes":{"name":"Indusstraat","highway":"residential","maxspeed":"30","profile":"car","distance":"2937.02","time":"390.3454"}},{"Shape":106,"Attributes":{"name":"Nijlstraat","highway":"residential","maxspeed":"30","profile":"car","distance":"3046.52","time":"407.8654"}},{"Shape":107,"Attributes":{"name":"Kongostraat","highway":"residential","maxspeed":"30","profile":"car","distance":"3063.61","time":"410.5998"}},{"Shape":109,"Attributes":{"name":"Kongostraat","highway":"residential","maxspeed":"30","profile":"car","distance":"3082.72","time":"413.6574"}},{"Shape":110,"Attributes":{"name":"Zambezistraat","highway":"residential","maxspeed":"30","profile":"car","distance":"3118.12","time":"419.3214"}},{"Shape":111,"Attributes":{"name":"Gambiastraat","highway":"residential","maxspeed":"30","profile":"car","distance":"3177.558","time":"428.8315"}},{"Shape":112,"Attributes":{"name":"Gambiastraat","highway":"residential","maxspeed":"30","profile":"car","distance":"3236.996","time":"438.3416"}},{"Shape":113,"Attributes":{"name":"Zambezistraat","highway":"residential","maxspeed":"30","profile":"car","distance":"3281.396","time":"445.4456"}},{"Shape":114,"Attributes":{"name":"Indusstraat","highway":"residential","maxspeed":"30","profile":"car","distance":"3305.596","time":"449.3176"}},{"Shape":116,"Attributes":{"name":"Mekongstraat","highway":"residential","maxspeed":"30","profile":"car","distance":"3397.298","time":"463.9899"}},{"Shape":118,"Attributes":{"name":"Mekongstraat","highway":"residential","maxspeed":"30","profile":"car","distance":"3491.396","time":"479.0456"}},{"Shape":121,"Attributes":{"name":"Gangesstraat","highway":"residential","maxspeed":"30","profile":"car","distance":"3514.096","time":"482.6776"}},{"Shape":123,"Attributes":{"name":"Tigrisstraat","highway":"residential","maxspeed":"30","profile":"car","distance":"3606.561","time":"497.472"}},{"Shape":125,"Attributes":{"name":"Tigrisstraat","highway":"residential","maxspeed":"30","profile":"car","distance":"3699.026","time":"512.2664"}},{"Shape":126,"Attributes":{"name":"Gangesstraat","highway":"residential","maxspeed":"30","profile":"car","distance":"3727.326","time":"516.7944"}},{"Shape":127,"Attributes":{"name":"Gangesstraat","highway":"residential","maxspeed":"30","profile":"car","distance":"3756.826","time":"521.5144"}},{"Shape":129,"Attributes":{"name":"Eufraatstraat","highway":"residential","profile":"car","distance":"3842.426","time":"529.732"}},{"Shape":130,"Attributes":{"highway":"residential","profile":"car","distance":"3847.32","time":"530.2018"}},{"Shape":131,"Attributes":{"highway":"residential","profile":"car","distance":"3852.214","time":"530.6716"}},{"Shape":133,"Attributes":{"name":"Eufraatstraat","highway":"residential","profile":"car","distance":"3937.814","time":"538.8892"}},{"Shape":135,"Attributes":{"name":"Gangesstraat","highway":"residential","maxspeed":"30","profile":"car","distance":"3975.834","time":"544.9725"}},{"Shape":136,"Attributes":{"name":"Gangesstraat","highway":"residential","maxspeed":"30","profile":"car","distance":"4000.313","time":"548.8892"}},{"Shape":137,"Attributes":{"name":"Gangesstraat","highway":"unclassified","profile":"car","distance":"4009.413","time":"549.7628"}},{"Shape":139,"Attributes":{"name":"Coloradostraat","highway":"residential","profile":"car","distance":"4028.474","time":"551.5926"}},{"Shape":141,"Attributes":{"name":"Coloradostraat","highway":"residential","profile":"car","distance":"4075.513","time":"556.1083"}},{"Shape":144,"Attributes":{"name":"Columbiastraat","highway":"residential","maxspeed":"30","profile":"car","distance":"4155.7","time":"568.9382"}},{"Shape":147,"Attributes":{"name":"Columbiastraat","highway":"residential","maxspeed":"30","profile":"car","distance":"4235.887","time":"581.768"}},{"Shape":149,"Attributes":{"name":"Coloradostraat","highway":"residential","profile":"car","distance":"4294.687","time":"587.4128"}},{"Shape":151,"Attributes":{"name":"Coloradostraat","highway":"residential","profile":"car","distance":"4353.287","time":"593.0384"}},{"Shape":152,"Attributes":{"name":"Coloradostraat","highway":"residential","profile":"car","distance":"4363.802","time":"594.0479"}},{"Shape":153,"Attributes":{"name":"Coloradostraat","highway":"residential","profile":"car","distance":"4374.317","time":"595.0574"}},{"Shape":154,"Attributes":{"name":"Rio Grandestraat","highway":"residential","profile":"car","distance":"4413.717","time":"598.8398"}},{"Shape":159,"Attributes":{"name":"Rio Grandestraat","highway":"residential","profile":"car","distance":"4515.817","time":"608.6414"}},{"Shape":160,"Attributes":{"name":"Amazonestraat","highway":"residential","profile":"car","distance":"4546.546","time":"611.5913"}},{"Shape":162,"Attributes":{"name":"Amazonestraat","highway":"residential","profile":"car","distance":"4580.718","time":"614.8718"}},{"Shape":165,"Attributes":{"name":"Amazonestraat","highway":"residential","profile":"car","distance":"4642.718","time":"620.8238"}},{"Shape":169,"Attributes":{"name":"Amazonestraat","highway":"residential","profile":"car","distance":"4736.118","time":"629.7902"}},{"Shape":172,"Attributes":{"name":"Amazonestraat","highway":"residential","profile":"car","distance":"4806.518","time":"636.5486"}},{"Shape":173,"Attributes":{"name":"Rivierlaan","highway":"unclassified","maxspeed":"50","profile":"car","distance":"4893.118","time":"644.8622"}},{"Shape":174,"Attributes":{"name":"Rivierlaan","highway":"unclassified","maxspeed":"50","profile":"car","distance":"4898.718","time":"645.3998"}},{"Shape":177,"Attributes":{"name":"Rivierlaan","highway":"unclassified","maxspeed":"50","oneway":"yes","profile":"car","distance":"4931.718","time":"648.5678"}},{"Shape":179,"Attributes":{"name":"Maaswijkweg","maxspeed":"50","highway":"tertiary","junction":"roundabout","profile":"car","distance":"4939.417","time":"649.307"}},{"Shape":183,"Attributes":{"name":"Maaswijkweg","maxspeed":"50","highway":"tertiary","junction":"roundabout","profile":"car","distance":"4964.917","time":"651.755"}},{"Shape":186,"Attributes":{"name":"Maaswijkweg","maxspeed":"50","highway":"tertiary","junction":"roundabout","profile":"car","distance":"4980.518","time":"653.2526"}},{"Shape":187,"Attributes":{"highway":"unclassified","oneway":"yes","profile":"car","distance":"4997.817","time":"654.9134"}},{"Shape":188,"Attributes":{"name":"Hürthstraat","highway":"living_street","profile":"car","distance":"5010.118","time":"666.7214"}},{"Shape":189,"Attributes":{"name":"Hürthstraat","highway":"living_street","profile":"car","distance":"5027.317","time":"683.2334"}},{"Shape":191,"Attributes":{"name":"Hürthstraat","highway":"living_street","profile":"car","distance":"5059.118","time":"713.7614"}},{"Shape":192,"Attributes":{"name":"Hürthstraat","highway":"living_street","profile":"car","distance":"5080.518","time":"734.3054"}},{"Shape":197,"Attributes":{"name":"Hürthstraat","highway":"living_street","profile":"car","distance":"5112.74","time":"765.2385"}},{"Shape":202,"Attributes":{"name":"Hürthstraat","highway":"living_street","profile":"car","distance":"5144.962","time":"796.1717"}},{"Shape":203,"Attributes":{"name":"Hürthstraat","highway":"living_street","profile":"car","distance":"5166.362","time":"816.7156"}},{"Shape":205,"Attributes":{"name":"Hürthstraat","highway":"living_street","profile":"car","distance":"5198.162","time":"847.2437"}},{"Shape":206,"Attributes":{"name":"Hürthstraat","highway":"living_street","profile":"car","distance":"5215.362","time":"863.7557"}},{"Shape":207,"Attributes":{"name":"Hürthstraat","highway":"living_street","profile":"car","distance":"5227.662","time":"875.5636"}},{"Shape":208,"Attributes":{"name":"Hürthstraat","highway":"unclassified","oneway":"yes","profile":"car","distance":"5246.462","time":"877.3684"}},{"Shape":210,"Attributes":{"name":"Maaswijkweg","maxspeed":"50","highway":"tertiary","junction":"roundabout","profile":"car","distance":"5254.062","time":"878.098"}},{"Shape":216,"Attributes":{"name":"Maaswijkweg","maxspeed":"50","highway":"tertiary","oneway":"yes","profile":"car","distance":"5728.262","time":"923.6212"}},{"Shape":219,"Attributes":{"name":"Maaswijkweg","maxspeed":"50","highway":"tertiary","junction":"roundabout","profile":"car","distance":"5743.162","time":"925.0516"}},{"Shape":222,"Attributes":{"name":"Joke Smitlaan","maxspeed":"50","highway":"tertiary","oneway":"yes","profile":"car","distance":"5837.762","time":"934.1332"}},{"Shape":223,"Attributes":{"name":"Joke Smitlaan","maxspeed":"50","highway":"tertiary","profile":"car","distance":"5844.262","time":"934.7572"}},{"Shape":224,"Attributes":{"name":"Marga Klompéstraat","highway":"residential","maxspeed":"30","profile":"car","distance":"5858.262","time":"936.9972"}},{"Shape":225,"Attributes":{"name":"Suze Groenewegstraat","highway":"residential","maxspeed":"30","profile":"car","distance":"5880.671","time":"940.5826"}},{"Shape":226,"Attributes":{"name":"Suze Groenewegstraat","highway":"residential","maxspeed":"30","profile":"car","distance":"5936.762","time":"949.5571"}},{"Shape":228,"Attributes":{"name":"Suze Groenewegstraat","highway":"residential","maxspeed":"30","profile":"car","distance":"6012.091","time":"961.6098"}},{"Shape":230,"Attributes":{"name":"Suze Groenewegstraat","highway":"residential","maxspeed":"30","profile":"car","distance":"6087.42","time":"973.6625"}},{"Shape":231,"Attributes":{"name":"Johanna Engwirda-Agricolastraat","highway":"residential","maxspeed":"30","profile":"car","distance":"6151.72","time":"983.9505"}},{"Shape":237,"Attributes":{"name":"Johanna Engwirda-Agricolastraat","highway":"residential","maxspeed":"30","profile":"car","distance":"6281.024","time":"1004.639"}},{"Shape":243,"Attributes":{"name":"Johanna Engwirda-Agricolastraat","highway":"residential","maxspeed":"30","profile":"car","distance":"6410.328","time":"1025.328"}},{"Shape":246,"Attributes":{"name":"Johanna Engwirda-Agricolastraat","highway":"residential","maxspeed":"30","profile":"car","distance":"6471.928","time":"1035.184"}},{"Shape":247,"Attributes":{"name":"Johanna Engwirda-Agricolastraat","highway":"residential","maxspeed":"30","profile":"car","distance":"6502.128","time":"1040.016"}},{"Shape":248,"Attributes":{"name":"Johanna Engwirda-Agricolastraat","highway":"residential","maxspeed":"30","profile":"car","distance":"6514.072","time":"1041.927"}},{"Shape":249,"Attributes":{"name":"Johanna Engwirda-Agricolastraat","highway":"residential","maxspeed":"30","profile":"car","distance":"6520.887","time":"1043.017"}},{"Shape":250,"Attributes":{"name":"Johanna Engwirda-Agricolastraat","highway":"residential","maxspeed":"30","profile":"car","distance":"6531.328","time":"1044.688"}},{"Shape":251,"Attributes":{"name":"Carry Pothuis-Smitstraat","highway":"residential","maxspeed":"30","profile":"car","distance":"6592.828","time":"1054.527"}},{"Shape":253,"Attributes":{"name":"Wilhelmina Hofman-Pootstraat","highway":"residential","maxspeed":"30","profile":"car","distance":"6726.028","time":"1075.839"}},{"Shape":255,"Attributes":{"name":"Wilhelmina Druckerstraat","highway":"residential","maxspeed":"30","profile":"car","distance":"6801.228","time":"1087.871"}},{"Shape":256,"Attributes":{"name":"Wilhelmina Druckerstraat","highway":"residential","maxspeed":"30","profile":"car","distance":"6810.92","time":"1089.422"}},{"Shape":258,"Attributes":{"name":"Wilhelmina Druckerstraat","highway":"residential","maxspeed":"30","profile":"car","distance":"6934.328","time":"1109.167"}},{"Shape":259,"Attributes":{"name":"Roosje Vosstraat","highway":"residential","maxspeed":"30","profile":"car","distance":"6999.728","time":"1119.631"}},{"Shape":260,"Attributes":{"name":"Roosje Vosstraat","highway":"residential","maxspeed":"30","profile":"car","distance":"7010.336","time":"1121.329"}},{"Shape":261,"Attributes":{"name":"Roosje Vosstraat","highway":"residential","maxspeed":"30","profile":"car","distance":"7020.944","time":"1123.026"}},{"Shape":262,"Attributes":{"name":"Roosje Vosstraat","highway":"residential","maxspeed":"30","profile":"car","distance":"7086.344","time":"1133.49"}},{"Shape":263,"Attributes":{"name":"Wilhelmina Druckerstraat","highway":"residential","maxspeed":"30","profile":"car","distance":"7101.944","time":"1135.986"}},{"Shape":264,"Attributes":{"name":"Wilhelmina Druckerstraat","highway":"residential","maxspeed":"30","profile":"car","distance":"7137.644","time":"1141.698"}},{"Shape":265,"Attributes":{"name":"Mina Krusemanstraat","highway":"residential","maxspeed":"30","profile":"car","distance":"7148.367","time":"1143.414"}},{"Shape":268,"Attributes":{"name":"Mina Krusemanstraat","highway":"residential","maxspeed":"30","profile":"car","distance":"7274.544","time":"1163.602"}},{"Shape":269,"Attributes":{"name":"Maria Doorman-Kielstrastraat","highway":"residential","maxspeed":"30","profile":"car","distance":"7285.645","time":"1165.378"}},{"Shape":273,"Attributes":{"name":"Joke Smitlaan","maxspeed":"50","highway":"tertiary","oneway":"yes","profile":"car","distance":"7399.845","time":"1176.342"}},{"Shape":275,"Attributes":{"name":"Joke Smitlaan","maxspeed":"50","highway":"tertiary","oneway":"yes","profile":"car","distance":"7460.444","time":"1182.159"}},{"Shape":278,"Attributes":{"name":"Joke Smitlaan","maxspeed":"50","highway":"tertiary","profile":"car","distance":"7530.944","time":"1188.927"}},{"Shape":279,"Attributes":{"name":"Anne Frankstraat","highway":"residential","maxspeed":"30","profile":"car","distance":"7544.044","time":"1191.023"}},{"Shape":280,"Attributes":{"name":"Anne Frankstraat","highway":"residential","maxspeed":"30","profile":"car","distance":"7555.939","time":"1192.926"}},{"Shape":282,"Attributes":{"name":"Anne Frankstraat","highway":"residential","maxspeed":"30","profile":"car","distance":"7677.844","time":"1212.431"}},{"Shape":283,"Attributes":{"name":"Hannie Schaftstraat","highway":"residential","maxspeed":"30","profile":"car","distance":"7737.944","time":"1222.047"}},{"Shape":284,"Attributes":{"name":"Hannie Schaftstraat","highway":"residential","maxspeed":"30","profile":"car","distance":"7804.389","time":"1232.678"}},{"Shape":286,"Attributes":{"name":"Hannie Schaftstraat","highway":"residential","maxspeed":"30","profile":"car","distance":"7874.645","time":"1243.919"}},{"Shape":287,"Attributes":{"name":"Jacoba Pulskensstraat","highway":"residential","maxspeed":"30","profile":"car","distance":"7976.745","time":"1260.255"}},{"Shape":288,"Attributes":{"name":"Mia van der Wall-Duyvendakstraat","highway":"residential","maxspeed":"30","profile":"car","distance":"7984.044","time":"1261.423"}},{"Shape":290,"Attributes":{"name":"Mien Sneevliet-Draaijerstraat","highway":"residential","maxspeed":"30","oneway":"yes","profile":"car","distance":"8026.245","time":"1268.175"}},{"Shape":293,"Attributes":{"name":"Petronella Brugsmastraat","highway":"residential","maxspeed":"30","profile":"car","distance":"8050.311","time":"1272.025"}},{"Shape":299,"Attributes":{"name":"Petronella Brugsmastraat","highway":"residential","maxspeed":"30","profile":"car","distance":"8225.556","time":"1300.064"}},{"Shape":307,"Attributes":{"name":"Petronella Brugsmastraat","highway":"residential","maxspeed":"30","profile":"car","distance":"8424.866","time":"1331.954"}},{"Shape":309,"Attributes":{"name":"Mien Sneevliet-Draaijerstraat","highway":"residential","maxspeed":"30","oneway":"yes","profile":"car","distance":"8467.267","time":"1338.738"}},{"Shape":311,"Attributes":{"name":"Mien Sneevliet-Draaijerstraat","highway":"residential","maxspeed":"30","oneway":"yes","profile":"car","distance":"8529.267","time":"1348.658"}},{"Shape":312,"Attributes":{"name":"Etty Hillesumstraat","highway":"residential","maxspeed":"30","profile":"car","distance":"8534.267","time":"1349.458"}},{"Shape":316,"Attributes":{"name":"Etty Hillesumstraat","highway":"residential","maxspeed":"30","profile":"car","distance":"8718.744","time":"1378.974"}},{"Shape":320,"Attributes":{"name":"Etty Hillesumstraat","highway":"residential","maxspeed":"30","profile":"car","distance":"8903.222","time":"1408.49"}},{"Shape":325,"Attributes":{"name":"Mien Sneevliet-Draaijerstraat","highway":"residential","maxspeed":"30","profile":"car","distance":"9018.122","time":"1426.874"}},{"Shape":327,"Attributes":{"name":"Willemijn Posthumusstraat","highway":"residential","maxspeed":"30","profile":"car","distance":"9034.6","time":"1429.511"}},{"Shape":329,"Attributes":{"name":"Willemijn Posthumusstraat","highway":"residential","maxspeed":"30","profile":"car","distance":"9051.077","time":"1432.147"}},{"Shape":330,"Attributes":{"name":"Maria Doorman-Kielstrastraat","highway":"residential","maxspeed":"30","profile":"car","distance":"9089.077","time":"1438.227"}},{"Shape":332,"Attributes":{"name":"Maria Doorman-Kielstrastraat","highway":"residential","maxspeed":"30","profile":"car","distance":"9113.577","time":"1442.147"}},{"Shape":333,"Attributes":{"name":"Maria Doorman-Kielstrastraat","highway":"residential","maxspeed":"30","profile":"car","distance":"9170.018","time":"1451.178"}},{"Shape":335,"Attributes":{"name":"Maria Doorman-Kielstrastraat","highway":"residential","maxspeed":"30","profile":"car","distance":"9247.177","time":"1463.523"}},{"Shape":336,"Attributes":{"name":"Maria Doorman-Kielstrastraat","highway":"residential","maxspeed":"30","profile":"car","distance":"9263.177","time":"1466.083"}},{"Shape":339,"Attributes":{"highway":"residential","maxspeed":"30","profile":"car","distance":"9335.651","time":"1477.679"}},{"Shape":342,"Attributes":{"highway":"residential","maxspeed":"30","profile":"car","distance":"9383.977","time":"1485.411"}},{"Shape":343,"Attributes":{"name":"Etty Hillesumstraat","highway":"residential","maxspeed":"30","profile":"car","distance":"9414.777","time":"1490.339"}},{"Shape":344,"Attributes":{"name":"Etty Hillesumstraat","highway":"residential","maxspeed":"30","profile":"car","distance":"9426.677","time":"1492.243"}},{"Shape":346,"Attributes":{"name":"Joke Smitlaan","maxspeed":"50","highway":"tertiary","oneway":"yes","profile":"car","distance":"9487.277","time":"1498.061"}},{"Shape":349,"Attributes":{"name":"Joke Smitlaan","maxspeed":"50","highway":"tertiary","profile":"car","distance":"9557.777","time":"1504.829"}},{"Shape":350,"Attributes":{"name":"Joke Smitlaan","maxspeed":"50","highway":"tertiary","profile":"car","distance":"9565.777","time":"1505.597"}},{"Shape":351,"Attributes":{"name":"Joke Smitlaan","maxspeed":"50","highway":"tertiary","profile":"car","distance":"9608.777","time":"1509.725"}},{"Shape":352,"Attributes":{"name":"Joke Smitlaan","maxspeed":"50","highway":"tertiary","profile":"car","distance":"9639.377","time":"1512.662"}},{"Shape":354,"Attributes":{"name":"Joke Smitlaan","maxspeed":"50","highway":"tertiary","profile":"car","distance":"9693.677","time":"1517.875"}},{"Shape":355,"Attributes":{"name":"Joke Smitlaan","maxspeed":"50","highway":"tertiary","profile":"car","distance":"9713.077","time":"1519.737"}},{"Shape":356,"Attributes":{"name":"Margaretha Roosenboomstraat","highway":"residential","profile":"car","distance":"9724.477","time":"1520.832"}},{"Shape":360,"Attributes":{"name":"Margaretha Roosenboomstraat","highway":"residential","profile":"car","distance":"9766.277","time":"1524.845"}},{"Shape":361,"Attributes":{"name":"Margaretha Roosenboomstraat","highway":"residential","profile":"car","distance":"9789.577","time":"1527.081"}},{"Shape":362,"Attributes":{"name":"Margaretha Roosenboomstraat","highway":"residential","profile":"car","distance":"9799.321","time":"1528.017"}},{"Shape":363,"Attributes":{"name":"Margaretha Roosenboomstraat","highway":"residential","profile":"car","distance":"9809.065","time":"1528.952"}},{"Shape":364,"Attributes":{"name":"Margaretha Roosenboomstraat","highway":"residential","profile":"car","distance":"9832.365","time":"1531.189"}},{"Shape":368,"Attributes":{"name":"Margaretha Roosenboomstraat","highway":"residential","profile":"car","distance":"9874.165","time":"1535.202"}},{"Shape":369,"Attributes":{"name":"Margaretha Roosenboomstraat","highway":"residential","profile":"car","distance":"9885.565","time":"1536.296"}},{"Shape":370,"Attributes":{"name":"Joke Smitlaan","maxspeed":"50","highway":"tertiary","profile":"car","distance":"9897.966","time":"1537.487"}},{"Shape":373,"Attributes":{"name":"Joke Smitlaan","maxspeed":"50","highway":"tertiary","profile":"car","distance":"9966.365","time":"1544.053"}},{"Shape":376,"Attributes":{"name":"Annie Romein-Verschoorlaan","maxspeed":"50","highway":"tertiary","profile":"car","distance":"10085.57","time":"1555.496"}},{"Shape":377,"Attributes":{"name":"Annie Romein-Verschoorlaan","maxspeed":"50","highway":"tertiary","profile":"car","distance":"10140.47","time":"1560.767"}},{"Shape":378,"Attributes":{"name":"Annie Romein-Verschoorlaan","maxspeed":"50","highway":"tertiary","profile":"car","distance":"10195.37","time":"1566.038"}},{"Shape":379,"Attributes":{"name":"Marie van Regteren Altenastraat","highway":"residential","maxspeed":"30","profile":"car","distance":"10207.87","time":"1568.038"}},{"Shape":381,"Attributes":{"name":"Margaretha Roosenboomstraat","highway":"residential","maxspeed":"30","profile":"car","distance":"10298.5","time":"1582.538"}},{"Shape":382,"Attributes":{"name":"Margaretha Roosenboomstraat","highway":"residential","maxspeed":"30","profile":"car","distance":"10350.97","time":"1590.933"}},{"Shape":383,"Attributes":{"name":"Ida Wassermanstraat","highway":"residential","maxspeed":"30","profile":"car","distance":"10454.38","time":"1607.478"}},{"Shape":384,"Attributes":{"name":"Ida Wassermanstraat","highway":"residential","maxspeed":"30","profile":"car","distance":"10557.79","time":"1624.023"}},{"Shape":385,"Attributes":{"name":"Mimi Boesnachstraat","highway":"residential","maxspeed":"30","profile":"car","distance":"10571.29","time":"1626.183"}},{"Shape":386,"Attributes":{"name":"Theo Mann-Bouwmeesterstraat","highway":"residential","maxspeed":"30","profile":"car","distance":"10584.69","time":"1628.327"}},{"Shape":387,"Attributes":{"name":"Maria Kleine-Gartmanstraat","highway":"residential","maxspeed":"30","profile":"car","distance":"10619.99","time":"1633.975"}},{"Shape":388,"Attributes":{"name":"Maria Kleine-Gartmanstraat","highway":"residential","maxspeed":"30","profile":"car","distance":"10651.59","time":"1639.031"}},{"Shape":389,"Attributes":{"name":"Maria Kleine-Gartmanstraat","highway":"residential","maxspeed":"30","profile":"car","distance":"10682.79","time":"1644.023"}},{"Shape":390,"Attributes":{"name":"Maria Kleine-Gartmanstraat","highway":"residential","maxspeed":"30","profile":"car","distance":"10684.92","time":"1644.364"}},{"Shape":391,"Attributes":{"name":"Maria Kleine-Gartmanstraat","highway":"residential","maxspeed":"30","profile":"car","distance":"10718.99","time":"1649.815"}},{"Shape":392,"Attributes":{"name":"Maria Kleine-Gartmanstraat","highway":"residential","maxspeed":"30","profile":"car","distance":"10749.19","time":"1654.647"}},{"Shape":397,"Attributes":{"name":"Maria Kleine-Gartmanstraat","highway":"residential","maxspeed":"30","profile":"car","distance":"10841.19","time":"1669.367"}},{"Shape":398,"Attributes":{"name":"Maria Kleine-Gartmanstraat","highway":"residential","maxspeed":"30","profile":"car","distance":"10888.71","time":"1676.971"}},{"Shape":399,"Attributes":{"name":"Maria Kleine-Gartmanstraat","highway":"residential","maxspeed":"30","profile":"car","distance":"10903.08","time":"1679.271"}},{"Shape":402,"Attributes":{"name":"Maria Kleine-Gartmanstraat","highway":"residential","maxspeed":"30","profile":"car","distance":"11125.01","time":"1714.78"}},{"Shape":405,"Attributes":{"name":"Maria Kleine-Gartmanstraat","highway":"residential","maxspeed":"30","profile":"car","distance":"11346.94","time":"1750.289"}},{"Shape":406,"Attributes":{"name":"Esther de Boer-van Rijkstraat","highway":"residential","maxspeed":"30","profile":"car","distance":"11378.24","time":"1755.297"}},{"Shape":407,"Attributes":{"name":"Esther de Boer-van Rijkstraat","highway":"residential","maxspeed":"30","profile":"car","distance":"11412.44","time":"1760.769"}},{"Shape":408,"Attributes":{"name":"Esther de Boer-van Rijkstraat","highway":"residential","maxspeed":"30","profile":"car","distance":"11475.74","time":"1770.897"}},{"Shape":409,"Attributes":{"name":"Josephine van Gasterenstraat","highway":"residential","maxspeed":"30","profile":"car","distance":"11542.84","time":"1781.633"}},{"Shape":410,"Attributes":{"name":"Josephine van Gasterenstraat","highway":"residential","maxspeed":"30","profile":"car","distance":"11573.34","time":"1786.513"}},{"Shape":411,"Attributes":{"name":"Corrie Vonkplantsoen","highway":"residential","maxspeed":"30","profile":"car","distance":"11577.17","time":"1787.125"}},{"Shape":413,"Attributes":{"name":"Corrie Vonkplantsoen","highway":"residential","maxspeed":"30","profile":"car","distance":"11676.25","time":"1802.977"}},{"Shape":414,"Attributes":{"name":"Theo Mann-Bouwmeesterstraat","highway":"residential","maxspeed":"30","profile":"car","distance":"11728.65","time":"1811.361"}},{"Shape":415,"Attributes":{"name":"Suze Robertsonstraat","highway":"residential","maxspeed":"30","profile":"car","distance":"11739.25","time":"1813.058"}},{"Shape":416,"Attributes":{"name":"Suze Robertsonstraat","highway":"residential","maxspeed":"30","profile":"car","distance":"11844.44","time":"1829.889"}},{"Shape":417,"Attributes":{"name":"Sientje Mesdag-van Houtenstraat","highway":"residential","maxspeed":"30","profile":"car","distance":"11878.74","time":"1835.377"}},{"Shape":419,"Attributes":{"name":"Harriët Freezerstraat","highway":"residential","maxspeed":"30","profile":"car","distance":"12000.97","time":"1854.933"}},{"Shape":421,"Attributes":{"name":"Harriët Freezerstraat","highway":"residential","maxspeed":"30","profile":"car","distance":"12123.2","time":"1874.489"}},{"Shape":422,"Attributes":{"name":"Sientje Mesdag-van Houtenstraat","highway":"residential","maxspeed":"30","profile":"car","distance":"12157.5","time":"1879.977"}},{"Shape":423,"Attributes":{"name":"Sientje Mesdag-van Houtenstraat","highway":"residential","maxspeed":"30","profile":"car","distance":"12209.7","time":"1888.329"}},{"Shape":426,"Attributes":{"name":"Sientje Mesdag-van Houtenstraat","highway":"residential","maxspeed":"30","profile":"car","distance":"12258.4","time":"1896.121"}},{"Shape":427,"Attributes":{"name":"Sientje Mesdag-van Houtenstraat","highway":"residential","maxspeed":"30","profile":"car","distance":"12271.1","time":"1898.154"}},{"Shape":430,"Attributes":{"name":"Sientje Mesdag-van Houtenstraat","highway":"residential","maxspeed":"30","profile":"car","distance":"12309.09","time":"1904.233"}},{"Shape":434,"Attributes":{"name":"Martina Kramersstraat","highway":"residential","maxspeed":"30","profile":"car","distance":"12442.45","time":"1925.571"}},{"Shape":438,"Attributes":{"name":"Martina Kramersstraat","highway":"residential","maxspeed":"30","profile":"car","distance":"12575.81","time":"1946.909"}},{"Shape":439,"Attributes":{"name":"Sientje Mesdag-van Houtenstraat","highway":"residential","maxspeed":"30","profile":"car","distance":"12622.81","time":"1954.429"}},{"Shape":440,"Attributes":{"name":"Rosa Spierstraat","highway":"residential","maxspeed":"30","profile":"car","distance":"12739.61","time":"1973.117"}},{"Shape":441,"Attributes":{"name":"Theo Mann-Bouwmeesterstraat","highway":"residential","maxspeed":"30","profile":"car","distance":"12793.01","time":"1981.661"}},{"Shape":442,"Attributes":{"name":"Top Naeffstraat","highway":"residential","maxspeed":"30","profile":"car","distance":"12808.43","time":"1984.128"}},{"Shape":443,"Attributes":{"name":"Top Naeffstraat","highway":"residential","maxspeed":"30","profile":"car","distance":"12823.85","time":"1986.595"}},{"Shape":445,"Attributes":{"name":"Theo Mann-Bouwmeesterstraat","highway":"residential","maxspeed":"30","profile":"car","distance":"12947.35","time":"2006.355"}},{"Shape":446,"Attributes":{"name":"Beb Vuykstraat","highway":"residential","maxspeed":"30","profile":"car","distance":"13017.05","time":"2017.507"}},{"Shape":447,"Attributes":{"name":"Beb Vuykstraat","highway":"residential","maxspeed":"30","profile":"car","distance":"13031.21","time":"2019.773"}},{"Shape":448,"Attributes":{"name":"Beb Vuykstraat","highway":"residential","maxspeed":"30","profile":"car","distance":"13080.55","time":"2027.667"}},{"Shape":449,"Attributes":{"name":"Maria Tesselschadestraat","highway":"residential","maxspeed":"30","profile":"car","distance":"13094.55","time":"2029.907"}},{"Shape":450,"Attributes":{"name":"Geertruida Bosboom-Toussaintlaan","maxspeed":"50","highway":"tertiary","profile":"car","distance":"13139.15","time":"2034.189"}},{"Shape":452,"Attributes":{"name":"Henriëtte Roland Holststraat","highway":"residential","maxspeed":"30","profile":"car","distance":"13162.25","time":"2037.885"}},{"Shape":458,"Attributes":{"name":"Henriëtte Roland Holststraat","highway":"residential","maxspeed":"30","profile":"car","distance":"13290.55","time":"2058.413"}},{"Shape":460,"Attributes":{"name":"Lange Groeneweg","highway":"residential","maxspeed":"30","profile":"car","distance":"13462.53","time":"2085.93"}},{"Shape":462,"Attributes":{"name":"Lange Groeneweg","highway":"residential","maxspeed":"30","profile":"car","distance":"13634.51","time":"2113.447"}},{"Shape":465,"Attributes":{"name":"Henriëtte Roland Holststraat","highway":"residential","maxspeed":"30","profile":"car","distance":"13690.49","time":"2122.404"}},{"Shape":469,"Attributes":{"name":"Henriëtte Roland Holststraat","highway":"residential","maxspeed":"30","profile":"car","distance":"13762.81","time":"2133.975"}},{"Shape":471,"Attributes":{"name":"Henriëtte Roland Holststraat","highway":"residential","maxspeed":"30","profile":"car","distance":"13785.91","time":"2137.671"}},{"Shape":472,"Attributes":{"name":"Geertruida Bosboom-Toussaintlaan","maxspeed":"50","highway":"tertiary","profile":"car","distance":"13830.51","time":"2141.953"}},{"Shape":473,"Attributes":{"name":"Geertruida Bosboom-Toussaintlaan","maxspeed":"50","highway":"tertiary","profile":"car","distance":"13894.5","time":"2148.096"}},{"Shape":474,"Attributes":{"name":"Geertruida Bosboom-Toussaintlaan","maxspeed":"50","highway":"tertiary","profile":"car","distance":"13963.61","time":"2154.731"}},{"Shape":475,"Attributes":{"name":"Theo Mann-Bouwmeesterstraat","highway":"residential","maxspeed":"30","profile":"car","distance":"13978.51","time":"2157.115"}},{"Shape":476,"Attributes":{"name":"Else van der Banstraat","highway":"residential","maxspeed":"30","profile":"car","distance":"14026.63","time":"2164.814"}},{"Shape":477,"Attributes":{"name":"Else van der Banstraat","highway":"residential","maxspeed":"30","profile":"car","distance":"14074.75","time":"2172.513"}},{"Shape":478,"Attributes":{"name":"Theo Mann-Bouwmeesterstraat","highway":"residential","maxspeed":"30","profile":"car","distance":"14089.65","time":"2174.897"}},{"Shape":479,"Attributes":{"name":"Theo Mann-Bouwmeesterstraat","highway":"residential","maxspeed":"30","profile":"car","distance":"14105.25","time":"2177.393"}},{"Shape":480,"Attributes":{"name":"Beb Vuykstraat","highway":"residential","maxspeed":"30","profile":"car","distance":"14166.75","time":"2187.233"}},{"Shape":481,"Attributes":{"name":"Beb Vuykstraat","highway":"residential","maxspeed":"30","profile":"car","distance":"14227.98","time":"2197.029"}},{"Shape":482,"Attributes":{"name":"Beb Vuykstraat","highway":"residential","maxspeed":"30","profile":"car","distance":"14230.55","time":"2197.44"}},{"Shape":483,"Attributes":{"name":"Sientje Mesdag-van Houtenstraat","highway":"residential","maxspeed":"30","profile":"car","distance":"14245.35","time":"2199.808"}},{"Shape":484,"Attributes":{"name":"Sientje Mesdag-van Houtenstraat","highway":"residential","maxspeed":"30","profile":"car","distance":"14260.75","time":"2202.272"}},{"Shape":485,"Attributes":{"name":"Else van der Banstraat","highway":"residential","maxspeed":"30","profile":"car","distance":"14320.55","time":"2211.84"}},{"Shape":486,"Attributes":{"name":"Else van der Banstraat","highway":"residential","maxspeed":"30","profile":"car","distance":"14326.17","time":"2212.739"}},{"Shape":487,"Attributes":{"name":"Else van der Banstraat","highway":"residential","maxspeed":"30","profile":"car","distance":"14374.75","time":"2220.512"}},{"Shape":488,"Attributes":{"name":"Truus Schröderstraat","highway":"unclassified","maxspeed":"30","profile":"car","distance":"14389.05","time":"2222.8"}},{"Shape":490,"Attributes":{"name":"Geertruida Bosboom-Toussaintlaan","maxspeed":"50","highway":"tertiary","profile":"car","distance":"14498.95","time":"2233.351"}},{"Shape":491,"Attributes":{"name":"Belle van Zuylenstraat","highway":"residential","maxspeed":"30","profile":"car","distance":"14514.05","time":"2235.767"}},{"Shape":492,"Attributes":{"name":"Else van der Banstraat","highway":"residential","maxspeed":"30","profile":"car","distance":"14569.45","time":"2244.631"}},{"Shape":493,"Attributes":{"name":"Else van der Banstraat","highway":"residential","maxspeed":"30","profile":"car","distance":"14584.31","time":"2247.008"}},{"Shape":494,"Attributes":{"name":"Else van der Banstraat","highway":"residential","maxspeed":"30","profile":"car","distance":"14640.75","time":"2256.039"}},{"Shape":495,"Attributes":{"name":"Else van der Banstraat","highway":"residential","maxspeed":"30","profile":"car","distance":"14713.65","time":"2267.703"}},{"Shape":496,"Attributes":{"name":"Hélène Swarthstraat","highway":"residential","maxspeed":"30","profile":"car","distance":"14722.47","time":"2269.115"}},{"Shape":497,"Attributes":{"name":"Hélène Swarthstraat","highway":"residential","maxspeed":"30","profile":"car","distance":"14731.29","time":"2270.527"}},{"Shape":498,"Attributes":{"name":"Else van der Banstraat","highway":"residential","maxspeed":"30","profile":"car","distance":"14804.19","time":"2282.191"}},{"Shape":499,"Attributes":{"name":"Else van der Banstraat","highway":"residential","maxspeed":"30","profile":"car","distance":"14875.49","time":"2293.599"}},{"Shape":500,"Attributes":{"name":"Else van der Banstraat","highway":"residential","maxspeed":"30","profile":"car","distance":"14930.89","time":"2302.463"}},{"Shape":501,"Attributes":{"name":"Belle van Zuylenstraat","highway":"residential","maxspeed":"30","profile":"car","distance":"14945.99","time":"2304.879"}},{"Shape":502,"Attributes":{"name":"Belle van Zuylenstraat","highway":"residential","maxspeed":"30","profile":"car","distance":"14960.79","time":"2307.247"}},{"Shape":503,"Attributes":{"name":"Beb Vuykstraat","highway":"residential","maxspeed":"30","profile":"car","distance":"14964.34","time":"2307.814"}},{"Shape":504,"Attributes":{"name":"Beb Vuykstraat","highway":"residential","maxspeed":"30","profile":"car","distance":"15020.59","time":"2316.815"}},{"Shape":505,"Attributes":{"name":"Beb Vuykstraat","highway":"residential","maxspeed":"30","profile":"car","distance":"15093.49","time":"2328.479"}},{"Shape":506,"Attributes":{"name":"Beb Vuykstraat","highway":"residential","maxspeed":"30","profile":"car","distance":"15165.59","time":"2340.015"}},{"Shape":507,"Attributes":{"name":"Beb Vuykstraat","highway":"residential","maxspeed":"30","profile":"car","distance":"15168.71","time":"2340.513"}},{"Shape":508,"Attributes":{"name":"Beb Vuykstraat","highway":"residential","maxspeed":"30","profile":"car","distance":"15171.82","time":"2341.011"}},{"Shape":511,"Attributes":{"name":"Anke Servaesstraat","highway":"residential","maxspeed":"30","profile":"car","distance":"15266.22","time":"2356.115"}},{"Shape":512,"Attributes":{"name":"Anke Servaesstraat","highway":"residential","maxspeed":"30","profile":"car","distance":"15312.82","time":"2363.571"}},{"Shape":513,"Attributes":{"name":"Madelon Lulofsstraat","highway":"residential","maxspeed":"30","profile":"car","distance":"15365.75","time":"2372.04"}},{"Shape":514,"Attributes":{"name":"Madelon Lulofsstraat","highway":"residential","maxspeed":"30","profile":"car","distance":"15418.68","time":"2380.509"}},{"Shape":515,"Attributes":{"name":"Marie van Zeggelenstraat","highway":"residential","maxspeed":"30","profile":"car","distance":"15476.78","time":"2389.805"}},{"Shape":516,"Attributes":{"name":"Marie van Zeggelenstraat","highway":"residential","maxspeed":"30","profile":"car","distance":"15487.45","time":"2391.512"}},{"Shape":518,"Attributes":{"name":"Marie van Zeggelenstraat","highway":"residential","maxspeed":"30","profile":"car","distance":"15575.18","time":"2405.548"}},{"Shape":519,"Attributes":{"name":"Lucretia van Merkenstraat","highway":"residential","maxspeed":"30","profile":"car","distance":"15647.38","time":"2417.1"}},{"Shape":520,"Attributes":{"name":"Lucretia van Merkenstraat","highway":"residential","maxspeed":"30","profile":"car","distance":"15725.68","time":"2429.628"}},{"Shape":523,"Attributes":{"name":"Henriëtte van der Meijstraat","highway":"residential","maxspeed":"30","profile":"car","distance":"15756.64","time":"2434.583"}},{"Shape":525,"Attributes":{"name":"Henriëtte van der Meijstraat","highway":"residential","maxspeed":"30","profile":"car","distance":"15946.07","time":"2464.892"}},{"Shape":526,"Attributes":{"name":"Sientje Mesdag-van Houtenstraat","highway":"residential","maxspeed":"30","profile":"car","distance":"15949.94","time":"2465.512"}},{"Shape":527,"Attributes":{"name":"Sientje Mesdag-van Houtenstraat","highway":"residential","maxspeed":"30","profile":"car","distance":"15973.87","time":"2469.341"}},{"Shape":528,"Attributes":{"name":"Lizzy Ansinghstraat","highway":"unclassified","maxspeed":"30","profile":"car","distance":"16011.37","time":"2475.341"}},{"Shape":529,"Attributes":{"name":"Lizzy Ansinghstraat","highway":"unclassified","maxspeed":"30","profile":"car","distance":"16028.07","time":"2478.012"}},{"Shape":531,"Attributes":{"name":"Lizzy Ansinghstraat","highway":"unclassified","maxspeed":"30","profile":"car","distance":"16061.59","time":"2483.376"}}],"Stops":[{"Shape":0,"Coordinates":[4.3629,51.8352],"Attributes":{"index":"140","distance":"0","time":"0"}},{"Shape":15,"Coordinates":[4.362908,51.83392],"Attributes":{"index":"136","distance":"390.3596","time":"49.78554"}},{"Shape":30,"Coordinates":[4.36006,51.83444],"Attributes":{"index":"123","distance":"702.4756","time":"82.83449"}},{"Shape":38,"Coordinates":[4.3588,51.8358],"Attributes":{"index":"122","distance":"917.2955","time":"117.2057"}},{"Shape":38,"Coordinates":[4.3588,51.8358],"Attributes":{"index":"121","distance":"917.2955","time":"117.2057"}},{"Shape":44,"Coordinates":[4.3576,51.8369],"Attributes":{"index":"120","distance":"1085.044","time":"144.0454"}},{"Shape":48,"Coordinates":[4.3593,51.8369],"Attributes":{"index":"119","distance":"1201.88","time":"162.7391"}},{"Shape":54,"Coordinates":[4.3595,51.8387],"Attributes":{"index":"118","distance":"1405.201","time":"195.2704"}},{"Shape":60,"Coordinates":[4.3567,51.838],"Attributes":{"index":"117","distance":"1657.261","time":"235.6"}},{"Shape":99,"Coordinates":[4.353333,51.84256],"Attributes":{"index":"108","distance":"2850.389","time":"376.4844"}},{"Shape":107,"Coordinates":[4.355694,51.84275],"Attributes":{"index":"107","distance":"3063.61","time":"410.5998"}},{"Shape":107,"Coordinates":[4.355693,51.84278],"Attributes":{"index":"106","distance":"3063.61","time":"410.5998"}},{"Shape":111,"Coordinates":[4.3559,51.84351],"Attributes":{"index":"105","distance":"3177.558","time":"428.8315"}},{"Shape":116,"Coordinates":[4.353826,51.84376],"Attributes":{"index":"104","distance":"3397.298","time":"463.9899"}},{"Shape":123,"Coordinates":[4.352472,51.84325],"Attributes":{"index":"109","distance":"3606.561","time":"497.472"}},{"Shape":130,"Coordinates":[4.3515,51.84336],"Attributes":{"index":"110","distance":"3847.32","time":"530.2018"}},{"Shape":135,"Coordinates":[4.351015,51.84405],"Attributes":{"index":"103","distance":"3975.834","time":"544.9725"}},{"Shape":139,"Coordinates":[4.350248,51.84405],"Attributes":{"index":"102","distance":"4028.474","time":"551.5926"}},{"Shape":144,"Coordinates":[4.349528,51.84339],"Attributes":{"index":"101","distance":"4155.7","time":"568.9382"}},{"Shape":152,"Coordinates":[4.348139,51.84475],"Attributes":{"index":"99","distance":"4363.802","time":"594.0479"}},{"Shape":160,"Coordinates":[4.347083,51.84364],"Attributes":{"index":"100","distance":"4546.546","time":"611.5913"}},{"Shape":197,"Coordinates":[4.349341,51.84015],"Attributes":{"index":"111","distance":"5112.74","time":"765.2385"}},{"Shape":225,"Coordinates":[4.3558,51.8385],"Attributes":{"index":"112","distance":"5880.671","time":"940.5826"}},{"Shape":228,"Coordinates":[4.3552,51.8374],"Attributes":{"index":"116","distance":"6012.091","time":"961.6098"}},{"Shape":237,"Coordinates":[4.3535,51.839],"Attributes":{"index":"115","distance":"6281.024","time":"1004.639"}},{"Shape":248,"Coordinates":[4.3535,51.8379],"Attributes":{"index":"113","distance":"6514.072","time":"1041.927"}},{"Shape":249,"Coordinates":[4.3534,51.8379],"Attributes":{"index":"114","distance":"6520.887","time":"1043.017"}},{"Shape":256,"Coordinates":[4.3527,51.8362],"Attributes":{"index":"132","distance":"6810.92","time":"1089.422"}},{"Shape":260,"Coordinates":[4.3546,51.8356],"Attributes":{"index":"131","distance":"7010.336","time":"1121.329"}},{"Shape":265,"Coordinates":[4.35533,51.83625],"Attributes":{"index":"133","distance":"7148.367","time":"1143.414"}},{"Shape":280,"Coordinates":[4.3593,51.834],"Attributes":{"index":"124","distance":"7555.939","time":"1192.926"}},{"Shape":284,"Coordinates":[4.3575,51.83281],"Attributes":{"index":"125","distance":"7804.389","time":"1232.678"}},{"Shape":293,"Coordinates":[4.3565,51.8323],"Attributes":{"index":"126","distance":"8050.311","time":"1272.025"}},{"Shape":299,"Coordinates":[4.3582,51.8318],"Attributes":{"index":"127","distance":"8225.556","time":"1300.064"}},{"Shape":316,"Coordinates":[4.3541,51.8314],"Attributes":{"index":"128","distance":"8718.744","time":"1378.974"}},{"Shape":327,"Coordinates":[4.3536,51.8334],"Attributes":{"index":"129","distance":"9034.6","time":"1429.511"}},{"Shape":333,"Coordinates":[4.35483,51.83439],"Attributes":{"index":"130","distance":"9170.018","time":"1451.178"}},{"Shape":339,"Coordinates":[4.3565,51.8346],"Attributes":{"index":"134","distance":"9335.651","time":"1477.679"}},{"Shape":362,"Coordinates":[4.36169,51.83494],"Attributes":{"index":"135","distance":"9799.321","time":"1528.017"}},{"Shape":377,"Coordinates":[4.3622,51.8361],"Attributes":{"index":"137","distance":"10140.47","time":"1560.767"}},{"Shape":381,"Coordinates":[4.362184,51.8364],"Attributes":{"index":"139","distance":"10298.5","time":"1582.538"}},{"Shape":383,"Coordinates":[4.3624,51.8378],"Attributes":{"index":"138","distance":"10454.38","time":"1607.478"}},{"Shape":390,"Coordinates":[4.36272,51.83775],"Attributes":{"index":"157","distance":"10684.92","time":"1644.364"}},{"Shape":398,"Coordinates":[4.3645,51.8389],"Attributes":{"index":"156","distance":"10888.71","time":"1676.971"}},{"Shape":402,"Coordinates":[4.3679,51.839],"Attributes":{"index":"155","distance":"11125.01","time":"1714.78"}},{"Shape":411,"Coordinates":[4.366,51.8376],"Attributes":{"index":"158","distance":"11577.17","time":"1787.125"}},{"Shape":415,"Coordinates":[4.3652,51.8366],"Attributes":{"index":"159","distance":"11739.25","time":"1813.058"}},{"Shape":419,"Coordinates":[4.3648,51.8346],"Attributes":{"index":"142","distance":"12000.97","time":"1854.933"}},{"Shape":427,"Coordinates":[4.3666,51.8359],"Attributes":{"index":"160","distance":"12271.1","time":"1898.154"}},{"Shape":434,"Coordinates":[4.3681,51.8348],"Attributes":{"index":"161","distance":"12442.45","time":"1925.571"}},{"Shape":442,"Coordinates":[4.3684,51.837],"Attributes":{"index":"154","distance":"12808.43","time":"1984.128"}},{"Shape":447,"Coordinates":[4.3699,51.8377],"Attributes":{"index":"151","distance":"13031.21","time":"2019.773"}},{"Shape":460,"Coordinates":[4.3725,51.8371],"Attributes":{"index":"164","distance":"13462.53","time":"2085.93"}},{"Shape":465,"Coordinates":[4.3713,51.8388],"Attributes":{"index":"163","distance":"13690.49","time":"2122.404"}},{"Shape":473,"Coordinates":[4.3702,51.8376],"Attributes":{"index":"162","distance":"13894.5","time":"2148.096"}},{"Shape":476,"Coordinates":[4.370707,51.83658],"Attributes":{"index":"152","distance":"14026.63","time":"2164.814"}},{"Shape":481,"Coordinates":[4.3705,51.8359],"Attributes":{"index":"153","distance":"14227.98","time":"2197.029"}},{"Shape":486,"Coordinates":[4.37083,51.83531],"Attributes":{"index":"150","distance":"14326.17","time":"2212.739"}},{"Shape":493,"Coordinates":[4.36933,51.83347],"Attributes":{"index":"148","distance":"14584.31","time":"2247.008"}},{"Shape":496,"Coordinates":[4.3683,51.8325],"Attributes":{"index":"149","distance":"14722.47","time":"2269.115"}},{"Shape":503,"Coordinates":[4.36964,51.83403],"Attributes":{"index":"147","distance":"14964.34","time":"2307.814"}},{"Shape":507,"Coordinates":[4.3678,51.8326],"Attributes":{"index":"146","distance":"15168.71","time":"2340.513"}},{"Shape":513,"Coordinates":[4.3676,51.8338],"Attributes":{"index":"145","distance":"15365.75","time":"2372.04"}},{"Shape":516,"Coordinates":[4.3661,51.8336],"Attributes":{"index":"144","distance":"15487.45","time":"2391.512"}},{"Shape":523,"Coordinates":[4.36365,51.83393],"Attributes":{"index":"143","distance":"15756.64","time":"2434.583"}},{"Shape":526,"Coordinates":[4.3637,51.8356],"Attributes":{"index":"141","distance":"15949.94","time":"2465.512"}},{"Shape":531,"Coordinates":[4.3629,51.8352],"Attributes":{"index":"140","distance":"16061.59","time":"2483.376"}}],"Branches":[{"Shape":3,"Coordinates":[4.362867,51.83527],"Attributes":{"name":"Lizzy Ansinghstraat","highway":"unclassified","maxspeed":"30"}},{"Shape":4,"Coordinates":[4.363756,51.83563],"Attributes":{"name":"Sientje Mesdag-van Houtenstraat","highway":"residential","maxspeed":"30"}},{"Shape":5,"Coordinates":[4.362482,51.83507],"Attributes":{"name":"Lizzy Ansinghstraat","highway":"residential","maxspeed":"30"}},{"Shape":5,"Coordinates":[4.362459,51.83624],"Attributes":{"name":"Lizzy Ansinghstraat","highway":"residential","maxspeed":"30"}},{"Shape":6,"Coordinates":[4.362,51.83559],"Attributes":{"name":"Marie van Regteren Altenastraat","highway":"residential","maxspeed":"30"}},{"Shape":6,"Coordinates":[4.362269,51.83624],"Attributes":{"name":"Annie Romein-Verschoorlaan","maxspeed":"50","highway":"tertiary"}},{"Shape":9,"Coordinates":[4.362263,51.83449],"Attributes":{"name":"Joke Smitlaan","maxspeed":"50","highway":"tertiary"}},{"Shape":12,"Coordinates":[4.363766,51.83361],"Attributes":{"name":"Annie Romein-Verschoorlaan","maxspeed":"50","highway":"tertiary"}},{"Shape":14,"Coordinates":[4.362726,51.83382],"Attributes":{"name":"Ida Gerhardtplein","highway":"service"}},{"Shape":14,"Coordinates":[4.363036,51.83369],"Attributes":{"name":"Ida Gerhardtplein","highway":"service"}},{"Shape":16,"Coordinates":[4.363036,51.83369],"Attributes":{"name":"Ida Gerhardtplein","highway":"service"}},{"Shape":18,"Coordinates":[4.363766,51.83361],"Attributes":{"name":"Annie Romein-Verschoorlaan","maxspeed":"50","highway":"tertiary"}},{"Shape":21,"Coordinates":[4.362295,51.83504],"Attributes":{"name":"Annie Romein-Verschoorlaan","maxspeed":"50","highway":"tertiary"}},{"Shape":25,"Coordinates":[4.361445,51.8344],"Attributes":{"name":"Margaretha Roosenboomstraat","highway":"residential"}},{"Shape":26,"Coordinates":[4.361255,51.83418],"Attributes":{"name":"Hadewychplaats","highway":"service"}},{"Shape":28,"Coordinates":[4.36026,51.83197],"Attributes":{"name":"Drogendijk","highway":"unclassified","maxspeed":"30"}},{"Shape":28,"Coordinates":[4.360504,51.83558],"Attributes":{"name":"Drogendijk","highway":"unclassified","maxspeed":"30"}},{"Shape":29,"Coordinates":[4.359956,51.83451],"Attributes":{"name":"Clara Visserstraat","highway":"residential","maxspeed":"30"}},{"Shape":29,"Coordinates":[4.359355,51.83421],"Attributes":{"name":"Joke Smitlaan","maxspeed":"50","highway":"tertiary"}},{"Shape":36,"Coordinates":[4.359009,51.83457],"Attributes":{"name":"Annie Mankes-Zernikestraat","highway":"residential","maxspeed":"30"}},{"Shape":37,"Coordinates":[4.358304,51.83594],"Attributes":{"name":"Wilhelmina Bladergroenstraat","highway":"residential","maxspeed":"30"}},{"Shape":37,"Coordinates":[4.358029,51.83479],"Attributes":{"name":"Anna Storm-van der Chijsstraat","highway":"residential","maxspeed":"30"}},{"Shape":40,"Coordinates":[4.356453,51.83565],"Attributes":{"name":"Johanna Westerdijkstraat","highway":"residential","maxspeed":"30"}},{"Shape":41,"Coordinates":[4.356021,51.83622],"Attributes":{"name":"Lau Mazirelstraat","highway":"residential","maxspeed":"30"}},{"Shape":43,"Coordinates":[4.357479,51.83744],"Attributes":{"name":"Wilhelmina Bladergroenstraat","highway":"residential","maxspeed":"30"}},{"Shape":43,"Coordinates":[4.358421,51.83695],"Attributes":{"name":"Maria Rutgers-Hoitsemastraat","highway":"residential","maxspeed":"30"}},{"Shape":45,"Coordinates":[4.358305,51.83854],"Attributes":{"name":"Mary Zeldenrust-Noordanusstraat","highway":"residential","maxspeed":"30"}},{"Shape":45,"Coordinates":[4.358706,51.83696],"Attributes":{"name":"Maria Rutgers-Hoitsemastraat","highway":"residential","maxspeed":"30"}},{"Shape":49,"Coordinates":[4.360314,51.83701],"Attributes":{"name":"Maria Rutgers-Hoitsemastraat","highway":"residential","maxspeed":"30"}},{"Shape":50,"Coordinates":[4.360465,51.83755],"Attributes":{"name":"Liesbeth Tilanusstraat","highway":"residential","maxspeed":"30"}},{"Shape":51,"Coordinates":[4.36062,51.83812],"Attributes":{"name":"Cornelia de Langestraat","highway":"residential","maxspeed":"30"}},{"Shape":52,"Coordinates":[4.358305,51.83854],"Attributes":{"name":"Aletta Jacobsstraat","highway":"residential","maxspeed":"30"}},{"Shape":52,"Coordinates":[4.359298,51.83863],"Attributes":{"name":"Aletta Jacobsstraat","highway":"residential","maxspeed":"30"}},{"Shape":56,"Coordinates":[4.359249,51.83808],"Attributes":{"name":"Hélène Mercierstraat","highway":"residential","maxspeed":"30"}},{"Shape":57,"Coordinates":[4.358421,51.83695],"Attributes":{"name":"Mary Zeldenrust-Noordanusstraat","highway":"residential","maxspeed":"30"}},{"Shape":58,"Coordinates":[4.356521,51.83856],"Attributes":{"name":"Aletta Jacobsstraat","highway":"residential","maxspeed":"30"}},{"Shape":59,"Coordinates":[4.357479,51.83744],"Attributes":{"name":"Wilhelmina Bladergroenstraat","highway":"residential","maxspeed":"30"}},{"Shape":59,"Coordinates":[4.356625,51.83799],"Attributes":{"name":"Catharina van Tussenbroekstraat","highway":"residential","maxspeed":"30"}},{"Shape":61,"Coordinates":[4.357479,51.83744],"Attributes":{"name":"Wilhelmina Bladergroenstraat","highway":"residential","maxspeed":"30"}},{"Shape":62,"Coordinates":[4.358305,51.83854],"Attributes":{"name":"Aletta Jacobsstraat","highway":"residential","maxspeed":"30"}},{"Shape":66,"Coordinates":[4.355865,51.83872],"Attributes":{"name":"Marga Klompéstraat","highway":"residential","maxspeed":"30"}},{"Shape":66,"Coordinates":[4.355722,51.83817],"Attributes":{"name":"Joke Smitlaan","maxspeed":"50","highway":"tertiary"}},{"Shape":67,"Coordinates":[4.356528,51.83948],"Attributes":{"name":"Joke Smitlaan","maxspeed":"50","highway":"tertiary","oneway":"yes"}},{"Shape":70,"Coordinates":[4.356627,51.8395],"Attributes":{"name":"Maaswijkweg","maxspeed":"50","highway":"tertiary","junction":"roundabout"}},{"Shape":72,"Coordinates":[4.35768,51.83932],"Attributes":{"name":"Maaswijkweg","maxspeed":"50","highway":"tertiary","oneway":"yes"}},{"Shape":75,"Coordinates":[4.358794,51.83924],"Attributes":{"name":"Maaswijkweg","maxspeed":"50","highway":"tertiary","oneway":"yes"}},{"Shape":81,"Coordinates":[4.356475,51.83973],"Attributes":{"name":"Maaswijkweg","maxspeed":"50","highway":"tertiary","junction":"roundabout"}},{"Shape":82,"Coordinates":[4.35493,51.84024],"Attributes":{"highway":"service"}},{"Shape":85,"Coordinates":[4.350117,51.84124],"Attributes":{"name":"Maaswijkweg","maxspeed":"50","highway":"tertiary","junction":"roundabout"}},{"Shape":88,"Coordinates":[4.35,51.84155],"Attributes":{"name":"Maaswijkweg","maxspeed":"50","highway":"tertiary","junction":"roundabout"}},{"Shape":91,"Coordinates":[4.350018,51.84171],"Attributes":{"name":"Rivierlaan","highway":"unclassified","maxspeed":"50","oneway":"yes"}},{"Shape":92,"Coordinates":[4.348724,51.84186],"Attributes":{"highway":"service"}},{"Shape":92,"Coordinates":[4.350286,51.84183],"Attributes":{"highway":"service"}},{"Shape":93,"Coordinates":[4.35025,51.84265],"Attributes":{"name":"Amazonestraat","highway":"residential"}},{"Shape":93,"Coordinates":[4.350522,51.84336],"Attributes":{"name":"Rivierlaan","highway":"unclassified","maxspeed":"50"}},{"Shape":95,"Coordinates":[4.351385,51.84277],"Attributes":{"name":"Eufraatstraat","highway":"residential"}},{"Shape":97,"Coordinates":[4.352984,51.84244],"Attributes":{"name":"Indusstraat","highway":"residential","maxspeed":"30"}},{"Shape":97,"Coordinates":[4.352435,51.8427],"Attributes":{"name":"Tigrisstraat","highway":"residential","maxspeed":"30"}},{"Shape":100,"Coordinates":[4.352971,51.8434],"Attributes":{"name":"Jordaanstraat","highway":"residential","maxspeed":"30"}},{"Shape":102,"Coordinates":[4.353421,51.84358],"Attributes":{"name":"Tamarstraat","highway":"residential","maxspeed":"30"}},{"Shape":102,"Coordinates":[4.354899,51.84327],"Attributes":{"name":"Indusstraat","highway":"residential","maxspeed":"30"}},{"Shape":106,"Coordinates":[4.356381,51.84263],"Attributes":{"name":"Nijlstraat","highway":"residential","maxspeed":"30"}},{"Shape":106,"Coordinates":[4.355771,51.84275],"Attributes":{"name":"Kongostraat","highway":"residential","maxspeed":"30"}},{"Shape":109,"Coordinates":[4.356347,51.8434],"Attributes":{"name":"Kongostraat","highway":"residential","maxspeed":"30"}},{"Shape":110,"Coordinates":[4.355895,51.84354],"Attributes":{"name":"Gambiastraat","highway":"residential","maxspeed":"30"}},{"Shape":110,"Coordinates":[4.354899,51.84327],"Attributes":{"name":"Zambezistraat","highway":"residential","maxspeed":"30"}},{"Shape":112,"Coordinates":[4.3559,51.8429],"Attributes":{"name":"Zambezistraat","highway":"residential","maxspeed":"30"}},{"Shape":113,"Coordinates":[4.354433,51.84291],"Attributes":{"name":"Indusstraat","highway":"residential","maxspeed":"30"}},{"Shape":114,"Coordinates":[4.354635,51.84359],"Attributes":{"name":"Mekongstraat","highway":"residential","maxspeed":"30"}},{"Shape":114,"Coordinates":[4.3553,51.84374],"Attributes":{"name":"Indusstraat","highway":"residential","maxspeed":"30"}},{"Shape":118,"Coordinates":[4.352939,51.84451],"Attributes":{"name":"Gangesstraat","highway":"residential","maxspeed":"30"}},{"Shape":121,"Coordinates":[4.351998,51.84408],"Attributes":{"name":"Gangesstraat","highway":"residential","maxspeed":"30"}},{"Shape":121,"Coordinates":[4.352435,51.8427],"Attributes":{"name":"Tigrisstraat","highway":"residential","maxspeed":"30"}},{"Shape":125,"Coordinates":[4.352471,51.84408],"Attributes":{"name":"Gangesstraat","highway":"residential","maxspeed":"30"}},{"Shape":126,"Coordinates":[4.351997,51.84428],"Attributes":{"name":"Lenastraat","highway":"residential","maxspeed":"30"}},{"Shape":127,"Coordinates":[4.351089,51.8441],"Attributes":{"name":"Gangesstraat","highway":"residential","maxspeed":"30"}},{"Shape":129,"Coordinates":[4.351385,51.84277],"Attributes":{"name":"Eufraatstraat","highway":"residential"}},{"Shape":129,"Coordinates":[4.351089,51.84334],"Attributes":{"highway":"residential"}},{"Shape":131,"Coordinates":[4.351385,51.84277],"Attributes":{"name":"Eufraatstraat","highway":"residential"}},{"Shape":133,"Coordinates":[4.351089,51.8441],"Attributes":{"name":"Gangesstraat","highway":"residential","maxspeed":"30"}},{"Shape":133,"Coordinates":[4.351998,51.84408],"Attributes":{"name":"Gangesstraat","highway":"residential","maxspeed":"30"}},{"Shape":137,"Coordinates":[4.350013,51.8441],"Attributes":{"name":"Coloradostraat","highway":"residential"}},{"Shape":137,"Coordinates":[4.350522,51.84336],"Attributes":{"name":"Rivierlaan","highway":"unclassified","maxspeed":"50"}},{"Shape":137,"Coordinates":[4.350538,51.84435],"Attributes":{"name":"Rivierlaan","highway":"unclassified","maxspeed":"50"}},{"Shape":141,"Coordinates":[4.3491,51.8441],"Attributes":{"name":"Coloradostraat","highway":"residential"}},{"Shape":141,"Coordinates":[4.349442,51.84301],"Attributes":{"name":"Columbiastraat","highway":"residential","maxspeed":"30"}},{"Shape":147,"Coordinates":[4.350013,51.8441],"Attributes":{"name":"Coloradostraat","highway":"residential"}},{"Shape":149,"Coordinates":[4.347736,51.84357],"Attributes":{"name":"Yukonstraat","highway":"residential","maxspeed":"30"}},{"Shape":151,"Coordinates":[4.348057,51.84476],"Attributes":{"name":"Coloradostraat","highway":"residential"}},{"Shape":151,"Coordinates":[4.347808,51.84441],"Attributes":{"name":"Rio Grandestraat","highway":"residential"}},{"Shape":153,"Coordinates":[4.348561,51.84444],"Attributes":{"name":"Coloradostraat","highway":"residential"}},{"Shape":154,"Coordinates":[4.347632,51.84451],"Attributes":{"name":"Hudsonpad","highway":"residential"}},{"Shape":159,"Coordinates":[4.3471,51.84357],"Attributes":{"name":"Amazonestraat","highway":"residential"}},{"Shape":159,"Coordinates":[4.346416,51.84397],"Attributes":{"name":"Amazonestraat","highway":"residential"}},{"Shape":162,"Coordinates":[4.347736,51.84357],"Attributes":{"name":"Yukonstraat","highway":"residential","maxspeed":"30"}},{"Shape":165,"Coordinates":[4.347898,51.8428],"Attributes":{"highway":"residential"}},{"Shape":169,"Coordinates":[4.349442,51.84301],"Attributes":{"name":"Columbiastraat","highway":"residential","maxspeed":"30"}},{"Shape":172,"Coordinates":[4.3505,51.84262],"Attributes":{"name":"Indusstraat","highway":"residential","maxspeed":"30"}},{"Shape":172,"Coordinates":[4.350522,51.84336],"Attributes":{"name":"Rivierlaan","highway":"unclassified","maxspeed":"50"}},{"Shape":173,"Coordinates":[4.348724,51.84186],"Attributes":{"highway":"service"}},{"Shape":173,"Coordinates":[4.350286,51.84183],"Attributes":{"highway":"service"}},{"Shape":174,"Coordinates":[4.350068,51.8416],"Attributes":{"highway":"unclassified","maxspeed":"50","oneway":"yes"}},{"Shape":177,"Coordinates":[4.35,51.84155],"Attributes":{"name":"Maaswijkweg","maxspeed":"50","highway":"tertiary","junction":"roundabout"}},{"Shape":179,"Coordinates":[4.349615,51.84154],"Attributes":{"name":"Maaswijkweg","maxspeed":"50","highway":"tertiary","oneway":"yes"}},{"Shape":183,"Coordinates":[4.348705,51.84158],"Attributes":{"name":"Maaswijkweg","maxspeed":"50","highway":"tertiary","oneway":"yes"}},{"Shape":186,"Coordinates":[4.349833,51.84121],"Attributes":{"name":"Maaswijkweg","maxspeed":"50","highway":"tertiary","junction":"roundabout"}},{"Shape":187,"Coordinates":[4.349949,51.8412],"Attributes":{"name":"Hürthstraat","highway":"unclassified","oneway":"yes"}},{"Shape":188,"Coordinates":[4.349835,51.84094],"Attributes":{"name":"Hürthstraat","highway":"living_street"}},{"Shape":189,"Coordinates":[4.349546,51.84083],"Attributes":{"name":"Thetfordstraat","highway":"living_street"}},{"Shape":191,"Coordinates":[4.349468,51.84029],"Attributes":{"name":"Hürthstraat","highway":"living_street"}},{"Shape":192,"Coordinates":[4.349247,51.84026],"Attributes":{"name":"Hürthstraat","highway":"living_street"}},{"Shape":203,"Coordinates":[4.349468,51.84029],"Attributes":{"name":"Hürthstraat","highway":"living_street"}},{"Shape":205,"Coordinates":[4.349546,51.84083],"Attributes":{"name":"Thetfordstraat","highway":"living_street"}},{"Shape":206,"Coordinates":[4.349835,51.84094],"Attributes":{"name":"Hürthstraat","highway":"living_street"}},{"Shape":207,"Coordinates":[4.349779,51.84123],"Attributes":{"highway":"unclassified","oneway":"yes"}},{"Shape":208,"Coordinates":[4.349833,51.84121],"Attributes":{"name":"Maaswijkweg","maxspeed":"50","highway":"tertiary","junction":"roundabout"}},{"Shape":210,"Coordinates":[4.350117,51.84124],"Attributes":{"name":"Maaswijkweg","maxspeed":"50","highway":"tertiary","junction":"roundabout"}},{"Shape":216,"Coordinates":[4.356475,51.83973],"Attributes":{"name":"Maaswijkweg","maxspeed":"50","highway":"tertiary","junction":"roundabout"}},{"Shape":219,"Coordinates":[4.356627,51.8395],"Attributes":{"name":"Maaswijkweg","maxspeed":"50","highway":"tertiary","junction":"roundabout"}},{"Shape":222,"Coordinates":[4.356225,51.83888],"Attributes":{"name":"Joke Smitlaan","maxspeed":"50","highway":"tertiary","oneway":"yes"}},{"Shape":223,"Coordinates":[4.356521,51.83856],"Attributes":{"name":"Aletta Jacobsstraat","highway":"residential","maxspeed":"30"}},{"Shape":223,"Coordinates":[4.355722,51.83817],"Attributes":{"name":"Joke Smitlaan","maxspeed":"50","highway":"tertiary"}},{"Shape":224,"Coordinates":[4.355413,51.83882],"Attributes":{"name":"Marga Klompéstraat","highway":"residential","maxspeed":"30"}},{"Shape":224,"Coordinates":[4.355442,51.83807],"Attributes":{"name":"Suze Groenewegstraat","highway":"residential","maxspeed":"30"}},{"Shape":226,"Coordinates":[4.355262,51.83775],"Attributes":{"name":"Suze Groenewegstraat","highway":"residential","maxspeed":"30"}},{"Shape":226,"Coordinates":[4.354567,51.83827],"Attributes":{"name":"Johanna Engwirda-Agricolastraat","highway":"residential","maxspeed":"30"}},{"Shape":230,"Coordinates":[4.355865,51.83872],"Attributes":{"name":"Suze Groenewegstraat","highway":"residential","maxspeed":"30"}},{"Shape":231,"Coordinates":[4.354358,51.83789],"Attributes":{"name":"Johanna Engwirda-Agricolastraat","highway":"residential","maxspeed":"30"}},{"Shape":231,"Coordinates":[4.354502,51.83861],"Attributes":{"name":"Johanna Engwirda-Agricolastraat","highway":"residential","maxspeed":"30"}},{"Shape":243,"Coordinates":[4.355442,51.83807],"Attributes":{"name":"Johanna Engwirda-Agricolastraat","highway":"residential","maxspeed":"30"}},{"Shape":246,"Coordinates":[4.354056,51.83848],"Attributes":{"name":"Liesbeth Ribbius Peletierpad","highway":"residential","maxspeed":"30"}},{"Shape":247,"Coordinates":[4.353249,51.83786],"Attributes":{"name":"Johanna Engwirda-Agricolastraat","highway":"residential","maxspeed":"30"}},{"Shape":247,"Coordinates":[4.353606,51.83847],"Attributes":{"name":"Anna de Waalpad","highway":"residential","maxspeed":"30"}},{"Shape":250,"Coordinates":[4.353225,51.83834],"Attributes":{"name":"Carry Pothuis-Smitstraat","highway":"residential","maxspeed":"30"}},{"Shape":250,"Coordinates":[4.352627,51.83785],"Attributes":{"name":"Truus Smulders-Beliënstraat","highway":"residential","maxspeed":"30"}},{"Shape":251,"Coordinates":[4.354631,51.83735],"Attributes":{"name":"Wilhelmina Hofman-Pootstraat","highway":"residential","maxspeed":"30"}},{"Shape":255,"Coordinates":[4.353416,51.83625],"Attributes":{"name":"Wilhelmina Druckerstraat","highway":"residential","maxspeed":"30"}},{"Shape":255,"Coordinates":[4.352559,51.83601],"Attributes":{"name":"Annette Versluys-Poelmanstraat","highway":"residential","maxspeed":"30"}},{"Shape":258,"Coordinates":[4.354723,51.8363],"Attributes":{"name":"Wilhelmina Druckerstraat","highway":"residential","maxspeed":"30"}},{"Shape":259,"Coordinates":[4.3546,51.8357],"Attributes":{"name":"Roosje Vosstraat","highway":"residential","maxspeed":"30"}},{"Shape":259,"Coordinates":[4.353442,51.83566],"Attributes":{"name":"Clara Wichmannstraat","highway":"residential","maxspeed":"30"}},{"Shape":259,"Coordinates":[4.3546,51.83545],"Attributes":{"name":"Roosje Vosstraat","highway":"residential","maxspeed":"30"}},{"Shape":261,"Coordinates":[4.3546,51.8357],"Attributes":{"name":"Roosje Vosstraat","highway":"residential","maxspeed":"30"}},{"Shape":261,"Coordinates":[4.353442,51.83566],"Attributes":{"name":"Clara Wichmannstraat","highway":"residential","maxspeed":"30"}},{"Shape":262,"Coordinates":[4.353416,51.83625],"Attributes":{"name":"Wilhelmina Druckerstraat","highway":"residential","maxspeed":"30"}},{"Shape":263,"Coordinates":[4.35471,51.83656],"Attributes":{"highway":"residential","maxspeed":"30"}},{"Shape":264,"Coordinates":[4.355383,51.83632],"Attributes":{"name":"Wilhelmina Druckerstraat","highway":"residential","maxspeed":"30"}},{"Shape":264,"Coordinates":[4.355661,51.83566],"Attributes":{"name":"Mina Krusemanstraat","highway":"residential","maxspeed":"30"}},{"Shape":268,"Coordinates":[4.355773,51.83496],"Attributes":{"name":"Maria Doorman-Kielstrastraat","highway":"residential","maxspeed":"30"}},{"Shape":269,"Coordinates":[4.356272,51.83529],"Attributes":{"name":"Maria Doorman-Kielstrastraat","highway":"residential","maxspeed":"30"}},{"Shape":269,"Coordinates":[4.355559,51.83603],"Attributes":{"name":"Joke Smitlaan","maxspeed":"50","highway":"tertiary","oneway":"yes"}},{"Shape":273,"Coordinates":[4.357344,51.83449],"Attributes":{"name":"Etty Hillesumstraat","highway":"residential","maxspeed":"30"}},{"Shape":273,"Coordinates":[4.357471,51.83462],"Attributes":{"name":"Etty Hillesumstraat","highway":"residential","maxspeed":"30"}},{"Shape":275,"Coordinates":[4.358017,51.83445],"Attributes":{"name":"Joke Smitlaan","maxspeed":"50","highway":"tertiary","oneway":"yes"}},{"Shape":278,"Coordinates":[4.359355,51.83421],"Attributes":{"name":"Joke Smitlaan","maxspeed":"50","highway":"tertiary"}},{"Shape":279,"Coordinates":[4.3593,51.8334],"Attributes":{"name":"Anne Frankstraat","highway":"residential","maxspeed":"30"}},{"Shape":279,"Coordinates":[4.358588,51.83418],"Attributes":{"name":"Mies van Oort-Laustraat","highway":"residential","maxspeed":"30"}},{"Shape":282,"Coordinates":[4.359152,51.83241],"Attributes":{"name":"Anne Frankstraat","highway":"residential","maxspeed":"30"}},{"Shape":283,"Coordinates":[4.357482,51.83284],"Attributes":{"name":"Hannie Schaftstraat","highway":"residential","maxspeed":"30"}},{"Shape":283,"Coordinates":[4.358418,51.83335],"Attributes":{"name":"Trix Terwindtstraat","highway":"residential","maxspeed":"30"}},{"Shape":286,"Coordinates":[4.35606,51.83361],"Attributes":{"name":"Hannie Schaftstraat","highway":"residential","maxspeed":"30"}},{"Shape":286,"Coordinates":[4.35724,51.83361],"Attributes":{"name":"Trix Terwindtstraat","highway":"residential","maxspeed":"30"}},{"Shape":287,"Coordinates":[4.355162,51.83287],"Attributes":{"name":"Mien Sneevliet-Draaijerstraat","highway":"residential","maxspeed":"30","oneway":"yes"}},{"Shape":287,"Coordinates":[4.356112,51.83237],"Attributes":{"name":"Mien Sneevliet-Draaijerstraat","highway":"residential","maxspeed":"30","oneway":"yes"}},{"Shape":288,"Coordinates":[4.355034,51.83205],"Attributes":{"name":"Mia van der Wall-Duyvendakstraat","highway":"residential","maxspeed":"30"}},{"Shape":288,"Coordinates":[4.355093,51.83282],"Attributes":{"name":"Mien Sneevliet-Draaijerstraat","highway":"residential","maxspeed":"30","oneway":"yes"}},{"Shape":290,"Coordinates":[4.358144,51.83232],"Attributes":{"name":"Petronella Brugsmastraat","highway":"residential","maxspeed":"30"}},{"Shape":290,"Coordinates":[4.356006,51.83215],"Attributes":{"name":"Petronella Brugsmastraat","highway":"residential","maxspeed":"30"}},{"Shape":290,"Coordinates":[4.356112,51.83237],"Attributes":{"name":"Mien Sneevliet-Draaijerstraat","highway":"residential","maxspeed":"30","oneway":"yes"}},{"Shape":307,"Coordinates":[4.356006,51.83215],"Attributes":{"name":"Petronella Brugsmastraat","highway":"residential","maxspeed":"30"}},{"Shape":307,"Coordinates":[4.35604,51.83231],"Attributes":{"name":"Mien Sneevliet-Draaijerstraat","highway":"residential","maxspeed":"30","oneway":"yes"}},{"Shape":309,"Coordinates":[4.355672,51.83251],"Attributes":{"name":"Mia van der Wall-Duyvendakstraat","highway":"residential","maxspeed":"30"}},{"Shape":309,"Coordinates":[4.35673,51.83325],"Attributes":{"name":"Jacoba Pulskensstraat","highway":"residential","maxspeed":"30"}},{"Shape":311,"Coordinates":[4.355329,51.8331],"Attributes":{"name":"Etty Hillesumstraat","highway":"residential","maxspeed":"30"}},{"Shape":311,"Coordinates":[4.355093,51.83282],"Attributes":{"name":"Mien Sneevliet-Draaijerstraat","highway":"residential","maxspeed":"30","oneway":"yes"}},{"Shape":312,"Coordinates":[4.354129,51.83141],"Attributes":{"name":"Etty Hillesumstraat","highway":"residential","maxspeed":"30"}},{"Shape":312,"Coordinates":[4.354767,51.83298],"Attributes":{"name":"Mien Sneevliet-Draaijerstraat","highway":"residential","maxspeed":"30"}},{"Shape":320,"Coordinates":[4.355031,51.83289],"Attributes":{"name":"Etty Hillesumstraat","highway":"residential","maxspeed":"30"}},{"Shape":325,"Coordinates":[4.354132,51.83377],"Attributes":{"name":"Maria Doorman-Kielstrastraat","highway":"residential","maxspeed":"30"}},{"Shape":325,"Coordinates":[4.353489,51.83369],"Attributes":{"name":"Johanna Naberstraat","highway":"residential","maxspeed":"30"}},{"Shape":325,"Coordinates":[4.353667,51.83348],"Attributes":{"name":"Willemijn Posthumusstraat","highway":"residential","maxspeed":"30"}},{"Shape":329,"Coordinates":[4.353489,51.83369],"Attributes":{"name":"Johanna Naberstraat","highway":"residential","maxspeed":"30"}},{"Shape":329,"Coordinates":[4.354767,51.83298],"Attributes":{"name":"Mien Sneevliet-Draaijerstraat","highway":"residential","maxspeed":"30"}},{"Shape":330,"Coordinates":[4.355028,51.83327],"Attributes":{"highway":"residential","maxspeed":"30"}},{"Shape":332,"Coordinates":[4.353589,51.83436],"Attributes":{"name":"Annette Versluys-Poelmanstraat","highway":"residential","maxspeed":"30"}},{"Shape":332,"Coordinates":[4.35489,51.83435],"Attributes":{"name":"Maria Doorman-Kielstrastraat","highway":"residential","maxspeed":"30"}},{"Shape":335,"Coordinates":[4.354878,51.83525],"Attributes":{"name":"Roosje Vosstraat","highway":"residential","maxspeed":"30"}},{"Shape":336,"Coordinates":[4.356078,51.83521],"Attributes":{"name":"Maria Doorman-Kielstrastraat","highway":"residential","maxspeed":"30"}},{"Shape":336,"Coordinates":[4.356722,51.83442],"Attributes":{"highway":"residential","maxspeed":"30"}},{"Shape":342,"Coordinates":[4.356118,51.83365],"Attributes":{"name":"Etty Hillesumstraat","highway":"residential","maxspeed":"30"}},{"Shape":343,"Coordinates":[4.358588,51.83418],"Attributes":{"name":"Mies van Oort-Laustraat","highway":"residential","maxspeed":"30"}},{"Shape":344,"Coordinates":[4.357471,51.83462],"Attributes":{"name":"Etty Hillesumstraat","highway":"residential","maxspeed":"30"}},{"Shape":344,"Coordinates":[4.356462,51.83506],"Attributes":{"name":"Joke Smitlaan","maxspeed":"50","highway":"tertiary","oneway":"yes"}},{"Shape":346,"Coordinates":[4.358017,51.83445],"Attributes":{"name":"Joke Smitlaan","maxspeed":"50","highway":"tertiary","oneway":"yes"}},{"Shape":349,"Coordinates":[4.359233,51.8341],"Attributes":{"name":"Anne Frankstraat","highway":"residential","maxspeed":"30"}},{"Shape":351,"Coordinates":[4.359956,51.83451],"Attributes":{"name":"Clara Visserstraat","highway":"residential","maxspeed":"30"}},{"Shape":352,"Coordinates":[4.36026,51.83197],"Attributes":{"name":"Drogendijk","highway":"unclassified","maxspeed":"30"}},{"Shape":352,"Coordinates":[4.360504,51.83558],"Attributes":{"name":"Drogendijk","highway":"unclassified","maxspeed":"30"}},{"Shape":354,"Coordinates":[4.361255,51.83418],"Attributes":{"name":"Hadewychplaats","highway":"service"}},{"Shape":355,"Coordinates":[4.361663,51.83434],"Attributes":{"name":"Joke Smitlaan","maxspeed":"50","highway":"tertiary"}},{"Shape":356,"Coordinates":[4.361462,51.83443],"Attributes":{"name":"Margaretha Roosenboomstraat","highway":"residential","maxspeed":"30"}},{"Shape":360,"Coordinates":[4.361384,51.83525],"Attributes":{"name":"Margaretha Roosenboomstraat","highway":"residential"}},{"Shape":361,"Coordinates":[4.361636,51.83525],"Attributes":{"name":"Margaretha Roosenboomstraat","highway":"residential"}},{"Shape":364,"Coordinates":[4.361384,51.83525],"Attributes":{"name":"Margaretha Roosenboomstraat","highway":"residential"}},{"Shape":368,"Coordinates":[4.361462,51.83443],"Attributes":{"name":"Margaretha Roosenboomstraat","highway":"residential","maxspeed":"30"}},{"Shape":369,"Coordinates":[4.361216,51.83426],"Attributes":{"name":"Joke Smitlaan","maxspeed":"50","highway":"tertiary"}},{"Shape":373,"Coordinates":[4.362716,51.8344],"Attributes":{"name":"Annie Romein-Verschoorlaan","maxspeed":"50","highway":"tertiary"}},{"Shape":376,"Coordinates":[4.362383,51.8356],"Attributes":{"name":"Sientje Mesdag-van Houtenstraat","highway":"residential","maxspeed":"30"}},{"Shape":376,"Coordinates":[4.362,51.83559],"Attributes":{"name":"Marie van Regteren Altenastraat","highway":"residential","maxspeed":"30"}},{"Shape":376,"Coordinates":[4.362269,51.83624],"Attributes":{"name":"Annie Romein-Verschoorlaan","maxspeed":"50","highway":"tertiary"}},{"Shape":378,"Coordinates":[4.362383,51.8356],"Attributes":{"name":"Sientje Mesdag-van Houtenstraat","highway":"residential","maxspeed":"30"}},{"Shape":378,"Coordinates":[4.362295,51.83504],"Attributes":{"name":"Annie Romein-Verschoorlaan","maxspeed":"50","highway":"tertiary"}},{"Shape":379,"Coordinates":[4.361133,51.83561],"Attributes":{"name":"Marie van Regteren Altenastraat","highway":"residential","maxspeed":"30"}},{"Shape":379,"Coordinates":[4.361462,51.83443],"Attributes":{"name":"Margaretha Roosenboomstraat","highway":"residential","maxspeed":"30"}},{"Shape":379,"Coordinates":[4.36209,51.83628],"Attributes":{"name":"Margaretha Roosenboomstraat","highway":"residential","maxspeed":"30"}},{"Shape":382,"Coordinates":[4.362408,51.83788],"Attributes":{"name":"Ida Wassermanstraat","highway":"residential","maxspeed":"30"}},{"Shape":382,"Coordinates":[4.361285,51.83695],"Attributes":{"name":"Mimi Boesnachstraat","highway":"residential","maxspeed":"30"}},{"Shape":382,"Coordinates":[4.362395,51.83686],"Attributes":{"name":"Mimi Boesnachstraat","highway":"residential","maxspeed":"30"}},{"Shape":384,"Coordinates":[4.361285,51.83695],"Attributes":{"name":"Mimi Boesnachstraat","highway":"residential","maxspeed":"30"}},{"Shape":384,"Coordinates":[4.36209,51.83628],"Attributes":{"name":"Margaretha Roosenboomstraat","highway":"residential","maxspeed":"30"}},{"Shape":385,"Coordinates":[4.362269,51.83624],"Attributes":{"name":"Annie Romein-Verschoorlaan","maxspeed":"50","highway":"tertiary"}},{"Shape":385,"Coordinates":[4.362519,51.83747],"Attributes":{"name":"Annie Romein-Verschoorlaan","maxspeed":"50","highway":"tertiary"}},{"Shape":386,"Coordinates":[4.363842,51.83675],"Attributes":{"name":"Theo Mann-Bouwmeesterstraat","highway":"residential","maxspeed":"30"}},{"Shape":386,"Coordinates":[4.362459,51.83624],"Attributes":{"name":"Lizzy Ansinghstraat","highway":"residential","maxspeed":"30"}},{"Shape":387,"Coordinates":[4.363731,51.83709],"Attributes":{"name":"Magda Janssenstraat","highway":"residential","maxspeed":"30","oneway":"yes"}},{"Shape":388,"Coordinates":[4.363787,51.83738],"Attributes":{"name":"Fie Carelsenstraat","highway":"residential","maxspeed":"30","oneway":"yes"}},{"Shape":389,"Coordinates":[4.362813,51.83805],"Attributes":{"name":"Maria Kleine-Gartmanstraat","highway":"residential","maxspeed":"30"}},{"Shape":389,"Coordinates":[4.363823,51.83765],"Attributes":{"name":"Annie van Eesstraat","highway":"residential","maxspeed":"30","oneway":"yes"}},{"Shape":391,"Coordinates":[4.363896,51.83796],"Attributes":{"name":"Charlotte Köhlerstraat","highway":"residential","maxspeed":"30","oneway":"yes"}},{"Shape":392,"Coordinates":[4.363446,51.83828],"Attributes":{"name":"Fien de la Marstraat","highway":"residential","maxspeed":"30"}},{"Shape":397,"Coordinates":[4.364714,51.83876],"Attributes":{"name":"Maria Kleine-Gartmanstraat","highway":"residential","maxspeed":"30"}},{"Shape":397,"Coordinates":[4.363836,51.83839],"Attributes":{"name":"Fien de la Marstraat","highway":"residential","maxspeed":"30"}},{"Shape":399,"Coordinates":[4.364704,51.83848],"Attributes":{"name":"Esther de Boer-van Rijkstraat","highway":"residential","maxspeed":"30"}},{"Shape":399,"Coordinates":[4.36481,51.83882],"Attributes":{"name":"Maria Kleine-Gartmanstraat","highway":"residential","maxspeed":"30"}},{"Shape":405,"Coordinates":[4.363814,51.83873],"Attributes":{"name":"Maria Kleine-Gartmanstraat","highway":"residential","maxspeed":"30"}},{"Shape":406,"Coordinates":[4.365851,51.83851],"Attributes":{"name":"Vera Bondamstraat","highway":"residential","maxspeed":"30"}},{"Shape":407,"Coordinates":[4.36574,51.83821],"Attributes":{"name":"Else Mauhsstraat","highway":"residential","maxspeed":"30"}},{"Shape":408,"Coordinates":[4.364458,51.83731],"Attributes":{"name":"Esther de Boer-van Rijkstraat","highway":"residential","maxspeed":"30"}},{"Shape":409,"Coordinates":[4.365455,51.83734],"Attributes":{"name":"Ronnie Biermanstraat","highway":"residential","maxspeed":"30"}},{"Shape":410,"Coordinates":[4.365883,51.83719],"Attributes":{"name":"Corrie Vonkplantsoen","highway":"residential","maxspeed":"30"}},{"Shape":410,"Coordinates":[4.365971,51.83768],"Attributes":{"name":"Corrie Vonkplantsoen","highway":"residential","maxspeed":"30"}},{"Shape":413,"Coordinates":[4.36585,51.83667],"Attributes":{"name":"Theo Mann-Bouwmeesterstraat","highway":"residential","maxspeed":"30"}},{"Shape":414,"Coordinates":[4.364371,51.83671],"Attributes":{"name":"Theo Mann-Bouwmeesterstraat","highway":"residential","maxspeed":"30"}},{"Shape":414,"Coordinates":[4.365098,51.83566],"Attributes":{"name":"Suze Robertsonstraat","highway":"residential","maxspeed":"30"}},{"Shape":416,"Coordinates":[4.365858,51.83567],"Attributes":{"name":"Sientje Mesdag-van Houtenstraat","highway":"residential","maxspeed":"30"}},{"Shape":417,"Coordinates":[4.363756,51.83563],"Attributes":{"name":"Sientje Mesdag-van Houtenstraat","highway":"residential","maxspeed":"30"}},{"Shape":417,"Coordinates":[4.3645,51.8348],"Attributes":{"name":"Harriët Freezerstraat","highway":"residential","maxspeed":"30"}},{"Shape":421,"Coordinates":[4.363756,51.83563],"Attributes":{"name":"Sientje Mesdag-van Houtenstraat","highway":"residential","maxspeed":"30"}},{"Shape":422,"Coordinates":[4.36506,51.8367],"Attributes":{"name":"Suze Robertsonstraat","highway":"residential","maxspeed":"30"}},{"Shape":423,"Coordinates":[4.365564,51.83504],"Attributes":{"name":"Emmy Belinfantestraat","highway":"residential","maxspeed":"30"}},{"Shape":426,"Coordinates":[4.366899,51.83581],"Attributes":{"name":"Sientje Mesdag-van Houtenstraat","highway":"residential","maxspeed":"30"}},{"Shape":430,"Coordinates":[4.367727,51.83575],"Attributes":{"name":"Sientje Mesdag-van Houtenstraat","highway":"residential","maxspeed":"30"}},{"Shape":430,"Coordinates":[4.367445,51.83514],"Attributes":{"name":"Martina Kramersstraat","highway":"residential","maxspeed":"30"}},{"Shape":438,"Coordinates":[4.366899,51.83581],"Attributes":{"name":"Sientje Mesdag-van Houtenstraat","highway":"residential","maxspeed":"30"}},{"Shape":439,"Coordinates":[4.368702,51.83578],"Attributes":{"name":"Sientje Mesdag-van Houtenstraat","highway":"residential","maxspeed":"30"}},{"Shape":440,"Coordinates":[4.36686,51.83676],"Attributes":{"name":"Theo Mann-Bouwmeesterstraat","highway":"residential","maxspeed":"30"}},{"Shape":441,"Coordinates":[4.368241,51.83746],"Attributes":{"name":"Top Naeffstraat","highway":"residential","maxspeed":"30"}},{"Shape":441,"Coordinates":[4.368972,51.8369],"Attributes":{"name":"Theo Mann-Bouwmeesterstraat","highway":"residential","maxspeed":"30"}},{"Shape":443,"Coordinates":[4.367617,51.8368],"Attributes":{"name":"Theo Mann-Bouwmeesterstraat","highway":"residential","maxspeed":"30"}},{"Shape":445,"Coordinates":[4.370326,51.83643],"Attributes":{"name":"Beb Vuykstraat","highway":"residential","maxspeed":"30"}},{"Shape":445,"Coordinates":[4.3704,51.837],"Attributes":{"name":"Theo Mann-Bouwmeesterstraat","highway":"residential","maxspeed":"30"}},{"Shape":446,"Coordinates":[4.369893,51.83816],"Attributes":{"name":"Beb Vuykstraat","highway":"residential","maxspeed":"30"}},{"Shape":446,"Coordinates":[4.369532,51.83755],"Attributes":{"name":"Maria Dermoûtstraat","highway":"residential","maxspeed":"30"}},{"Shape":448,"Coordinates":[4.368901,51.83807],"Attributes":{"name":"Maria Tesselschadestraat","highway":"residential","maxspeed":"30"}},{"Shape":449,"Coordinates":[4.370308,51.83821],"Attributes":{"name":"Maria Tesselschadestraat","highway":"residential","maxspeed":"30"}},{"Shape":449,"Coordinates":[4.3704,51.837],"Attributes":{"name":"Geertruida Bosboom-Toussaintlaan","maxspeed":"50","highway":"tertiary"}},{"Shape":450,"Coordinates":[4.369864,51.83901],"Attributes":{"name":"Geertruida Bosboom-Toussaintlaan","maxspeed":"50","highway":"tertiary"}},{"Shape":450,"Coordinates":[4.369776,51.83852],"Attributes":{"name":"Maria Kleine-Gartmanstraat","highway":"residential","maxspeed":"30"}},{"Shape":452,"Coordinates":[4.37021,51.83849],"Attributes":{"name":"Henriëtte Roland Holststraat","highway":"residential","maxspeed":"30"}},{"Shape":458,"Coordinates":[4.372942,51.83545],"Attributes":{"name":"Lange Groeneweg","highway":"residential","maxspeed":"30"}},{"Shape":462,"Coordinates":[4.370436,51.83859],"Attributes":{"name":"Henriëtte Roland Holststraat","highway":"residential","maxspeed":"30"}},{"Shape":469,"Coordinates":[4.37021,51.83849],"Attributes":{"name":"Henriëtte Roland Holststraat","highway":"residential","maxspeed":"30"}},{"Shape":471,"Coordinates":[4.369864,51.83901],"Attributes":{"name":"Geertruida Bosboom-Toussaintlaan","maxspeed":"50","highway":"tertiary"}},{"Shape":471,"Coordinates":[4.369776,51.83852],"Attributes":{"name":"Maria Kleine-Gartmanstraat","highway":"residential","maxspeed":"30"}},{"Shape":472,"Coordinates":[4.369893,51.83816],"Attributes":{"name":"Maria Tesselschadestraat","highway":"residential","maxspeed":"30"}},{"Shape":472,"Coordinates":[4.370308,51.83821],"Attributes":{"name":"Maria Tesselschadestraat","highway":"residential","maxspeed":"30"}},{"Shape":472,"Coordinates":[4.3704,51.837],"Attributes":{"name":"Geertruida Bosboom-Toussaintlaan","maxspeed":"50","highway":"tertiary"}},{"Shape":474,"Coordinates":[4.370177,51.83698],"Attributes":{"name":"Theo Mann-Bouwmeesterstraat","highway":"residential","maxspeed":"30"}},{"Shape":474,"Coordinates":[4.370606,51.8362],"Attributes":{"name":"Geertruida Bosboom-Toussaintlaan","maxspeed":"50","highway":"tertiary"}},{"Shape":475,"Coordinates":[4.370763,51.83647],"Attributes":{"name":"Else van der Banstraat","highway":"residential","maxspeed":"30"}},{"Shape":475,"Coordinates":[4.370445,51.83764],"Attributes":{"name":"Else van der Banstraat","highway":"residential","maxspeed":"30"}},{"Shape":475,"Coordinates":[4.372372,51.83723],"Attributes":{"name":"Theo Mann-Bouwmeesterstraat","highway":"residential","maxspeed":"30"}},{"Shape":477,"Coordinates":[4.370445,51.83764],"Attributes":{"name":"Else van der Banstraat","highway":"residential","maxspeed":"30"}},{"Shape":477,"Coordinates":[4.372372,51.83723],"Attributes":{"name":"Theo Mann-Bouwmeesterstraat","highway":"residential","maxspeed":"30"}},{"Shape":478,"Coordinates":[4.370606,51.8362],"Attributes":{"name":"Geertruida Bosboom-Toussaintlaan","maxspeed":"50","highway":"tertiary"}},{"Shape":478,"Coordinates":[4.370094,51.83818],"Attributes":{"name":"Geertruida Bosboom-Toussaintlaan","maxspeed":"50","highway":"tertiary"}},{"Shape":479,"Coordinates":[4.370038,51.8376],"Attributes":{"name":"Beb Vuykstraat","highway":"residential","maxspeed":"30"}},{"Shape":479,"Coordinates":[4.368972,51.8369],"Attributes":{"name":"Theo Mann-Bouwmeesterstraat","highway":"residential","maxspeed":"30"}},{"Shape":480,"Coordinates":[4.370462,51.83586],"Attributes":{"name":"Beb Vuykstraat","highway":"residential","maxspeed":"30"}},{"Shape":480,"Coordinates":[4.369906,51.8364],"Attributes":{"name":"Catharina van Renneshof","highway":"residential","maxspeed":"30"}},{"Shape":482,"Coordinates":[4.370476,51.83536],"Attributes":{"name":"Beb Vuykstraat","highway":"residential","maxspeed":"30"}},{"Shape":482,"Coordinates":[4.368702,51.83578],"Attributes":{"name":"Sientje Mesdag-van Houtenstraat","highway":"residential","maxspeed":"30"}},{"Shape":483,"Coordinates":[4.370679,51.83535],"Attributes":{"name":"Geertruida Bosboom-Toussaintlaan","maxspeed":"50","highway":"tertiary"}},{"Shape":483,"Coordinates":[4.370606,51.8362],"Attributes":{"name":"Geertruida Bosboom-Toussaintlaan","maxspeed":"50","highway":"tertiary"}},{"Shape":484,"Coordinates":[4.370826,51.8362],"Attributes":{"name":"Else van der Banstraat","highway":"residential","maxspeed":"30"}},{"Shape":484,"Coordinates":[4.372729,51.83594],"Attributes":{"name":"Sientje Mesdag-van Houtenstraat","highway":"residential","maxspeed":"30"}},{"Shape":485,"Coordinates":[4.370724,51.83487],"Attributes":{"name":"Else van der Banstraat","highway":"residential","maxspeed":"30"}},{"Shape":485,"Coordinates":[4.3717,51.8353],"Attributes":{"name":"Lotte Beesestraat","highway":"residential","maxspeed":"30"}},{"Shape":487,"Coordinates":[4.37044,51.83441],"Attributes":{"name":"Else van der Banstraat","highway":"residential","maxspeed":"30"}},{"Shape":487,"Coordinates":[4.371654,51.83469],"Attributes":{"name":"Truus Schröderstraat","highway":"residential","maxspeed":"30"}},{"Shape":488,"Coordinates":[4.370315,51.83495],"Attributes":{"name":"Truus Schröderstraat","highway":"unclassified","maxspeed":"30"}},{"Shape":488,"Coordinates":[4.370679,51.83535],"Attributes":{"name":"Geertruida Bosboom-Toussaintlaan","maxspeed":"50","highway":"tertiary"}},{"Shape":490,"Coordinates":[4.369626,51.83411],"Attributes":{"name":"Belle van Zuylenstraat","highway":"residential","maxspeed":"30"}},{"Shape":490,"Coordinates":[4.367404,51.83212],"Attributes":{"name":"Geertruida Bosboom-Toussaintlaan","maxspeed":"50","highway":"tertiary"}},{"Shape":491,"Coordinates":[4.37044,51.83441],"Attributes":{"name":"Else van der Banstraat","highway":"residential","maxspeed":"30"}},{"Shape":491,"Coordinates":[4.370699,51.83359],"Attributes":{"name":"Belle van Zuylenstraat","highway":"residential","maxspeed":"30"}},{"Shape":492,"Coordinates":[4.368838,51.83305],"Attributes":{"name":"Else van der Banstraat","highway":"residential","maxspeed":"30"}},{"Shape":492,"Coordinates":[4.369666,51.83346],"Attributes":{"name":"Clare Lennartstraat","highway":"residential","maxspeed":"30"}},{"Shape":494,"Coordinates":[4.369786,51.8326],"Attributes":{"name":"Jeanne van Schaik-Willingstraat","highway":"residential","maxspeed":"30"}},{"Shape":495,"Coordinates":[4.367612,51.83207],"Attributes":{"name":"Else van der Banstraat","highway":"residential","maxspeed":"30"}},{"Shape":495,"Coordinates":[4.368486,51.83239],"Attributes":{"name":"Hélène Swarthstraat","highway":"residential","maxspeed":"30"}},{"Shape":497,"Coordinates":[4.367612,51.83207],"Attributes":{"name":"Else van der Banstraat","highway":"residential","maxspeed":"30"}},{"Shape":498,"Coordinates":[4.369786,51.8326],"Attributes":{"name":"Jeanne van Schaik-Willingstraat","highway":"residential","maxspeed":"30"}},{"Shape":499,"Coordinates":[4.369666,51.83346],"Attributes":{"name":"Clare Lennartstraat","highway":"residential","maxspeed":"30"}},{"Shape":500,"Coordinates":[4.37044,51.83441],"Attributes":{"name":"Else van der Banstraat","highway":"residential","maxspeed":"30"}},{"Shape":500,"Coordinates":[4.370699,51.83359],"Attributes":{"name":"Belle van Zuylenstraat","highway":"residential","maxspeed":"30"}},{"Shape":501,"Coordinates":[4.367404,51.83212],"Attributes":{"name":"Geertruida Bosboom-Toussaintlaan","maxspeed":"50","highway":"tertiary"}},{"Shape":501,"Coordinates":[4.370261,51.83447],"Attributes":{"name":"Geertruida Bosboom-Toussaintlaan","maxspeed":"50","highway":"tertiary"}},{"Shape":502,"Coordinates":[4.369088,51.83369],"Attributes":{"name":"Beb Vuykstraat","highway":"residential","maxspeed":"30"}},{"Shape":502,"Coordinates":[4.370059,51.83451],"Attributes":{"name":"Beb Vuykstraat","highway":"residential","maxspeed":"30"}},{"Shape":502,"Coordinates":[4.368752,51.83453],"Attributes":{"name":"Belle van Zuylenstraat","highway":"residential","maxspeed":"30"}},{"Shape":504,"Coordinates":[4.368303,51.83408],"Attributes":{"name":"Madelon Lulofsstraat","highway":"residential","maxspeed":"30"}},{"Shape":505,"Coordinates":[4.368081,51.83335],"Attributes":{"name":"Madelon Lulofsstraat","highway":"residential","maxspeed":"30"}},{"Shape":506,"Coordinates":[4.367285,51.83224],"Attributes":{"name":"Beb Vuykstraat","highway":"residential","maxspeed":"30"}},{"Shape":506,"Coordinates":[4.367129,51.83322],"Attributes":{"name":"Anke Servaesstraat","highway":"residential","maxspeed":"30"}},{"Shape":508,"Coordinates":[4.368437,51.83317],"Attributes":{"name":"Beb Vuykstraat","highway":"residential","maxspeed":"30"}},{"Shape":511,"Coordinates":[4.366681,51.83285],"Attributes":{"name":"Anke Servaesstraat","highway":"residential","maxspeed":"30"}},{"Shape":512,"Coordinates":[4.365999,51.83372],"Attributes":{"name":"Marie van Zeggelenstraat","highway":"residential","maxspeed":"30"}},{"Shape":512,"Coordinates":[4.367658,51.83384],"Attributes":{"name":"Madelon Lulofsstraat","highway":"residential","maxspeed":"30"}},{"Shape":514,"Coordinates":[4.366941,51.83331],"Attributes":{"name":"Anke Servaesstraat","highway":"residential","maxspeed":"30"}},{"Shape":515,"Coordinates":[4.365298,51.83384],"Attributes":{"name":"Marie van Zeggelenstraat","highway":"residential","maxspeed":"30"}},{"Shape":515,"Coordinates":[4.365887,51.8331],"Attributes":{"name":"Marie van Zeggelenstraat","highway":"residential","maxspeed":"30"}},{"Shape":518,"Coordinates":[4.365505,51.83278],"Attributes":{"name":"Marie van Zeggelenstraat","highway":"residential","maxspeed":"30"}},{"Shape":518,"Coordinates":[4.366334,51.83255],"Attributes":{"name":"Lucretia van Merkenstraat","highway":"residential","maxspeed":"30"}},{"Shape":519,"Coordinates":[4.36504,51.8335],"Attributes":{"name":"Marie van Zeggelenstraat","highway":"residential","maxspeed":"30"}},{"Shape":520,"Coordinates":[4.36375,51.83378],"Attributes":{"name":"Henriëtte van der Meijstraat","highway":"residential","maxspeed":"30"}},{"Shape":520,"Coordinates":[4.364484,51.83419],"Attributes":{"name":"Nan Holdert-Zuikerbergstraat","highway":"residential","maxspeed":"30"}},{"Shape":525,"Coordinates":[4.363351,51.83562],"Attributes":{"name":"Sientje Mesdag-van Houtenstraat","highway":"residential","maxspeed":"30"}},{"Shape":525,"Coordinates":[4.364598,51.83564],"Attributes":{"name":"Sientje Mesdag-van Houtenstraat","highway":"residential","maxspeed":"30"}},{"Shape":527,"Coordinates":[4.362383,51.8356],"Attributes":{"name":"Sientje Mesdag-van Houtenstraat","highway":"residential","maxspeed":"30"}},{"Shape":528,"Coordinates":[4.362867,51.83527],"Attributes":{"name":"Lizzy Ansinghstraat","highway":"unclassified","maxspeed":"30"}},{"Shape":529,"Coordinates":[4.362886,51.83512],"Attributes":{"name":"Lizzy Ansinghstraat","highway":"unclassified","maxspeed":"30"}}]}