{"type":"FeatureCollection","features":[{"type":"Feature","name":"ShapeMeta","geometry":{"type":"LineString","coordinates":[[4.34876,51.84563],[4.348778,51.84562],[4.349108,51.8454]]},"properties":{"name":"Gouwestraat","highway":"unclassified","profile":"car","distance":"34.96612","time":"3.356747"}},{"type":"Feature","name":"ShapeMeta","geometry":{"type":"LineString","coordinates":[[4.349108,51.8454],[4.349346,51.84555],[4.349479,51.84563]]},"properties":{"name":"Gouwestraat","highway":"unclassified","profile":"car","distance":"71.16612","time":"6.831947"}},{"type":"Feature","name":"ShapeMeta","geometry":{"type":"LineString","coordinates":[[4.349479,51.84563],[4.350027,51.84563],[4.35039,51.84563],[4.350501,51.84563]]},"properties":{"name":"Gouwestraat","highway":"unclassified","profile":"car","distance":"141.2661","time":"13.56155"}},{"type":"Feature","name":"ShapeMeta","geometry":{"type":"LineString","coordinates":[[4.350501,51.84563],[4.350501,51.84632]]},"properties":{"name":"Rivierlaan","highway":"unclassified","maxspeed":"50","profile":"car","distance":"217.5661","time":"20.88635"}},{"type":"Feature","name":"ShapeMeta","geometry":{"type":"LineString","coordinates":[[4.350501,51.84632],[4.350371,51.84632],[4.349818,51.84632]]},"properties":{"name":"Zaanstraat","highway":"residential","profile":"car","distance":"264.4661","time":"25.38875"}},{"type":"Feature","name":"ShapeMeta","geometry":{"type":"LineString","coordinates":[[4.349818,51.84632],[4.349578,51.84632]]},"properties":{"name":"Zaanstraat","highway":"residential","profile":"car","distance":"280.8661","time":"26.96315"}},{"type":"Feature","name":"ShapeMeta","geometry":{"type":"LineString","coordinates":[[4.349578,51.84632],[4.349573,51.84652],[4.349569,51.8466],[4.349569,51.8466]]},"properties":{"highway":"service","profile":"car","distance":"312.2186","time":"31.97954"}},{"type":"Feature","name":"ShapeMeta","geometry":{"type":"LineString","coordinates":[[4.349569,51.8466],[4.34947,51.84666],[4.349043,51.84666]]},"properties":{"highway":"service","profile":"car","distance":"351.0661","time":"38.19514"}},{"type":"Feature","name":"ShapeMeta","geometry":{"type":"LineString","coordinates":[[4.349043,51.84666],[4.349046,51.84681]]},"properties":{"name":"Eemstraat","highway":"service","profile":"car","distance":"367.1661","time":"40.77114"}},{"type":"Feature","name":"ShapeMeta","geometry":{"type":"LineString","coordinates":[[4.349046,51.84681],[4.349036,51.84694]]},"properties":{"name":"Eemstraat","highway":"service","profile":"car","distance":"381.9661","time":"43.13915"}},{"type":"Feature","name":"ShapeMeta","geometry":{"type":"LineString","coordinates":[[4.349036,51.84694],[4.349021,51.84713],[4.349012,51.84723]]},"properties":{"name":"Eemstraat","highway":"service","profile":"car","distance":"414.1661","time":"48.29115"}},{"type":"Feature","name":"ShapeMeta","geometry":{"type":"LineString","coordinates":[[4.349012,51.84723],[4.348893,51.84723]]},"properties":{"name":"Donaulaan","highway":"unclassified","maxspeed":"50","profile":"car","distance":"422.3661","time":"49.07835"}},{"type":"Feature","name":"ShapeMeta","geometry":{"type":"LineString","coordinates":[[4.348893,51.84723],[4.348896,51.84728]]},"properties":{"name":"Biesboschstraat","highway":"living_street","profile":"car","distance":"428.6661","time":"55.12635"}},{"type":"Feature","name":"ShapeMeta","geometry":{"type":"LineString","coordinates":[[4.348896,51.84728],[4.3489,51.8479]]},"properties":{"name":"Amerstraat","highway":"living_street","profile":"car","distance":"497.3661","time":"121.0783"}},{"type":"Feature","name":"ShapeMeta","geometry":{"type":"LineString","coordinates":[[4.3489,51.8479],[4.3489,51.8481]]},"properties":{"name":"Biesboschstraat","highway":"living_street","profile":"car","distance":"519.4187","time":"142.2488"}},{"type":"Feature","name":"ShapeMeta","geometry":{"type":"LineString","coordinates":[[4.3489,51.8481],[4.3489,51.8481],[4.347548,51.8481]]},"properties":{"name":"Biesboschstraat","highway":"living_street","profile":"car","distance":"612.2601","time":"231.3765"}},{"type":"Feature","name":"ShapeMeta","geometry":{"type":"LineString","coordinates":[[4.347548,51.8481],[4.3489,51.8481],[4.3489,51.8479]]},"properties":{"name":"Biesboschstraat","highway":"living_street","profile":"car","distance":"727.1541","time":"341.6747"}},{"type":"Feature","name":"ShapeMeta","geometry":{"type":"LineString","coordinates":[[4.3489,51.8479],[4.348896,51.84728]]},"properties":{"name":"Amerstraat","highway":"living_street","profile":"car","distance":"795.8541","time":"407.6267"}},{"type":"Feature","name":"ShapeMeta","geometry":{"type":"LineString","coordinates":[[4.348896,51.84728],[4.348893,51.84723]]},"properties":{"name":"Biesboschstraat","highway":"living_street","profile":"car","distance":"802.1541","time":"413.6747"}},{"type":"Feature","name":"ShapeMeta","geometry":{"type":"LineString","coordinates":[[4.348893,51.84723],[4.347544,51.84721]]},"properties":{"name":"Donaulaan","highway":"unclassified","maxspeed":"50","profile":"car","distance":"894.754","time":"422.5643"}},{"type":"Feature","name":"ShapeMeta","geometry":{"type":"LineString","coordinates":[[4.347544,51.84721],[4.346646,51.84721]]},"properties":{"name":"Donaulaan","highway":"unclassified","maxspeed":"50","profile":"car","distance":"956.3541","time":"428.4779"}},{"type":"Feature","name":"ShapeMeta","geometry":{"type":"LineString","coordinates":[[4.346646,51.84721],[4.346645,51.84713]]},"properties":{"highway":"living_street","profile":"car","distance":"966.0541","time":"437.7899"}},{"type":"Feature","name":"ShapeMeta","geometry":{"type":"LineString","coordinates":[[4.346645,51.84713],[4.346697,51.84676],[4.347717,51.8461]]},"properties":{"name":"Amstelstraat","highway":"residential","profile":"car","distance":"1108.269","time":"451.4425"}},{"type":"Feature","name":"ShapeMeta","geometry":{"type":"LineString","coordinates":[[4.347717,51.8461],[4.346697,51.84676],[4.346645,51.84713]]},"properties":{"name":"Amstelstraat","highway":"residential","profile":"car","distance":"1250.484","time":"465.0951"}},{"type":"Feature","name":"ShapeMeta","geometry":{"type":"LineString","coordinates":[[4.346645,51.84713],[4.346646,51.84721]]},"properties":{"highway":"living_street","profile":"car","distance":"1260.184","time":"474.4071"}},{"type":"Feature","name":"ShapeMeta","geometry":{"type":"LineString","coordinates":[[4.346646,51.84721],[4.3461,51.8472]]},"properties":{"name":"Donaulaan","highway":"unclassified","maxspeed":"50","profile":"car","distance":"1297.684","time":"478.0071"}},{"type":"Feature","name":"ShapeMeta","geometry":{"type":"LineString","coordinates":[[4.3461,51.8472],[4.345974,51.8472],[4.345412,51.8472],[4.344829,51.8472]]},"properties":{"name":"Donaulaan","highway":"unclassified","maxspeed":"50","profile":"car","distance":"1384.884","time":"486.3783"}},{"type":"Feature","name":"ShapeMeta","geometry":{"type":"LineString","coordinates":[[4.344829,51.8472],[4.344078,51.8472]]},"properties":{"name":"Donaulaan","highway":"unclassified","maxspeed":"50","profile":"car","distance":"1436.384","time":"491.3223"}},{"type":"Feature","name":"ShapeMeta","geometry":{"type":"LineString","coordinates":[[4.344078,51.8472],[4.3439,51.8473],[4.343564,51.84751]]},"properties":{"name":"Donaulaan","highway":"unclassified","maxspeed":"50","profile":"car","distance":"1485.684","time":"496.0551"}},{"type":"Feature","name":"ShapeMeta","geometry":{"type":"LineString","coordinates":[[4.343564,51.84751],[4.342893,51.84793]]},"properties":{"name":"Donaulaan","highway":"unclassified","maxspeed":"50","profile":"car","distance":"1551.184","time":"502.3431"}},{"type":"Feature","name":"ShapeMeta","geometry":{"type":"LineString","coordinates":[[4.342893,51.84793],[4.34281,51.84787],[4.342543,51.8477],[4.342034,51.84737]]},"properties":{"name":"Seinestraat","highway":"residential","profile":"car","distance":"1636.984","time":"510.5799"}},{"type":"Feature","name":"ShapeMeta","geometry":{"type":"LineString","coordinates":[[4.342034,51.84737],[4.34173,51.84752],[4.341685,51.84754],[4.341333,51.84753]]},"properties":{"name":"Rhônestraat","highway":"residential","maxspeed":"30","profile":"car","distance":"1691.806","time":"519.3514"}},{"type":"Feature","name":"ShapeMeta","geometry":{"type":"LineString","coordinates":[[4.341333,51.84753],[4.340586,51.84752],[4.340288,51.84734]]},"properties":{"name":"Rhônestraat","highway":"residential","maxspeed":"30","profile":"car","distance":"1771.984","time":"532.1799"}},{"type":"Feature","name":"ShapeMeta","geometry":{"type":"LineString","coordinates":[[4.340288,51.84734],[4.339959,51.84753],[4.339936,51.84761],[4.339946,51.84796],[4.33994,51.84805]]},"properties":{"name":"Seinestraat","highway":"residential","maxspeed":"30","profile":"car","distance":"1860.684","time":"546.3719"}},{"type":"Feature","name":"ShapeMeta","geometry":{"type":"LineString","coordinates":[[4.33994,51.84805],[4.339949,51.84815]]},"properties":{"name":"Seinestraat","highway":"residential","profile":"car","distance":"1872.084","time":"547.4662"}},{"type":"Feature","name":"ShapeMeta","geometry":{"type":"LineString","coordinates":[[4.339949,51.84815],[4.339942,51.84821]]},"properties":{"name":"Oude Maasweg","highway":"unclassified","profile":"car","distance":"1878.384","time":"548.071"}},{"type":"Feature","name":"ShapeMeta","geometry":{"type":"LineString","coordinates":[[4.339942,51.84821],[4.339941,51.84828],[4.339931,51.84838]]},"properties":{"name":"Oude Maasweg","highway":"unclassified","profile":"car","distance":"1897.484","time":"549.9047"}},{"type":"Feature","name":"ShapeMeta","geometry":{"type":"LineString","coordinates":[[4.339931,51.84838],[4.342422,51.84838],[4.342572,51.84838],[4.3428,51.8485],[4.343182,51.84875]]},"properties":{"name":"Theemsweg","highway":"residential","profile":"car","distance":"2137.884","time":"572.9831"}},{"type":"Feature","name":"ShapeMeta","geometry":{"type":"LineString","coordinates":[[4.343182,51.84875],[4.343457,51.84892]]},"properties":{"name":"Groenoord","highway":"residential","profile":"car","distance":"2164.084","time":"575.4983"}},{"type":"Feature","name":"ShapeMeta","geometry":{"type":"LineString","coordinates":[[4.343457,51.84892],[4.343237,51.84914]]},"properties":{"name":"Groenoord","highway":"residential","profile":"car","distance":"2192.884","time":"578.2631"}},{"type":"Feature","name":"ShapeMeta","geometry":{"type":"LineString","coordinates":[[4.343237,51.84914],[4.34311,51.84925],[4.34225,51.84966],[4.342212,51.84968]]},"properties":{"name":"Groenoord","highway":"residential","profile":"car","distance":"2285.928","time":"587.1953"}},{"type":"Feature","name":"ShapeMeta","geometry":{"type":"LineString","coordinates":[[4.342212,51.84968],[4.34225,51.84966],[4.34311,51.84925],[4.343237,51.84914]]},"properties":{"name":"Groenoord","highway":"residential","profile":"car","distance":"2378.972","time":"596.1275"}},{"type":"Feature","name":"ShapeMeta","geometry":{"type":"LineString","coordinates":[[4.343237,51.84914],[4.343457,51.84892]]},"properties":{"name":"Groenoord","highway":"residential","profile":"car","distance":"2407.772","time":"598.8923"}},{"type":"Feature","name":"ShapeMeta","geometry":{"type":"LineString","coordinates":[[4.343457,51.84892],[4.34341,51.84889]]},"properties":{"name":"Groenoord","highway":"residential","profile":"car","distance":"2412.23","time":"599.3203"}},{"type":"Feature","name":"ShapeMeta","geometry":{"type":"LineString","coordinates":[[4.34341,51.84889],[4.343182,51.84875]]},"properties":{"name":"Groenoord","highway":"residential","profile":"car","distance":"2433.972","time":"601.4075"}},{"type":"Feature","name":"ShapeMeta","geometry":{"type":"LineString","coordinates":[[4.343182,51.84875],[4.3428,51.8485],[4.342572,51.84838],[4.342422,51.84838],[4.339931,51.84838]]},"properties":{"name":"Theemsweg","highway":"residential","profile":"car","distance":"2674.372","time":"624.4859"}},{"type":"Feature","name":"ShapeMeta","geometry":{"type":"LineString","coordinates":[[4.339931,51.84838],[4.339931,51.84852]]},"properties":{"name":"Oude Maasweg","highway":"unclassified","maxspeed":"30","profile":"car","distance":"2689.572","time":"626.9179"}},{"type":"Feature","name":"ShapeMeta","geometry":{"type":"LineString","coordinates":[[4.339931,51.84852],[4.339904,51.84874]]},"properties":{"name":"Oude Maasweg","highway":"unclassified","maxspeed":"30","profile":"car","distance":"2714.172","time":"630.8539"}},{"type":"Feature","name":"ShapeMeta","geometry":{"type":"LineString","coordinates":[[4.339904,51.84874],[4.339923,51.84883],[4.339965,51.84892],[4.340407,51.84923]]},"properties":{"name":"Oude Maasweg","highway":"unclassified","maxspeed":"30","profile":"car","distance":"2780.271","time":"641.4299"}},{"type":"Feature","name":"ShapeMeta","geometry":{"type":"LineString","coordinates":[[4.340407,51.84923],[4.341409,51.84985],[4.342261,51.85032],[4.34355,51.85109],[4.344573,51.85167]]},"properties":{"name":"Oude Maasweg","highway":"unclassified","maxspeed":"30","profile":"car","distance":"3174.472","time":"704.5019"}},{"type":"Feature","name":"ShapeMeta","geometry":{"type":"LineString","coordinates":[[4.344573,51.85167],[4.344532,51.85169],[4.343954,51.8521]]},"properties":{"name":"Hongerlandsedijk","highway":"residential","maxspeed":"30","profile":"car","distance":"3238.428","time":"714.735"}},{"type":"Feature","name":"ShapeMeta","geometry":{"type":"LineString","coordinates":[[4.343954,51.8521],[4.343739,51.85225],[4.343447,51.85246]]},"properties":{"name":"Hongerlandsedijk","highway":"residential","maxspeed":"30","profile":"car","distance":"3291.871","time":"723.2859"}},{"type":"Feature","name":"ShapeMeta","geometry":{"type":"LineString","coordinates":[[4.343447,51.85246],[4.342986,51.8528],[4.342306,51.85329],[4.342105,51.85348]]},"properties":{"name":"Hongerlandsedijk","highway":"residential","maxspeed":"30","profile":"car","distance":"3438.459","time":"746.7399"}},{"type":"Feature","name":"ShapeMeta","geometry":{"type":"LineString","coordinates":[[4.342105,51.85348],[4.341425,51.85414]]},"properties":{"name":"Hongerlandsedijk","highway":"residential","maxspeed":"30","profile":"car","distance":"3525.363","time":"760.6446"}},{"type":"Feature","name":"ShapeMeta","geometry":{"type":"LineString","coordinates":[[4.341425,51.85414],[4.342306,51.85329],[4.342385,51.85323]]},"properties":{"name":"Hongerlandsedijk","highway":"residential","maxspeed":"30","profile":"car","distance":"3646.334","time":"780"}},{"type":"Feature","name":"ShapeMeta","geometry":{"type":"LineString","coordinates":[[4.342385,51.85323],[4.342986,51.8528],[4.343039,51.85276]]},"properties":{"name":"Hongerlandsedijk","highway":"residential","maxspeed":"30","profile":"car","distance":"3715.187","time":"791.0165"}},{"type":"Feature","name":"ShapeMeta","geometry":{"type":"LineString","coordinates":[[4.343039,51.85276],[4.342986,51.8528],[4.342306,51.85329],[4.341385,51.85418],[4.341307,51.85425]]},"properties":{"name":"Hongerlandsedijk","highway":"residential","maxspeed":"30","profile":"car","distance":"3919.419","time":"823.6937"}},{"type":"Feature","name":"ShapeMeta","geometry":{"type":"LineString","coordinates":[[4.341307,51.85425],[4.340813,51.85405]]},"properties":{"name":"Elementenweg","highway":"unclassified","maxspeed":"30","profile":"car","distance":"3959.619","time":"830.1257"}},{"type":"Feature","name":"ShapeMeta","geometry":{"type":"LineString","coordinates":[[4.340813,51.85405],[4.340727,51.85402]]},"properties":{"name":"Elementenweg","highway":"unclassified","maxspeed":"30","profile":"car","distance":"3966.319","time":"831.1976"}},{"type":"Feature","name":"ShapeMeta","geometry":{"type":"LineString","coordinates":[[4.340727,51.85402],[4.340493,51.85393],[4.340118,51.85377],[4.339975,51.85371]]},"properties":{"name":"Elementenweg","highway":"unclassified","maxspeed":"30","profile":"car","distance":"4028.619","time":"841.1656"}},{"type":"Feature","name":"ShapeMeta","geometry":{"type":"LineString","coordinates":[[4.339975,51.85371],[4.339354,51.85344]]},"properties":{"name":"Elementenweg","highway":"unclassified","maxspeed":"30","profile":"car","distance":"4080.52","time":"849.4697"}},{"type":"Feature","name":"ShapeMeta","geometry":{"type":"LineString","coordinates":[[4.339354,51.85344],[4.336773,51.85234],[4.33671,51.85231]]},"properties":{"name":"Elementenweg","highway":"unclassified","oneway":"yes","profile":"car","distance":"4301.819","time":"870.7145"}},{"type":"Feature","name":"ShapeMeta","geometry":{"type":"LineString","coordinates":[[4.33671,51.85231],[4.33632,51.85207],[4.33618,51.85198],[4.335995,51.85187]]},"properties":{"name":"Elementenweg","highway":"unclassified","oneway":"yes","profile":"car","distance":"4370.719","time":"877.3289"}},{"type":"Feature","name":"ShapeMeta","geometry":{"type":"LineString","coordinates":[[4.335995,51.85187],[4.335759,51.85173],[4.334893,51.85123]]},"properties":{"name":"Elementenweg","highway":"unclassified","oneway":"yes","profile":"car","distance":"4474.619","time":"887.3033"}},{"type":"Feature","name":"ShapeMeta","geometry":{"type":"LineString","coordinates":[[4.334893,51.85123],[4.334743,51.85115],[4.334211,51.85078],[4.334111,51.8507]]},"properties":{"name":"Elementenweg","highway":"unclassified","oneway":"yes","profile":"car","distance":"4554.419","time":"894.9641"}},{"type":"Feature","name":"ShapeMeta","geometry":{"type":"LineString","coordinates":[[4.334111,51.8507],[4.334012,51.85062]]},"properties":{"name":"Elementenweg","highway":"unclassified","oneway":"yes","profile":"car","distance":"4565.919","time":"896.0681"}},{"type":"Feature","name":"ShapeMeta","geometry":{"type":"LineString","coordinates":[[4.334012,51.85062],[4.333867,51.85051]]},"properties":{"name":"Doctor J M den Uyllaan","highway":"unclassified","maxspeed":"50","oneway":"yes","profile":"car","distance":"4581.719","time":"897.5849"}},{"type":"Feature","name":"ShapeMeta","geometry":{"type":"LineString","coordinates":[[4.333867,51.85051],[4.333309,51.85004]]},"properties":{"name":"Doctor J M den Uyllaan","highway":"unclassified","maxspeed":"50","oneway":"yes","profile":"car","distance":"4646.419","time":"903.7961"}},{"type":"Feature","name":"ShapeMeta","geometry":{"type":"LineString","coordinates":[[4.333309,51.85004],[4.333288,51.85],[4.333157,51.8499]]},"properties":{"name":"Doctor J M den Uyllaan","highway":"unclassified","maxspeed":"50","oneway":"yes","profile":"car","distance":"4665.319","time":"905.6105"}},{"type":"Feature","name":"ShapeMeta","geometry":{"type":"LineString","coordinates":[[4.333157,51.8499],[4.333076,51.84983]]},"properties":{"name":"Doctor J M den Uyllaan","highway":"unclassified","maxspeed":"50","oneway":"yes","profile":"car","distance":"4674.719","time":"906.5129"}},{"type":"Feature","name":"ShapeMeta","geometry":{"type":"LineString","coordinates":[[4.333076,51.84983],[4.332958,51.84973],[4.332677,51.84953],[4.332369,51.84938],[4.33193,51.84922],[4.331503,51.84909],[4.331293,51.84901]]},"properties":{"name":"Doctor J M den Uyllaan","highway":"unclassified","maxspeed":"50","oneway":"yes","profile":"car","distance":"4829.019","time":"921.3257"}},{"type":"Feature","name":"ShapeMeta","geometry":{"type":"LineString","coordinates":[[4.331293,51.84901],[4.331227,51.84903],[4.331153,51.84904],[4.33108,51.84903]]},"properties":{"name":"Centrumrotonde","highway":"unclassified","maxspeed":"50","oneway":"yes","junction":"roundabout","profile":"car","distance":"4844.219","time":"922.7849"}},{"type":"Feature","name":"ShapeMeta","geometry":{"type":"LineString","coordinates":[[4.33108,51.84903],[4.331021,51.84912],[4.330998,51.84916]]},"properties":{"highway":"service","profile":"car","distance":"4860.104","time":"925.3265"}},{"type":"Feature","name":"ShapeMeta","geometry":{"type":"LineString","coordinates":[[4.330998,51.84916],[4.331021,51.84912],[4.33108,51.84903]]},"properties":{"highway":"service","profile":"car","distance":"4875.989","time":"927.868"}},{"type":"Feature","name":"ShapeMeta","geometry":{"type":"LineString","coordinates":[[4.33108,51.84903],[4.331018,51.849],[4.330974,51.84897],[4.330954,51.84892],[4.330959,51.84888]]},"properties":{"name":"Centrumrotonde","highway":"unclassified","maxspeed":"50","oneway":"yes","junction":"roundabout","profile":"car","distance":"4896.389","time":"929.8264"}},{"type":"Feature","name":"ShapeMeta","geometry":{"type":"LineString","coordinates":[[4.330959,51.84888],[4.330987,51.84884],[4.331035,51.8488]]},"properties":{"name":"Centrumrotonde","highway":"unclassified","maxspeed":"50","oneway":"yes","junction":"roundabout","profile":"car","distance":"4905.989","time":"930.748"}},{"type":"Feature","name":"ShapeMeta","geometry":{"type":"LineString","coordinates":[[4.331035,51.8488],[4.331092,51.84879],[4.331221,51.84879],[4.33128,51.8488]]},"properties":{"name":"Centrumrotonde","highway":"unclassified","maxspeed":"50","oneway":"yes","junction":"roundabout","profile":"car","distance":"4923.789","time":"932.4568"}},{"type":"Feature","name":"ShapeMeta","geometry":{"type":"LineString","coordinates":[[4.33128,51.8488],[4.33132,51.84882],[4.331369,51.84888],[4.331368,51.84894],[4.331348,51.84897]]},"properties":{"name":"Centrumrotonde","highway":"unclassified","maxspeed":"50","oneway":"yes","junction":"roundabout","profile":"car","distance":"4945.389","time":"934.5305"}},{"type":"Feature","name":"ShapeMeta","geometry":{"type":"LineString","coordinates":[[4.331348,51.84897],[4.331888,51.84911],[4.332486,51.84933],[4.332723,51.84946]]},"properties":{"name":"Doctor J M den Uyllaan","highway":"unclassified","maxspeed":"50","oneway":"yes","profile":"car","distance":"5054.691","time":"945.0234"}},{"type":"Feature","name":"ShapeMeta","geometry":{"type":"LineString","coordinates":[[4.332723,51.84946],[4.332773,51.84948],[4.333046,51.84968],[4.33317,51.84978]]},"properties":{"name":"Doctor J M den Uyllaan","highway":"unclassified","maxspeed":"50","oneway":"yes","profile":"car","distance":"5102.489","time":"949.6119"}},{"type":"Feature","name":"ShapeMeta","geometry":{"type":"LineString","coordinates":[[4.33317,51.84978],[4.333248,51.84985]]},"properties":{"name":"Doctor J M den Uyllaan","highway":"unclassified","maxspeed":"50","oneway":"yes","profile":"car","distance":"5111.789","time":"950.5048"}},{"type":"Feature","name":"ShapeMeta","geometry":{"type":"LineString","coordinates":[[4.333248,51.84985],[4.333157,51.8499]]},"properties":{"name":"Gorsstraat","highway":"residential","oneway":"yes","profile":"car","distance":"5119.588","time":"951.2535"}},{"type":"Feature","name":"ShapeMeta","geometry":{"type":"LineString","coordinates":[[4.333157,51.8499],[4.33298,51.84998]]},"properties":{"name":"Gorsstraat","highway":"residential","oneway":"yes","profile":"car","distance":"5134.889","time":"952.7224"}},{"type":"Feature","name":"ShapeMeta","geometry":{"type":"LineString","coordinates":[[4.33298,51.84998],[4.332641,51.8501]]},"properties":{"name":"Gorsstraat","highway":"residential","oneway":"yes","profile":"car","distance":"5161.789","time":"955.3047"}},{"type":"Feature","name":"ShapeMeta","geometry":{"type":"LineString","coordinates":[[4.332641,51.8501],[4.332226,51.85023]]},"properties":{"name":"Gorsstraat","highway":"residential","maxspeed":"30","profile":"car","distance":"5193.889","time":"960.4407"}},{"type":"Feature","name":"ShapeMeta","geometry":{"type":"LineString","coordinates":[[4.332226,51.85023],[4.332183,51.8502],[4.332135,51.84998]]},"properties":{"name":"Gorsstraat","highway":"service","profile":"car","distance":"5222.987","time":"965.0966"}},{"type":"Feature","name":"ShapeMeta","geometry":{"type":"LineString","coordinates":[[4.332135,51.84998],[4.332183,51.8502],[4.332226,51.85023]]},"properties":{"name":"Gorsstraat","highway":"service","profile":"car","distance":"5252.085","time":"969.7524"}},{"type":"Feature","name":"ShapeMeta","geometry":{"type":"LineString","coordinates":[[4.332226,51.85023],[4.332108,51.85028]]},"properties":{"name":"Gorsstraat","highway":"residential","maxspeed":"30","profile":"car","distance":"5261.386","time":"971.2404"}},{"type":"Feature","name":"ShapeMeta","geometry":{"type":"LineString","coordinates":[[4.332108,51.85028],[4.332148,51.85034],[4.332422,51.85058]]},"properties":{"name":"Kolkplein","highway":"service","profile":"car","distance":"5301.386","time":"977.6404"}},{"type":"Feature","name":"ShapeMeta","geometry":{"type":"LineString","coordinates":[[4.332422,51.85058],[4.332453,51.85065]]},"properties":{"name":"Kolkplein","highway":"service","profile":"car","distance":"5310.085","time":"979.0324"}},{"type":"Feature","name":"ShapeMeta","geometry":{"type":"LineString","coordinates":[[4.332453,51.85065],[4.332321,51.85073],[4.332001,51.85083],[4.331883,51.8507]]},"properties":{"name":"Damstraat","highway":"service","profile":"car","distance":"5362.986","time":"987.4965"}},{"type":"Feature","name":"ShapeMeta","geometry":{"type":"LineString","coordinates":[[4.331883,51.8507],[4.331703,51.85074]]},"properties":{"name":"Damstraat","highway":"service","profile":"car","distance":"5376.085","time":"989.5924"}},{"type":"Feature","name":"ShapeMeta","geometry":{"type":"LineString","coordinates":[[4.331703,51.85074],[4.331474,51.8508]]},"properties":{"name":"Damstraat","highway":"service","profile":"car","distance":"5392.986","time":"992.2964"}},{"type":"Feature","name":"ShapeMeta","geometry":{"type":"LineString","coordinates":[[4.331474,51.8508],[4.331285,51.85085]]},"properties":{"name":"Damstraat","highway":"service","profile":"car","distance":"5406.886","time":"994.5204"}},{"type":"Feature","name":"ShapeMeta","geometry":{"type":"LineString","coordinates":[[4.331285,51.85085],[4.331474,51.8508]]},"properties":{"name":"Damstraat","highway":"service","profile":"car","distance":"5420.786","time":"996.7444"}},{"type":"Feature","name":"ShapeMeta","geometry":{"type":"LineString","coordinates":[[4.331474,51.8508],[4.331703,51.85074]]},"properties":{"name":"Damstraat","highway":"service","profile":"car","distance":"5437.686","time":"999.4484"}},{"type":"Feature","name":"ShapeMeta","geometry":{"type":"LineString","coordinates":[[4.331703,51.85074],[4.331883,51.8507]]},"properties":{"name":"Damstraat","highway":"service","profile":"car","distance":"5450.786","time":"1001.544"}},{"type":"Feature","name":"ShapeMeta","geometry":{"type":"LineString","coordinates":[[4.331883,51.8507],[4.332001,51.85083],[4.332321,51.85073],[4.332453,51.85065]]},"properties":{"name":"Damstraat","highway":"service","profile":"car","distance":"5503.686","time":"1010.008"}},{"type":"Feature","name":"ShapeMeta","geometry":{"type":"LineString","coordinates":[[4.332453,51.85065],[4.332422,51.85058]]},"properties":{"name":"Kolkplein","highway":"service","profile":"car","distance":"5512.386","time":"1011.4"}},{"type":"Feature","name":"ShapeMeta","geometry":{"type":"LineString","coordinates":[[4.332422,51.85058],[4.332148,51.85034],[4.332108,51.85028]]},"properties":{"name":"Kolkplein","highway":"service","profile":"car","distance":"5552.386","time":"1017.8"}},{"type":"Feature","name":"ShapeMeta","geometry":{"type":"LineString","coordinates":[[4.332108,51.85028],[4.331715,51.85038]]},"properties":{"name":"Gorsstraat","highway":"residential","maxspeed":"30","profile":"car","distance":"5581.786","time":"1022.504"}},{"type":"Feature","name":"ShapeMeta","geometry":{"type":"LineString","coordinates":[[4.331715,51.85038],[4.331677,51.85033],[4.331636,51.85027],[4.33103,51.85031]]},"properties":{"highway":"service","profile":"car","distance":"5637.486","time":"1031.416"}},{"type":"Feature","name":"ShapeMeta","geometry":{"type":"LineString","coordinates":[[4.33103,51.85031],[4.331636,51.85027],[4.331677,51.85033],[4.331715,51.85038]]},"properties":{"highway":"service","profile":"car","distance":"5693.186","time":"1040.328"}},{"type":"Feature","name":"ShapeMeta","geometry":{"type":"LineString","coordinates":[[4.331715,51.85038],[4.331476,51.85044],[4.331225,51.85048],[4.330701,51.85053]]},"properties":{"name":"Gorsstraat","highway":"residential","maxspeed":"30","profile":"car","distance":"5764.986","time":"1051.816"}},{"type":"Feature","name":"ShapeMeta","geometry":{"type":"LineString","coordinates":[[4.330701,51.85053],[4.330697,51.85058],[4.33073,51.85077],[4.330822,51.8509],[4.330999,51.85117]]},"properties":{"name":"Gorsstraat","highway":"residential","profile":"car","distance":"5839.917","time":"1059.009"}},{"type":"Feature","name":"ShapeMeta","geometry":{"type":"LineString","coordinates":[[4.330999,51.85117],[4.331004,51.85118]]},"properties":{"name":"Gorsstraat","highway":"residential","profile":"car","distance":"5840.764","time":"1059.09"}},{"type":"Feature","name":"ShapeMeta","geometry":{"type":"LineString","coordinates":[[4.331004,51.85118],[4.330822,51.8509],[4.33073,51.85077],[4.330697,51.85058],[4.330701,51.85053]]},"properties":{"name":"Gorsstraat","highway":"residential","profile":"car","distance":"5916.542","time":"1066.365"}},{"type":"Feature","name":"ShapeMeta","geometry":{"type":"LineString","coordinates":[[4.330701,51.85053],[4.33042,51.85056]]},"properties":{"name":"Gorsstraat","highway":"residential","maxspeed":"30","profile":"car","distance":"5935.942","time":"1069.469"}},{"type":"Feature","name":"ShapeMeta","geometry":{"type":"LineString","coordinates":[[4.33042,51.85056],[4.329581,51.85059]]},"properties":{"name":"Gorsstraat","highway":"residential","maxspeed":"30","profile":"car","distance":"5993.737","time":"1078.716"}},{"type":"Feature","name":"ShapeMeta","geometry":{"type":"LineString","coordinates":[[4.329581,51.85059],[4.329352,51.85061]]},"properties":{"name":"Gorsstraat","highway":"residential","maxspeed":"30","profile":"car","distance":"6009.542","time":"1081.245"}},{"type":"Feature","name":"ShapeMeta","geometry":{"type":"LineString","coordinates":[[4.329352,51.85061],[4.329329,51.85047]]},"properties":{"highway":"service","profile":"car","distance":"6024.447","time":"1083.63"}},{"type":"Feature","name":"ShapeMeta","geometry":{"type":"LineString","coordinates":[[4.329329,51.85047],[4.329352,51.85061]]},"properties":{"highway":"service","profile":"car","distance":"6039.352","time":"1086.015"}},{"type":"Feature","name":"ShapeMeta","geometry":{"type":"LineString","coordinates":[[4.329352,51.85061],[4.329322,51.85065],[4.329141,51.8509]]},"properties":{"name":"Noordkade","highway":"residential","maxspeed":"30","profile":"car","distance":"6075.052","time":"1091.727"}},{"type":"Feature","name":"ShapeMeta","geometry":{"type":"LineString","coordinates":[[4.329141,51.8509],[4.328942,51.85114]]},"properties":{"name":"Noordkade","highway":"residential","maxspeed":"30","profile":"car","distance":"6105.352","time":"1096.575"}},{"type":"Feature","name":"ShapeMeta","geometry":{"type":"LineString","coordinates":[[4.328942,51.85114],[4.328838,51.85121]]},"properties":{"name":"Noordkade","highway":"residential","maxspeed":"30","profile":"car","distance":"6115.452","time":"1098.191"}},{"type":"Feature","name":"ShapeMeta","geometry":{"type":"LineString","coordinates":[[4.328838,51.85121],[4.32871,51.85123]]},"properties":{"name":"Noordkade","highway":"residential","maxspeed":"30","profile":"car","distance":"6124.628","time":"1099.659"}},{"type":"Feature","name":"ShapeMeta","geometry":{"type":"LineString","coordinates":[[4.32871,51.85123],[4.328696,51.85123],[4.328696,51.85123]]},"properties":{"name":"Noordkade","highway":"residential","maxspeed":"30","profile":"car","distance":"6125.575","time":"1099.811"}},{"type":"Feature","name":"ShapeMeta","geometry":{"type":"LineString","coordinates":[[4.328696,51.85123],[4.328546,51.85124]]},"properties":{"name":"Noordkade","highway":"residential","maxspeed":"30","profile":"car","distance":"6135.852","time":"1101.455"}},{"type":"Feature","name":"ShapeMeta","geometry":{"type":"LineString","coordinates":[[4.328546,51.85124],[4.328413,51.85122],[4.328269,51.85118],[4.328048,51.85108],[4.32791,51.85096],[4.327793,51.8508],[4.32772,51.85061]]},"properties":{"name":"Oostkade","highway":"residential","profile":"car","distance":"6232.652","time":"1110.748"}},{"type":"Feature","name":"ShapeMeta","geometry":{"type":"LineString","coordinates":[[4.32772,51.85061],[4.327698,51.85055],[4.327627,51.85034],[4.327489,51.85014],[4.327439,51.85012]]},"properties":{"name":"Oostkade","highway":"residential","profile":"car","distance":"6291.652","time":"1116.412"}},{"type":"Feature","name":"ShapeMeta","geometry":{"type":"LineString","coordinates":[[4.327439,51.85012],[4.327358,51.85014],[4.327279,51.85016]]},"properties":{"name":"Kaaistraat","highway":"residential","profile":"car","distance":"6303.652","time":"1117.564"}},{"type":"Feature","name":"ShapeMeta","geometry":{"type":"LineString","coordinates":[[4.327279,51.85016],[4.326955,51.84972],[4.326699,51.84947],[4.3267,51.84941],[4.326747,51.84937],[4.32674,51.84935]]},"properties":{"name":"Rademacherstraat","highway":"service","profile":"car","distance":"6405.372","time":"1133.839"}},{"type":"Feature","name":"ShapeMeta","geometry":{"type":"LineString","coordinates":[[4.32674,51.84935],[4.326747,51.84937],[4.3267,51.84941],[4.326699,51.84947],[4.326955,51.84972],[4.327279,51.85016]]},"properties":{"name":"Rademacherstraat","highway":"service","profile":"car","distance":"6507.092","time":"1150.114"}},{"type":"Feature","name":"ShapeMeta","geometry":{"type":"LineString","coordinates":[[4.327279,51.85016],[4.327358,51.85014],[4.327439,51.85012]]},"properties":{"name":"Kaaistraat","highway":"residential","profile":"car","distance":"6519.092","time":"1151.266"}},{"type":"Feature","name":"ShapeMeta","geometry":{"type":"LineString","coordinates":[[4.327439,51.85012],[4.327489,51.85014],[4.327627,51.85034],[4.327698,51.85055],[4.32772,51.85061]]},"properties":{"name":"Oostkade","highway":"residential","profile":"car","distance":"6578.092","time":"1156.93"}},{"type":"Feature","name":"ShapeMeta","geometry":{"type":"LineString","coordinates":[[4.32772,51.85061],[4.327793,51.8508],[4.32791,51.85096],[4.328048,51.85108],[4.328269,51.85118],[4.328413,51.85122],[4.328546,51.85124]]},"properties":{"name":"Oostkade","highway":"residential","profile":"car","distance":"6674.892","time":"1166.223"}},{"type":"Feature","name":"ShapeMeta","geometry":{"type":"LineString","coordinates":[[4.328546,51.85124],[4.32847,51.85144]]},"properties":{"bridge":"yes","name":"Noordkade","highway":"residential","maxspeed":"30","profile":"car","distance":"6697.492","time":"1169.839"}},{"type":"Feature","name":"ShapeMeta","geometry":{"type":"LineString","coordinates":[[4.32847,51.85144],[4.328449,51.85148]]},"properties":{"name":"Noordkade","highway":"residential","maxspeed":"30","profile":"car","distance":"6702.692","time":"1170.671"}},{"type":"Feature","name":"ShapeMeta","geometry":{"type":"LineString","coordinates":[[4.328449,51.85148],[4.328104,51.85183]]},"properties":{"name":"Noordkade","highway":"residential","maxspeed":"30","profile":"car","distance":"6747.592","time":"1177.855"}},{"type":"Feature","name":"ShapeMeta","geometry":{"type":"LineString","coordinates":[[4.328104,51.85183],[4.328173,51.85185],[4.328633,51.85201],[4.3291,51.8522],[4.33009,51.85262]]},"properties":{"name":"Noordeinde","highway":"residential","oneway":"yes","profile":"car","distance":"6910.292","time":"1193.474"}},{"type":"Feature","name":"ShapeMeta","geometry":{"type":"LineString","coordinates":[[4.33009,51.85262],[4.330145,51.85265]]},"properties":{"name":"Noordeinde","highway":"residential","profile":"car","distance":"6914.861","time":"1193.913"}},{"type":"Feature","name":"ShapeMeta","geometry":{"type":"LineString","coordinates":[[4.330145,51.85265],[4.330255,51.85269]]},"properties":{"name":"Noordeinde","highway":"residential","profile":"car","distance":"6923.892","time":"1194.78"}},{"type":"Feature","name":"ShapeMeta","geometry":{"type":"LineString","coordinates":[[4.330255,51.85269],[4.330449,51.85274]]},"properties":{"name":"Noordeinde","highway":"residential","profile":"car","distance":"6938.092","time":"1196.143"}},{"type":"Feature","name":"ShapeMeta","geometry":{"type":"LineString","coordinates":[[4.330449,51.85274],[4.330648,51.85275],[4.330738,51.85278],[4.330772,51.85279]]},"properties":{"name":"Noordeinde","highway":"residential","profile":"car","distance":"6961.492","time":"1198.39"}},{"type":"Feature","name":"ShapeMeta","geometry":{"type":"LineString","coordinates":[[4.330772,51.85279],[4.330915,51.85284]]},"properties":{"name":"Noordeinde","highway":"unclassified","profile":"car","distance":"6972.492","time":"1199.446"}},{"type":"Feature","name":"ShapeMeta","geometry":{"type":"LineString","coordinates":[[4.330915,51.85284],[4.331012,51.85288]]},"properties":{"name":"Noordeinde","highway":"unclassified","profile":"car","distance":"6980.292","time":"1200.194"}},{"type":"Feature","name":"ShapeMeta","geometry":{"type":"LineString","coordinates":[[4.331012,51.85288],[4.330692,51.85326]]},"properties":{"name":"Schenkelweg","maxspeed":"50","oneway":"yes","highway":"secondary","profile":"car","distance":"7027.992","time":"1204.774"}},{"type":"Feature","name":"ShapeMeta","geometry":{"type":"LineString","coordinates":[[4.330692,51.85326],[4.33034,51.85364],[4.329596,51.85443]]},"properties":{"name":"Schenkelweg","maxspeed":"50","oneway":"yes","highway":"secondary","profile":"car","distance":"7178.392","time":"1219.212"}},{"type":"Feature","name":"ShapeMeta","geometry":{"type":"LineString","coordinates":[[4.329596,51.85443],[4.329432,51.85459],[4.329393,51.85463],[4.329253,51.85476]]},"properties":{"name":"Schenkelweg","maxspeed":"50","oneway":"yes","highway":"secondary","profile":"car","distance":"7221.792","time":"1223.378"}},{"type":"Feature","name":"ShapeMeta","geometry":{"type":"LineString","coordinates":[[4.329253,51.85476],[4.32914,51.85486]]},"properties":{"name":"Schenkelweg","maxspeed":"50","oneway":"yes","highway":"secondary","profile":"car","distance":"7235.592","time":"1224.703"}},{"type":"Feature","name":"ShapeMeta","geometry":{"type":"LineString","coordinates":[[4.32914,51.85486],[4.329038,51.85482]]},"properties":{"name":"Groene Kruisweg","oneway":"yes","highway":"primary","maxspeed":"80","profile":"car","distance":"7243.691","time":"1225.189"}},{"type":"Feature","name":"ShapeMeta","geometry":{"type":"LineString","coordinates":[[4.329038,51.85482],[4.328821,51.85473],[4.328488,51.85459]]},"properties":{"name":"Groene Kruisweg","oneway":"yes","highway":"primary","maxspeed":"80","profile":"car","distance":"7289.392","time":"1227.931"}},{"type":"Feature","name":"ShapeMeta","geometry":{"type":"LineString","coordinates":[[4.328488,51.85459],[4.328043,51.8544],[4.327366,51.85414]]},"properties":{"name":"Groene Kruisweg","oneway":"yes","highway":"primary","maxspeed":"80","profile":"car","distance":"7381.492","time":"1233.457"}},{"type":"Feature","name":"ShapeMeta","geometry":{"type":"LineString","coordinates":[[4.327366,51.85414],[4.326777,51.85394],[4.326185,51.85377],[4.325708,51.85365]]},"properties":{"name":"Groene Kruisweg","oneway":"yes","highway":"primary","maxspeed":"80","profile":"car","distance":"7507.792","time":"1241.035"}},{"type":"Feature","name":"ShapeMeta","geometry":{"type":"LineString","coordinates":[[4.325708,51.85365],[4.325644,51.85363],[4.325464,51.8536]]},"properties":{"name":"Groene Kruisweg","oneway":"yes","highway":"primary","maxspeed":"80","profile":"car","distance":"7525.492","time":"1242.097"}},{"type":"Feature","name":"ShapeMeta","geometry":{"type":"LineString","coordinates":[[4.325464,51.8536],[4.325237,51.85355]]},"properties":{"name":"Groene Kruisweg","oneway":"yes","highway":"primary","maxspeed":"80","profile":"car","distance":"7541.792","time":"1243.075"}},{"type":"Feature","name":"ShapeMeta","geometry":{"type":"LineString","coordinates":[[4.325237,51.85355],[4.325044,51.8535],[4.323891,51.85326],[4.323193,51.85313]]},"properties":{"name":"Groene Kruisweg","oneway":"yes","highway":"primary","maxspeed":"80","profile":"car","distance":"7689.892","time":"1251.961"}},{"type":"Feature","name":"ShapeMeta","geometry":{"type":"LineString","coordinates":[[4.323193,51.85313],[4.321988,51.85291]]},"properties":{"name":"Groene Kruisweg","oneway":"yes","highway":"primary","maxspeed":"80","profile":"car","distance":"7775.892","time":"1257.121"}},{"type":"Feature","name":"ShapeMeta","geometry":{"type":"LineString","coordinates":[[4.321988,51.85291],[4.321598,51.85284]]},"properties":{"name":"Groene Kruisweg","oneway":"yes","highway":"primary","maxspeed":"80","profile":"car","distance":"7803.992","time":"1258.807"}},{"type":"Feature","name":"ShapeMeta","geometry":{"type":"LineString","coordinates":[[4.321598,51.85284],[4.321254,51.85278],[4.319739,51.8525]]},"properties":{"name":"Groene Kruisweg","oneway":"yes","highway":"primary","maxspeed":"80","profile":"car","distance":"7936.992","time":"1266.787"}},{"type":"Feature","name":"ShapeMeta","geometry":{"type":"LineString","coordinates":[[4.319739,51.8525],[4.318846,51.85234],[4.317945,51.85218]]},"properties":{"name":"Groene Kruisweg","oneway":"yes","highway":"primary","maxspeed":"80","profile":"car","distance":"8065.092","time":"1274.473"}},{"type":"Feature","name":"ShapeMeta","geometry":{"type":"LineString","coordinates":[[4.317945,51.85218],[4.317867,51.85217],[4.317599,51.85212]]},"properties":{"name":"Groene Kruisweg","oneway":"yes","highway":"primary","maxspeed":"80","profile":"car","distance":"8089.692","time":"1275.949"}},{"type":"Feature","name":"ShapeMeta","geometry":{"type":"LineString","coordinates":[[4.317599,51.85212],[4.317521,51.8523],[4.317275,51.85261]]},"properties":{"name":"Winston Churchilllaan","maxspeed":"50","highway":"tertiary","oneway":"yes","profile":"car","distance":"8148.592","time":"1281.604"}},{"type":"Feature","name":"ShapeMeta","geometry":{"type":"LineString","coordinates":[[4.317275,51.85261],[4.317192,51.85284],[4.317157,51.85292],[4.317067,51.85312]]},"properties":{"name":"Winston Churchilllaan","maxspeed":"50","highway":"tertiary","profile":"car","distance":"8207.191","time":"1287.229"}},{"type":"Feature","name":"ShapeMeta","geometry":{"type":"LineString","coordinates":[[4.317067,51.85312],[4.317019,51.85323],[4.316827,51.85366]]},"properties":{"name":"Winston Churchilllaan","maxspeed":"50","highway":"tertiary","profile":"car","distance":"8269.597","time":"1293.22"}},{"type":"Feature","name":"ShapeMeta","geometry":{"type":"LineString","coordinates":[[4.316827,51.85366],[4.316722,51.8539],[4.316459,51.8545]]},"properties":{"name":"Winston Churchilllaan","maxspeed":"50","highway":"tertiary","profile":"car","distance":"8365.892","time":"1302.464"}},{"type":"Feature","name":"ShapeMeta","geometry":{"type":"LineString","coordinates":[[4.316459,51.8545],[4.316312,51.85477],[4.315972,51.85545]]},"properties":{"name":"Winston Churchilllaan","maxspeed":"50","highway":"tertiary","profile":"car","distance":"8476.592","time":"1313.092"}},{"type":"Feature","name":"ShapeMeta","geometry":{"type":"LineString","coordinates":[[4.315972,51.85545],[4.315952,51.85565],[4.315853,51.85585],[4.315795,51.85597]]},"properties":{"name":"Winston Churchilllaan","maxspeed":"50","highway":"tertiary","oneway":"yes","profile":"car","distance":"8536.292","time":"1318.823"}},{"type":"Feature","name":"ShapeMeta","geometry":{"type":"LineString","coordinates":[[4.315795,51.85597],[4.315802,51.85608],[4.315858,51.85614]]},"properties":{"highway":"unclassified","maxspeed":"50","oneway":"yes","profile":"car","distance":"8555.892","time":"1320.704"}},{"type":"Feature","name":"ShapeMeta","geometry":{"type":"LineString","coordinates":[[4.315858,51.85614],[4.316232,51.85624],[4.316476,51.85632]]},"properties":{"highway":"unclassified","maxspeed":"50","oneway":"yes","profile":"car","distance":"8602.792","time":"1325.207"}},{"type":"Feature","name":"ShapeMeta","geometry":{"type":"LineString","coordinates":[[4.316476,51.85632],[4.316631,51.85635]]},"properties":{"name":"Willemshoevelaan","highway":"unclassified","maxspeed":"50","profile":"car","distance":"8613.792","time":"1326.263"}},{"type":"Feature","name":"ShapeMeta","geometry":{"type":"LineString","coordinates":[[4.316631,51.85635],[4.316713,51.85616]]},"properties":{"name":"Anjerstraat","highway":"residential","maxspeed":"30","profile":"car","distance":"8635.691","time":"1329.767"}},{"type":"Feature","name":"ShapeMeta","geometry":{"type":"LineString","coordinates":[[4.316713,51.85616],[4.316796,51.85596]]},"properties":{"name":"Anjerstraat","highway":"residential","maxspeed":"30","profile":"car","distance":"8657.992","time":"1333.335"}},{"type":"Feature","name":"ShapeMeta","geometry":{"type":"LineString","coordinates":[[4.316796,51.85596],[4.316669,51.85594]]},"properties":{"name":"Anjerplein","highway":"service","profile":"car","distance":"8667.092","time":"1334.791"}},{"type":"Feature","name":"ShapeMeta","geometry":{"type":"LineString","coordinates":[[4.316669,51.85594],[4.316796,51.85596]]},"properties":{"name":"Anjerplein","highway":"service","profile":"car","distance":"8676.191","time":"1336.247"}},{"type":"Feature","name":"ShapeMeta","geometry":{"type":"LineString","coordinates":[[4.316796,51.85596],[4.316713,51.85616]]},"properties":{"name":"Anjerstraat","highway":"residential","maxspeed":"30","profile":"car","distance":"8698.492","time":"1339.815"}},{"type":"Feature","name":"ShapeMeta","geometry":{"type":"LineString","coordinates":[[4.316713,51.85616],[4.316631,51.85635]]},"properties":{"name":"Anjerstraat","highway":"residential","maxspeed":"30","profile":"car","distance":"8720.392","time":"1343.319"}},{"type":"Feature","name":"ShapeMeta","geometry":{"type":"LineString","coordinates":[[4.316631,51.85635],[4.316476,51.85632]]},"properties":{"name":"Willemshoevelaan","highway":"unclassified","maxspeed":"50","profile":"car","distance":"8731.392","time":"1344.375"}},{"type":"Feature","name":"ShapeMeta","geometry":{"type":"LineString","coordinates":[[4.316476,51.85632],[4.315814,51.85624]]},"properties":{"highway":"unclassified","maxspeed":"50","oneway":"yes","profile":"car","distance":"8777.592","time":"1348.81"}},{"type":"Feature","name":"ShapeMeta","geometry":{"type":"LineString","coordinates":[[4.315814,51.85624],[4.315718,51.85625],[4.315625,51.85633]]},"properties":{"highway":"unclassified","maxspeed":"50","oneway":"yes","profile":"car","distance":"8794.892","time":"1350.471"}},{"type":"Feature","name":"ShapeMeta","geometry":{"type":"LineString","coordinates":[[4.315625,51.85633],[4.315619,51.85634],[4.315445,51.85677]]},"properties":{"name":"Winston Churchilllaan","maxspeed":"50","highway":"tertiary","oneway":"yes","profile":"car","distance":"8845.191","time":"1355.3"}},{"type":"Feature","name":"ShapeMeta","geometry":{"type":"LineString","coordinates":[[4.315445,51.85677],[4.315306,51.85688],[4.315206,51.85691]]},"properties":{"maxspeed":"50","highway":"tertiary","oneway":"yes","profile":"car","distance":"8868.392","time":"1357.527"}},{"type":"Feature","name":"ShapeMeta","geometry":{"type":"LineString","coordinates":[[4.315206,51.85691],[4.315098,51.85692],[4.315057,51.85692]]},"properties":{"maxspeed":"50","highway":"tertiary","oneway":"yes","profile":"car","distance":"8878.792","time":"1358.525"}},{"type":"Feature","name":"ShapeMeta","geometry":{"type":"LineString","coordinates":[[4.315057,51.85692],[4.314705,51.85684],[4.314522,51.85675]]},"properties":{"name":"Sportlaan","maxspeed":"50","highway":"tertiary","oneway":"yes","profile":"car","distance":"8920.392","time":"1362.519"}},{"type":"Feature","name":"ShapeMeta","geometry":{"type":"LineString","coordinates":[[4.314522,51.85675],[4.31376,51.8565]]},"properties":{"name":"Sportlaan","maxspeed":"50","highway":"tertiary","profile":"car","distance":"8979.492","time":"1368.193"}},{"type":"Feature","name":"ShapeMeta","geometry":{"type":"LineString","coordinates":[[4.31376,51.8565],[4.313799,51.85641]]},"properties":{"name":"Heyermansstraat","highway":"unclassified","maxspeed":"30","profile":"car","distance":"8990.392","time":"1369.937"}},{"type":"Feature","name":"ShapeMeta","geometry":{"type":"LineString","coordinates":[[4.313799,51.85641],[4.314075,51.85585]]},"properties":{"name":"Heyermansstraat","highway":"residential","maxspeed":"30","profile":"car","distance":"9055.092","time":"1380.289"}},{"type":"Feature","name":"ShapeMeta","geometry":{"type":"LineString","coordinates":[[4.314075,51.85585],[4.314385,51.8559]]},"properties":{"highway":"service","profile":"car","distance":"9076.892","time":"1383.777"}},{"type":"Feature","name":"ShapeMeta","geometry":{"type":"LineString","coordinates":[[4.314385,51.8559],[4.314075,51.85585]]},"properties":{"highway":"service","profile":"car","distance":"9098.691","time":"1387.265"}},{"type":"Feature","name":"ShapeMeta","geometry":{"type":"LineString","coordinates":[[4.314075,51.85585],[4.313799,51.85641]]},"properties":{"name":"Heyermansstraat","highway":"residential","maxspeed":"30","profile":"car","distance":"9163.392","time":"1397.617"}},{"type":"Feature","name":"ShapeMeta","geometry":{"type":"LineString","coordinates":[[4.313799,51.85641],[4.31376,51.8565]]},"properties":{"name":"Heyermansstraat","highway":"unclassified","maxspeed":"30","profile":"car","distance":"9174.292","time":"1399.361"}},{"type":"Feature","name":"ShapeMeta","geometry":{"type":"LineString","coordinates":[[4.31376,51.8565],[4.312825,51.8562]]},"properties":{"name":"Sportlaan","maxspeed":"50","highway":"tertiary","profile":"car","distance":"9246.491","time":"1406.292"}},{"type":"Feature","name":"ShapeMeta","geometry":{"type":"LineString","coordinates":[[4.312825,51.8562],[4.312864,51.85612],[4.312924,51.85599]]},"properties":{"name":"Menno ter Braakstraat","highway":"residential","maxspeed":"30","profile":"car","distance":"9271.567","time":"1410.304"}},{"type":"Feature","name":"ShapeMeta","geometry":{"type":"LineString","coordinates":[[4.312924,51.85599],[4.312864,51.85612],[4.312825,51.8562]]},"properties":{"name":"Menno ter Braakstraat","highway":"residential","maxspeed":"30","profile":"car","distance":"9296.644","time":"1414.316"}},{"type":"Feature","name":"ShapeMeta","geometry":{"type":"LineString","coordinates":[[4.312825,51.8562],[4.312306,51.85604],[4.311938,51.85593]]},"properties":{"name":"Sportlaan","maxspeed":"50","highway":"tertiary","profile":"car","distance":"9364.943","time":"1420.873"}},{"type":"Feature","name":"ShapeMeta","geometry":{"type":"LineString","coordinates":[[4.311938,51.85593],[4.311883,51.85602],[4.311533,51.85647]]},"properties":{"name":"Vondelsingel","highway":"residential","profile":"car","distance":"9431.644","time":"1427.276"}},{"type":"Feature","name":"ShapeMeta","geometry":{"type":"LineString","coordinates":[[4.311533,51.85647],[4.313444,51.85705]]},"properties":{"name":"Rembrandtstraat","highway":"unclassified","maxspeed":"30","profile":"car","distance":"9577.815","time":"1450.664"}},{"type":"Feature","name":"ShapeMeta","geometry":{"type":"LineString","coordinates":[[4.313444,51.85705],[4.311533,51.85647]]},"properties":{"name":"Rembrandtstraat","highway":"unclassified","maxspeed":"30","profile":"car","distance":"9723.987","time":"1474.052"}},{"type":"Feature","name":"ShapeMeta","geometry":{"type":"LineString","coordinates":[[4.311533,51.85647],[4.311137,51.85637]]},"properties":{"name":"Rembrandtstraat","highway":"unclassified","maxspeed":"30","profile":"car","distance":"9753.487","time":"1478.771"}},{"type":"Feature","name":"ShapeMeta","geometry":{"type":"LineString","coordinates":[[4.311137,51.85637],[4.311067,51.85646]]},"properties":{"name":"Paulus Potterstraat","highway":"unclassified","maxspeed":"30","profile":"car","distance":"9764.732","time":"1480.571"}},{"type":"Feature","name":"ShapeMeta","geometry":{"type":"LineString","coordinates":[[4.311067,51.85646],[4.310829,51.85677]]},"properties":{"name":"Paulus Potterstraat","highway":"unclassified","maxspeed":"30","profile":"car","distance":"9802.787","time":"1486.66"}},{"type":"Feature","name":"ShapeMeta","geometry":{"type":"LineString","coordinates":[[4.310829,51.85677],[4.310744,51.85689]]},"properties":{"name":"Paulus Potterstraat","highway":"unclassified","maxspeed":"30","profile":"car","distance":"9817.487","time":"1489.012"}},{"type":"Feature","name":"ShapeMeta","geometry":{"type":"LineString","coordinates":[[4.310744,51.85689],[4.310449,51.85724]]},"properties":{"name":"Paulus Potterstraat","highway":"unclassified","maxspeed":"30","profile":"car","distance":"9861.388","time":"1496.036"}},{"type":"Feature","name":"ShapeMeta","geometry":{"type":"LineString","coordinates":[[4.310449,51.85724],[4.310363,51.85734],[4.310281,51.85751]]},"properties":{"name":"Paulus Potterstraat","highway":"unclassified","maxspeed":"30","profile":"car","distance":"9893.392","time":"1501.156"}},{"type":"Feature","name":"ShapeMeta","geometry":{"type":"LineString","coordinates":[[4.310281,51.85751],[4.31016,51.85776]]},"properties":{"name":"Paulus Potterstraat","highway":"unclassified","maxspeed":"30","profile":"car","distance":"9922.588","time":"1505.827"}},{"type":"Feature","name":"ShapeMeta","geometry":{"type":"LineString","coordinates":[[4.31016,51.85776],[4.310399,51.85781],[4.311162,51.85796]]},"properties":{"name":"Frans Halsstraat","highway":"unclassified","maxspeed":"30","profile":"car","distance":"9994.688","time":"1517.363"}},{"type":"Feature","name":"ShapeMeta","geometry":{"type":"LineString","coordinates":[[4.311162,51.85796],[4.311145,51.85801],[4.31101,51.85837]]},"properties":{"name":"Frans Halsstraat","highway":"unclassified","maxspeed":"30","profile":"car","distance":"10042.09","time":"1524.947"}},{"type":"Feature","name":"ShapeMeta","geometry":{"type":"LineString","coordinates":[[4.31101,51.85837],[4.310989,51.85842],[4.312162,51.85865],[4.31227,51.85867]]},"properties":{"name":"Frans Halsstraat","highway":"unclassified","maxspeed":"30","profile":"car","distance":"10139.59","time":"1540.548"}},{"type":"Feature","name":"ShapeMeta","geometry":{"type":"LineString","coordinates":[[4.31227,51.85867],[4.312162,51.85865],[4.310989,51.85842],[4.31101,51.85837]]},"properties":{"name":"Frans Halsstraat","highway":"unclassified","maxspeed":"30","profile":"car","distance":"10237.1","time":"1556.149"}},{"type":"Feature","name":"ShapeMeta","geometry":{"type":"LineString","coordinates":[[4.31101,51.85837],[4.311145,51.85801],[4.311162,51.85796]]},"properties":{"name":"Frans Halsstraat","highway":"unclassified","maxspeed":"30","profile":"car","distance":"10284.5","time":"1563.733"}},{"type":"Feature","name":"ShapeMeta","geometry":{"type":"LineString","coordinates":[[4.311162,51.85796],[4.310399,51.85781],[4.31016,51.85776]]},"properties":{"name":"Frans Halsstraat","highway":"unclassified","maxspeed":"30","profile":"car","distance":"10356.6","time":"1575.269"}},{"type":"Feature","name":"ShapeMeta","geometry":{"type":"LineString","coordinates":[[4.31016,51.85776],[4.309658,51.85768],[4.308916,51.85755]]},"properties":{"name":"Frans Halsstraat","highway":"unclassified","maxspeed":"30","profile":"car","distance":"10445.11","time":"1589.431"}},{"type":"Feature","name":"ShapeMeta","geometry":{"type":"LineString","coordinates":[[4.308916,51.85755],[4.308895,51.85755],[4.309099,51.85712],[4.309131,51.85706]]},"properties":{"name":"Frans Halsstraat","highway":"unclassified","maxspeed":"30","profile":"car","distance":"10503.3","time":"1598.741"}},{"type":"Feature","name":"ShapeMeta","geometry":{"type":"LineString","coordinates":[[4.309131,51.85706],[4.308637,51.85698],[4.3082,51.8569]]},"properties":{"name":"Frans Halsstraat","highway":"unclassified","maxspeed":"30","profile":"car","distance":"10569.6","time":"1609.349"}},{"type":"Feature","name":"ShapeMeta","geometry":{"type":"LineString","coordinates":[[4.3082,51.8569],[4.307892,51.85684]]},"properties":{"name":"Frans Halsstraat","highway":"unclassified","maxspeed":"30","profile":"car","distance":"10591.7","time":"1612.885"}},{"type":"Feature","name":"ShapeMeta","geometry":{"type":"LineString","coordinates":[[4.307892,51.85684],[4.307408,51.85676],[4.306632,51.85663]]},"properties":{"name":"Frans Halsstraat","highway":"unclassified","maxspeed":"30","profile":"car","distance":"10681.3","time":"1627.221"}},{"type":"Feature","name":"ShapeMeta","geometry":{"type":"LineString","coordinates":[[4.306632,51.85663],[4.306559,51.85662]]},"properties":{"name":"Pieter de Hooghstraat","highway":"unclassified","maxspeed":"30","profile":"car","distance":"10686.5","time":"1628.053"}},{"type":"Feature","name":"ShapeMeta","geometry":{"type":"LineString","coordinates":[[4.306559,51.85662],[4.306632,51.85663]]},"properties":{"name":"Pieter de Hooghstraat","highway":"unclassified","maxspeed":"30","profile":"car","distance":"10691.7","time":"1628.885"}},{"type":"Feature","name":"ShapeMeta","geometry":{"type":"LineString","coordinates":[[4.306632,51.85663],[4.307408,51.85676],[4.307892,51.85684]]},"properties":{"name":"Frans Halsstraat","highway":"unclassified","maxspeed":"30","profile":"car","distance":"10781.3","time":"1643.22"}},{"type":"Feature","name":"ShapeMeta","geometry":{"type":"LineString","coordinates":[[4.307892,51.85684],[4.3081,51.8564],[4.308173,51.85632]]},"properties":{"name":"Jan Steenstraat","highway":"residential","maxspeed":"30","profile":"car","distance":"10842.48","time":"1653.009"}},{"type":"Feature","name":"ShapeMeta","geometry":{"type":"LineString","coordinates":[[4.308173,51.85632],[4.308512,51.85594],[4.308788,51.85563]]},"properties":{"name":"Jan Steenstraat","highway":"residential","maxspeed":"30","profile":"car","distance":"10929.9","time":"1666.996"}},{"type":"Feature","name":"ShapeMeta","geometry":{"type":"LineString","coordinates":[[4.308788,51.85563],[4.308835,51.85564]]},"properties":{"name":"Rembrandtstraat","highway":"unclassified","maxspeed":"30","profile":"car","distance":"10933.5","time":"1667.572"}},{"type":"Feature","name":"ShapeMeta","geometry":{"type":"LineString","coordinates":[[4.308835,51.85564],[4.309528,51.85586],[4.311137,51.85637]]},"properties":{"name":"Rembrandtstraat","highway":"unclassified","maxspeed":"30","profile":"car","distance":"11110.9","time":"1695.956"}},{"type":"Feature","name":"ShapeMeta","geometry":{"type":"LineString","coordinates":[[4.311137,51.85637],[4.311533,51.85647]]},"properties":{"name":"Rembrandtstraat","highway":"unclassified","maxspeed":"30","profile":"car","distance":"11140.4","time":"1700.676"}},{"type":"Feature","name":"ShapeMeta","geometry":{"type":"LineString","coordinates":[[4.311533,51.85647],[4.311883,51.85602],[4.311938,51.85593]]},"properties":{"name":"Vondelsingel","highway":"residential","profile":"car","distance":"11207.1","time":"1707.079"}},{"type":"Feature","name":"ShapeMeta","geometry":{"type":"LineString","coordinates":[[4.311938,51.85593],[4.311979,51.85584]]},"properties":{"name":"Vondelsingel","highway":"unclassified","maxspeed":"30","profile":"car","distance":"11217.2","time":"1708.695"}},{"type":"Feature","name":"ShapeMeta","geometry":{"type":"LineString","coordinates":[[4.311979,51.85584],[4.312379,51.85535]]},"properties":{"name":"Vondelsingel","highway":"unclassified","maxspeed":"30","profile":"car","distance":"11278.41","time":"1718.489"}},{"type":"Feature","name":"ShapeMeta","geometry":{"type":"LineString","coordinates":[[4.312379,51.85535],[4.312426,51.85529]]},"properties":{"name":"Vondelsingel","highway":"unclassified","maxspeed":"30","profile":"car","distance":"11285.5","time":"1719.624"}},{"type":"Feature","name":"ShapeMeta","geometry":{"type":"LineString","coordinates":[[4.312426,51.85529],[4.312773,51.85486]]},"properties":{"name":"Vondelsingel","highway":"unclassified","profile":"car","distance":"11338.6","time":"1724.721"}},{"type":"Feature","name":"ShapeMeta","geometry":{"type":"LineString","coordinates":[[4.312773,51.85486],[4.313175,51.85438]]},"properties":{"name":"Vondelsingel","highway":"unclassified","profile":"car","distance":"11399.02","time":"1730.521"}},{"type":"Feature","name":"ShapeMeta","geometry":{"type":"LineString","coordinates":[[4.313175,51.85438],[4.313207,51.85434]]},"properties":{"name":"Vondelsingel","highway":"unclassified","profile":"car","distance":"11403.8","time":"1730.98"}},{"type":"Feature","name":"ShapeMeta","geometry":{"type":"LineString","coordinates":[[4.313207,51.85434],[4.3136,51.8539]]},"properties":{"name":"Vondelsingel","highway":"unclassified","profile":"car","distance":"11459.5","time":"1736.327"}},{"type":"Feature","name":"ShapeMeta","geometry":{"type":"LineString","coordinates":[[4.3136,51.8539],[4.313242,51.85378],[4.312785,51.85363]]},"properties":{"name":"A M de Jongstraat","highway":"unclassified","maxspeed":"30","profile":"car","distance":"11523","time":"1746.487"}},{"type":"Feature","name":"ShapeMeta","geometry":{"type":"LineString","coordinates":[[4.312785,51.85363],[4.312048,51.8534],[4.311304,51.85318]]},"properties":{"name":"A M de Jongstraat","highway":"unclassified","maxspeed":"30","profile":"car","distance":"11636.5","time":"1764.647"}},{"type":"Feature","name":"ShapeMeta","geometry":{"type":"LineString","coordinates":[[4.311304,51.85318],[4.311505,51.85294]]},"properties":{"name":"Jacob Catsstraat","highway":"unclassified","maxspeed":"30","profile":"car","distance":"11666.6","time":"1769.463"}},{"type":"Feature","name":"ShapeMeta","geometry":{"type":"LineString","coordinates":[[4.311505,51.85294],[4.311612,51.85281]]},"properties":{"name":"Jacob Catsstraat","highway":"unclassified","maxspeed":"30","profile":"car","distance":"11682","time":"1771.927"}},{"type":"Feature","name":"ShapeMeta","geometry":{"type":"LineString","coordinates":[[4.311612,51.85281],[4.31178,51.85262]]},"properties":{"name":"Jacob Catsstraat","highway":"unclassified","maxspeed":"30","profile":"car","distance":"11706.8","time":"1775.895"}},{"type":"Feature","name":"ShapeMeta","geometry":{"type":"LineString","coordinates":[[4.31178,51.85262],[4.31118,51.85243]]},"properties":{"name":"Westersingel","highway":"residential","maxspeed":"30","profile":"car","distance":"11752.7","time":"1783.239"}},{"type":"Feature","name":"ShapeMeta","geometry":{"type":"LineString","coordinates":[[4.31118,51.85243],[4.3105,51.8522],[4.310389,51.85228],[4.309909,51.85262]]},"properties":{"name":"Westersingel","highway":"residential","maxspeed":"30","profile":"car","distance":"11868.05","time":"1801.695"}},{"type":"Feature","name":"ShapeMeta","geometry":{"type":"LineString","coordinates":[[4.309909,51.85262],[4.310389,51.85228],[4.3105,51.8522],[4.31118,51.85243]]},"properties":{"name":"Westersingel","highway":"residential","maxspeed":"30","profile":"car","distance":"11983.4","time":"1820.151"}},{"type":"Feature","name":"ShapeMeta","geometry":{"type":"LineString","coordinates":[[4.31118,51.85243],[4.31178,51.85262]]},"properties":{"name":"Westersingel","highway":"residential","maxspeed":"30","profile":"car","distance":"12029.3","time":"1827.495"}},{"type":"Feature","name":"ShapeMeta","geometry":{"type":"LineString","coordinates":[[4.31178,51.85262],[4.312022,51.85233]]},"properties":{"name":"Jacob Catsstraat","highway":"unclassified","maxspeed":"30","profile":"car","distance":"12065.64","time":"1833.309"}},{"type":"Feature","name":"ShapeMeta","geometry":{"type":"LineString","coordinates":[[4.312022,51.85233],[4.31178,51.85262]]},"properties":{"name":"Jacob Catsstraat","highway":"unclassified","maxspeed":"30","profile":"car","distance":"12101.98","time":"1839.123"}},{"type":"Feature","name":"ShapeMeta","geometry":{"type":"LineString","coordinates":[[4.31178,51.85262],[4.311612,51.85281]]},"properties":{"name":"Jacob Catsstraat","highway":"unclassified","maxspeed":"30","profile":"car","distance":"12126.78","time":"1843.091"}},{"type":"Feature","name":"ShapeMeta","geometry":{"type":"LineString","coordinates":[[4.311612,51.85281],[4.311505,51.85294]]},"properties":{"name":"Jacob Catsstraat","highway":"unclassified","maxspeed":"30","profile":"car","distance":"12142.18","time":"1845.555"}},{"type":"Feature","name":"ShapeMeta","geometry":{"type":"LineString","coordinates":[[4.311505,51.85294],[4.311304,51.85318]]},"properties":{"name":"Jacob Catsstraat","highway":"unclassified","maxspeed":"30","profile":"car","distance":"12172.28","time":"1850.371"}},{"type":"Feature","name":"ShapeMeta","geometry":{"type":"LineString","coordinates":[[4.311304,51.85318],[4.310989,51.85359]]},"properties":{"name":"Jacob Catsstraat","highway":"unclassified","maxspeed":"30","profile":"car","distance":"12222.88","time":"1858.467"}},{"type":"Feature","name":"ShapeMeta","geometry":{"type":"LineString","coordinates":[[4.310989,51.85359],[4.310945,51.85366]]},"properties":{"name":"Jacob Catsstraat","highway":"unclassified","maxspeed":"30","profile":"car","distance":"12231.08","time":"1859.779"}},{"type":"Feature","name":"ShapeMeta","geometry":{"type":"LineString","coordinates":[[4.310945,51.85366],[4.310486,51.85424]]},"properties":{"name":"Jacob Catsstraat","highway":"unclassified","maxspeed":"30","profile":"car","distance":"12302.78","time":"1871.251"}},{"type":"Feature","name":"ShapeMeta","geometry":{"type":"LineString","coordinates":[[4.310486,51.85424],[4.310596,51.85427]]},"properties":{"name":"Jacob van Lennepstraat","highway":"residential","maxspeed":"30","profile":"car","distance":"12311.19","time":"1872.597"}},{"type":"Feature","name":"ShapeMeta","geometry":{"type":"LineString","coordinates":[[4.310596,51.85427],[4.311101,51.85442],[4.311192,51.85436],[4.311326,51.85434],[4.311436,51.85436],[4.312037,51.85455]]},"properties":{"name":"Jacob van Lennepstraat","highway":"residential","maxspeed":"30","profile":"car","distance":"12422.48","time":"1890.404"}},{"type":"Feature","name":"ShapeMeta","geometry":{"type":"LineString","coordinates":[[4.312037,51.85455],[4.3124,51.8541]]},"properties":{"name":"Bilderdijkstraat","highway":"residential","maxspeed":"30","profile":"car","distance":"12478.68","time":"1899.396"}},{"type":"Feature","name":"ShapeMeta","geometry":{"type":"LineString","coordinates":[[4.3124,51.8541],[4.313207,51.85434]]},"properties":{"name":"Multatulistraat","highway":"residential","maxspeed":"30","profile":"car","distance":"12540.18","time":"1909.236"}},{"type":"Feature","name":"ShapeMeta","geometry":{"type":"LineString","coordinates":[[4.313207,51.85434],[4.3136,51.8539]]},"properties":{"name":"Vondelsingel","highway":"unclassified","profile":"car","distance":"12595.88","time":"1914.583"}},{"type":"Feature","name":"ShapeMeta","geometry":{"type":"LineString","coordinates":[[4.3136,51.8539],[4.314414,51.85413]]},"properties":{"name":"A M de Jongstraat","highway":"unclassified","maxspeed":"30","profile":"car","distance":"12657.48","time":"1924.439"}},{"type":"Feature","name":"ShapeMeta","geometry":{"type":"LineString","coordinates":[[4.314414,51.85413],[4.315199,51.85427]]},"properties":{"name":"A M de Jongstraat","highway":"unclassified","maxspeed":"30","profile":"car","distance":"12713.38","time":"1933.383"}},{"type":"Feature","name":"ShapeMeta","geometry":{"type":"LineString","coordinates":[[4.315199,51.85427],[4.315067,51.85454]]},"properties":{"name":"Slauerhoffstraat","highway":"residential","maxspeed":"30","profile":"car","distance":"12745.26","time":"1938.484"}},{"type":"Feature","name":"ShapeMeta","geometry":{"type":"LineString","coordinates":[[4.315067,51.85454],[4.31471,51.85528],[4.314587,51.85526]]},"properties":{"name":"Slauerhoffstraat","highway":"residential","maxspeed":"30","profile":"car","distance":"12839.82","time":"1953.613"}},{"type":"Feature","name":"ShapeMeta","geometry":{"type":"LineString","coordinates":[[4.314587,51.85526],[4.31471,51.85528],[4.315199,51.85427]]},"properties":{"name":"Slauerhoffstraat","highway":"residential","maxspeed":"30","profile":"car","distance":"12966.25","time":"1973.843"}},{"type":"Feature","name":"ShapeMeta","geometry":{"type":"LineString","coordinates":[[4.315199,51.85427],[4.315477,51.85431]]},"properties":{"name":"A M de Jongstraat","highway":"unclassified","maxspeed":"30","profile":"car","distance":"12985.75","time":"1976.963"}},{"type":"Feature","name":"ShapeMeta","geometry":{"type":"LineString","coordinates":[[4.315477,51.85431],[4.315622,51.85399]]},"properties":{"name":"Herman Gorterstraat","highway":"residential","maxspeed":"30","profile":"car","distance":"13021.97","time":"1982.757"}},{"type":"Feature","name":"ShapeMeta","geometry":{"type":"LineString","coordinates":[[4.315622,51.85399],[4.315617,51.854]]},"properties":{"name":"Herman Gorterstraat","highway":"residential","maxspeed":"30","profile":"car","distance":"13023.33","time":"1982.974"}},{"type":"Feature","name":"ShapeMeta","geometry":{"type":"LineString","coordinates":[[4.315617,51.854],[4.315956,51.85327]]},"properties":{"name":"Herman Gorterstraat","highway":"residential","maxspeed":"30","profile":"car","distance":"13107.97","time":"1996.517"}},{"type":"Feature","name":"ShapeMeta","geometry":{"type":"LineString","coordinates":[[4.315956,51.85327],[4.315232,51.85314]]},"properties":{"name":"P A de Genestetstraat","highway":"residential","maxspeed":"30","profile":"car","distance":"13159.77","time":"2004.805"}},{"type":"Feature","name":"ShapeMeta","geometry":{"type":"LineString","coordinates":[[4.315232,51.85314],[4.314386,51.85291]]},"properties":{"bridge":"yes","name":"P A de Genestetstraat","highway":"residential","maxspeed":"30","profile":"car","distance":"13223.37","time":"2014.981"}},{"type":"Feature","name":"ShapeMeta","geometry":{"type":"LineString","coordinates":[[4.314386,51.85291],[4.314612,51.85265],[4.314917,51.85229]]},"properties":{"name":"Vondelsingel","highway":"unclassified","maxspeed":"30","profile":"car","distance":"13300.31","time":"2027.292"}},{"type":"Feature","name":"ShapeMeta","geometry":{"type":"LineString","coordinates":[[4.314917,51.85229],[4.315,51.8522]]},"properties":{"name":"Vondelsingel","highway":"unclassified","maxspeed":"30","profile":"car","distance":"13312.37","time":"2029.221"}},{"type":"Feature","name":"ShapeMeta","geometry":{"type":"LineString","coordinates":[[4.315,51.8522],[4.317132,51.85259],[4.317275,51.85261]]},"properties":{"name":"Schiekampsingel","highway":"unclassified","maxspeed":"30","profile":"car","distance":"13475.17","time":"2055.269"}},{"type":"Feature","name":"ShapeMeta","geometry":{"type":"LineString","coordinates":[[4.317275,51.85261],[4.317325,51.85233]]},"properties":{"name":"Winston Churchilllaan","maxspeed":"50","highway":"tertiary","oneway":"yes","profile":"car","distance":"13506.67","time":"2058.293"}},{"type":"Feature","name":"ShapeMeta","geometry":{"type":"LineString","coordinates":[[4.317325,51.85233],[4.317343,51.85227],[4.317437,51.85209]]},"properties":{"name":"Winston Churchilllaan","maxspeed":"50","highway":"tertiary","oneway":"yes","profile":"car","distance":"13534.07","time":"2060.924"}},{"type":"Feature","name":"ShapeMeta","geometry":{"type":"LineString","coordinates":[[4.317437,51.85209],[4.317519,51.85193]]},"properties":{"name":"Groene Kruisweg","maxspeed":"50","highway":"tertiary","oneway":"yes","profile":"car","distance":"13552.67","time":"2062.709"}},{"type":"Feature","name":"ShapeMeta","geometry":{"type":"LineString","coordinates":[[4.317519,51.85193],[4.317684,51.85196]]},"properties":{"name":"Groene Kruisweg","oneway":"yes","highway":"primary","maxspeed":"80","profile":"car","distance":"13564.47","time":"2063.417"}},{"type":"Feature","name":"ShapeMeta","geometry":{"type":"LineString","coordinates":[[4.317684,51.85196],[4.317936,51.85201]]},"properties":{"name":"Groene Kruisweg","oneway":"yes","highway":"primary","maxspeed":"80","profile":"car","distance":"13582.37","time":"2064.491"}},{"type":"Feature","name":"ShapeMeta","geometry":{"type":"LineString","coordinates":[[4.317936,51.85201],[4.318954,51.85219],[4.319805,51.85235],[4.320251,51.85243]]},"properties":{"name":"Groene Kruisweg","oneway":"yes","highway":"primary","maxspeed":"80","profile":"car","distance":"13748.27","time":"2074.445"}},{"type":"Feature","name":"ShapeMeta","geometry":{"type":"LineString","coordinates":[[4.320251,51.85243],[4.321268,51.85262],[4.321321,51.85263],[4.321667,51.8527]]},"properties":{"name":"Groene Kruisweg","oneway":"yes","highway":"primary","maxspeed":"80","profile":"car","distance":"13850.07","time":"2080.553"}},{"type":"Feature","name":"ShapeMeta","geometry":{"type":"LineString","coordinates":[[4.321667,51.8527],[4.322911,51.85293],[4.323774,51.8531]]},"properties":{"name":"Groene Kruisweg","oneway":"yes","highway":"primary","maxspeed":"80","profile":"car","distance":"14001.47","time":"2089.637"}},{"type":"Feature","name":"ShapeMeta","geometry":{"type":"LineString","coordinates":[[4.323774,51.8531],[4.324452,51.85324],[4.325118,51.85337],[4.325302,51.85341]]},"properties":{"name":"Groene Kruisweg","oneway":"yes","highway":"primary","maxspeed":"80","profile":"car","distance":"14111.87","time":"2096.261"}},{"type":"Feature","name":"ShapeMeta","geometry":{"type":"LineString","coordinates":[[4.325302,51.85341],[4.325373,51.85328],[4.325553,51.85301]]},"properties":{"name":"Stationsstraat","highway":"unclassified","oneway":"yes","profile":"car","distance":"14159.97","time":"2100.879"}},{"type":"Feature","name":"ShapeMeta","geometry":{"type":"LineString","coordinates":[[4.325553,51.85301],[4.325679,51.85267]]},"properties":{"name":"Stationsstraat","highway":"unclassified","profile":"car","distance":"14198.67","time":"2104.594"}},{"type":"Feature","name":"ShapeMeta","geometry":{"type":"LineString","coordinates":[[4.325679,51.85267],[4.325161,51.85257]]},"properties":{"name":"Jan Campertlaan","highway":"residential","profile":"car","distance":"14235.77","time":"2108.156"}},{"type":"Feature","name":"ShapeMeta","geometry":{"type":"LineString","coordinates":[[4.325161,51.85257],[4.324966,51.85254]]},"properties":{"name":"Jan Campertlaan","highway":"residential","profile":"car","distance":"14249.57","time":"2109.48"}},{"type":"Feature","name":"ShapeMeta","geometry":{"type":"LineString","coordinates":[[4.324966,51.85254],[4.324816,51.85252]]},"properties":{"name":"Jan Campertlaan","highway":"residential","profile":"car","distance":"14260.22","time":"2110.503"}},{"type":"Feature","name":"ShapeMeta","geometry":{"type":"LineString","coordinates":[[4.324816,51.85252],[4.324779,51.85251],[4.324724,51.8525]]},"properties":{"name":"Jan Campertlaan","highway":"residential","profile":"car","distance":"14266.76","time":"2111.131"}},{"type":"Feature","name":"ShapeMeta","geometry":{"type":"LineString","coordinates":[[4.324724,51.8525],[4.324084,51.85237],[4.323496,51.8523],[4.323434,51.85226],[4.32341,51.85223],[4.323465,51.85203],[4.323463,51.85185],[4.323457,51.85166]]},"properties":{"name":"Jan Campertlaan","highway":"residential","profile":"car","distance":"14427.36","time":"2126.549"}},{"type":"Feature","name":"ShapeMeta","geometry":{"type":"LineString","coordinates":[[4.323457,51.85166],[4.323302,51.85097]]},"properties":{"name":"Koningin Julianaplein","highway":"residential","profile":"car","distance":"14504.86","time":"2133.989"}},{"type":"Feature","name":"ShapeMeta","geometry":{"type":"LineString","coordinates":[[4.323302,51.85097],[4.323481,51.85092]]},"properties":{"name":"Boezembocht","highway":"residential","profile":"car","distance":"14518.26","time":"2135.275"}},{"type":"Feature","name":"ShapeMeta","geometry":{"type":"LineString","coordinates":[[4.323481,51.85092],[4.323934,51.8508]]},"properties":{"bridge":"yes","name":"Boezembocht","highway":"residential","profile":"car","distance":"14551.96","time":"2138.51"}},{"type":"Feature","name":"ShapeMeta","geometry":{"type":"LineString","coordinates":[[4.323934,51.8508],[4.324201,51.85075],[4.324437,51.85071],[4.324591,51.85072]]},"properties":{"name":"Zijlstraat","highway":"residential","profile":"car","distance":"14598.67","time":"2142.994"}},{"type":"Feature","name":"ShapeMeta","geometry":{"type":"LineString","coordinates":[[4.324591,51.85072],[4.324603,51.85044],[4.324648,51.85028],[4.324717,51.85025]]},"properties":{"name":"Kerkring","highway":"service","profile":"car","distance":"14653.17","time":"2151.714"}},{"type":"Feature","name":"ShapeMeta","geometry":{"type":"LineString","coordinates":[[4.324717,51.85025],[4.324599,51.84996]]},"properties":{"name":"Markt","highway":"service","maxspeed":"20","profile":"car","distance":"14685.96","time":"2159.586"}},{"type":"Feature","name":"ShapeMeta","geometry":{"type":"LineString","coordinates":[[4.324599,51.84996],[4.32446,51.84978]]},"properties":{"name":"Kees de Groenplein","highway":"residential","profile":"car","distance":"14708.44","time":"2161.744"}},{"type":"Feature","name":"ShapeMeta","geometry":{"type":"LineString","coordinates":[[4.32446,51.84978],[4.324599,51.84996]]},"properties":{"name":"Kees de Groenplein","highway":"residential","profile":"car","distance":"14730.92","time":"2163.902"}},{"type":"Feature","name":"ShapeMeta","geometry":{"type":"LineString","coordinates":[[4.324599,51.84996],[4.324717,51.85025]]},"properties":{"name":"Markt","highway":"service","maxspeed":"20","profile":"car","distance":"14763.72","time":"2171.774"}},{"type":"Feature","name":"ShapeMeta","geometry":{"type":"LineString","coordinates":[[4.324717,51.85025],[4.324648,51.85028],[4.324603,51.85044],[4.324591,51.85072]]},"properties":{"name":"Kerkring","highway":"service","profile":"car","distance":"14818.22","time":"2180.494"}},{"type":"Feature","name":"ShapeMeta","geometry":{"type":"LineString","coordinates":[[4.324591,51.85072],[4.324437,51.85071],[4.324201,51.85075],[4.323934,51.8508]]},"properties":{"name":"Zijlstraat","highway":"residential","profile":"car","distance":"14864.92","time":"2184.977"}},{"type":"Feature","name":"ShapeMeta","geometry":{"type":"LineString","coordinates":[[4.323934,51.8508],[4.323775,51.85063],[4.323048,51.84929]]},"properties":{"name":"Vierambachtenkade Zuidzijde","highway":"residential","profile":"car","distance":"15044.72","time":"2202.238"}},{"type":"Feature","name":"ShapeMeta","geometry":{"type":"LineString","coordinates":[[4.323048,51.84929],[4.323685,51.84901]]},"properties":{"name":"Karel Doormanstraat","highway":"residential","maxspeed":"30","profile":"car","distance":"15098.31","time":"2210.812"}},{"type":"Feature","name":"ShapeMeta","geometry":{"type":"LineString","coordinates":[[4.323685,51.84901],[4.323937,51.8489],[4.324225,51.84877]]},"properties":{"name":"Karel Doormanstraat","highway":"residential","maxspeed":"30","profile":"car","distance":"15144.02","time":"2218.126"}},{"type":"Feature","name":"ShapeMeta","geometry":{"type":"LineString","coordinates":[[4.324225,51.84877],[4.324349,51.84882]]},"properties":{"name":"Vredehofplein","highway":"unclassified","profile":"car","distance":"15154.32","time":"2219.115"}},{"type":"Feature","name":"ShapeMeta","geometry":{"type":"LineString","coordinates":[[4.324349,51.84882],[4.324555,51.84892],[4.324706,51.84899],[4.324899,51.84908]]},"properties":{"name":"Vredehofplein","highway":"unclassified","profile":"car","distance":"15201.82","time":"2223.675"}},{"type":"Feature","name":"ShapeMeta","geometry":{"type":"LineString","coordinates":[[4.324899,51.84908],[4.324858,51.84915],[4.324908,51.84934],[4.325124,51.84966],[4.325201,51.84978]]},"properties":{"name":"Eerste Heulbrugstraat","highway":"unclassified","maxspeed":"30","profile":"car","distance":"15284.62","time":"2236.923"}},{"type":"Feature","name":"ShapeMeta","geometry":{"type":"LineString","coordinates":[[4.325201,51.84978],[4.325124,51.84966],[4.324908,51.84934],[4.324858,51.84915],[4.324899,51.84908]]},"properties":{"name":"Eerste Heulbrugstraat","highway":"unclassified","maxspeed":"30","profile":"car","distance":"15367.42","time":"2250.171"}},{"type":"Feature","name":"ShapeMeta","geometry":{"type":"LineString","coordinates":[[4.324899,51.84908],[4.325092,51.84913],[4.325277,51.84913],[4.325401,51.84909],[4.326077,51.84879],[4.326109,51.84878]]},"properties":{"name":"Marrewijklaan","highway":"unclassified","maxspeed":"30","profile":"car","distance":"15464.02","time":"2265.627"}},{"type":"Feature","name":"ShapeMeta","geometry":{"type":"LineString","coordinates":[[4.326109,51.84878],[4.326143,51.84877]]},"properties":{"name":"Marrewijklaan","highway":"unclassified","maxspeed":"30","profile":"car","distance":"15466.42","time":"2266.011"}},{"type":"Feature","name":"ShapeMeta","geometry":{"type":"LineString","coordinates":[[4.326143,51.84877],[4.326209,51.84875],[4.326477,51.84868],[4.327215,51.84851],[4.327252,51.8485]]},"properties":{"name":"Marrewijklaan","highway":"unclassified","maxspeed":"30","profile":"car","distance":"15548.6","time":"2279.16"}},{"type":"Feature","name":"ShapeMeta","geometry":{"type":"LineString","coordinates":[[4.327252,51.8485],[4.327425,51.84844],[4.327596,51.84834],[4.328483,51.84769],[4.328626,51.84762]]},"properties":{"name":"Marrewijklaan","highway":"unclassified","maxspeed":"30","profile":"car","distance":"15685.22","time":"2301.02"}},{"type":"Feature","name":"ShapeMeta","geometry":{"type":"LineString","coordinates":[[4.328626,51.84762],[4.32875,51.8476],[4.32889,51.84764],[4.328991,51.84769]]},"properties":{"name":"Raadhuislaan","highway":"unclassified","maxspeed":"50","oneway":"yes","profile":"car","distance":"15713.22","time":"2303.708"}},{"type":"Feature","name":"ShapeMeta","geometry":{"type":"LineString","coordinates":[[4.328991,51.84769],[4.329321,51.84789],[4.329386,51.84793]]},"properties":{"name":"Raadhuislaan","highway":"unclassified","maxspeed":"50","oneway":"yes","profile":"car","distance":"15751.02","time":"2307.336"}},{"type":"Feature","name":"ShapeMeta","geometry":{"type":"LineString","coordinates":[[4.329386,51.84793],[4.329487,51.84799],[4.329535,51.84801],[4.3303,51.8484]]},"properties":{"name":"Raadhuislaan","highway":"unclassified","maxspeed":"50","oneway":"yes","profile":"car","distance":"15832.92","time":"2315.199"}},{"type":"Feature","name":"ShapeMeta","geometry":{"type":"LineString","coordinates":[[4.3303,51.8484],[4.330193,51.84849]]},"properties":{"name":"Raadhuislaan","highway":"residential","profile":"car","distance":"15845.12","time":"2316.37"}},{"type":"Feature","name":"ShapeMeta","geometry":{"type":"LineString","coordinates":[[4.330193,51.84849],[4.330126,51.84853]]},"properties":{"name":"H de Lintweg","highway":"residential","profile":"car","distance":"15851.62","time":"2316.994"}},{"type":"Feature","name":"ShapeMeta","geometry":{"type":"LineString","coordinates":[[4.330126,51.84853],[4.329433,51.84902],[4.32921,51.84918]]},"properties":{"name":"H de Lintweg","highway":"residential","profile":"car","distance":"15947.62","time":"2326.21"}},{"type":"Feature","name":"ShapeMeta","geometry":{"type":"LineString","coordinates":[[4.32921,51.84918],[4.329226,51.84929]]},"properties":{"name":"H de Lintweg","highway":"unclassified","profile":"car","distance":"15959.08","time":"2327.31"}},{"type":"Feature","name":"ShapeMeta","geometry":{"type":"LineString","coordinates":[[4.329226,51.84929],[4.329252,51.84946]]},"properties":{"name":"H de Lintweg","highway":"unclassified","profile":"car","distance":"15978.62","time":"2329.186"}},{"type":"Feature","name":"ShapeMeta","geometry":{"type":"LineString","coordinates":[[4.329252,51.84946],[4.329259,51.84946]]},"properties":{"name":"D. Losstraat","highway":"residential","profile":"car","distance":"15979.11","time":"2329.233"}},{"type":"Feature","name":"ShapeMeta","geometry":{"type":"LineString","coordinates":[[4.329259,51.84946],[4.329252,51.84946]]},"properties":{"name":"D. Losstraat","highway":"residential","profile":"car","distance":"15979.6","time":"2329.28"}},{"type":"Feature","name":"ShapeMeta","geometry":{"type":"LineString","coordinates":[[4.329252,51.84946],[4.32921,51.84918]]},"properties":{"name":"H de Lintweg","highway":"unclassified","profile":"car","distance":"16010.6","time":"2332.256"}},{"type":"Feature","name":"ShapeMeta","geometry":{"type":"LineString","coordinates":[[4.32921,51.84918],[4.329433,51.84902],[4.330126,51.84853]]},"properties":{"name":"H de Lintweg","highway":"residential","profile":"car","distance":"16106.6","time":"2341.472"}},{"type":"Feature","name":"ShapeMeta","geometry":{"type":"LineString","coordinates":[[4.330126,51.84853],[4.330193,51.84849]]},"properties":{"name":"H de Lintweg","highway":"residential","profile":"car","distance":"16113.1","time":"2342.096"}},{"type":"Feature","name":"ShapeMeta","geometry":{"type":"LineString","coordinates":[[4.330193,51.84849],[4.3303,51.8484]]},"properties":{"name":"Raadhuislaan","highway":"residential","profile":"car","distance":"16125.3","time":"2343.267"}},{"type":"Feature","name":"ShapeMeta","geometry":{"type":"LineString","coordinates":[[4.3303,51.8484],[4.3304,51.84846],[4.330956,51.84875],[4.331035,51.8488]]},"properties":{"name":"Raadhuislaan","highway":"unclassified","maxspeed":"50","oneway":"yes","profile":"car","distance":"16192.9","time":"2349.757"}},{"type":"Feature","name":"ShapeMeta","geometry":{"type":"LineString","coordinates":[[4.331035,51.8488],[4.331092,51.84879],[4.331221,51.84879],[4.33128,51.8488]]},"properties":{"name":"Centrumrotonde","highway":"unclassified","maxspeed":"50","oneway":"yes","junction":"roundabout","profile":"car","distance":"16210.7","time":"2351.466"}},{"type":"Feature","name":"ShapeMeta","geometry":{"type":"LineString","coordinates":[[4.33128,51.8488],[4.331352,51.84873],[4.331668,51.84846],[4.331856,51.84834],[4.332326,51.84809]]},"properties":{"name":"Centrumlaan","highway":"residential","maxspeed":"50","profile":"car","distance":"16318.3","time":"2361.795"}},{"type":"Feature","name":"ShapeMeta","geometry":{"type":"LineString","coordinates":[[4.332326,51.84809],[4.332897,51.8478]]},"properties":{"name":"Centrumlaan","highway":"residential","maxspeed":"50","profile":"car","distance":"16368.8","time":"2366.643"}},{"type":"Feature","name":"ShapeMeta","geometry":{"type":"LineString","coordinates":[[4.332897,51.8478],[4.333105,51.84767],[4.33334,51.84756]]},"properties":{"name":"Centrumlaan","highway":"unclassified","maxspeed":"50","oneway":"yes","profile":"car","distance":"16409.1","time":"2370.512"}},{"type":"Feature","name":"ShapeMeta","geometry":{"type":"LineString","coordinates":[[4.33334,51.84756],[4.334251,51.84725],[4.334736,51.84706]]},"properties":{"name":"Centrumlaan","highway":"residential","maxspeed":"50","oneway":"yes","profile":"car","distance":"16519.9","time":"2381.149"}},{"type":"Feature","name":"ShapeMeta","geometry":{"type":"LineString","coordinates":[[4.334736,51.84706],[4.33496,51.84697],[4.33504,51.84694],[4.335099,51.84692]]},"properties":{"name":"Centrumlaan","highway":"unclassified","maxspeed":"50","oneway":"yes","profile":"car","distance":"16549.8","time":"2384.02"}},{"type":"Feature","name":"ShapeMeta","geometry":{"type":"LineString","coordinates":[[4.335099,51.84692],[4.335281,51.84685]]},"properties":{"name":"Centrumlaan","highway":"unclassified","maxspeed":"50","oneway":"yes","profile":"car","distance":"16564.4","time":"2385.421"}},{"type":"Feature","name":"ShapeMeta","geometry":{"type":"LineString","coordinates":[[4.335281,51.84685],[4.33539,51.8468]]},"properties":{"name":"Ruwaard van Puttenweg","highway":"unclassified","maxspeed":"50","oneway":"yes","profile":"car","distance":"16573.4","time":"2386.285"}},{"type":"Feature","name":"ShapeMeta","geometry":{"type":"LineString","coordinates":[[4.33539,51.8468],[4.335524,51.84675],[4.335579,51.84673]]},"properties":{"name":"Groenewoudlaan","highway":"unclassified","maxspeed":"50","oneway":"yes","profile":"car","distance":"16588.9","time":"2387.773"}},{"type":"Feature","name":"ShapeMeta","geometry":{"type":"LineString","coordinates":[[4.335579,51.84673],[4.335611,51.84668],[4.335656,51.84656],[4.335763,51.8465],[4.335908,51.84644]]},"properties":{"name":"Groenewoudlaan","highway":"residential","profile":"car","distance":"16630.3","time":"2391.747"}},{"type":"Feature","name":"ShapeMeta","geometry":{"type":"LineString","coordinates":[[4.335908,51.84644],[4.336365,51.84625]]},"properties":{"name":"Groenewoudlaan","highway":"residential","profile":"car","distance":"16667.9","time":"2395.357"}},{"type":"Feature","name":"ShapeMeta","geometry":{"type":"LineString","coordinates":[[4.336365,51.84625],[4.336816,51.84605]]},"properties":{"name":"Groenewoudlaan","highway":"residential","profile":"car","distance":"16705.6","time":"2398.976"}},{"type":"Feature","name":"ShapeMeta","geometry":{"type":"LineString","coordinates":[[4.336816,51.84605],[4.337243,51.84587]]},"properties":{"name":"Groenewoudlaan","highway":"residential","profile":"car","distance":"16741","time":"2402.375"}},{"type":"Feature","name":"ShapeMeta","geometry":{"type":"LineString","coordinates":[[4.337243,51.84587],[4.337677,51.84568]]},"properties":{"name":"Groenewoudlaan","highway":"residential","profile":"car","distance":"16777.6","time":"2405.888"}},{"type":"Feature","name":"ShapeMeta","geometry":{"type":"LineString","coordinates":[[4.337677,51.84568],[4.337641,51.8456],[4.337658,51.84554]]},"properties":{"name":"Griendwerker","highway":"living_street","profile":"car","distance":"16794.14","time":"2421.764"}},{"type":"Feature","name":"ShapeMeta","geometry":{"type":"LineString","coordinates":[[4.337658,51.84554],[4.337641,51.8456],[4.337677,51.84568]]},"properties":{"name":"Griendwerker","highway":"living_street","profile":"car","distance":"16810.68","time":"2437.64"}},{"type":"Feature","name":"ShapeMeta","geometry":{"type":"LineString","coordinates":[[4.337677,51.84568],[4.338938,51.84515]]},"properties":{"name":"Groenewoudlaan","highway":"residential","profile":"car","distance":"16915.68","time":"2447.72"}},{"type":"Feature","name":"ShapeMeta","geometry":{"type":"LineString","coordinates":[[4.338938,51.84515],[4.339327,51.84499],[4.339438,51.84496]]},"properties":{"name":"Groenewoudlaan","highway":"residential","profile":"car","distance":"16956.08","time":"2451.599"}},{"type":"Feature","name":"ShapeMeta","geometry":{"type":"LineString","coordinates":[[4.339438,51.84496],[4.339592,51.84492]]},"properties":{"name":"Groenewoudlaan","highway":"residential","profile":"car","distance":"16967.54","time":"2452.698"}},{"type":"Feature","name":"ShapeMeta","geometry":{"type":"LineString","coordinates":[[4.339592,51.84492],[4.339438,51.84496]]},"properties":{"name":"Groenewoudlaan","highway":"residential","profile":"car","distance":"16979","time":"2453.798"}},{"type":"Feature","name":"ShapeMeta","geometry":{"type":"LineString","coordinates":[[4.339438,51.84496],[4.339325,51.84485],[4.339207,51.84473]]},"properties":{"name":"Hoepelmaker","highway":"residential","maxspeed":"30","profile":"car","distance":"17008.6","time":"2458.534"}},{"type":"Feature","name":"ShapeMeta","geometry":{"type":"LineString","coordinates":[[4.339207,51.84473],[4.338476,51.84408]]},"properties":{"name":"Hoepelmaker","highway":"residential","maxspeed":"30","profile":"car","distance":"17097.1","time":"2472.694"}},{"type":"Feature","name":"ShapeMeta","geometry":{"type":"LineString","coordinates":[[4.338476,51.84408],[4.33842,51.8441]]},"properties":{"name":"Veerman","highway":"residential","maxspeed":"30","profile":"car","distance":"17101.39","time":"2473.382"}},{"type":"Feature","name":"ShapeMeta","geometry":{"type":"LineString","coordinates":[[4.33842,51.8441],[4.337861,51.84433]]},"properties":{"name":"Veerman","highway":"residential","maxspeed":"30","profile":"car","distance":"17147.89","time":"2480.822"}},{"type":"Feature","name":"ShapeMeta","geometry":{"type":"LineString","coordinates":[[4.337861,51.84433],[4.33736,51.84454]]},"properties":{"name":"Veerman","highway":"residential","maxspeed":"30","profile":"car","distance":"17188.89","time":"2487.382"}},{"type":"Feature","name":"ShapeMeta","geometry":{"type":"LineString","coordinates":[[4.33736,51.84454],[4.33733,51.84451]]},"properties":{"name":"Kleermaker","highway":"residential","profile":"car","distance":"17192.64","time":"2487.742"}},{"type":"Feature","name":"ShapeMeta","geometry":{"type":"LineString","coordinates":[[4.33733,51.84451],[4.33736,51.84454]]},"properties":{"name":"Kleermaker","highway":"residential","profile":"car","distance":"17196.39","time":"2488.102"}},{"type":"Feature","name":"ShapeMeta","geometry":{"type":"LineString","coordinates":[[4.33736,51.84454],[4.337123,51.84464]]},"properties":{"name":"Veerman","highway":"residential","maxspeed":"30","profile":"car","distance":"17216.29","time":"2491.286"}},{"type":"Feature","name":"ShapeMeta","geometry":{"type":"LineString","coordinates":[[4.337123,51.84464],[4.336959,51.8447]]},"properties":{"name":"Veerman","highway":"residential","maxspeed":"30","profile":"car","distance":"17229.59","time":"2493.414"}},{"type":"Feature","name":"ShapeMeta","geometry":{"type":"LineString","coordinates":[[4.336959,51.8447],[4.33693,51.84472]]},"properties":{"name":"Veerman","highway":"residential","maxspeed":"30","profile":"car","distance":"17232.09","time":"2493.814"}},{"type":"Feature","name":"ShapeMeta","geometry":{"type":"LineString","coordinates":[[4.33693,51.84472],[4.336197,51.84502],[4.336032,51.84509]]},"properties":{"name":"Veerman","highway":"residential","maxspeed":"30","profile":"car","distance":"17306.11","time":"2505.656"}},{"type":"Feature","name":"ShapeMeta","geometry":{"type":"LineString","coordinates":[[4.336032,51.84509],[4.335715,51.84522]]},"properties":{"name":"Veerman","highway":"residential","maxspeed":"30","profile":"car","distance":"17332.59","time":"2509.894"}},{"type":"Feature","name":"ShapeMeta","geometry":{"type":"LineString","coordinates":[[4.335715,51.84522],[4.335527,51.8453]]},"properties":{"name":"Veerman","highway":"residential","maxspeed":"30","profile":"car","distance":"17347.99","time":"2512.357"}},{"type":"Feature","name":"ShapeMeta","geometry":{"type":"LineString","coordinates":[[4.335527,51.8453],[4.334864,51.84559],[4.334764,51.84564]]},"properties":{"name":"Veerman","highway":"residential","maxspeed":"30","profile":"car","distance":"17412.38","time":"2522.66"}},{"type":"Feature","name":"ShapeMeta","geometry":{"type":"LineString","coordinates":[[4.334764,51.84564],[4.334864,51.84559],[4.335527,51.8453]]},"properties":{"name":"Veerman","highway":"residential","maxspeed":"30","profile":"car","distance":"17476.77","time":"2532.962"}},{"type":"Feature","name":"ShapeMeta","geometry":{"type":"LineString","coordinates":[[4.335527,51.8453],[4.335109,51.84489],[4.334772,51.84456]]},"properties":{"name":"Wagenmaker","highway":"residential","profile":"car","distance":"17573.67","time":"2542.264"}},{"type":"Feature","name":"ShapeMeta","geometry":{"type":"LineString","coordinates":[[4.334772,51.84456],[4.334689,51.84449]]},"properties":{"name":"Wagenmaker","highway":"residential","profile":"car","distance":"17583.87","time":"2543.244"}},{"type":"Feature","name":"ShapeMeta","geometry":{"type":"LineString","coordinates":[[4.334689,51.84449],[4.33406,51.84476]]},"properties":{"name":"Barbier","highway":"residential","profile":"car","distance":"17636.47","time":"2548.293"}},{"type":"Feature","name":"ShapeMeta","geometry":{"type":"LineString","coordinates":[[4.33406,51.84476],[4.333834,51.84485]]},"properties":{"name":"Barbier","highway":"residential","profile":"car","distance":"17655.27","time":"2550.098"}},{"type":"Feature","name":"ShapeMeta","geometry":{"type":"LineString","coordinates":[[4.333834,51.84485],[4.33357,51.84496]]},"properties":{"name":"Barbier","highway":"residential","profile":"car","distance":"17677.17","time":"2552.201"}},{"type":"Feature","name":"ShapeMeta","geometry":{"type":"LineString","coordinates":[[4.33357,51.84496],[4.33348,51.845]]},"properties":{"name":"Barbier","highway":"residential","profile":"car","distance":"17684.64","time":"2552.918"}},{"type":"Feature","name":"ShapeMeta","geometry":{"type":"LineString","coordinates":[[4.33348,51.845],[4.333456,51.84501]]},"properties":{"name":"Barbier","highway":"residential","profile":"car","distance":"17686.67","time":"2553.113"}},{"type":"Feature","name":"ShapeMeta","geometry":{"type":"LineString","coordinates":[[4.333456,51.84501],[4.3331,51.8447],[4.332345,51.84402],[4.332991,51.84376]]},"properties":{"name":"Schrijnwerker","highway":"residential","profile":"car","distance":"17873.85","time":"2571.082"}},{"type":"Feature","name":"ShapeMeta","geometry":{"type":"LineString","coordinates":[[4.332991,51.84376],[4.332345,51.84402],[4.3331,51.8447],[4.333456,51.84501]]},"properties":{"name":"Schrijnwerker","highway":"residential","profile":"car","distance":"18061.03","time":"2589.052"}},{"type":"Feature","name":"ShapeMeta","geometry":{"type":"LineString","coordinates":[[4.333456,51.84501],[4.333418,51.84504],[4.33327,51.84508]]},"properties":{"name":"Barbier","highway":"residential","profile":"car","distance":"18076.03","time":"2590.492"}},{"type":"Feature","name":"ShapeMeta","geometry":{"type":"LineString","coordinates":[[4.33327,51.84508],[4.333194,51.84512]]},"properties":{"name":"Barbier","highway":"residential","profile":"car","distance":"18082.43","time":"2591.106"}},{"type":"Feature","name":"ShapeMeta","geometry":{"type":"LineString","coordinates":[[4.333194,51.84512],[4.332952,51.84493],[4.332513,51.84455],[4.332411,51.84447]]},"properties":{"name":"Ruwaard van Puttenweg","maxspeed":"50","highway":"tertiary","oneway":"yes","profile":"car","distance":"18172.33","time":"2599.736"}},{"type":"Feature","name":"ShapeMeta","geometry":{"type":"LineString","coordinates":[[4.332411,51.84447],[4.332081,51.84415],[4.331894,51.84393],[4.331727,51.84383],[4.331326,51.84372],[4.33113,51.84368],[4.330874,51.84364]]},"properties":{"name":"Ruwaard van Puttenweg","maxspeed":"50","highway":"tertiary","oneway":"yes","profile":"car","distance":"18320.33","time":"2613.944"}},{"type":"Feature","name":"ShapeMeta","geometry":{"type":"LineString","coordinates":[[4.330874,51.84364],[4.330713,51.84357],[4.330662,51.84353]]},"properties":{"name":"Ruwaard van Puttenweg","maxspeed":"50","highway":"tertiary","oneway":"yes","profile":"car","distance":"18339.33","time":"2615.768"}},{"type":"Feature","name":"ShapeMeta","geometry":{"type":"LineString","coordinates":[[4.330662,51.84353],[4.330634,51.84348]]},"properties":{"name":"Ruwaard van Puttenweg","maxspeed":"50","highway":"tertiary","oneway":"yes","profile":"car","distance":"18345.13","time":"2616.325"}},{"type":"Feature","name":"ShapeMeta","geometry":{"type":"LineString","coordinates":[[4.330634,51.84348],[4.33064,51.84335]]},"properties":{"name":"Hekelingseweg","maxspeed":"50","highway":"tertiary","oneway":"yes","profile":"car","distance":"18359.93","time":"2617.746"}},{"type":"Feature","name":"ShapeMeta","geometry":{"type":"LineString","coordinates":[[4.33064,51.84335],[4.33064,51.84331]]},"properties":{"name":"Hekelingseweg","maxspeed":"50","highway":"tertiary","oneway":"yes","profile":"car","distance":"18363.73","time":"2618.111"}},{"type":"Feature","name":"ShapeMeta","geometry":{"type":"LineString","coordinates":[[4.33064,51.84331],[4.330807,51.8426],[4.330707,51.84206],[4.330666,51.84195]]},"properties":{"name":"Hekelingseweg","maxspeed":"50","highway":"tertiary","oneway":"yes","profile":"car","distance":"18516.63","time":"2632.789"}},{"type":"Feature","name":"ShapeMeta","geometry":{"type":"LineString","coordinates":[[4.330666,51.84195],[4.330618,51.84194],[4.330579,51.84192],[4.330551,51.84188]]},"properties":{"name":"Planetenplein","maxspeed":"50","highway":"tertiary","oneway":"yes","junction":"roundabout","profile":"car","distance":"18527.63","time":"2633.845"}},{"type":"Feature","name":"ShapeMeta","geometry":{"type":"LineString","coordinates":[[4.330551,51.84188],[4.330535,51.84185],[4.33054,51.84181],[4.330564,51.84178]]},"properties":{"name":"Planetenplein","maxspeed":"50","highway":"tertiary","oneway":"yes","junction":"roundabout","profile":"car","distance":"18539.93","time":"2635.026"}},{"type":"Feature","name":"ShapeMeta","geometry":{"type":"LineString","coordinates":[[4.330564,51.84178],[4.330614,51.84174],[4.33068,51.84172]]},"properties":{"name":"Planetenplein","maxspeed":"50","highway":"tertiary","oneway":"yes","junction":"roundabout","profile":"car","distance":"18550.03","time":"2635.996"}},{"type":"Feature","name":"ShapeMeta","geometry":{"type":"LineString","coordinates":[[4.33068,51.84172],[4.330733,51.84172],[4.330785,51.84172],[4.330832,51.84174]]},"properties":{"name":"Planetenplein","maxspeed":"50","highway":"tertiary","oneway":"yes","junction":"roundabout","profile":"car","distance":"18560.93","time":"2637.042"}},{"type":"Feature","name":"ShapeMeta","geometry":{"type":"LineString","coordinates":[[4.330832,51.84174],[4.330878,51.84177],[4.330908,51.8418]]},"properties":{"name":"Planetenplein","maxspeed":"50","highway":"tertiary","oneway":"yes","junction":"roundabout","profile":"car","distance":"18569.53","time":"2637.868"}},{"type":"Feature","name":"ShapeMeta","geometry":{"type":"LineString","coordinates":[[4.330908,51.8418],[4.331061,51.84181],[4.331402,51.84182],[4.331864,51.84186],[4.33204,51.84188]]},"properties":{"name":"Eikenlaan","highway":"unclassified","maxspeed":"50","oneway":"yes","profile":"car","distance":"18647.93","time":"2645.394"}},{"type":"Feature","name":"ShapeMeta","geometry":{"type":"LineString","coordinates":[[4.33204,51.84188],[4.332249,51.84189]]},"properties":{"name":"Eikenlaan","highway":"unclassified","maxspeed":"50","profile":"car","distance":"18662.33","time":"2646.776"}},{"type":"Feature","name":"ShapeMeta","geometry":{"type":"LineString","coordinates":[[4.332249,51.84189],[4.332633,51.84191],[4.332995,51.84194]]},"properties":{"name":"Eikenlaan","highway":"unclassified","maxspeed":"50","profile":"car","distance":"18713.93","time":"2651.73"}},{"type":"Feature","name":"ShapeMeta","geometry":{"type":"LineString","coordinates":[[4.332995,51.84194],[4.333108,51.84195],[4.333394,51.84196]]},"properties":{"name":"Eikenlaan","highway":"unclassified","maxspeed":"50","profile":"car","distance":"18741.33","time":"2654.36"}},{"type":"Feature","name":"ShapeMeta","geometry":{"type":"LineString","coordinates":[[4.333394,51.84196],[4.33377,51.84198],[4.334474,51.84201]]},"properties":{"name":"Eikenlaan","highway":"unclassified","maxspeed":"50","profile":"car","distance":"18815.73","time":"2661.503"}},{"type":"Feature","name":"ShapeMeta","geometry":{"type":"LineString","coordinates":[[4.334474,51.84201],[4.335827,51.84207]]},"properties":{"name":"Eikenlaan","highway":"unclassified","maxspeed":"50","profile":"car","distance":"18908.93","time":"2670.45"}},{"type":"Feature","name":"ShapeMeta","geometry":{"type":"LineString","coordinates":[[4.335827,51.84207],[4.33588,51.84212],[4.336011,51.84226],[4.336048,51.84233]]},"properties":{"name":"Larixstraat","highway":"living_street","profile":"car","distance":"18942.33","time":"2702.514"}},{"type":"Feature","name":"ShapeMeta","geometry":{"type":"LineString","coordinates":[[4.336048,51.84233],[4.336172,51.8423],[4.336263,51.84229],[4.336473,51.84229]]},"properties":{"name":"Larixstraat","highway":"living_street","profile":"car","distance":"18972.38","time":"2731.357"}},{"type":"Feature","name":"ShapeMeta","geometry":{"type":"LineString","coordinates":[[4.336473,51.84229],[4.336263,51.84229],[4.336172,51.8423],[4.336048,51.84233]]},"properties":{"name":"Larixstraat","highway":"living_street","profile":"car","distance":"19002.43","time":"2760.2"}},{"type":"Feature","name":"ShapeMeta","geometry":{"type":"LineString","coordinates":[[4.336048,51.84233],[4.336011,51.84226],[4.33588,51.84212],[4.335827,51.84207]]},"properties":{"name":"Larixstraat","highway":"living_street","profile":"car","distance":"19035.83","time":"2792.264"}},{"type":"Feature","name":"ShapeMeta","geometry":{"type":"LineString","coordinates":[[4.335827,51.84207],[4.334474,51.84201]]},"properties":{"name":"Eikenlaan","highway":"unclassified","maxspeed":"50","profile":"car","distance":"19129.03","time":"2801.211"}},{"type":"Feature","name":"ShapeMeta","geometry":{"type":"LineString","coordinates":[[4.334474,51.84201],[4.334468,51.84206]]},"properties":{"name":"Goudenregenplein","highway":"living_street","profile":"car","distance":"19134.55","time":"2806.514"}},{"type":"Feature","name":"ShapeMeta","geometry":{"type":"LineString","coordinates":[[4.334468,51.84206],[4.334466,51.84208],[4.3344,51.8426],[4.334,51.8427],[4.3335,51.8428],[4.333413,51.84282]]},"properties":{"name":"Goudenregenplein","highway":"living_street","profile":"car","distance":"19267.52","time":"2934.159"}},{"type":"Feature","name":"ShapeMeta","geometry":{"type":"LineString","coordinates":[[4.333413,51.84282],[4.3335,51.8428],[4.334,51.8427],[4.3344,51.8426],[4.334466,51.84208],[4.334474,51.84201]]},"properties":{"name":"Goudenregenplein","highway":"living_street","profile":"car","distance":"19406.01","time":"3067.108"}},{"type":"Feature","name":"ShapeMeta","geometry":{"type":"LineString","coordinates":[[4.334474,51.84201],[4.33377,51.84198],[4.333394,51.84196]]},"properties":{"name":"Eikenlaan","highway":"unclassified","maxspeed":"50","profile":"car","distance":"19480.41","time":"3074.25"}},{"type":"Feature","name":"ShapeMeta","geometry":{"type":"LineString","coordinates":[[4.333394,51.84196],[4.33346,51.84143]]},"properties":{"name":"De Olmen","highway":"unclassified","profile":"car","distance":"19538.61","time":"3079.838"}},{"type":"Feature","name":"ShapeMeta","geometry":{"type":"LineString","coordinates":[[4.33346,51.84143],[4.333495,51.84114]]},"properties":{"name":"De Olmen","highway":"unclassified","profile":"car","distance":"19571.31","time":"3082.977"}},{"type":"Feature","name":"ShapeMeta","geometry":{"type":"LineString","coordinates":[[4.333495,51.84114],[4.333225,51.84113]]},"properties":{"name":"Esdoornstraat","highway":"unclassified","profile":"car","distance":"19589.81","time":"3084.753"}},{"type":"Feature","name":"ShapeMeta","geometry":{"type":"LineString","coordinates":[[4.333225,51.84113],[4.332782,51.84111]]},"properties":{"name":"Esdoornstraat","highway":"unclassified","profile":"car","distance":"19620.31","time":"3087.681"}},{"type":"Feature","name":"ShapeMeta","geometry":{"type":"LineString","coordinates":[[4.332782,51.84111],[4.33277,51.84121]]},"properties":{"name":"De Wingerd","highway":"unclassified","profile":"car","distance":"19632.21","time":"3088.823"}},{"type":"Feature","name":"ShapeMeta","geometry":{"type":"LineString","coordinates":[[4.33277,51.84121],[4.332782,51.84111]]},"properties":{"name":"De Wingerd","highway":"unclassified","profile":"car","distance":"19644.11","time":"3089.965"}},{"type":"Feature","name":"ShapeMeta","geometry":{"type":"LineString","coordinates":[[4.332782,51.84111],[4.333225,51.84113]]},"properties":{"name":"Esdoornstraat","highway":"unclassified","profile":"car","distance":"19674.61","time":"3092.893"}},{"type":"Feature","name":"ShapeMeta","geometry":{"type":"LineString","coordinates":[[4.333225,51.84113],[4.333495,51.84114]]},"properties":{"name":"Esdoornstraat","highway":"unclassified","profile":"car","distance":"19693.11","time":"3094.669"}},{"type":"Feature","name":"ShapeMeta","geometry":{"type":"LineString","coordinates":[[4.333495,51.84114],[4.3336,51.8401]]},"properties":{"name":"De Olmen","highway":"unclassified","profile":"car","distance":"19809.11","time":"3105.805"}},{"type":"Feature","name":"ShapeMeta","geometry":{"type":"LineString","coordinates":[[4.3336,51.8401],[4.333503,51.83999],[4.333807,51.83936]]},"properties":{"name":"De Olmen","highway":"unclassified","profile":"car","distance":"19895.71","time":"3114.119"}},{"type":"Feature","name":"ShapeMeta","geometry":{"type":"LineString","coordinates":[[4.333807,51.83936],[4.333582,51.83935]]},"properties":{"name":"Abelenstraat","highway":"unclassified","profile":"car","distance":"19911.17","time":"3115.604"}},{"type":"Feature","name":"ShapeMeta","geometry":{"type":"LineString","coordinates":[[4.333582,51.83935],[4.333807,51.83936]]},"properties":{"name":"Abelenstraat","highway":"unclassified","profile":"car","distance":"19926.64","time":"3117.089"}},{"type":"Feature","name":"ShapeMeta","geometry":{"type":"LineString","coordinates":[[4.333807,51.83936],[4.334751,51.8394]]},"properties":{"name":"Abelenstraat","highway":"unclassified","profile":"car","distance":"19991.54","time":"3123.319"}},{"type":"Feature","name":"ShapeMeta","geometry":{"type":"LineString","coordinates":[[4.334751,51.8394],[4.3347,51.8398],[4.3346,51.8398],[4.334604,51.84016]]},"properties":{"name":"Sleedoornpad","highway":"unclassified","profile":"car","distance":"20082.94","time":"3132.094"}},{"type":"Feature","name":"ShapeMeta","geometry":{"type":"LineString","coordinates":[[4.334604,51.84016],[4.334864,51.84017]]},"properties":{"name":"Kastanjestraat","highway":"unclassified","profile":"car","distance":"20100.81","time":"3133.81"}},{"type":"Feature","name":"ShapeMeta","geometry":{"type":"LineString","coordinates":[[4.334864,51.84017],[4.3356,51.8402]]},"properties":{"name":"Kastanjestraat","highway":"unclassified","profile":"car","distance":"20151.44","time":"3138.67"}},{"type":"Feature","name":"ShapeMeta","geometry":{"type":"LineString","coordinates":[[4.3356,51.8402],[4.3365,51.84026]]},"properties":{"name":"Kastanjestraat","highway":"unclassified","profile":"car","distance":"20213.54","time":"3144.632"}},{"type":"Feature","name":"ShapeMeta","geometry":{"type":"LineString","coordinates":[[4.3365,51.84026],[4.336461,51.84077]]},"properties":{"name":"Essenstraat","highway":"unclassified","profile":"car","distance":"20270.84","time":"3150.133"}},{"type":"Feature","name":"ShapeMeta","geometry":{"type":"LineString","coordinates":[[4.336461,51.84077],[4.336423,51.84115]]},"properties":{"name":"Essenstraat","highway":"unclassified","profile":"car","distance":"20313.28","time":"3154.208"}},{"type":"Feature","name":"ShapeMeta","geometry":{"type":"LineString","coordinates":[[4.336423,51.84115],[4.336461,51.84077]]},"properties":{"name":"Essenstraat","highway":"unclassified","profile":"car","distance":"20355.73","time":"3158.283"}},{"type":"Feature","name":"ShapeMeta","geometry":{"type":"LineString","coordinates":[[4.336461,51.84077],[4.3365,51.84026]]},"properties":{"name":"Essenstraat","highway":"unclassified","profile":"car","distance":"20413.03","time":"3163.784"}},{"type":"Feature","name":"ShapeMeta","geometry":{"type":"LineString","coordinates":[[4.3365,51.84026],[4.3374,51.8403]]},"properties":{"name":"Kastanjestraat","highway":"unclassified","profile":"car","distance":"20475.03","time":"3169.736"}},{"type":"Feature","name":"ShapeMeta","geometry":{"type":"LineString","coordinates":[[4.3374,51.8403],[4.337417,51.84014]]},"properties":{"name":"Beukenlaan","highway":"unclassified","profile":"car","distance":"20493.23","time":"3171.483"}},{"type":"Feature","name":"ShapeMeta","geometry":{"type":"LineString","coordinates":[[4.337417,51.84014],[4.337654,51.84015]]},"properties":{"highway":"unclassified","profile":"car","distance":"20509.43","time":"3173.038"}},{"type":"Feature","name":"ShapeMeta","geometry":{"type":"LineString","coordinates":[[4.337654,51.84015],[4.337648,51.84019],[4.338756,51.84024]]},"properties":{"highway":"unclassified","profile":"car","distance":"20590.43","time":"3180.814"}},{"type":"Feature","name":"ShapeMeta","geometry":{"type":"LineString","coordinates":[[4.338756,51.84024],[4.338978,51.84026]]},"properties":{"highway":"unclassified","profile":"car","distance":"20605.73","time":"3182.283"}},{"type":"Feature","name":"ShapeMeta","geometry":{"type":"LineString","coordinates":[[4.338978,51.84026],[4.338984,51.84032]]},"properties":{"name":"Lindenstraat","highway":"unclassified","profile":"car","distance":"20612.53","time":"3182.936"}},{"type":"Feature","name":"ShapeMeta","geometry":{"type":"LineString","coordinates":[[4.338984,51.84032],[4.339814,51.84035]]},"properties":{"name":"Wilgenstraat","highway":"unclassified","profile":"car","distance":"20669.63","time":"3188.417"}},{"type":"Feature","name":"ShapeMeta","geometry":{"type":"LineString","coordinates":[[4.339814,51.84035],[4.340415,51.84038]]},"properties":{"name":"Wilgenstraat","highway":"unclassified","profile":"car","distance":"20711.03","time":"3192.392"}},{"type":"Feature","name":"ShapeMeta","geometry":{"type":"LineString","coordinates":[[4.340415,51.84038],[4.340582,51.84039]]},"properties":{"name":"Wilgenstraat","highway":"unclassified","profile":"car","distance":"20722.49","time":"3193.492"}},{"type":"Feature","name":"ShapeMeta","geometry":{"type":"LineString","coordinates":[[4.340582,51.84039],[4.341725,51.84043]]},"properties":{"name":"Wilgenstraat","highway":"unclassified","profile":"car","distance":"20801.13","time":"3201.041"}},{"type":"Feature","name":"ShapeMeta","geometry":{"type":"LineString","coordinates":[[4.341725,51.84043],[4.341721,51.84012],[4.341717,51.84002],[4.341702,51.8395]]},"properties":{"name":"Populierenstraat","highway":"unclassified","profile":"car","distance":"20903.72","time":"3210.89"}},{"type":"Feature","name":"ShapeMeta","geometry":{"type":"LineString","coordinates":[[4.341702,51.8395],[4.341178,51.83948]]},"properties":{"name":"Hazelaarstraat","highway":"unclassified","profile":"car","distance":"20939.72","time":"3214.346"}},{"type":"Feature","name":"ShapeMeta","geometry":{"type":"LineString","coordinates":[[4.341178,51.83948],[4.340808,51.83946]]},"properties":{"name":"Hazelaarstraat","highway":"unclassified","profile":"car","distance":"20965.2","time":"3216.792"}},{"type":"Feature","name":"ShapeMeta","geometry":{"type":"LineString","coordinates":[[4.340808,51.83946],[4.340692,51.83946],[4.340141,51.83944]]},"properties":{"name":"Hazelaarstraat","highway":"unclassified","profile":"car","distance":"21011.12","time":"3221.201"}},{"type":"Feature","name":"ShapeMeta","geometry":{"type":"LineString","coordinates":[[4.340141,51.83944],[4.339907,51.83942]]},"properties":{"name":"Hazelaarstraat","highway":"unclassified","profile":"car","distance":"21027.22","time":"3222.746"}},{"type":"Feature","name":"ShapeMeta","geometry":{"type":"LineString","coordinates":[[4.339907,51.83942],[4.33916,51.83938]]},"properties":{"name":"Hazelaarstraat","highway":"unclassified","profile":"car","distance":"21078.72","time":"3227.69"}},{"type":"Feature","name":"ShapeMeta","geometry":{"type":"LineString","coordinates":[[4.33916,51.83938],[4.339021,51.83937]]},"properties":{"name":"Hazelaarstraat","highway":"unclassified","profile":"car","distance":"21088.32","time":"3228.612"}},{"type":"Feature","name":"ShapeMeta","geometry":{"type":"LineString","coordinates":[[4.339021,51.83937],[4.3389,51.83937]]},"properties":{"name":"Hazelaarstraat","highway":"unclassified","profile":"car","distance":"21096.62","time":"3229.409"}},{"type":"Feature","name":"ShapeMeta","geometry":{"type":"LineString","coordinates":[[4.3389,51.83937],[4.33777,51.83931]]},"properties":{"name":"Hazelaarstraat","highway":"unclassified","profile":"car","distance":"21174.42","time":"3236.877"}},{"type":"Feature","name":"ShapeMeta","geometry":{"type":"LineString","coordinates":[[4.33777,51.83931],[4.337754,51.83931]]},"properties":{"name":"Hazelaarstraat","highway":"unclassified","profile":"car","distance":"21175.58","time":"3236.988"}},{"type":"Feature","name":"ShapeMeta","geometry":{"type":"LineString","coordinates":[[4.337754,51.83931],[4.337546,51.8393]]},"properties":{"name":"Hazelaarstraat","highway":"unclassified","profile":"car","distance":"21189.83","time":"3238.356"}},{"type":"Feature","name":"ShapeMeta","geometry":{"type":"LineString","coordinates":[[4.337546,51.8393],[4.337487,51.83948],[4.337436,51.83996]]},"properties":{"name":"Beukenlaan","highway":"unclassified","profile":"car","distance":"21263.23","time":"3245.402"}},{"type":"Feature","name":"ShapeMeta","geometry":{"type":"LineString","coordinates":[[4.337436,51.83996],[4.337417,51.84014]]},"properties":{"name":"Beukenlaan","highway":"unclassified","profile":"car","distance":"21283.13","time":"3247.313"}},{"type":"Feature","name":"ShapeMeta","geometry":{"type":"LineString","coordinates":[[4.337417,51.84014],[4.3374,51.8403]]},"properties":{"name":"Beukenlaan","highway":"unclassified","profile":"car","distance":"21301.33","time":"3249.06"}},{"type":"Feature","name":"ShapeMeta","geometry":{"type":"LineString","coordinates":[[4.3374,51.8403],[4.337399,51.84031]]},"properties":{"name":"Beukenlaan","highway":"unclassified","profile":"car","distance":"21302.6","time":"3249.182"}},{"type":"Feature","name":"ShapeMeta","geometry":{"type":"LineString","coordinates":[[4.337399,51.84031],[4.337197,51.84212]]},"properties":{"name":"Beukenlaan","highway":"unclassified","profile":"car","distance":"21503.63","time":"3268.481"}},{"type":"Feature","name":"ShapeMeta","geometry":{"type":"LineString","coordinates":[[4.337197,51.84212],[4.337291,51.84212]]},"properties":{"name":"Eikenlaan","highway":"unclassified","maxspeed":"50","profile":"car","distance":"21510.13","time":"3269.104"}},{"type":"Feature","name":"ShapeMeta","geometry":{"type":"LineString","coordinates":[[4.337291,51.84212],[4.337842,51.84216]]},"properties":{"name":"Eikenlaan","highway":"service","maxspeed":"50","profile":"car","distance":"21548.13","time":"3272.753"}},{"type":"Feature","name":"ShapeMeta","geometry":{"type":"LineString","coordinates":[[4.337842,51.84216],[4.338156,51.84217]]},"properties":{"name":"Eikenlaan","highway":"unclassified","maxspeed":"50","profile":"car","distance":"21569.73","time":"3274.826"}},{"type":"Feature","name":"ShapeMeta","geometry":{"type":"LineString","coordinates":[[4.338156,51.84217],[4.339045,51.84222]]},"properties":{"name":"Eikenlaan","highway":"unclassified","maxspeed":"50","profile":"car","distance":"21630.93","time":"3280.701"}},{"type":"Feature","name":"ShapeMeta","geometry":{"type":"LineString","coordinates":[[4.339045,51.84222],[4.339032,51.8414]]},"properties":{"name":"Lindenstraat","highway":"unclassified","profile":"car","distance":"21721.63","time":"3289.409"}},{"type":"Feature","name":"ShapeMeta","geometry":{"type":"LineString","coordinates":[[4.339032,51.8414],[4.339045,51.84222]]},"properties":{"name":"Lindenstraat","highway":"unclassified","profile":"car","distance":"21812.34","time":"3298.117"}},{"type":"Feature","name":"ShapeMeta","geometry":{"type":"LineString","coordinates":[[4.339045,51.84222],[4.339289,51.84223]]},"properties":{"name":"Eikenlaan","highway":"unclassified","maxspeed":"50","profile":"car","distance":"21829.08","time":"3299.724"}},{"type":"Feature","name":"ShapeMeta","geometry":{"type":"LineString","coordinates":[[4.339289,51.84223],[4.339945,51.84225],[4.340382,51.84227],[4.340587,51.84228]]},"properties":{"name":"Eikenlaan","highway":"unclassified","maxspeed":"50","profile":"car","distance":"21918.44","time":"3308.302"}},{"type":"Feature","name":"ShapeMeta","geometry":{"type":"LineString","coordinates":[[4.340587,51.84228],[4.340659,51.84235],[4.3408,51.8425]]},"properties":{"name":"Cederstraat","highway":"unclassified","profile":"car","distance":"21946.63","time":"3311.009"}},{"type":"Feature","name":"ShapeMeta","geometry":{"type":"LineString","coordinates":[[4.3408,51.8425],[4.341088,51.84246],[4.341383,51.84253],[4.341501,51.84252]]},"properties":{"name":"Cederstraat","highway":"unclassified","profile":"car","distance":"21996.26","time":"3315.774"}},{"type":"Feature","name":"ShapeMeta","geometry":{"type":"LineString","coordinates":[[4.341501,51.84252],[4.341383,51.84253],[4.341088,51.84246],[4.3408,51.8425]]},"properties":{"name":"Cederstraat","highway":"unclassified","profile":"car","distance":"22045.89","time":"3320.538"}},{"type":"Feature","name":"ShapeMeta","geometry":{"type":"LineString","coordinates":[[4.3408,51.8425],[4.340659,51.84235],[4.340587,51.84228]]},"properties":{"name":"Cederstraat","highway":"unclassified","profile":"car","distance":"22074.09","time":"3323.245"}},{"type":"Feature","name":"ShapeMeta","geometry":{"type":"LineString","coordinates":[[4.340587,51.84228],[4.340803,51.84229]]},"properties":{"name":"Eikenlaan","highway":"unclassified","maxspeed":"50","profile":"car","distance":"22088.89","time":"3324.666"}},{"type":"Feature","name":"ShapeMeta","geometry":{"type":"LineString","coordinates":[[4.340803,51.84229],[4.341797,51.84233]]},"properties":{"name":"Eikenlaan","highway":"unclassified","maxspeed":"50","profile":"car","distance":"22157.29","time":"3331.233"}},{"type":"Feature","name":"ShapeMeta","geometry":{"type":"LineString","coordinates":[[4.341797,51.84233],[4.341792,51.84205]]},"properties":{"name":"Populierenstraat","highway":"unclassified","profile":"car","distance":"22187.79","time":"3334.161"}},{"type":"Feature","name":"ShapeMeta","geometry":{"type":"LineString","coordinates":[[4.341792,51.84205],[4.341781,51.84156]]},"properties":{"name":"Populierenstraat","highway":"unclassified","profile":"car","distance":"22242.86","time":"3339.448"}},{"type":"Feature","name":"ShapeMeta","geometry":{"type":"LineString","coordinates":[[4.341781,51.84156],[4.341792,51.84205]]},"properties":{"name":"Populierenstraat","highway":"unclassified","profile":"car","distance":"22297.93","time":"3344.735"}},{"type":"Feature","name":"ShapeMeta","geometry":{"type":"LineString","coordinates":[[4.341792,51.84205],[4.341797,51.84233]]},"properties":{"name":"Populierenstraat","highway":"unclassified","profile":"car","distance":"22328.43","time":"3347.663"}},{"type":"Feature","name":"ShapeMeta","geometry":{"type":"LineString","coordinates":[[4.341797,51.84233],[4.3431,51.84237]]},"properties":{"name":"Eikenlaan","highway":"unclassified","maxspeed":"50","profile":"car","distance":"22418.04","time":"3356.265"}},{"type":"Feature","name":"ShapeMeta","geometry":{"type":"LineString","coordinates":[[4.3431,51.84237],[4.343118,51.84227],[4.343182,51.84167]]},"properties":{"name":"Iepenlaan","highway":"unclassified","profile":"car","distance":"22496.23","time":"3363.772"}},{"type":"Feature","name":"ShapeMeta","geometry":{"type":"LineString","coordinates":[[4.343182,51.84167],[4.343195,51.84157]]},"properties":{"name":"Iepenlaan","highway":"unclassified","profile":"car","distance":"22507.3","time":"3364.834"}},{"type":"Feature","name":"ShapeMeta","geometry":{"type":"LineString","coordinates":[[4.343195,51.84157],[4.343297,51.84085]]},"properties":{"name":"Iepenlaan","highway":"unclassified","profile":"car","distance":"22588.14","time":"3372.594"}},{"type":"Feature","name":"ShapeMeta","geometry":{"type":"LineString","coordinates":[[4.343297,51.84085],[4.343392,51.83969]]},"properties":{"name":"Iepenlaan","highway":"unclassified","profile":"car","distance":"22716.75","time":"3384.941"}},{"type":"Feature","name":"ShapeMeta","geometry":{"type":"LineString","coordinates":[[4.343392,51.83969],[4.343297,51.84085]]},"properties":{"name":"Iepenlaan","highway":"unclassified","profile":"car","distance":"22845.37","time":"3397.288"}},{"type":"Feature","name":"ShapeMeta","geometry":{"type":"LineString","coordinates":[[4.343297,51.84085],[4.343182,51.84167]]},"properties":{"name":"Iepenlaan","highway":"unclassified","profile":"car","distance":"22937.27","time":"3406.11"}},{"type":"Feature","name":"ShapeMeta","geometry":{"type":"LineString","coordinates":[[4.343182,51.84167],[4.343118,51.84227],[4.3431,51.84237]]},"properties":{"name":"Iepenlaan","highway":"unclassified","profile":"car","distance":"23015.46","time":"3413.617"}},{"type":"Feature","name":"ShapeMeta","geometry":{"type":"LineString","coordinates":[[4.3431,51.84237],[4.343092,51.84245],[4.343,51.8427]]},"properties":{"name":"Iepenlaan","highway":"unclassified","profile":"car","distance":"23052.66","time":"3417.189"}},{"type":"Feature","name":"ShapeMeta","geometry":{"type":"LineString","coordinates":[[4.343,51.8427],[4.343132,51.84274],[4.343118,51.84284]]},"properties":{"name":"Iepenlaan","highway":"service","profile":"car","distance":"23073.96","time":"3420.596"}},{"type":"Feature","name":"ShapeMeta","geometry":{"type":"LineString","coordinates":[[4.343118,51.84284],[4.343132,51.84274],[4.343,51.8427]]},"properties":{"name":"Iepenlaan","highway":"service","profile":"car","distance":"23095.25","time":"3424.003"}},{"type":"Feature","name":"ShapeMeta","geometry":{"type":"LineString","coordinates":[[4.343,51.8427],[4.343092,51.84245],[4.3431,51.84237]]},"properties":{"name":"Iepenlaan","highway":"unclassified","profile":"car","distance":"23132.46","time":"3427.574"}},{"type":"Feature","name":"ShapeMeta","geometry":{"type":"LineString","coordinates":[[4.3431,51.84237],[4.344196,51.84242],[4.344324,51.84243]]},"properties":{"name":"Eikenlaan","highway":"unclassified","maxspeed":"50","profile":"car","distance":"23216.65","time":"3435.657"}},{"type":"Feature","name":"ShapeMeta","geometry":{"type":"LineString","coordinates":[[4.344324,51.84243],[4.344577,51.84244]]},"properties":{"name":"Eikenlaan","highway":"unclassified","maxspeed":"50","profile":"car","distance":"23234.15","time":"3437.337"}},{"type":"Feature","name":"ShapeMeta","geometry":{"type":"LineString","coordinates":[[4.344577,51.84244],[4.344548,51.84262],[4.344509,51.84287],[4.344375,51.84331],[4.344097,51.84385],[4.343863,51.84421],[4.343716,51.8444],[4.34342,51.8447],[4.343206,51.84489]]},"properties":{"name":"Schenkelweg","maxspeed":"50","oneway":"yes","highway":"secondary","profile":"car","distance":"23526.55","time":"3465.408"}},{"type":"Feature","name":"ShapeMeta","geometry":{"type":"LineString","coordinates":[[4.343206,51.84489],[4.343266,51.84497],[4.343728,51.84517],[4.343934,51.84529]]},"properties":{"name":"Rijnlaan","highway":"unclassified","maxspeed":"30","oneway":"yes","profile":"car","distance":"23593.96","time":"3476.192"}},{"type":"Feature","name":"ShapeMeta","geometry":{"type":"LineString","coordinates":[[4.343934,51.84529],[4.343998,51.84533],[4.344689,51.84575]]},"properties":{"name":"Rijnlaan","highway":"unclassified","maxspeed":"30","profile":"car","distance":"23666.65","time":"3487.824"}},{"type":"Feature","name":"ShapeMeta","geometry":{"type":"LineString","coordinates":[[4.344689,51.84575],[4.345017,51.84597]]},"properties":{"name":"Rijnlaan","highway":"unclassified","maxspeed":"30","profile":"car","distance":"23700.55","time":"3493.248"}},{"type":"Feature","name":"ShapeMeta","geometry":{"type":"LineString","coordinates":[[4.345017,51.84597],[4.345543,51.84628]]},"properties":{"name":"Rijnlaan","highway":"unclassified","maxspeed":"30","profile":"car","distance":"23750.05","time":"3501.168"}},{"type":"Feature","name":"ShapeMeta","geometry":{"type":"LineString","coordinates":[[4.345543,51.84628],[4.345771,51.84614]]},"properties":{"name":"Ahrstraat","highway":"residential","maxspeed":"30","profile":"car","distance":"23772.07","time":"3504.69"}},{"type":"Feature","name":"ShapeMeta","geometry":{"type":"LineString","coordinates":[[4.345771,51.84614],[4.345543,51.84628]]},"properties":{"name":"Ahrstraat","highway":"residential","maxspeed":"30","profile":"car","distance":"23794.09","time":"3508.213"}},{"type":"Feature","name":"ShapeMeta","geometry":{"type":"LineString","coordinates":[[4.345543,51.84628],[4.345017,51.84597]]},"properties":{"name":"Rijnlaan","highway":"unclassified","maxspeed":"30","profile":"car","distance":"23843.59","time":"3516.133"}},{"type":"Feature","name":"ShapeMeta","geometry":{"type":"LineString","coordinates":[[4.345017,51.84597],[4.344689,51.84575]]},"properties":{"name":"Rijnlaan","highway":"unclassified","maxspeed":"30","profile":"car","distance":"23877.49","time":"3521.557"}},{"type":"Feature","name":"ShapeMeta","geometry":{"type":"LineString","coordinates":[[4.344689,51.84575],[4.344969,51.84557],[4.344975,51.84557]]},"properties":{"name":"Neckarstraat","highway":"residential","maxspeed":"30","profile":"car","distance":"23905.11","time":"3525.976"}},{"type":"Feature","name":"ShapeMeta","geometry":{"type":"LineString","coordinates":[[4.344975,51.84557],[4.344969,51.84557],[4.344689,51.84575]]},"properties":{"name":"Neckarstraat","highway":"residential","maxspeed":"30","profile":"car","distance":"23932.73","time":"3530.396"}},{"type":"Feature","name":"ShapeMeta","geometry":{"type":"LineString","coordinates":[[4.344689,51.84575],[4.343998,51.84533],[4.343934,51.84529]]},"properties":{"name":"Rijnlaan","highway":"unclassified","maxspeed":"30","profile":"car","distance":"24005.43","time":"3542.028"}},{"type":"Feature","name":"ShapeMeta","geometry":{"type":"LineString","coordinates":[[4.343934,51.84529],[4.343448,51.84536],[4.3431,51.8456]]},"properties":{"name":"Ebrostraat","highway":"residential","maxspeed":"30","profile":"car","distance":"24075.33","time":"3553.211"}},{"type":"Feature","name":"ShapeMeta","geometry":{"type":"LineString","coordinates":[[4.3431,51.8456],[4.342484,51.84601]]},"properties":{"name":"Ebrostraat","highway":"residential","maxspeed":"30","profile":"car","distance":"24137.33","time":"3563.132"}},{"type":"Feature","name":"ShapeMeta","geometry":{"type":"LineString","coordinates":[[4.342484,51.84601],[4.342767,51.84619],[4.343916,51.84694],[4.343941,51.84697],[4.344029,51.84711]]},"properties":{"name":"Elbestraat","highway":"residential","maxspeed":"30","profile":"car","distance":"24301.23","time":"3589.356"}},{"type":"Feature","name":"ShapeMeta","geometry":{"type":"LineString","coordinates":[[4.344029,51.84711],[4.344078,51.8472]]},"properties":{"name":"Elbestraat","highway":"residential","profile":"car","distance":"24311.53","time":"3590.345"}},{"type":"Feature","name":"ShapeMeta","geometry":{"type":"LineString","coordinates":[[4.344078,51.8472],[4.344829,51.8472]]},"properties":{"name":"Donaulaan","highway":"unclassified","maxspeed":"50","profile":"car","distance":"24363.03","time":"3595.289"}},{"type":"Feature","name":"ShapeMeta","geometry":{"type":"LineString","coordinates":[[4.344829,51.8472],[4.344827,51.84712],[4.344827,51.84711]]},"properties":{"name":"Donaulaan","highway":"residential","profile":"car","distance":"24373.62","time":"3596.305"}},{"type":"Feature","name":"ShapeMeta","geometry":{"type":"LineString","coordinates":[[4.344827,51.84711],[4.344827,51.84712],[4.344829,51.8472]]},"properties":{"name":"Donaulaan","highway":"residential","profile":"car","distance":"24384.21","time":"3597.321"}},{"type":"Feature","name":"ShapeMeta","geometry":{"type":"LineString","coordinates":[[4.344829,51.8472],[4.345412,51.8472],[4.345974,51.8472],[4.3461,51.8472]]},"properties":{"name":"Donaulaan","highway":"unclassified","maxspeed":"50","profile":"car","distance":"24471.4","time":"3605.692"}},{"type":"Feature","name":"ShapeMeta","geometry":{"type":"LineString","coordinates":[[4.3461,51.8472],[4.346646,51.84721]]},"properties":{"name":"Donaulaan","highway":"unclassified","maxspeed":"50","profile":"car","distance":"24508.9","time":"3609.292"}},{"type":"Feature","name":"ShapeMeta","geometry":{"type":"LineString","coordinates":[[4.346646,51.84721],[4.347544,51.84721]]},"properties":{"name":"Donaulaan","highway":"unclassified","maxspeed":"50","profile":"car","distance":"24570.5","time":"3615.206"}},{"type":"Feature","name":"ShapeMeta","geometry":{"type":"LineString","coordinates":[[4.347544,51.84721],[4.347535,51.84727]]},"properties":{"highway":"residential","profile":"car","distance":"24577.3","time":"3615.859"}},{"type":"Feature","name":"ShapeMeta","geometry":{"type":"LineString","coordinates":[[4.347535,51.84727],[4.347544,51.84721]]},"properties":{"highway":"residential","profile":"car","distance":"24584.1","time":"3616.512"}},{"type":"Feature","name":"ShapeMeta","geometry":{"type":"LineString","coordinates":[[4.347544,51.84721],[4.348893,51.84723]]},"properties":{"name":"Donaulaan","highway":"unclassified","maxspeed":"50","profile":"car","distance":"24676.7","time":"3625.401"}},{"type":"Feature","name":"ShapeMeta","geometry":{"type":"LineString","coordinates":[[4.348893,51.84723],[4.349012,51.84723]]},"properties":{"name":"Donaulaan","highway":"unclassified","maxspeed":"50","profile":"car","distance":"24684.9","time":"3626.188"}},{"type":"Feature","name":"ShapeMeta","geometry":{"type":"LineString","coordinates":[[4.349012,51.84723],[4.349415,51.84723],[4.349958,51.84723]]},"properties":{"name":"Donaulaan","highway":"unclassified","maxspeed":"50","profile":"car","distance":"24749.8","time":"3632.419"}},{"type":"Feature","name":"ShapeMeta","geometry":{"type":"LineString","coordinates":[[4.349958,51.84723],[4.350032,51.84719],[4.350496,51.84692],[4.350499,51.84662]]},"properties":{"name":"Rivierlaan","highway":"unclassified","maxspeed":"50","profile":"car","distance":"24833.4","time":"3640.445"}},{"type":"Feature","name":"ShapeMeta","geometry":{"type":"LineString","coordinates":[[4.350499,51.84662],[4.350501,51.84632]]},"properties":{"name":"Rivierlaan","highway":"unclassified","maxspeed":"50","profile":"car","distance":"24866.9","time":"3643.66"}},{"type":"Feature","name":"ShapeMeta","geometry":{"type":"LineString","coordinates":[[4.350501,51.84632],[4.350612,51.84632]]},"properties":{"name":"Waalstraat","highway":"unclassified","profile":"car","distance":"24874.5","time":"3644.39"}},{"type":"Feature","name":"ShapeMeta","geometry":{"type":"LineString","coordinates":[[4.350612,51.84632],[4.351506,51.84632],[4.351615,51.84628]]},"properties":{"name":"Waalstraat","highway":"unclassified","profile":"car","distance":"24944.85","time":"3651.144"}},{"type":"Feature","name":"ShapeMeta","geometry":{"type":"LineString","coordinates":[[4.351615,51.84628],[4.35351,51.84552],[4.353844,51.8451]]},"properties":{"name":"Waalstraat","highway":"unclassified","profile":"car","distance":"25152","time":"3671.031"}},{"type":"Feature","name":"ShapeMeta","geometry":{"type":"LineString","coordinates":[[4.353844,51.8451],[4.354144,51.84518]]},"properties":{"name":"Lekstraat","highway":"unclassified","profile":"car","distance":"25174.4","time":"3673.181"}},{"type":"Feature","name":"ShapeMeta","geometry":{"type":"LineString","coordinates":[[4.354144,51.84518],[4.3545,51.8447],[4.35539,51.84448]]},"properties":{"name":"Maasboulevard","highway":"unclassified","profile":"car","distance":"25298.9","time":"3685.133"}},{"type":"Feature","name":"ShapeMeta","geometry":{"type":"LineString","coordinates":[[4.35539,51.84448],[4.355716,51.84436],[4.357849,51.84365]]},"properties":{"name":"Maasboulevard","highway":"unclassified","maxspeed":"30","profile":"car","distance":"25491.3","time":"3715.917"}},{"type":"Feature","name":"ShapeMeta","geometry":{"type":"LineString","coordinates":[[4.357849,51.84365],[4.357891,51.84364]]},"properties":{"name":"Maasboulevard","highway":"unclassified","maxspeed":"30","profile":"car","distance":"25494.56","time":"3716.438"}},{"type":"Feature","name":"ShapeMeta","geometry":{"type":"LineString","coordinates":[[4.357891,51.84364],[4.357849,51.84365]]},"properties":{"name":"Maasboulevard","highway":"unclassified","maxspeed":"30","profile":"car","distance":"25497.82","time":"3716.96"}},{"type":"Feature","name":"ShapeMeta","geometry":{"type":"LineString","coordinates":[[4.357849,51.84365],[4.355716,51.84436],[4.35539,51.84448]]},"properties":{"name":"Maasboulevard","highway":"unclassified","maxspeed":"30","profile":"car","distance":"25690.22","time":"3747.744"}},{"type":"Feature","name":"ShapeMeta","geometry":{"type":"LineString","coordinates":[[4.35539,51.84448],[4.355381,51.84449]]},"properties":{"name":"Maasboulevard","highway":"unclassified","profile":"car","distance":"25690.84","time":"3747.803"}},{"type":"Feature","name":"ShapeMeta","geometry":{"type":"LineString","coordinates":[[4.355381,51.84449],[4.3545,51.8447],[4.354144,51.84518]]},"properties":{"name":"Maasboulevard","highway":"unclassified","profile":"car","distance":"25814.72","time":"3759.695"}},{"type":"Feature","name":"ShapeMeta","geometry":{"type":"LineString","coordinates":[[4.354144,51.84518],[4.353844,51.8451]]},"properties":{"name":"Lekstraat","highway":"unclassified","profile":"car","distance":"25837.12","time":"3761.846"}},{"type":"Feature","name":"ShapeMeta","geometry":{"type":"LineString","coordinates":[[4.353844,51.8451],[4.35351,51.84552],[4.353287,51.84561]]},"properties":{"name":"Waalstraat","highway":"unclassified","profile":"car","distance":"25907.72","time":"3768.624"}},{"type":"Feature","name":"ShapeMeta","geometry":{"type":"LineString","coordinates":[[4.353287,51.84561],[4.351506,51.84632],[4.350612,51.84632]]},"properties":{"name":"Waalstraat","highway":"unclassified","profile":"car","distance":"26114.62","time":"3788.486"}},{"type":"Feature","name":"ShapeMeta","geometry":{"type":"LineString","coordinates":[[4.350612,51.84632],[4.350501,51.84632]]},"properties":{"name":"Waalstraat","highway":"unclassified","profile":"car","distance":"26122.22","time":"3789.216"}},{"type":"Feature","name":"ShapeMeta","geometry":{"type":"LineString","coordinates":[[4.350501,51.84632],[4.350501,51.84563]]},"properties":{"name":"Rivierlaan","highway":"unclassified","maxspeed":"50","profile":"car","distance":"26198.52","time":"3796.541"}},{"type":"Feature","name":"ShapeMeta","geometry":{"type":"LineString","coordinates":[[4.350501,51.84563],[4.35039,51.84563],[4.350027,51.84563],[4.349479,51.84563]]},"properties":{"name":"Gouwestraat","highway":"unclassified","profile":"car","distance":"26268.62","time":"3803.27"}},{"type":"Feature","name":"ShapeMeta","geometry":{"type":"LineString","coordinates":[[4.349479,51.84563],[4.349346,51.84555],[4.349108,51.8454]]},"properties":{"name":"Gouwestraat","highway":"unclassified","profile":"car","distance":"26304.82","time":"3806.745"}},{"type":"Feature","name":"ShapeMeta","geometry":{"type":"LineString","coordinates":[[4.349108,51.8454],[4.348778,51.84562],[4.34876,51.84563]]},"properties":{"name":"Gouwestraat","highway":"unclassified","profile":"car","distance":"26339.78","time":"3810.102"}},{"type":"Feature","name":"Stop","Shape":"0","geometry":{"type":"Point","coordinates":[4.34875,51.84561]},"properties":{"index":"94","distance":"0","time":"0"}},{"type":"Feature","name":"Stop","Shape":"14","geometry":{"type":"Point","coordinates":[4.349674,51.84666]},"properties":{"index":"93","distance":"312.2186","time":"31.97954"}},{"type":"Feature","name":"Stop","Shape":"24","geometry":{"type":"Point","coordinates":[4.348944,51.84811]},"properties":{"index":"46","distance":"519.4187","time":"142.2488"}},{"type":"Feature","name":"Stop","Shape":"26","geometry":{"type":"Point","coordinates":[4.347548,51.84808]},"properties":{"index":"45","distance":"612.2601","time":"231.3765"}},{"type":"Feature","name":"Stop","Shape":"35","geometry":{"type":"Point","coordinates":[4.347722,51.84611]},"properties":{"index":"91","distance":"1108.269","time":"451.4425"}},{"type":"Feature","name":"Stop","Shape":"52","geometry":{"type":"Point","coordinates":[4.341333,51.8475]},"properties":{"index":"43","distance":"1691.806","time":"519.3514"}},{"type":"Feature","name":"Stop","Shape":"71","geometry":{"type":"Point","coordinates":[4.342278,51.84978]},"properties":{"index":"171","distance":"2285.928","time":"587.1953"}},{"type":"Feature","name":"Stop","Shape":"76","geometry":{"type":"Point","coordinates":[4.343444,51.84883]},"properties":{"index":"172","distance":"2412.23","time":"599.3203"}},{"type":"Feature","name":"Stop","Shape":"92","geometry":{"type":"Point","coordinates":[4.343845,51.85194]},"properties":{"index":"42","distance":"3238.428","time":"714.735"}},{"type":"Feature","name":"Stop","Shape":"97","geometry":{"type":"Point","coordinates":[4.342041,51.85342]},"properties":{"index":"39","distance":"3438.459","time":"746.7399"}},{"type":"Feature","name":"Stop","Shape":"98","geometry":{"type":"Point","coordinates":[4.341386,51.8541]},"properties":{"index":"38","distance":"3525.363","time":"760.6446"}},{"type":"Feature","name":"Stop","Shape":"100","geometry":{"type":"Point","coordinates":[4.342323,51.85313]},"properties":{"index":"40","distance":"3646.334","time":"780"}},{"type":"Feature","name":"Stop","Shape":"102","geometry":{"type":"Point","coordinates":[4.342957,51.85265]},"properties":{"index":"41","distance":"3715.187","time":"791.0165"}},{"type":"Feature","name":"Stop","Shape":"139","geometry":{"type":"Point","coordinates":[4.330801,51.84913]},"properties":{"index":"1","distance":"4860.104","time":"925.3265"}},{"type":"Feature","name":"Stop","Shape":"157","geometry":{"type":"Point","coordinates":[4.332752,51.8494]},"properties":{"index":"169","distance":"5054.691","time":"945.0234"}},{"type":"Feature","name":"Stop","Shape":"167","geometry":{"type":"Point","coordinates":[4.33203,51.85001]},"properties":{"index":"170","distance":"5222.987","time":"965.0966"}},{"type":"Feature","name":"Stop","Shape":"179","geometry":{"type":"Point","coordinates":[4.331289,51.85082]},"properties":{"index":"36","distance":"5406.886","time":"994.5204"}},{"type":"Feature","name":"Stop","Shape":"192","geometry":{"type":"Point","coordinates":[4.33099,51.85031]},"properties":{"index":"37","distance":"5637.486","time":"1031.416"}},{"type":"Feature","name":"Stop","Shape":"202","geometry":{"type":"Point","coordinates":[4.330974,51.85119]},"properties":{"index":"34","distance":"5839.917","time":"1059.009"}},{"type":"Feature","name":"Stop","Shape":"203","geometry":{"type":"Point","coordinates":[4.330963,51.8512]},"properties":{"index":"35","distance":"5840.764","time":"1059.09"}},{"type":"Feature","name":"Stop","Shape":"209","geometry":{"type":"Point","coordinates":[4.32958,51.85055]},"properties":{"index":"33","distance":"5993.737","time":"1078.716"}},{"type":"Feature","name":"Stop","Shape":"209","geometry":{"type":"Point","coordinates":[4.32958,51.85055]},"properties":{"index":"32","distance":"5993.737","time":"1078.716"}},{"type":"Feature","name":"Stop","Shape":"211","geometry":{"type":"Point","coordinates":[4.329404,51.85046]},"properties":{"index":"31","distance":"6024.447","time":"1083.63"}},{"type":"Feature","name":"Stop","Shape":"217","geometry":{"type":"Point","coordinates":[4.32871,51.85124]},"properties":{"index":"30","distance":"6124.628","time":"1099.659"}},{"type":"Feature","name":"Stop","Shape":"219","geometry":{"type":"Point","coordinates":[4.328699,51.85125]},"properties":{"index":"29","distance":"6125.575","time":"1099.811"}},{"type":"Feature","name":"Stop","Shape":"237","geometry":{"type":"Point","coordinates":[4.32662,51.84939]},"properties":{"index":"28","distance":"6405.372","time":"1133.839"}},{"type":"Feature","name":"Stop","Shape":"262","geometry":{"type":"Point","coordinates":[4.33011,51.85273]},"properties":{"index":"2","distance":"6914.861","time":"1193.913"}},{"type":"Feature","name":"Stop","Shape":"305","geometry":{"type":"Point","coordinates":[4.316804,51.85365]},"properties":{"index":"3","distance":"8269.597","time":"1293.22"}},{"type":"Feature","name":"Stop","Shape":"320","geometry":{"type":"Point","coordinates":[4.316559,51.85595]},"properties":{"index":"4","distance":"8667.092","time":"1334.791"}},{"type":"Feature","name":"Stop","Shape":"339","geometry":{"type":"Point","coordinates":[4.314807,51.85614]},"properties":{"index":"7","distance":"9076.892","time":"1383.777"}},{"type":"Feature","name":"Stop","Shape":"345","geometry":{"type":"Point","coordinates":[4.31295,51.856]},"properties":{"index":"8","distance":"9271.567","time":"1410.304"}},{"type":"Feature","name":"Stop","Shape":"352","geometry":{"type":"Point","coordinates":[4.313437,51.85707]},"properties":{"index":"16","distance":"9577.815","time":"1450.664"}},{"type":"Feature","name":"Stop","Shape":"355","geometry":{"type":"Point","coordinates":[4.311151,51.85653]},"properties":{"index":"9","distance":"9764.732","time":"1480.571"}},{"type":"Feature","name":"Stop","Shape":"360","geometry":{"type":"Point","coordinates":[4.310231,51.85749]},"properties":{"index":"10","distance":"9893.392","time":"1501.156"}},{"type":"Feature","name":"Stop","Shape":"368","geometry":{"type":"Point","coordinates":[4.312275,51.85863]},"properties":{"index":"15","distance":"10139.59","time":"1540.548"}},{"type":"Feature","name":"Stop","Shape":"377","geometry":{"type":"Point","coordinates":[4.308912,51.85757]},"properties":{"index":"11","distance":"10445.11","time":"1589.431"}},{"type":"Feature","name":"Stop","Shape":"386","geometry":{"type":"Point","coordinates":[4.306557,51.85662]},"properties":{"index":"13","distance":"10686.5","time":"1628.053"}},{"type":"Feature","name":"Stop","Shape":"391","geometry":{"type":"Point","coordinates":[4.308197,51.85633]},"properties":{"index":"12","distance":"10842.48","time":"1653.009"}},{"type":"Feature","name":"Stop","Shape":"394","geometry":{"type":"Point","coordinates":[4.308828,51.85566]},"properties":{"index":"14","distance":"10933.5","time":"1667.572"}},{"type":"Feature","name":"Stop","Shape":"401","geometry":{"type":"Point","coordinates":[4.312361,51.85533]},"properties":{"index":"17","distance":"11278.41","time":"1718.489"}},{"type":"Feature","name":"Stop","Shape":"404","geometry":{"type":"Point","coordinates":[4.313155,51.85436]},"properties":{"index":"18","distance":"11399.02","time":"1730.521"}},{"type":"Feature","name":"Stop","Shape":"417","geometry":{"type":"Point","coordinates":[4.309917,51.85264]},"properties":{"index":"20","distance":"11868.05","time":"1801.695"}},{"type":"Feature","name":"Stop","Shape":"422","geometry":{"type":"Point","coordinates":[4.311972,51.85228]},"properties":{"index":"21","distance":"12065.64","time":"1833.309"}},{"type":"Feature","name":"Stop","Shape":"430","geometry":{"type":"Point","coordinates":[4.310591,51.85429]},"properties":{"index":"19","distance":"12311.19","time":"1872.597"}},{"type":"Feature","name":"Stop","Shape":"441","geometry":{"type":"Point","coordinates":[4.315077,51.85455]},"properties":{"index":"5","distance":"12745.26","time":"1938.484"}},{"type":"Feature","name":"Stop","Shape":"443","geometry":{"type":"Point","coordinates":[4.314584,51.8553]},"properties":{"index":"6","distance":"12839.82","time":"1953.613"}},{"type":"Feature","name":"Stop","Shape":"447","geometry":{"type":"Point","coordinates":[4.315493,51.85392]},"properties":{"index":"24","distance":"13021.97","time":"1982.757"}},{"type":"Feature","name":"Stop","Shape":"448","geometry":{"type":"Point","coordinates":[4.315526,51.85396]},"properties":{"index":"25","distance":"13023.33","time":"1982.974"}},{"type":"Feature","name":"Stop","Shape":"450","geometry":{"type":"Point","coordinates":[4.315224,51.85316]},"properties":{"index":"23","distance":"13159.77","time":"2004.805"}},{"type":"Feature","name":"Stop","Shape":"453","geometry":{"type":"Point","coordinates":[4.314861,51.85225]},"properties":{"index":"22","distance":"13300.31","time":"2027.292"}},{"type":"Feature","name":"Stop","Shape":"479","geometry":{"type":"Point","coordinates":[4.32483,51.85242]},"properties":{"index":"26","distance":"14260.22","time":"2110.503"}},{"type":"Feature","name":"Stop","Shape":"499","geometry":{"type":"Point","coordinates":[4.324408,51.84981]},"properties":{"index":"27","distance":"14708.44","time":"2161.744"}},{"type":"Feature","name":"Stop","Shape":"510","geometry":{"type":"Point","coordinates":[4.323657,51.84894]},"properties":{"index":"165","distance":"15098.31","time":"2210.812"}},{"type":"Feature","name":"Stop","Shape":"520","geometry":{"type":"Point","coordinates":[4.325234,51.8498]},"properties":{"index":"166","distance":"15284.62","time":"2236.923"}},{"type":"Feature","name":"Stop","Shape":"534","geometry":{"type":"Point","coordinates":[4.327262,51.84854]},"properties":{"index":"0","distance":"15548.6","time":"2279.16"}},{"type":"Feature","name":"Stop","Shape":"551","geometry":{"type":"Point","coordinates":[4.329151,51.84929]},"properties":{"index":"168","distance":"15959.08","time":"2327.31"}},{"type":"Feature","name":"Stop","Shape":"553","geometry":{"type":"Point","coordinates":[4.32926,51.84949]},"properties":{"index":"167","distance":"15979.11","time":"2329.233"}},{"type":"Feature","name":"Stop","Shape":"591","geometry":{"type":"Point","coordinates":[4.33772,51.84556]},"properties":{"index":"173","distance":"16794.14","time":"2421.764"}},{"type":"Feature","name":"Stop","Shape":"597","geometry":{"type":"Point","coordinates":[4.339583,51.84489]},"properties":{"index":"174","distance":"16967.54","time":"2452.698"}},{"type":"Feature","name":"Stop","Shape":"605","geometry":{"type":"Point","coordinates":[4.33736,51.84447]},"properties":{"index":"175","distance":"17192.64","time":"2487.742"}},{"type":"Feature","name":"Stop","Shape":"611","geometry":{"type":"Point","coordinates":[4.336056,51.84514]},"properties":{"index":"176","distance":"17306.11","time":"2505.656"}},{"type":"Feature","name":"Stop","Shape":"615","geometry":{"type":"Point","coordinates":[4.334778,51.84566]},"properties":{"index":"177","distance":"17412.38","time":"2522.66"}},{"type":"Feature","name":"Stop","Shape":"620","geometry":{"type":"Point","coordinates":[4.33475,51.84447]},"properties":{"index":"178","distance":"17583.87","time":"2543.244"}},{"type":"Feature","name":"Stop","Shape":"624","geometry":{"type":"Point","coordinates":[4.3335,51.84505]},"properties":{"index":"179","distance":"17684.64","time":"2552.918"}},{"type":"Feature","name":"Stop","Shape":"628","geometry":{"type":"Point","coordinates":[4.333,51.84378]},"properties":{"index":"180","distance":"17873.85","time":"2571.082"}},{"type":"Feature","name":"Stop","Shape":"682","geometry":{"type":"Point","coordinates":[4.336473,51.84226]},"properties":{"index":"182","distance":"18972.38","time":"2731.357"}},{"type":"Feature","name":"Stop","Shape":"690","geometry":{"type":"Point","coordinates":[4.334539,51.84207]},"properties":{"index":"50","distance":"19134.55","time":"2806.514"}},{"type":"Feature","name":"Stop","Shape":"695","geometry":{"type":"Point","coordinates":[4.333399,51.84276]},"properties":{"index":"51","distance":"19267.52","time":"2934.159"}},{"type":"Feature","name":"Stop","Shape":"707","geometry":{"type":"Point","coordinates":[4.332833,51.84122]},"properties":{"index":"181","distance":"19632.21","time":"3088.823"}},{"type":"Feature","name":"Stop","Shape":"714","geometry":{"type":"Point","coordinates":[4.333583,51.83933]},"properties":{"index":"52","distance":"19911.17","time":"3115.604"}},{"type":"Feature","name":"Stop","Shape":"720","geometry":{"type":"Point","coordinates":[4.334861,51.84025]},"properties":{"index":"53","distance":"20100.81","time":"3133.81"}},{"type":"Feature","name":"Stop","Shape":"724","geometry":{"type":"Point","coordinates":[4.336333,51.84114]},"properties":{"index":"54","distance":"20313.28","time":"3154.208"}},{"type":"Feature","name":"Stop","Shape":"736","geometry":{"type":"Point","coordinates":[4.340583,51.84036]},"properties":{"index":"59","distance":"20722.49","time":"3193.492"}},{"type":"Feature","name":"Stop","Shape":"742","geometry":{"type":"Point","coordinates":[4.340806,51.8395]},"properties":{"index":"64","distance":"20965.2","time":"3216.792"}},{"type":"Feature","name":"Stop","Shape":"750","geometry":{"type":"Point","coordinates":[4.33775,51.83939]},"properties":{"index":"65","distance":"21175.58","time":"3236.988"}},{"type":"Feature","name":"Stop","Shape":"756","geometry":{"type":"Point","coordinates":[4.337517,51.84032]},"properties":{"index":"55","distance":"21302.6","time":"3249.182"}},{"type":"Feature","name":"Stop","Shape":"762","geometry":{"type":"Point","coordinates":[4.338827,51.84141]},"properties":{"index":"58","distance":"21721.63","time":"3289.409"}},{"type":"Feature","name":"Stop","Shape":"764","geometry":{"type":"Point","coordinates":[4.339284,51.84232]},"properties":{"index":"57","distance":"21829.08","time":"3299.724"}},{"type":"Feature","name":"Stop","Shape":"772","geometry":{"type":"Point","coordinates":[4.3415,51.8425]},"properties":{"index":"56","distance":"21996.26","time":"3315.774"}},{"type":"Feature","name":"Stop","Shape":"781","geometry":{"type":"Point","coordinates":[4.341639,51.84156]},"properties":{"index":"60","distance":"22242.86","time":"3339.448"}},{"type":"Feature","name":"Stop","Shape":"787","geometry":{"type":"Point","coordinates":[4.343278,51.84158]},"properties":{"index":"62","distance":"22507.3","time":"3364.834"}},{"type":"Feature","name":"Stop","Shape":"789","geometry":{"type":"Point","coordinates":[4.3435,51.83969]},"properties":{"index":"63","distance":"22716.75","time":"3384.941"}},{"type":"Feature","name":"Stop","Shape":"797","geometry":{"type":"Point","coordinates":[4.343056,51.84283]},"properties":{"index":"61","distance":"23073.96","time":"3420.596"}},{"type":"Feature","name":"Stop","Shape":"820","geometry":{"type":"Point","coordinates":[4.34575,51.84611]},"properties":{"index":"44","distance":"23772.07","time":"3504.69"}},{"type":"Feature","name":"Stop","Shape":"825","geometry":{"type":"Point","coordinates":[4.344944,51.84552]},"properties":{"index":"88","distance":"23905.11","time":"3525.976"}},{"type":"Feature","name":"Stop","Shape":"832","geometry":{"type":"Point","coordinates":[4.342411,51.84598]},"properties":{"index":"89","distance":"24137.33","time":"3563.132"}},{"type":"Feature","name":"Stop","Shape":"840","geometry":{"type":"Point","coordinates":[4.3449,51.84711]},"properties":{"index":"90","distance":"24373.62","time":"3596.305"}},{"type":"Feature","name":"Stop","Shape":"848","geometry":{"type":"Point","coordinates":[4.347611,51.84736]},"properties":{"index":"92","distance":"24577.3","time":"3615.859"}},{"type":"Feature","name":"Stop","Shape":"860","geometry":{"type":"Point","coordinates":[4.351639,51.84633]},"properties":{"index":"95","distance":"24944.85","time":"3651.144"}},{"type":"Feature","name":"Stop","Shape":"868","geometry":{"type":"Point","coordinates":[4.3579,51.84365]},"properties":{"index":"97","distance":"25494.56","time":"3716.438"}},{"type":"Feature","name":"Stop","Shape":"872","geometry":{"type":"Point","coordinates":[4.355392,51.84453]},"properties":{"index":"98","distance":"25690.84","time":"3747.803"}},{"type":"Feature","name":"Stop","Shape":"877","geometry":{"type":"Point","coordinates":[4.353306,51.84566]},"properties":{"index":"96","distance":"25907.72","time":"3768.624"}},{"type":"Feature","name":"Stop","Shape":"888","geometry":{"type":"Point","coordinates":[4.34875,51.84561]},"properties":{"index":"94","distance":"26339.78","time":"3810.102"}}]}