{"type":"FeatureCollection","features":[{"type":"Feature","name":"ShapeMeta","geometry":{"type":"LineString","coordinates":[[4.31227,51.85867],[4.312162,51.85865],[4.310989,51.85842],[4.31101,51.85837]]},"properties":{"name":"Frans Halsstraat","highway":"unclassified","maxspeed":"30","profile":"car","distance":"97.50614","time":"15.60098"}},{"type":"Feature","name":"ShapeMeta","geometry":{"type":"LineString","coordinates":[[4.31101,51.85837],[4.311145,51.85801],[4.311162,51.85796]]},"properties":{"name":"Frans Halsstraat","highway":"unclassified","maxspeed":"30","profile":"car","distance":"144.9061","time":"23.18498"}},{"type":"Feature","name":"ShapeMeta","geometry":{"type":"LineString","coordinates":[[4.311162,51.85796],[4.310399,51.85781],[4.31016,51.85776]]},"properties":{"name":"Frans Halsstraat","highway":"unclassified","maxspeed":"30","profile":"car","distance":"217.0061","time":"34.72098"}},{"type":"Feature","name":"ShapeMeta","geometry":{"type":"LineString","coordinates":[[4.31016,51.85776],[4.309658,51.85768],[4.308916,51.85755]]},"properties":{"name":"Frans Halsstraat","highway":"unclassified","maxspeed":"30","profile":"car","distance":"305.5163","time":"48.88262"}},{"type":"Feature","name":"ShapeMeta","geometry":{"type":"LineString","coordinates":[[4.308916,51.85755],[4.309658,51.85768],[4.31016,51.85776]]},"properties":{"name":"Frans Halsstraat","highway":"unclassified","maxspeed":"30","profile":"car","distance":"394.0265","time":"243.0442"}},{"type":"Feature","name":"ShapeMeta","geometry":{"type":"LineString","coordinates":[[4.31016,51.85776],[4.310281,51.85751]]},"properties":{"name":"Paulus Potterstraat","highway":"unclassified","maxspeed":"30","profile":"car","distance":"423.2225","time":"247.7156"}},{"type":"Feature","name":"ShapeMeta","geometry":{"type":"LineString","coordinates":[[4.310281,51.85751],[4.31016,51.85776]]},"properties":{"name":"Paulus Potterstraat","highway":"unclassified","maxspeed":"30","profile":"car","distance":"452.4185","time":"432.387"}},{"type":"Feature","name":"ShapeMeta","geometry":{"type":"LineString","coordinates":[[4.31016,51.85776],[4.309658,51.85768],[4.308895,51.85755],[4.309099,51.85712],[4.309131,51.85706]]},"properties":{"name":"Frans Halsstraat","highway":"unclassified","maxspeed":"30","profile":"car","distance":"599.1185","time":"455.8589"}},{"type":"Feature","name":"ShapeMeta","geometry":{"type":"LineString","coordinates":[[4.309131,51.85706],[4.308637,51.85698],[4.3082,51.8569]]},"properties":{"name":"Frans Halsstraat","highway":"unclassified","maxspeed":"30","profile":"car","distance":"665.4185","time":"466.4669"}},{"type":"Feature","name":"ShapeMeta","geometry":{"type":"LineString","coordinates":[[4.3082,51.8569],[4.307892,51.85684]]},"properties":{"name":"Frans Halsstraat","highway":"unclassified","maxspeed":"30","profile":"car","distance":"687.5185","time":"470.003"}},{"type":"Feature","name":"ShapeMeta","geometry":{"type":"LineString","coordinates":[[4.307892,51.85684],[4.307408,51.85676],[4.306632,51.85663]]},"properties":{"name":"Frans Halsstraat","highway":"unclassified","maxspeed":"30","profile":"car","distance":"777.1185","time":"484.339"}},{"type":"Feature","name":"ShapeMeta","geometry":{"type":"LineString","coordinates":[[4.306632,51.85663],[4.306559,51.85662]]},"properties":{"name":"Pieter de Hooghstraat","highway":"unclassified","maxspeed":"30","profile":"car","distance":"782.3154","time":"485.1705"}},{"type":"Feature","name":"ShapeMeta","geometry":{"type":"LineString","coordinates":[[4.306559,51.85662],[4.306632,51.85663]]},"properties":{"name":"Pieter de Hooghstraat","highway":"unclassified","maxspeed":"30","profile":"car","distance":"787.5123","time":"666.0019"}},{"type":"Feature","name":"ShapeMeta","geometry":{"type":"LineString","coordinates":[[4.306632,51.85663],[4.307408,51.85676],[4.307892,51.85684]]},"properties":{"name":"Frans Halsstraat","highway":"unclassified","maxspeed":"30","profile":"car","distance":"877.1123","time":"680.3379"}},{"type":"Feature","name":"ShapeMeta","geometry":{"type":"LineString","coordinates":[[4.307892,51.85684],[4.3081,51.8564],[4.308173,51.85632]]},"properties":{"name":"Jan Steenstraat","highway":"residential","maxspeed":"30","profile":"car","distance":"938.2914","time":"690.1266"}},{"type":"Feature","name":"ShapeMeta","geometry":{"type":"LineString","coordinates":[[4.308173,51.85632],[4.308512,51.85594],[4.308788,51.85563]]},"properties":{"name":"Jan Steenstraat","highway":"residential","maxspeed":"30","profile":"car","distance":"1025.712","time":"884.114"}},{"type":"Feature","name":"ShapeMeta","geometry":{"type":"LineString","coordinates":[[4.308788,51.85563],[4.308835,51.85564]]},"properties":{"name":"Rembrandtstraat","highway":"unclassified","maxspeed":"30","profile":"car","distance":"1029.311","time":"884.6897"}},{"type":"Feature","name":"ShapeMeta","geometry":{"type":"LineString","coordinates":[[4.308835,51.85564],[4.309528,51.85586],[4.311137,51.85637]]},"properties":{"name":"Rembrandtstraat","highway":"unclassified","maxspeed":"30","profile":"car","distance":"1206.712","time":"1093.074"}},{"type":"Feature","name":"ShapeMeta","geometry":{"type":"LineString","coordinates":[[4.311137,51.85637],[4.311067,51.85646]]},"properties":{"name":"Paulus Potterstraat","highway":"unclassified","maxspeed":"30","profile":"car","distance":"1217.957","time":"1094.873"}},{"type":"Feature","name":"ShapeMeta","geometry":{"type":"LineString","coordinates":[[4.311067,51.85646],[4.311137,51.85637]]},"properties":{"name":"Paulus Potterstraat","highway":"unclassified","maxspeed":"30","profile":"car","distance":"1229.202","time":"1276.672"}},{"type":"Feature","name":"ShapeMeta","geometry":{"type":"LineString","coordinates":[[4.311137,51.85637],[4.311533,51.85647]]},"properties":{"name":"Rembrandtstraat","highway":"unclassified","maxspeed":"30","profile":"car","distance":"1258.702","time":"1281.392"}},{"type":"Feature","name":"ShapeMeta","geometry":{"type":"LineString","coordinates":[[4.311533,51.85647],[4.311883,51.85602],[4.311938,51.85593]]},"properties":{"name":"Vondelsingel","highway":"residential","profile":"car","distance":"1325.402","time":"1287.795"}},{"type":"Feature","name":"ShapeMeta","geometry":{"type":"LineString","coordinates":[[4.311938,51.85593],[4.311478,51.8558],[4.309624,51.85527]]},"properties":{"name":"Sportlaan","maxspeed":"50","highway":"tertiary","profile":"car","distance":"1500.202","time":"1304.576"}},{"type":"Feature","name":"ShapeMeta","geometry":{"type":"LineString","coordinates":[[4.309624,51.85527],[4.307896,51.85471]]},"properties":{"name":"Sportlaan","maxspeed":"50","highway":"tertiary","profile":"car","distance":"1634.002","time":"1317.421"}},{"type":"Feature","name":"ShapeMeta","geometry":{"type":"LineString","coordinates":[[4.307896,51.85471],[4.307703,51.85465],[4.30713,51.85437],[4.306938,51.85428]]},"properties":{"name":"Sportlaan","maxspeed":"50","highway":"tertiary","oneway":"yes","profile":"car","distance":"1715.802","time":"1325.274"}},{"type":"Feature","name":"ShapeMeta","geometry":{"type":"LineString","coordinates":[[4.306938,51.85428],[4.306803,51.85421],[4.306013,51.85378],[4.305777,51.85366]]},"properties":{"name":"Sportlaan","maxspeed":"50","highway":"tertiary","oneway":"yes","profile":"car","distance":"1821.302","time":"1335.402"}},{"type":"Feature","name":"ShapeMeta","geometry":{"type":"LineString","coordinates":[[4.305777,51.85366],[4.305624,51.85358]]},"properties":{"highway":"unclassified","oneway":"yes","profile":"car","distance":"1835.002","time":"1336.717"}},{"type":"Feature","name":"ShapeMeta","geometry":{"type":"LineString","coordinates":[[4.305624,51.85358],[4.305725,51.8535]]},"properties":{"name":"Groene Kruisweg","oneway":"yes","highway":"primary","maxspeed":"80","profile":"car","distance":"1846.202","time":"1337.389"}},{"type":"Feature","name":"ShapeMeta","geometry":{"type":"LineString","coordinates":[[4.305725,51.8535],[4.305905,51.85336],[4.306919,51.85262],[4.307277,51.85238],[4.307612,51.85219],[4.308048,51.85194]]},"properties":{"name":"Groene Kruisweg","oneway":"yes","highway":"primary","maxspeed":"80","profile":"car","distance":"2081.902","time":"1351.531"}},{"type":"Feature","name":"ShapeMeta","geometry":{"type":"LineString","coordinates":[[4.308048,51.85194],[4.309582,51.85123],[4.309906,51.85109],[4.310005,51.85102],[4.310058,51.85095],[4.310119,51.85085]]},"properties":{"name":"Groene Kruisweg","oneway":"yes","highway":"primary","maxspeed":"80","profile":"car","distance":"2271.102","time":"1362.883"}},{"type":"Feature","name":"ShapeMeta","geometry":{"type":"LineString","coordinates":[[4.310119,51.85085],[4.3101,51.85079],[4.310092,51.85078]]},"properties":{"name":"Baljuwplein","oneway":"yes","junction":"roundabout","highway":"primary","maxspeed":"80","profile":"car","distance":"2279.702","time":"1363.399"}},{"type":"Feature","name":"ShapeMeta","geometry":{"type":"LineString","coordinates":[[4.310092,51.85078],[4.310103,51.8507],[4.31014,51.85062],[4.310197,51.85055],[4.310277,51.85049],[4.310376,51.85046]]},"properties":{"name":"Baljuwplein","oneway":"yes","junction":"roundabout","highway":"primary","maxspeed":"80","profile":"car","distance":"2322.402","time":"1365.961"}},{"type":"Feature","name":"ShapeMeta","geometry":{"type":"LineString","coordinates":[[4.310376,51.85046],[4.310576,51.85038],[4.310746,51.85029],[4.310858,51.8502],[4.310952,51.85007],[4.311047,51.84983],[4.311163,51.84964],[4.311391,51.84895],[4.311677,51.84824],[4.312088,51.84751],[4.312159,51.84731],[4.312198,51.84699]]},"properties":{"name":"Baljuwlaan","maxspeed":"50","oneway":"yes","highway":"secondary","profile":"car","distance":"2736.602","time":"1405.724"}},{"type":"Feature","name":"ShapeMeta","geometry":{"type":"LineString","coordinates":[[4.312198,51.84699],[4.312289,51.84614]]},"properties":{"bridge":"yes","name":"Baljuwlaan","maxspeed":"50","oneway":"yes","highway":"secondary","profile":"car","distance":"2831.302","time":"1414.815"}},{"type":"Feature","name":"ShapeMeta","geometry":{"type":"LineString","coordinates":[[4.312289,51.84614],[4.312286,51.84591],[4.312236,51.8457],[4.312148,51.84552],[4.311972,51.8453]]},"properties":{"name":"Baljuwlaan","maxspeed":"50","oneway":"yes","highway":"secondary","profile":"car","distance":"2928.602","time":"1424.156"}},{"type":"Feature","name":"ShapeMeta","geometry":{"type":"LineString","coordinates":[[4.311972,51.8453],[4.311858,51.84528],[4.311766,51.84524],[4.311714,51.84517],[4.311711,51.8451],[4.311759,51.84504]]},"properties":{"name":"Baljuwlaan","maxspeed":"50","oneway":"yes","junction":"roundabout","highway":"secondary","profile":"car","distance":"2968.702","time":"1428.006"}},{"type":"Feature","name":"ShapeMeta","geometry":{"type":"LineString","coordinates":[[4.311759,51.84504],[4.311664,51.84492],[4.311349,51.84447]]},"properties":{"name":"Baljuwlaan","maxspeed":"50","oneway":"yes","highway":"secondary","profile":"car","distance":"3037.802","time":"1434.639"}},{"type":"Feature","name":"ShapeMeta","geometry":{"type":"LineString","coordinates":[[4.311349,51.84447],[4.311067,51.84399]]},"properties":{"name":"Baljuwlaan","maxspeed":"50","oneway":"yes","highway":"secondary","profile":"car","distance":"3093.802","time":"1440.015"}},{"type":"Feature","name":"ShapeMeta","geometry":{"type":"LineString","coordinates":[[4.311067,51.84399],[4.311025,51.84381],[4.311038,51.84365],[4.311114,51.84336],[4.311225,51.84306]]},"properties":{"name":"Baljuwlaan","maxspeed":"50","oneway":"yes","highway":"secondary","profile":"car","distance":"3199.602","time":"1450.172"}},{"type":"Feature","name":"ShapeMeta","geometry":{"type":"LineString","coordinates":[[4.311225,51.84306],[4.311335,51.84287],[4.311805,51.84215]]},"properties":{"name":"Baljuwlaan","maxspeed":"50","highway":"secondary","profile":"car","distance":"3308.102","time":"1460.588"}},{"type":"Feature","name":"ShapeMeta","geometry":{"type":"LineString","coordinates":[[4.311805,51.84215],[4.311993,51.84162],[4.312233,51.84119]]},"properties":{"name":"Baljuwlaan","maxspeed":"50","oneway":"yes","highway":"secondary","profile":"car","distance":"3418.702","time":"1471.206"}},{"type":"Feature","name":"ShapeMeta","geometry":{"type":"LineString","coordinates":[[4.312233,51.84119],[4.31238,51.84098],[4.312757,51.84045],[4.312988,51.84018]]},"properties":{"name":"Baljuwlaan","maxspeed":"50","oneway":"yes","highway":"secondary","profile":"car","distance":"3542.202","time":"1483.062"}},{"type":"Feature","name":"ShapeMeta","geometry":{"type":"LineString","coordinates":[[4.312988,51.84018],[4.313099,51.83997],[4.313339,51.83947],[4.313634,51.83878],[4.313878,51.83811]]},"properties":{"name":"Baljuwlaan","maxspeed":"50","highway":"secondary","profile":"car","distance":"3781.002","time":"1505.987"}},{"type":"Feature","name":"ShapeMeta","geometry":{"type":"LineString","coordinates":[[4.313878,51.83811],[4.313861,51.83802],[4.313907,51.83743],[4.314065,51.83715],[4.31417,51.83704],[4.31446,51.83685],[4.314562,51.8368]]},"properties":{"name":"Baljuwlaan","maxspeed":"50","oneway":"yes","highway":"secondary","profile":"car","distance":"3941.602","time":"1521.404"}},{"type":"Feature","name":"ShapeMeta","geometry":{"type":"LineString","coordinates":[[4.314562,51.8368],[4.314623,51.83677]]},"properties":{"name":"Baljuwlaan","maxspeed":"50","oneway":"yes","highway":"secondary","profile":"car","distance":"3946.902","time":"1521.913"}},{"type":"Feature","name":"ShapeMeta","geometry":{"type":"LineString","coordinates":[[4.314623,51.83677],[4.314695,51.83675],[4.31496,51.83669],[4.315208,51.83667],[4.315475,51.83667],[4.315804,51.83672]]},"properties":{"name":"Baljuwlaan","maxspeed":"50","oneway":"yes","highway":"secondary","profile":"car","distance":"4030.602","time":"1529.948"}},{"type":"Feature","name":"ShapeMeta","geometry":{"type":"LineString","coordinates":[[4.315804,51.83672],[4.316519,51.83687],[4.317298,51.83704],[4.317749,51.83715]]},"properties":{"name":"Heemraadlaan","maxspeed":"50","oneway":"yes","highway":"secondary","profile":"car","distance":"4172.402","time":"1543.561"}},{"type":"Feature","name":"ShapeMeta","geometry":{"type":"LineString","coordinates":[[4.317749,51.83715],[4.317864,51.83713],[4.317987,51.83711],[4.318138,51.83707]]},"properties":{"name":"Heemraadlaan","maxspeed":"50","highway":"tertiary","oneway":"yes","profile":"car","distance":"4200.502","time":"1546.259"}},{"type":"Feature","name":"ShapeMeta","geometry":{"type":"LineString","coordinates":[[4.318138,51.83707],[4.318265,51.83693],[4.318446,51.83678],[4.318607,51.8367]]},"properties":{"name":"Akkersweg","highway":"tertiary","profile":"car","distance":"4253.302","time":"1549.879"}},{"type":"Feature","name":"ShapeMeta","geometry":{"type":"LineString","coordinates":[[4.318607,51.8367],[4.318489,51.8366]]},"properties":{"name":"Oberonweg","highway":"unclassified","profile":"car","distance":"4267.302","time":"1551.223"}},{"type":"Feature","name":"ShapeMeta","geometry":{"type":"LineString","coordinates":[[4.318489,51.8366],[4.318544,51.83654]]},"properties":{"name":"Oberonweg","highway":"unclassified","profile":"car","distance":"4274.35","time":"1551.9"}},{"type":"Feature","name":"ShapeMeta","geometry":{"type":"LineString","coordinates":[[4.318544,51.83654],[4.318489,51.8366]]},"properties":{"name":"Oberonweg","highway":"unclassified","profile":"car","distance":"4281.398","time":"1732.577"}},{"type":"Feature","name":"ShapeMeta","geometry":{"type":"LineString","coordinates":[[4.318489,51.8366],[4.318607,51.8367]]},"properties":{"name":"Oberonweg","highway":"unclassified","profile":"car","distance":"4295.398","time":"1733.921"}},{"type":"Feature","name":"ShapeMeta","geometry":{"type":"LineString","coordinates":[[4.318607,51.8367],[4.3188,51.8366],[4.3192,51.8364],[4.3195,51.8362],[4.320218,51.83548],[4.3203,51.8354]]},"properties":{"name":"Akkersweg","highway":"tertiary","profile":"car","distance":"4482.999","time":"1746.785"}},{"type":"Feature","name":"ShapeMeta","geometry":{"type":"LineString","coordinates":[[4.3203,51.8354],[4.320455,51.83524],[4.320612,51.83496],[4.320601,51.83475],[4.320488,51.83455]]},"properties":{"name":"Akkersweg","highway":"tertiary","profile":"car","distance":"4583.698","time":"1753.69"}},{"type":"Feature","name":"ShapeMeta","geometry":{"type":"LineString","coordinates":[[4.320488,51.83455],[4.320395,51.83455],[4.320316,51.83453],[4.32025,51.83447],[4.320248,51.83442],[4.320262,51.83439]]},"properties":{"highway":"tertiary","junction":"roundabout","profile":"car","distance":"4612.898","time":"1755.692"}},{"type":"Feature","name":"ShapeMeta","geometry":{"type":"LineString","coordinates":[[4.320262,51.83439],[4.320288,51.83437],[4.320323,51.83435],[4.320383,51.83433],[4.320459,51.83433],[4.320525,51.83434]]},"properties":{"highway":"tertiary","junction":"roundabout","profile":"car","distance":"4633.999","time":"1757.139"}},{"type":"Feature","name":"ShapeMeta","geometry":{"type":"LineString","coordinates":[[4.320525,51.83434],[4.320647,51.83427],[4.32091,51.83412],[4.321105,51.834]]},"properties":{"name":"Akkerdonk","highway":"tertiary","oneway":"yes","profile":"car","distance":"4689.198","time":"1760.924"}},{"type":"Feature","name":"ShapeMeta","geometry":{"type":"LineString","coordinates":[[4.321105,51.834],[4.321221,51.83389]]},"properties":{"name":"Akkerdonk","highway":"tertiary","profile":"car","distance":"4703.099","time":"1761.877"}},{"type":"Feature","name":"ShapeMeta","geometry":{"type":"LineString","coordinates":[[4.321221,51.83389],[4.3219,51.8333],[4.322198,51.833],[4.322659,51.83258]]},"properties":{"name":"Akkerdonk","highway":"tertiary","profile":"car","distance":"4879.298","time":"1773.959"}},{"type":"Feature","name":"ShapeMeta","geometry":{"type":"LineString","coordinates":[[4.322659,51.83258],[4.323225,51.83257]]},"properties":{"name":"Donk","highway":"tertiary","profile":"car","distance":"4918.198","time":"1776.627"}},{"type":"Feature","name":"ShapeMeta","geometry":{"type":"LineString","coordinates":[[4.323225,51.83257],[4.323496,51.83253],[4.324001,51.83208]]},"properties":{"name":"Donk","highway":"tertiary","profile":"car","distance":"4998.198","time":"1782.113"}},{"type":"Feature","name":"ShapeMeta","geometry":{"type":"LineString","coordinates":[[4.324001,51.83208],[4.324447,51.83162]]},"properties":{"name":"Donk","highway":"tertiary","profile":"car","distance":"5057.898","time":"1786.206"}},{"type":"Feature","name":"ShapeMeta","geometry":{"type":"LineString","coordinates":[[4.324447,51.83162],[4.324834,51.83126]]},"properties":{"name":"Donk","highway":"tertiary","profile":"car","distance":"5105.398","time":"1789.464"}},{"type":"Feature","name":"ShapeMeta","geometry":{"type":"LineString","coordinates":[[4.324834,51.83126],[4.325021,51.83107],[4.324973,51.83069]]},"properties":{"name":"Donk","highway":"tertiary","profile":"car","distance":"5172.599","time":"1794.072"}},{"type":"Feature","name":"ShapeMeta","geometry":{"type":"LineString","coordinates":[[4.324973,51.83069],[4.324948,51.83055],[4.3249,51.8303],[4.32502,51.83009]]},"properties":{"name":"Donk","highway":"tertiary","profile":"car","distance":"5241.298","time":"1798.782"}},{"type":"Feature","name":"ShapeMeta","geometry":{"type":"LineString","coordinates":[[4.32502,51.83009],[4.325346,51.82975],[4.325407,51.82972],[4.325478,51.82972],[4.32579,51.82985]]},"properties":{"name":"Donk","highway":"tertiary","profile":"car","distance":"5321.098","time":"1804.254"}},{"type":"Feature","name":"ShapeMeta","geometry":{"type":"LineString","coordinates":[[4.32579,51.82985],[4.326373,51.82924]]},"properties":{"name":"Donk","highway":"tertiary","profile":"car","distance":"5400.198","time":"1809.678"}},{"type":"Feature","name":"ShapeMeta","geometry":{"type":"LineString","coordinates":[[4.326373,51.82924],[4.326747,51.82883],[4.326859,51.82877]]},"properties":{"name":"Donk","highway":"tertiary","profile":"car","distance":"5462.798","time":"1813.971"}},{"type":"Feature","name":"ShapeMeta","geometry":{"type":"LineString","coordinates":[[4.326859,51.82877],[4.326984,51.82881]]},"properties":{"name":"Rozemarijndonk","highway":"tertiary","profile":"car","distance":"5472.798","time":"1814.657"}},{"type":"Feature","name":"ShapeMeta","geometry":{"type":"LineString","coordinates":[[4.326984,51.82881],[4.327393,51.82896]]},"properties":{"name":"Rozemarijndonk","highway":"tertiary","profile":"car","distance":"5505.098","time":"1816.872"}},{"type":"Feature","name":"ShapeMeta","geometry":{"type":"LineString","coordinates":[[4.327393,51.82896],[4.327495,51.82905],[4.328013,51.82923]]},"properties":{"name":"Rozemarijndonk","highway":"tertiary","profile":"car","distance":"5558.198","time":"1820.513"}},{"type":"Feature","name":"ShapeMeta","geometry":{"type":"LineString","coordinates":[[4.328013,51.82923],[4.328731,51.82948]]},"properties":{"name":"Sylvanergaard","highway":"tertiary","profile":"car","distance":"5614.998","time":"1824.407"}},{"type":"Feature","name":"ShapeMeta","geometry":{"type":"LineString","coordinates":[[4.328731,51.82948],[4.328822,51.82944],[4.32914,51.82949]]},"properties":{"name":"Wijngaard","maxspeed":"30","highway":"tertiary","profile":"car","distance":"5645.298","time":"1829.255"}},{"type":"Feature","name":"ShapeMeta","geometry":{"type":"LineString","coordinates":[[4.32914,51.82949],[4.329209,51.82944],[4.329662,51.829]]},"properties":{"name":"Wijngaard","maxspeed":"30","highway":"tertiary","profile":"car","distance":"5710.398","time":"1839.672"}},{"type":"Feature","name":"ShapeMeta","geometry":{"type":"LineString","coordinates":[[4.329662,51.829],[4.330064,51.82854]]},"properties":{"name":"Wijngaard","maxspeed":"30","highway":"tertiary","profile":"car","distance":"5768.598","time":"1848.984"}},{"type":"Feature","name":"ShapeMeta","geometry":{"type":"LineString","coordinates":[[4.330064,51.82854],[4.330356,51.82829]]},"properties":{"name":"Wijngaard","maxspeed":"30","highway":"tertiary","profile":"car","distance":"5803.298","time":"1854.536"}},{"type":"Feature","name":"ShapeMeta","geometry":{"type":"LineString","coordinates":[[4.330356,51.82829],[4.330682,51.82795],[4.330727,51.82787]]},"properties":{"name":"Wijngaard","maxspeed":"30","highway":"tertiary","profile":"car","distance":"5856.598","time":"1863.063"}},{"type":"Feature","name":"ShapeMeta","geometry":{"type":"LineString","coordinates":[[4.330727,51.82787],[4.33076,51.82779]]},"properties":{"name":"Ebkreek","maxspeed":"30","highway":"tertiary","profile":"car","distance":"5864.898","time":"1864.391"}},{"type":"Feature","name":"ShapeMeta","geometry":{"type":"LineString","coordinates":[[4.33076,51.82779],[4.331119,51.82741]]},"properties":{"name":"Ebkreek","maxspeed":"30","highway":"tertiary","profile":"car","distance":"5914.298","time":"1872.296"}},{"type":"Feature","name":"ShapeMeta","geometry":{"type":"LineString","coordinates":[[4.331119,51.82741],[4.331447,51.82714]]},"properties":{"name":"Ebkreek","maxspeed":"30","highway":"tertiary","profile":"car","distance":"5951.898","time":"1878.312"}},{"type":"Feature","name":"ShapeMeta","geometry":{"type":"LineString","coordinates":[[4.331447,51.82714],[4.331657,51.82722],[4.33187,51.82724]]},"properties":{"name":"Kreek","maxspeed":"50","highway":"tertiary","profile":"car","distance":"5983.798","time":"1881.374"}},{"type":"Feature","name":"ShapeMeta","geometry":{"type":"LineString","coordinates":[[4.33187,51.82724],[4.332664,51.82726],[4.332792,51.82726]]},"properties":{"name":"Kreek","maxspeed":"50","highway":"tertiary","profile":"car","distance":"6047.198","time":"1887.46"}},{"type":"Feature","name":"ShapeMeta","geometry":{"type":"LineString","coordinates":[[4.332792,51.82726],[4.333635,51.82729]]},"properties":{"name":"Kreek","maxspeed":"50","highway":"tertiary","profile":"car","distance":"6105.198","time":"1893.028"}},{"type":"Feature","name":"ShapeMeta","geometry":{"type":"LineString","coordinates":[[4.333635,51.82729],[4.333645,51.82717],[4.333664,51.82705],[4.333744,51.8268],[4.33385,51.82658],[4.333961,51.8264]]},"properties":{"name":"Hekelingseweg","maxspeed":"50","highway":"secondary","profile":"car","distance":"6207.098","time":"1902.811"}},{"type":"Feature","name":"ShapeMeta","geometry":{"type":"LineString","coordinates":[[4.333961,51.8264],[4.33405,51.82627],[4.334378,51.82594],[4.335342,51.82512],[4.335522,51.82494],[4.336068,51.82415],[4.336126,51.82407]]},"properties":{"name":"Hekelingseweg","maxspeed":"50","highway":"secondary","profile":"car","distance":"6507.398","time":"1931.64"}},{"type":"Feature","name":"ShapeMeta","geometry":{"type":"LineString","coordinates":[[4.336126,51.82407],[4.336066,51.82405],[4.336001,51.82398],[4.336003,51.82393],[4.336028,51.82389]]},"properties":{"name":"Hekelingseweg","junction":"roundabout","maxspeed":"80","highway":"secondary","profile":"car","distance":"6531.198","time":"1933.068"}},{"type":"Feature","name":"ShapeMeta","geometry":{"type":"LineString","coordinates":[[4.336028,51.82389],[4.335911,51.82384],[4.334841,51.82349]]},"properties":{"name":"Westdijk","maxspeed":"80","highway":"secondary","profile":"car","distance":"6624.198","time":"1938.647"}},{"type":"Feature","name":"ShapeMeta","geometry":{"type":"LineString","coordinates":[[4.334841,51.82349],[4.334756,51.82359],[4.334716,51.82365],[4.334577,51.82385]]},"properties":{"name":"Wachthoevestraat","highway":"unclassified","maxspeed":"30","profile":"car","distance":"6667.598","time":"1945.592"}},{"type":"Feature","name":"ShapeMeta","geometry":{"type":"LineString","coordinates":[[4.334577,51.82385],[4.3334,51.8235]]},"properties":{"name":"Moleneind","highway":"unclassified","maxspeed":"30","profile":"car","distance":"6757.198","time":"1959.927"}},{"type":"Feature","name":"ShapeMeta","geometry":{"type":"LineString","coordinates":[[4.3334,51.8235],[4.332743,51.82334]]},"properties":{"name":"Moleneind","highway":"unclassified","maxspeed":"30","profile":"car","distance":"6805.698","time":"1967.688"}},{"type":"Feature","name":"ShapeMeta","geometry":{"type":"LineString","coordinates":[[4.332743,51.82334],[4.332283,51.82323]]},"properties":{"name":"Moleneind","highway":"unclassified","maxspeed":"30","profile":"car","distance":"6839.698","time":"1973.128"}},{"type":"Feature","name":"ShapeMeta","geometry":{"type":"LineString","coordinates":[[4.332283,51.82323],[4.332163,51.82327],[4.331876,51.82364]]},"properties":{"name":"Visserskreek","highway":"unclassified","maxspeed":"30","profile":"car","distance":"6895.298","time":"1982.024"}},{"type":"Feature","name":"ShapeMeta","geometry":{"type":"LineString","coordinates":[[4.331876,51.82364],[4.331853,51.82368]]},"properties":{"name":"Visserskreek","highway":"unclassified","maxspeed":"30","profile":"car","distance":"6900.233","time":"1982.813"}},{"type":"Feature","name":"ShapeMeta","geometry":{"type":"LineString","coordinates":[[4.331853,51.82368],[4.331876,51.82364]]},"properties":{"name":"Visserskreek","highway":"unclassified","maxspeed":"30","profile":"car","distance":"6905.167","time":"2163.603"}},{"type":"Feature","name":"ShapeMeta","geometry":{"type":"LineString","coordinates":[[4.331876,51.82364],[4.332163,51.82327],[4.332283,51.82323]]},"properties":{"name":"Visserskreek","highway":"unclassified","maxspeed":"30","profile":"car","distance":"6960.768","time":"2172.499"}},{"type":"Feature","name":"ShapeMeta","geometry":{"type":"LineString","coordinates":[[4.332283,51.82323],[4.332743,51.82334]]},"properties":{"name":"Moleneind","highway":"unclassified","maxspeed":"30","profile":"car","distance":"6994.768","time":"2177.938"}},{"type":"Feature","name":"ShapeMeta","geometry":{"type":"LineString","coordinates":[[4.332743,51.82334],[4.3334,51.8235]]},"properties":{"name":"Moleneind","highway":"unclassified","maxspeed":"30","profile":"car","distance":"7043.268","time":"2185.698"}},{"type":"Feature","name":"ShapeMeta","geometry":{"type":"LineString","coordinates":[[4.3334,51.8235],[4.334577,51.82385]]},"properties":{"name":"Moleneind","highway":"unclassified","maxspeed":"30","profile":"car","distance":"7132.867","time":"2200.034"}},{"type":"Feature","name":"ShapeMeta","geometry":{"type":"LineString","coordinates":[[4.334577,51.82385],[4.334716,51.82365],[4.334756,51.82359],[4.334841,51.82349]]},"properties":{"name":"Wachthoevestraat","highway":"unclassified","maxspeed":"30","profile":"car","distance":"7176.268","time":"2206.979"}},{"type":"Feature","name":"ShapeMeta","geometry":{"type":"LineString","coordinates":[[4.334841,51.82349],[4.335911,51.82384],[4.336028,51.82389]]},"properties":{"name":"Westdijk","maxspeed":"80","highway":"secondary","profile":"car","distance":"7269.268","time":"2212.559"}},{"type":"Feature","name":"ShapeMeta","geometry":{"type":"LineString","coordinates":[[4.336028,51.82389],[4.33609,51.82385],[4.336174,51.82383],[4.336262,51.82384]]},"properties":{"name":"Hekelingseweg","junction":"roundabout","maxspeed":"80","highway":"secondary","profile":"car","distance":"7287.768","time":"2213.668"}},{"type":"Feature","name":"ShapeMeta","geometry":{"type":"LineString","coordinates":[[4.336262,51.82384],[4.336315,51.82386],[4.336358,51.82388],[4.336389,51.82391],[4.336401,51.82398],[4.336381,51.82402]]},"properties":{"name":"Hekelingseweg","junction":"roundabout","maxspeed":"80","highway":"secondary","profile":"car","distance":"7312.067","time":"2215.126"}},{"type":"Feature","name":"ShapeMeta","geometry":{"type":"LineString","coordinates":[[4.336381,51.82402],[4.336499,51.82405]]},"properties":{"name":"Dorpsstraat","maxspeed":"30","highway":"tertiary","profile":"car","distance":"7320.967","time":"2216.551"}},{"type":"Feature","name":"ShapeMeta","geometry":{"type":"LineString","coordinates":[[4.336499,51.82405],[4.33668,51.82414],[4.33679,51.82429],[4.336846,51.82446],[4.336892,51.82459]]},"properties":{"name":"Dorpsstraat","maxspeed":"30","highway":"tertiary","profile":"car","distance":"7389.167","time":"2227.462"}},{"type":"Feature","name":"ShapeMeta","geometry":{"type":"LineString","coordinates":[[4.336892,51.82459],[4.336991,51.8247]]},"properties":{"name":"Dorpsstraat","maxspeed":"30","highway":"tertiary","profile":"car","distance":"7402.768","time":"2229.638"}},{"type":"Feature","name":"ShapeMeta","geometry":{"type":"LineString","coordinates":[[4.336991,51.8247],[4.337099,51.82479],[4.337746,51.82512]]},"properties":{"name":"Dorpsstraat","maxspeed":"30","highway":"tertiary","profile":"car","distance":"7472.867","time":"2240.854"}},{"type":"Feature","name":"ShapeMeta","geometry":{"type":"LineString","coordinates":[[4.337746,51.82512],[4.337956,51.8252],[4.338127,51.82525]]},"properties":{"name":"Dorpsstraat","maxspeed":"30","highway":"tertiary","profile":"car","distance":"7503.067","time":"2245.687"}},{"type":"Feature","name":"ShapeMeta","geometry":{"type":"LineString","coordinates":[[4.338127,51.82525],[4.338372,51.8252],[4.339011,51.82504]]},"properties":{"name":"Groede","highway":"unclassified","maxspeed":"30","profile":"car","distance":"7568.268","time":"2256.118"}},{"type":"Feature","name":"ShapeMeta","geometry":{"type":"LineString","coordinates":[[4.339011,51.82504],[4.339321,51.82494]]},"properties":{"name":"Groede","highway":"unclassified","maxspeed":"30","profile":"car","distance":"7592.268","time":"2259.958"}},{"type":"Feature","name":"ShapeMeta","geometry":{"type":"LineString","coordinates":[[4.339321,51.82494],[4.339457,51.82515],[4.339618,51.8252],[4.340388,51.82536],[4.340495,51.82538]]},"properties":{"name":"Schare","highway":"living_street","profile":"car","distance":"7693.467","time":"2357.111"}},{"type":"Feature","name":"ShapeMeta","geometry":{"type":"LineString","coordinates":[[4.340495,51.82538],[4.340618,51.82541]]},"properties":{"name":"Schare","highway":"living_street","profile":"car","distance":"7702.396","time":"2365.682"}},{"type":"Feature","name":"ShapeMeta","geometry":{"type":"LineString","coordinates":[[4.340618,51.82541],[4.340495,51.82538]]},"properties":{"name":"Schare","highway":"living_street","profile":"car","distance":"7711.325","time":"2554.254"}},{"type":"Feature","name":"ShapeMeta","geometry":{"type":"LineString","coordinates":[[4.340495,51.82538],[4.340388,51.82536],[4.339618,51.8252],[4.339457,51.82515],[4.339321,51.82494]]},"properties":{"name":"Schare","highway":"living_street","profile":"car","distance":"7812.525","time":"2651.406"}},{"type":"Feature","name":"ShapeMeta","geometry":{"type":"LineString","coordinates":[[4.339321,51.82494],[4.340148,51.82472],[4.340341,51.82455],[4.340543,51.82424],[4.340723,51.82417],[4.341346,51.82405]]},"properties":{"name":"Groede","highway":"unclassified","maxspeed":"30","profile":"car","distance":"7994.025","time":"2680.446"}},{"type":"Feature","name":"ShapeMeta","geometry":{"type":"LineString","coordinates":[[4.341346,51.82405],[4.342094,51.82398]]},"properties":{"name":"Groede","highway":"unclassified","profile":"car","distance":"8045.925","time":"2685.428"}},{"type":"Feature","name":"ShapeMeta","geometry":{"type":"LineString","coordinates":[[4.342094,51.82398],[4.342392,51.82404]]},"properties":{"name":"Lede","highway":"residential","maxspeed":"30","profile":"car","distance":"8067.425","time":"2688.868"}},{"type":"Feature","name":"ShapeMeta","geometry":{"type":"LineString","coordinates":[[4.342392,51.82404],[4.342718,51.8241]]},"properties":{"name":"Lede","highway":"residential","maxspeed":"30","profile":"car","distance":"8090.525","time":"2692.564"}},{"type":"Feature","name":"ShapeMeta","geometry":{"type":"LineString","coordinates":[[4.342718,51.8241],[4.343371,51.8242]]},"properties":{"name":"Lede","highway":"residential","maxspeed":"30","profile":"car","distance":"8136.625","time":"2699.94"}},{"type":"Feature","name":"ShapeMeta","geometry":{"type":"LineString","coordinates":[[4.343371,51.8242],[4.342735,51.82499]]},"properties":{"name":"Emmalaan","highway":"living_street","profile":"car","distance":"8235.14","time":"2794.514"}},{"type":"Feature","name":"ShapeMeta","geometry":{"type":"LineString","coordinates":[[4.342735,51.82499],[4.34261,51.82515],[4.341987,51.82624]]},"properties":{"name":"Emmalaan","highway":"living_street","profile":"car","distance":"8382.979","time":"3116.44"}},{"type":"Feature","name":"ShapeMeta","geometry":{"type":"LineString","coordinates":[[4.341987,51.82624],[4.34261,51.82515],[4.343371,51.8242]]},"properties":{"name":"Emmalaan","highway":"living_street","profile":"car","distance":"8629.332","time":"3532.939"}},{"type":"Feature","name":"ShapeMeta","geometry":{"type":"LineString","coordinates":[[4.343371,51.8242],[4.342718,51.8241]]},"properties":{"name":"Lede","highway":"residential","maxspeed":"30","profile":"car","distance":"8675.433","time":"3540.315"}},{"type":"Feature","name":"ShapeMeta","geometry":{"type":"LineString","coordinates":[[4.342718,51.8241],[4.342631,51.82408]]},"properties":{"name":"Lede","highway":"residential","maxspeed":"30","profile":"car","distance":"8681.592","time":"3541.301"}},{"type":"Feature","name":"ShapeMeta","geometry":{"type":"LineString","coordinates":[[4.342631,51.82408],[4.342718,51.8241]]},"properties":{"name":"Lede","highway":"residential","maxspeed":"30","profile":"car","distance":"8687.751","time":"3722.287"}},{"type":"Feature","name":"ShapeMeta","geometry":{"type":"LineString","coordinates":[[4.342718,51.8241],[4.343371,51.8242]]},"properties":{"name":"Lede","highway":"residential","maxspeed":"30","profile":"car","distance":"8733.852","time":"3729.663"}},{"type":"Feature","name":"ShapeMeta","geometry":{"type":"LineString","coordinates":[[4.343371,51.8242],[4.34341,51.8242]]},"properties":{"name":"Lede","highway":"residential","maxspeed":"30","profile":"car","distance":"8736.451","time":"3730.079"}},{"type":"Feature","name":"ShapeMeta","geometry":{"type":"LineString","coordinates":[[4.34341,51.8242],[4.344522,51.82442]]},"properties":{"name":"Lede","highway":"residential","maxspeed":"30","profile":"car","distance":"8816.651","time":"3742.911"}},{"type":"Feature","name":"ShapeMeta","geometry":{"type":"LineString","coordinates":[[4.344522,51.82442],[4.344595,51.82444]]},"properties":{"name":"Lede","highway":"residential","maxspeed":"30","profile":"car","distance":"8822.157","time":"3743.792"}},{"type":"Feature","name":"ShapeMeta","geometry":{"type":"LineString","coordinates":[[4.344595,51.82444],[4.345376,51.82465]]},"properties":{"name":"Lede","highway":"residential","maxspeed":"30","profile":"car","distance":"8880.651","time":"3933.151"}},{"type":"Feature","name":"ShapeMeta","geometry":{"type":"LineString","coordinates":[[4.345376,51.82465],[4.344509,51.82603],[4.344432,51.8264]]},"properties":{"name":"Schoollaan","highway":"living_street","profile":"car","distance":"9086.809","time":"4131.063"}},{"type":"Feature","name":"ShapeMeta","geometry":{"type":"LineString","coordinates":[[4.344432,51.8264],[4.344509,51.82603],[4.345376,51.82465]]},"properties":{"name":"Schoollaan","highway":"living_street","profile":"car","distance":"9292.966","time":"4508.975"}},{"type":"Feature","name":"ShapeMeta","geometry":{"type":"LineString","coordinates":[[4.345376,51.82465],[4.345696,51.82476],[4.3461,51.8249]]},"properties":{"name":"Lede","highway":"residential","maxspeed":"30","profile":"car","distance":"9350.166","time":"4518.126"}},{"type":"Feature","name":"ShapeMeta","geometry":{"type":"LineString","coordinates":[[4.3461,51.8249],[4.346175,51.82483]]},"properties":{"name":"Kluivertweg","maxspeed":"30","highway":"living_street","profile":"car","distance":"9360.274","time":"4519.744"}},{"type":"Feature","name":"ShapeMeta","geometry":{"type":"LineString","coordinates":[[4.346175,51.82483],[4.3461,51.8249]]},"properties":{"name":"Kluivertweg","maxspeed":"30","highway":"living_street","profile":"car","distance":"9370.383","time":"4701.361"}},{"type":"Feature","name":"ShapeMeta","geometry":{"type":"LineString","coordinates":[[4.3461,51.8249],[4.346587,51.82507],[4.347044,51.82518]]},"properties":{"name":"Lede","highway":"residential","maxspeed":"30","profile":"car","distance":"9442.583","time":"4712.914"}},{"type":"Feature","name":"ShapeMeta","geometry":{"type":"LineString","coordinates":[[4.347044,51.82518],[4.347862,51.82531]]},"properties":{"name":"Lede","highway":"residential","maxspeed":"30","profile":"car","distance":"9500.482","time":"4722.177"}},{"type":"Feature","name":"ShapeMeta","geometry":{"type":"LineString","coordinates":[[4.347862,51.82531],[4.347973,51.82533]]},"properties":{"name":"Kors Monsterstraat","highway":"residential","profile":"car","distance":"9508.482","time":"4722.945"}},{"type":"Feature","name":"ShapeMeta","geometry":{"type":"LineString","coordinates":[[4.347973,51.82533],[4.348367,51.82538]]},"properties":{"name":"Kors Monsterstraat","highway":"residential","profile":"car","distance":"9536.004","time":"4725.587"}},{"type":"Feature","name":"ShapeMeta","geometry":{"type":"LineString","coordinates":[[4.348367,51.82538],[4.347973,51.82533]]},"properties":{"name":"Kors Monsterstraat","highway":"residential","profile":"car","distance":"9563.524","time":"4908.229"}},{"type":"Feature","name":"ShapeMeta","geometry":{"type":"LineString","coordinates":[[4.347973,51.82533],[4.347862,51.82531]]},"properties":{"name":"Kors Monsterstraat","highway":"residential","profile":"car","distance":"9571.524","time":"4908.997"}},{"type":"Feature","name":"ShapeMeta","geometry":{"type":"LineString","coordinates":[[4.347862,51.82531],[4.347044,51.82518]]},"properties":{"name":"Lede","highway":"residential","maxspeed":"30","profile":"car","distance":"9629.425","time":"4918.261"}},{"type":"Feature","name":"ShapeMeta","geometry":{"type":"LineString","coordinates":[[4.347044,51.82518],[4.346753,51.8257]]},"properties":{"name":"L de Raatlaan","highway":"residential","maxspeed":"30","profile":"car","distance":"9690.024","time":"4927.957"}},{"type":"Feature","name":"ShapeMeta","geometry":{"type":"LineString","coordinates":[[4.346753,51.8257],[4.346719,51.82622]]},"properties":{"name":"L de Raatlaan","highway":"residential","maxspeed":"30","profile":"car","distance":"9747.745","time":"4937.192"}},{"type":"Feature","name":"ShapeMeta","geometry":{"type":"LineString","coordinates":[[4.346719,51.82622],[4.346717,51.82624],[4.346737,51.82638]]},"properties":{"name":"L de Raatlaan","highway":"residential","maxspeed":"30","profile":"car","distance":"9765.624","time":"5120.053"}},{"type":"Feature","name":"ShapeMeta","geometry":{"type":"LineString","coordinates":[[4.346737,51.82638],[4.346358,51.82637],[4.345498,51.8264]]},"properties":{"name":"Dorpsstraat","highway":"residential","maxspeed":"30","profile":"car","distance":"9850.925","time":"5133.701"}},{"type":"Feature","name":"ShapeMeta","geometry":{"type":"LineString","coordinates":[[4.345498,51.8264],[4.34544,51.82673]]},"properties":{"name":"Achterweg","highway":"residential","profile":"car","distance":"9887.524","time":"5137.214"}},{"type":"Feature","name":"ShapeMeta","geometry":{"type":"LineString","coordinates":[[4.34544,51.82673],[4.343616,51.82676],[4.343071,51.82683],[4.342914,51.82685]]},"properties":{"name":"Achterweg","highway":"unclassified","profile":"car","distance":"10062.22","time":"5153.985"}},{"type":"Feature","name":"ShapeMeta","geometry":{"type":"LineString","coordinates":[[4.342914,51.82685],[4.342882,51.82694]]},"properties":{"highway":"living_street","profile":"car","distance":"10071.75","time":"5163.128"}},{"type":"Feature","name":"ShapeMeta","geometry":{"type":"LineString","coordinates":[[4.342882,51.82694],[4.342914,51.82685]]},"properties":{"highway":"living_street","profile":"car","distance":"10081.27","time":"5352.271"}},{"type":"Feature","name":"ShapeMeta","geometry":{"type":"LineString","coordinates":[[4.342914,51.82685],[4.342846,51.82686],[4.342699,51.82686],[4.342551,51.82685]]},"properties":{"name":"Achterweg","highway":"unclassified","profile":"car","distance":"10106.37","time":"5354.68"}},{"type":"Feature","name":"ShapeMeta","geometry":{"type":"LineString","coordinates":[[4.342551,51.82685],[4.342414,51.82681],[4.3422,51.82679],[4.3417,51.8268]]},"properties":{"name":"Achterweg","highway":"unclassified","profile":"car","distance":"10165.77","time":"5360.382"}},{"type":"Feature","name":"ShapeMeta","geometry":{"type":"LineString","coordinates":[[4.3417,51.8268],[4.341389,51.82682]]},"properties":{"name":"Achterweg","highway":"unclassified","profile":"car","distance":"10187.27","time":"5362.446"}},{"type":"Feature","name":"ShapeMeta","geometry":{"type":"LineString","coordinates":[[4.341389,51.82682],[4.341413,51.827],[4.341316,51.82721],[4.341215,51.82733]]},"properties":{"name":"Meeldijk","highway":"unclassified","maxspeed":"30","profile":"car","distance":"10246.77","time":"5371.966"}},{"type":"Feature","name":"ShapeMeta","geometry":{"type":"LineString","coordinates":[[4.341215,51.82733],[4.34095,51.82743],[4.340146,51.82774],[4.339702,51.82798],[4.339298,51.82812]]},"properties":{"name":"Meeldijk","highway":"unclassified","maxspeed":"30","profile":"car","distance":"10405.57","time":"5397.375"}},{"type":"Feature","name":"ShapeMeta","geometry":{"type":"LineString","coordinates":[[4.339298,51.82812],[4.338922,51.82824],[4.337382,51.82883],[4.33714,51.82897],[4.336696,51.8293]]},"properties":{"name":"Meeldijk","highway":"unclassified","maxspeed":"30","profile":"car","distance":"10629.27","time":"5433.167"}},{"type":"Feature","name":"ShapeMeta","geometry":{"type":"LineString","coordinates":[[4.336696,51.8293],[4.336523,51.82943]]},"properties":{"name":"Meeldijk","highway":"unclassified","maxspeed":"30","profile":"car","distance":"10648.27","time":"5436.207"}},{"type":"Feature","name":"ShapeMeta","geometry":{"type":"LineString","coordinates":[[4.336523,51.82943],[4.335898,51.83008]]},"properties":{"name":"Meeldijk","highway":"unclassified","maxspeed":"30","profile":"car","distance":"10732.17","time":"5449.63"}},{"type":"Feature","name":"ShapeMeta","geometry":{"type":"LineString","coordinates":[[4.335898,51.83008],[4.33585,51.83013],[4.335743,51.8302],[4.335623,51.83025]]},"properties":{"name":"Meeldijk","highway":"unclassified","maxspeed":"30","profile":"car","distance":"10759.67","time":"5454.03"}},{"type":"Feature","name":"ShapeMeta","geometry":{"type":"LineString","coordinates":[[4.335623,51.83025],[4.335322,51.83027],[4.335257,51.83027]]},"properties":{"name":"Meeldijk","highway":"unclassified","maxspeed":"50","profile":"car","distance":"10784.87","time":"5456.45"}},{"type":"Feature","name":"ShapeMeta","geometry":{"type":"LineString","coordinates":[[4.335257,51.83027],[4.335034,51.83027]]},"properties":{"name":"Meeldijk","highway":"unclassified","maxspeed":"50","profile":"car","distance":"10800.17","time":"5457.918"}},{"type":"Feature","name":"ShapeMeta","geometry":{"type":"LineString","coordinates":[[4.335034,51.83027],[4.33502,51.83052],[4.334882,51.83102],[4.334789,51.83123]]},"properties":{"name":"Hekelingseweg","maxspeed":"50","highway":"secondary","profile":"car","distance":"10908.67","time":"5468.334"}},{"type":"Feature","name":"ShapeMeta","geometry":{"type":"LineString","coordinates":[[4.334789,51.83123],[4.334695,51.83144],[4.33434,51.83228]]},"properties":{"name":"Hekelingseweg","maxspeed":"50","highway":"secondary","profile":"car","distance":"11028.47","time":"5479.835"}},{"type":"Feature","name":"ShapeMeta","geometry":{"type":"LineString","coordinates":[[4.33434,51.83228],[4.334135,51.83279],[4.333984,51.83319],[4.333944,51.83329]]},"properties":{"name":"Hekelingseweg","maxspeed":"50","oneway":"yes","highway":"secondary","profile":"car","distance":"11144.47","time":"5490.971"}},{"type":"Feature","name":"ShapeMeta","geometry":{"type":"LineString","coordinates":[[4.333944,51.83329],[4.33392,51.83337]]},"properties":{"name":"Hekelingseweg","maxspeed":"50","oneway":"yes","highway":"secondary","profile":"car","distance":"11153.87","time":"5491.874"}},{"type":"Feature","name":"ShapeMeta","geometry":{"type":"LineString","coordinates":[[4.33392,51.83337],[4.333879,51.83347],[4.333866,51.8335],[4.333449,51.83439]]},"properties":{"name":"Hekelingseweg","maxspeed":"50","oneway":"yes","highway":"secondary","profile":"car","distance":"11271.17","time":"5503.134"}},{"type":"Feature","name":"ShapeMeta","geometry":{"type":"LineString","coordinates":[[4.333449,51.83439],[4.332847,51.83581],[4.332666,51.83623]]},"properties":{"name":"Hekelingseweg","maxspeed":"50","highway":"secondary","profile":"car","distance":"11482.97","time":"5523.467"}},{"type":"Feature","name":"ShapeMeta","geometry":{"type":"LineString","coordinates":[[4.332666,51.83623],[4.332587,51.83643],[4.332341,51.83696],[4.332278,51.83705]]},"properties":{"name":"Hekelingseweg","maxspeed":"50","highway":"secondary","profile":"car","distance":"11577.67","time":"5532.559"}},{"type":"Feature","name":"ShapeMeta","geometry":{"type":"LineString","coordinates":[[4.332278,51.83705],[4.33235,51.83712],[4.332238,51.83795],[4.332231,51.83809]]},"properties":{"name":"Hekelingseweg","maxspeed":"50","oneway":"yes","highway":"secondary","profile":"car","distance":"11694.77","time":"5543.8"}},{"type":"Feature","name":"ShapeMeta","geometry":{"type":"LineString","coordinates":[[4.332231,51.83809],[4.33221,51.8382]]},"properties":{"name":"Hekelingseweg","maxspeed":"50","oneway":"yes","highway":"secondary","profile":"car","distance":"11707.07","time":"5544.981"}},{"type":"Feature","name":"ShapeMeta","geometry":{"type":"LineString","coordinates":[[4.33221,51.8382],[4.332188,51.8383],[4.332137,51.83849],[4.332017,51.83862],[4.331906,51.8387],[4.331593,51.83882],[4.331412,51.83893],[4.331363,51.83906],[4.331328,51.83917]]},"properties":{"name":"Hekelingseweg","maxspeed":"50","highway":"tertiary","oneway":"yes","profile":"car","distance":"11838.57","time":"5557.605"}},{"type":"Feature","name":"ShapeMeta","geometry":{"type":"LineString","coordinates":[[4.331328,51.83917],[4.33132,51.83929],[4.331257,51.83949]]},"properties":{"name":"Hekelingseweg","maxspeed":"50","highway":"tertiary","oneway":"yes","profile":"car","distance":"11874.17","time":"5561.022"}},{"type":"Feature","name":"ShapeMeta","geometry":{"type":"LineString","coordinates":[[4.331257,51.83949],[4.331182,51.84015]]},"properties":{"name":"Hekelingseweg","maxspeed":"50","highway":"tertiary","profile":"car","distance":"11948.07","time":"5568.117"}},{"type":"Feature","name":"ShapeMeta","geometry":{"type":"LineString","coordinates":[[4.331182,51.84015],[4.331144,51.84051],[4.331061,51.84118],[4.330976,51.84137]]},"properties":{"name":"Hekelingseweg","maxspeed":"50","highway":"tertiary","profile":"car","distance":"12084.47","time":"5581.211"}},{"type":"Feature","name":"ShapeMeta","geometry":{"type":"LineString","coordinates":[[4.330976,51.84137],[4.330967,51.84144],[4.330879,51.84165],[4.330832,51.84174]]},"properties":{"name":"Hekelingseweg","maxspeed":"50","highway":"tertiary","oneway":"yes","profile":"car","distance":"12126.87","time":"5585.282"}},{"type":"Feature","name":"ShapeMeta","geometry":{"type":"LineString","coordinates":[[4.330832,51.84174],[4.330878,51.84177],[4.330908,51.8418]]},"properties":{"name":"Planetenplein","maxspeed":"50","highway":"tertiary","oneway":"yes","junction":"roundabout","profile":"car","distance":"12135.47","time":"5586.107"}},{"type":"Feature","name":"ShapeMeta","geometry":{"type":"LineString","coordinates":[[4.330908,51.8418],[4.331061,51.84181],[4.331402,51.84182],[4.331864,51.84186],[4.33204,51.84188]]},"properties":{"name":"Eikenlaan","highway":"unclassified","maxspeed":"50","oneway":"yes","profile":"car","distance":"12213.87","time":"5593.634"}},{"type":"Feature","name":"ShapeMeta","geometry":{"type":"LineString","coordinates":[[4.33204,51.84188],[4.332249,51.84189]]},"properties":{"name":"Eikenlaan","highway":"unclassified","maxspeed":"50","profile":"car","distance":"12228.27","time":"5595.016"}},{"type":"Feature","name":"ShapeMeta","geometry":{"type":"LineString","coordinates":[[4.332249,51.84189],[4.332633,51.84191],[4.332995,51.84194]]},"properties":{"name":"Eikenlaan","highway":"unclassified","maxspeed":"50","profile":"car","distance":"12279.87","time":"5599.97"}},{"type":"Feature","name":"ShapeMeta","geometry":{"type":"LineString","coordinates":[[4.332995,51.84194],[4.333108,51.84195],[4.333394,51.84196]]},"properties":{"name":"Eikenlaan","highway":"unclassified","maxspeed":"50","profile":"car","distance":"12307.27","time":"5602.6"}},{"type":"Feature","name":"ShapeMeta","geometry":{"type":"LineString","coordinates":[[4.333394,51.84196],[4.33377,51.84198],[4.334474,51.84201]]},"properties":{"name":"Eikenlaan","highway":"unclassified","maxspeed":"50","profile":"car","distance":"12381.67","time":"5609.742"}},{"type":"Feature","name":"ShapeMeta","geometry":{"type":"LineString","coordinates":[[4.334474,51.84201],[4.334468,51.84206]]},"properties":{"name":"Goudenregenplein","highway":"living_street","profile":"car","distance":"12387.2","time":"5615.046"}},{"type":"Feature","name":"ShapeMeta","geometry":{"type":"LineString","coordinates":[[4.334468,51.84206],[4.334466,51.84208],[4.3344,51.8426],[4.334,51.8427],[4.3335,51.8428],[4.333413,51.84282]]},"properties":{"name":"Goudenregenplein","highway":"living_street","profile":"car","distance":"12520.16","time":"5922.691"}},{"type":"Feature","name":"ShapeMeta","geometry":{"type":"LineString","coordinates":[[4.333413,51.84282],[4.3335,51.8428],[4.334,51.8427],[4.3344,51.8426],[4.334466,51.84208],[4.334474,51.84201]]},"properties":{"name":"Goudenregenplein","highway":"living_street","profile":"car","distance":"12658.65","time":"6235.64"}},{"type":"Feature","name":"ShapeMeta","geometry":{"type":"LineString","coordinates":[[4.334474,51.84201],[4.33377,51.84198],[4.333394,51.84196]]},"properties":{"name":"Eikenlaan","highway":"unclassified","maxspeed":"50","profile":"car","distance":"12733.05","time":"6242.782"}},{"type":"Feature","name":"ShapeMeta","geometry":{"type":"LineString","coordinates":[[4.333394,51.84196],[4.333108,51.84195],[4.332995,51.84194]]},"properties":{"name":"Eikenlaan","highway":"unclassified","maxspeed":"50","profile":"car","distance":"12760.45","time":"6245.413"}},{"type":"Feature","name":"ShapeMeta","geometry":{"type":"LineString","coordinates":[[4.332995,51.84194],[4.332633,51.84191],[4.332249,51.84189]]},"properties":{"name":"Eikenlaan","highway":"unclassified","maxspeed":"50","profile":"car","distance":"12812.05","time":"6250.366"}},{"type":"Feature","name":"ShapeMeta","geometry":{"type":"LineString","coordinates":[[4.332249,51.84189],[4.33204,51.84188]]},"properties":{"name":"Eikenlaan","highway":"unclassified","maxspeed":"50","profile":"car","distance":"12826.45","time":"6251.749"}},{"type":"Feature","name":"ShapeMeta","geometry":{"type":"LineString","coordinates":[[4.33204,51.84188],[4.331857,51.84188],[4.331058,51.84188],[4.330894,51.8419]]},"properties":{"name":"Eikenlaan","highway":"unclassified","oneway":"yes","profile":"car","distance":"12905.25","time":"6259.313"}},{"type":"Feature","name":"ShapeMeta","geometry":{"type":"LineString","coordinates":[[4.330894,51.8419],[4.330861,51.84192],[4.330818,51.84194]]},"properties":{"name":"Planetenplein","maxspeed":"50","highway":"tertiary","oneway":"yes","junction":"roundabout","profile":"car","distance":"12912.55","time":"6260.014"}},{"type":"Feature","name":"ShapeMeta","geometry":{"type":"LineString","coordinates":[[4.330818,51.84194],[4.330823,51.84206]]},"properties":{"name":"Hekelingseweg","maxspeed":"50","highway":"tertiary","oneway":"yes","profile":"car","distance":"12925.65","time":"6261.272"}},{"type":"Feature","name":"ShapeMeta","geometry":{"type":"LineString","coordinates":[[4.330823,51.84206],[4.330942,51.84253]]},"properties":{"name":"Hekelingseweg","maxspeed":"50","highway":"tertiary","oneway":"yes","profile":"car","distance":"12978.85","time":"6266.379"}},{"type":"Feature","name":"ShapeMeta","geometry":{"type":"LineString","coordinates":[[4.330942,51.84253],[4.330947,51.84267],[4.330758,51.84332]]},"properties":{"name":"Hekelingseweg","maxspeed":"50","highway":"tertiary","oneway":"yes","profile":"car","distance":"13067.35","time":"6274.875"}},{"type":"Feature","name":"ShapeMeta","geometry":{"type":"LineString","coordinates":[[4.330758,51.84332],[4.330816,51.84343]]},"properties":{"maxspeed":"50","oneway":"yes","highway":"tertiary_link","profile":"car","distance":"13079.85","time":"6276.075"}},{"type":"Feature","name":"ShapeMeta","geometry":{"type":"LineString","coordinates":[[4.330816,51.84343],[4.330852,51.84346],[4.330919,51.84349]]},"properties":{"maxspeed":"50","oneway":"yes","highway":"tertiary_link","profile":"car","distance":"13089.75","time":"6277.025"}},{"type":"Feature","name":"ShapeMeta","geometry":{"type":"LineString","coordinates":[[4.330919,51.84349],[4.331181,51.84353],[4.331366,51.84357],[4.331577,51.84363],[4.331679,51.84367],[4.331871,51.8438],[4.331987,51.8439],[4.332088,51.84401]]},"properties":{"name":"Ruwaard van Puttenweg","maxspeed":"50","highway":"tertiary","oneway":"yes","profile":"car","distance":"13193.15","time":"6286.952"}},{"type":"Feature","name":"ShapeMeta","geometry":{"type":"LineString","coordinates":[[4.332088,51.84401],[4.33244,51.84436],[4.332537,51.84447]]},"properties":{"name":"Ruwaard van Puttenweg","maxspeed":"50","highway":"tertiary","oneway":"yes","profile":"car","distance":"13252.95","time":"6292.693"}},{"type":"Feature","name":"ShapeMeta","geometry":{"type":"LineString","coordinates":[[4.332537,51.84447],[4.332789,51.84468],[4.333066,51.84492],[4.33327,51.84508]]},"properties":{"name":"Ruwaard van Puttenweg","maxspeed":"50","highway":"tertiary","oneway":"yes","profile":"car","distance":"13337.45","time":"6300.805"}},{"type":"Feature","name":"ShapeMeta","geometry":{"type":"LineString","coordinates":[[4.33327,51.84508],[4.333418,51.84504],[4.333456,51.84501]]},"properties":{"name":"Barbier","highway":"residential","profile":"car","distance":"13352.45","time":"6302.245"}},{"type":"Feature","name":"ShapeMeta","geometry":{"type":"LineString","coordinates":[[4.333456,51.84501],[4.33348,51.845]]},"properties":{"name":"Barbier","highway":"residential","profile":"car","distance":"13354.48","time":"6302.439"}},{"type":"Feature","name":"ShapeMeta","geometry":{"type":"LineString","coordinates":[[4.33348,51.845],[4.33357,51.84496]]},"properties":{"name":"Barbier","highway":"residential","profile":"car","distance":"13361.95","time":"6483.156"}},{"type":"Feature","name":"ShapeMeta","geometry":{"type":"LineString","coordinates":[[4.33357,51.84496],[4.334485,51.84576]]},"properties":{"name":"Wolwever","maxspeed":"30","highway":"living_street","profile":"car","distance":"13470.55","time":"6500.532"}},{"type":"Feature","name":"ShapeMeta","geometry":{"type":"LineString","coordinates":[[4.334485,51.84576],[4.334764,51.84564]]},"properties":{"name":"Veerman","highway":"residential","maxspeed":"30","profile":"car","distance":"13494.16","time":"6504.31"}},{"type":"Feature","name":"ShapeMeta","geometry":{"type":"LineString","coordinates":[[4.334764,51.84564],[4.334864,51.84559],[4.335527,51.8453]]},"properties":{"name":"Veerman","highway":"residential","maxspeed":"30","profile":"car","distance":"13558.55","time":"6694.612"}},{"type":"Feature","name":"ShapeMeta","geometry":{"type":"LineString","coordinates":[[4.335527,51.8453],[4.335715,51.84522]]},"properties":{"name":"Veerman","highway":"residential","maxspeed":"30","profile":"car","distance":"13573.95","time":"6697.076"}},{"type":"Feature","name":"ShapeMeta","geometry":{"type":"LineString","coordinates":[[4.335715,51.84522],[4.336032,51.84509]]},"properties":{"name":"Veerman","highway":"residential","maxspeed":"30","profile":"car","distance":"13600.43","time":"6701.313"}},{"type":"Feature","name":"ShapeMeta","geometry":{"type":"LineString","coordinates":[[4.336032,51.84509],[4.336197,51.84502],[4.33693,51.84472]]},"properties":{"name":"Veerman","highway":"residential","maxspeed":"30","profile":"car","distance":"13674.45","time":"6893.156"}},{"type":"Feature","name":"ShapeMeta","geometry":{"type":"LineString","coordinates":[[4.33693,51.84472],[4.336959,51.8447]]},"properties":{"name":"Veerman","highway":"residential","maxspeed":"30","profile":"car","distance":"13676.95","time":"6893.556"}},{"type":"Feature","name":"ShapeMeta","geometry":{"type":"LineString","coordinates":[[4.336959,51.8447],[4.337123,51.84464]]},"properties":{"name":"Veerman","highway":"residential","maxspeed":"30","profile":"car","distance":"13690.25","time":"6895.684"}},{"type":"Feature","name":"ShapeMeta","geometry":{"type":"LineString","coordinates":[[4.337123,51.84464],[4.33736,51.84454]]},"properties":{"name":"Veerman","highway":"residential","maxspeed":"30","profile":"car","distance":"13710.15","time":"6898.868"}},{"type":"Feature","name":"ShapeMeta","geometry":{"type":"LineString","coordinates":[[4.33736,51.84454],[4.33733,51.84451]]},"properties":{"name":"Kleermaker","highway":"residential","profile":"car","distance":"13713.89","time":"6899.228"}},{"type":"Feature","name":"ShapeMeta","geometry":{"type":"LineString","coordinates":[[4.33733,51.84451],[4.33736,51.84454]]},"properties":{"name":"Kleermaker","highway":"residential","profile":"car","distance":"13717.64","time":"7079.588"}},{"type":"Feature","name":"ShapeMeta","geometry":{"type":"LineString","coordinates":[[4.33736,51.84454],[4.337123,51.84464]]},"properties":{"name":"Veerman","highway":"residential","maxspeed":"30","profile":"car","distance":"13737.54","time":"7082.772"}},{"type":"Feature","name":"ShapeMeta","geometry":{"type":"LineString","coordinates":[[4.337123,51.84464],[4.336959,51.8447]]},"properties":{"name":"Veerman","highway":"residential","maxspeed":"30","profile":"car","distance":"13750.84","time":"7084.9"}},{"type":"Feature","name":"ShapeMeta","geometry":{"type":"LineString","coordinates":[[4.336959,51.8447],[4.33693,51.84472]]},"properties":{"name":"Veerman","highway":"residential","maxspeed":"30","profile":"car","distance":"13753.34","time":"7085.3"}},{"type":"Feature","name":"ShapeMeta","geometry":{"type":"LineString","coordinates":[[4.33693,51.84472],[4.336197,51.84502],[4.335715,51.84522]]},"properties":{"name":"Veerman","highway":"residential","maxspeed":"30","profile":"car","distance":"13853.84","time":"7101.38"}},{"type":"Feature","name":"ShapeMeta","geometry":{"type":"LineString","coordinates":[[4.335715,51.84522],[4.335527,51.8453]]},"properties":{"name":"Veerman","highway":"residential","maxspeed":"30","profile":"car","distance":"13869.24","time":"7103.844"}},{"type":"Feature","name":"ShapeMeta","geometry":{"type":"LineString","coordinates":[[4.335527,51.8453],[4.335109,51.84489],[4.334772,51.84456]]},"properties":{"name":"Wagenmaker","highway":"residential","profile":"car","distance":"13966.14","time":"7113.146"}},{"type":"Feature","name":"ShapeMeta","geometry":{"type":"LineString","coordinates":[[4.334772,51.84456],[4.334689,51.84449]]},"properties":{"name":"Wagenmaker","highway":"residential","profile":"car","distance":"13976.34","time":"7114.125"}},{"type":"Feature","name":"ShapeMeta","geometry":{"type":"LineString","coordinates":[[4.334689,51.84449],[4.33406,51.84476]]},"properties":{"name":"Barbier","highway":"residential","profile":"car","distance":"14028.94","time":"7299.175"}},{"type":"Feature","name":"ShapeMeta","geometry":{"type":"LineString","coordinates":[[4.33406,51.84476],[4.333834,51.84485]]},"properties":{"name":"Barbier","highway":"residential","profile":"car","distance":"14047.74","time":"7300.979"}},{"type":"Feature","name":"ShapeMeta","geometry":{"type":"LineString","coordinates":[[4.333834,51.84485],[4.33357,51.84496]]},"properties":{"name":"Barbier","highway":"residential","profile":"car","distance":"14069.64","time":"7303.082"}},{"type":"Feature","name":"ShapeMeta","geometry":{"type":"LineString","coordinates":[[4.33357,51.84496],[4.333456,51.84501]]},"properties":{"name":"Barbier","highway":"residential","profile":"car","distance":"14079.14","time":"7303.994"}},{"type":"Feature","name":"ShapeMeta","geometry":{"type":"LineString","coordinates":[[4.333456,51.84501],[4.3331,51.8447],[4.332345,51.84402],[4.332991,51.84376]]},"properties":{"name":"Schrijnwerker","highway":"residential","profile":"car","distance":"14266.32","time":"7321.963"}},{"type":"Feature","name":"ShapeMeta","geometry":{"type":"LineString","coordinates":[[4.332991,51.84376],[4.332345,51.84402],[4.3331,51.8447],[4.333456,51.84501]]},"properties":{"name":"Schrijnwerker","highway":"residential","profile":"car","distance":"14453.5","time":"7519.933"}},{"type":"Feature","name":"ShapeMeta","geometry":{"type":"LineString","coordinates":[[4.333456,51.84501],[4.333418,51.84504],[4.33327,51.84508]]},"properties":{"name":"Barbier","highway":"residential","profile":"car","distance":"14468.5","time":"7521.373"}},{"type":"Feature","name":"ShapeMeta","geometry":{"type":"LineString","coordinates":[[4.33327,51.84508],[4.333194,51.84512]]},"properties":{"name":"Barbier","highway":"residential","profile":"car","distance":"14474.9","time":"7521.987"}},{"type":"Feature","name":"ShapeMeta","geometry":{"type":"LineString","coordinates":[[4.333194,51.84512],[4.332952,51.84493],[4.332513,51.84455],[4.332411,51.84447]]},"properties":{"name":"Ruwaard van Puttenweg","maxspeed":"50","highway":"tertiary","oneway":"yes","profile":"car","distance":"14564.8","time":"7530.617"}},{"type":"Feature","name":"ShapeMeta","geometry":{"type":"LineString","coordinates":[[4.332411,51.84447],[4.332081,51.84415],[4.331894,51.84393],[4.331727,51.84383],[4.331326,51.84372],[4.33113,51.84368],[4.330874,51.84364]]},"properties":{"name":"Ruwaard van Puttenweg","maxspeed":"50","highway":"tertiary","oneway":"yes","profile":"car","distance":"14712.8","time":"7544.825"}},{"type":"Feature","name":"ShapeMeta","geometry":{"type":"LineString","coordinates":[[4.330874,51.84364],[4.330633,51.84362]]},"properties":{"name":"Ruwaard van Puttenweg","maxspeed":"50","highway":"tertiary","oneway":"yes","profile":"car","distance":"14729.3","time":"7546.409"}},{"type":"Feature","name":"ShapeMeta","geometry":{"type":"LineString","coordinates":[[4.330633,51.84362],[4.330369,51.84361],[4.330067,51.84362]]},"properties":{"name":"Hekelingseweg","maxspeed":"50","highway":"tertiary","oneway":"yes","profile":"car","distance":"14768.2","time":"7550.144"}},{"type":"Feature","name":"ShapeMeta","geometry":{"type":"LineString","coordinates":[[4.330067,51.84362],[4.329809,51.84363],[4.329522,51.84365],[4.329292,51.84365],[4.327532,51.84357],[4.327161,51.8436],[4.326821,51.84368],[4.326106,51.84417],[4.325861,51.84434]]},"properties":{"name":"Hekelingseweg","maxspeed":"50","highway":"tertiary","oneway":"yes","profile":"car","distance":"15092.3","time":"7581.257"}},{"type":"Feature","name":"ShapeMeta","geometry":{"type":"LineString","coordinates":[[4.325861,51.84434],[4.3236,51.8461]]},"properties":{"name":"Hekelingseweg","maxspeed":"50","highway":"tertiary","oneway":"yes","profile":"car","distance":"15342","time":"7605.229"}},{"type":"Feature","name":"ShapeMeta","geometry":{"type":"LineString","coordinates":[[4.3236,51.8461],[4.323206,51.84641],[4.323023,51.84655],[4.3223,51.8471]]},"properties":{"name":"Hekelingseweg","maxspeed":"50","highway":"tertiary","oneway":"yes","profile":"car","distance":"15484.5","time":"7618.909"}},{"type":"Feature","name":"ShapeMeta","geometry":{"type":"LineString","coordinates":[[4.3223,51.8471],[4.321324,51.84792]]},"properties":{"name":"Hekelingseweg","highway":"tertiary","oneway":"yes","profile":"car","distance":"15597.3","time":"7626.644"}},{"type":"Feature","name":"ShapeMeta","geometry":{"type":"LineString","coordinates":[[4.321324,51.84792],[4.321151,51.84805]]},"properties":{"name":"Hekelingseweg","highway":"tertiary","oneway":"yes","profile":"car","distance":"15615.9","time":"7627.919"}},{"type":"Feature","name":"ShapeMeta","geometry":{"type":"LineString","coordinates":[[4.321151,51.84805],[4.321066,51.84811],[4.321002,51.84816]]},"properties":{"name":"Hekelingseweg","highway":"tertiary","oneway":"yes","profile":"car","distance":"15632.2","time":"7629.037"}},{"type":"Feature","name":"ShapeMeta","geometry":{"type":"LineString","coordinates":[[4.321002,51.84816],[4.3208,51.84833]]},"properties":{"bridge":"yes","name":"Hekelingseweg","highway":"tertiary","oneway":"yes","profile":"car","distance":"15655.8","time":"7630.655"}},{"type":"Feature","name":"ShapeMeta","geometry":{"type":"LineString","coordinates":[[4.3208,51.84833],[4.320451,51.84859],[4.319454,51.84935],[4.319144,51.84961]]},"properties":{"name":"Hekelingseweg","highway":"tertiary","oneway":"yes","profile":"car","distance":"15837.5","time":"7643.114"}},{"type":"Feature","name":"ShapeMeta","geometry":{"type":"LineString","coordinates":[[4.319144,51.84961],[4.318772,51.84988]]},"properties":{"name":"Hekelingseweg","highway":"tertiary","oneway":"yes","profile":"car","distance":"15877","time":"7645.823"}},{"type":"Feature","name":"ShapeMeta","geometry":{"type":"LineString","coordinates":[[4.318772,51.84988],[4.318758,51.84992],[4.318635,51.85003],[4.318421,51.85029],[4.318295,51.85054],[4.318264,51.85056]]},"properties":{"highway":"tertiary","oneway":"yes","profile":"car","distance":"15961.7","time":"7651.631"}},{"type":"Feature","name":"ShapeMeta","geometry":{"type":"LineString","coordinates":[[4.318264,51.85056],[4.318069,51.85106]]},"properties":{"name":"Hekelingseweg","highway":"tertiary","oneway":"yes","profile":"car","distance":"16018.8","time":"7655.546"}},{"type":"Feature","name":"ShapeMeta","geometry":{"type":"LineString","coordinates":[[4.318069,51.85106],[4.317905,51.85147],[4.317861,51.85158],[4.317808,51.8517]]},"properties":{"name":"Hekelingseweg","maxspeed":"50","highway":"tertiary","oneway":"yes","profile":"car","distance":"16091.4","time":"7662.516"}},{"type":"Feature","name":"ShapeMeta","geometry":{"type":"LineString","coordinates":[[4.317808,51.8517],[4.317775,51.85178],[4.317684,51.85196]]},"properties":{"name":"Hekelingseweg","maxspeed":"50","highway":"tertiary","oneway":"yes","profile":"car","distance":"16122.2","time":"7665.473"}},{"type":"Feature","name":"ShapeMeta","geometry":{"type":"LineString","coordinates":[[4.317684,51.85196],[4.317599,51.85212]]},"properties":{"name":"Groene Kruisweg","maxspeed":"50","highway":"tertiary","oneway":"yes","profile":"car","distance":"16140.9","time":"7667.268"}},{"type":"Feature","name":"ShapeMeta","geometry":{"type":"LineString","coordinates":[[4.317599,51.85212],[4.317521,51.8523],[4.317275,51.85261]]},"properties":{"name":"Winston Churchilllaan","maxspeed":"50","highway":"tertiary","oneway":"yes","profile":"car","distance":"16199.8","time":"7672.922"}},{"type":"Feature","name":"ShapeMeta","geometry":{"type":"LineString","coordinates":[[4.317275,51.85261],[4.317192,51.85284],[4.317157,51.85292],[4.317067,51.85312]]},"properties":{"name":"Winston Churchilllaan","maxspeed":"50","highway":"tertiary","profile":"car","distance":"16258.4","time":"7678.548"}},{"type":"Feature","name":"ShapeMeta","geometry":{"type":"LineString","coordinates":[[4.317067,51.85312],[4.317019,51.85323],[4.316827,51.85366]]},"properties":{"name":"Winston Churchilllaan","maxspeed":"50","highway":"tertiary","profile":"car","distance":"16320.81","time":"7684.539"}},{"type":"Feature","name":"ShapeMeta","geometry":{"type":"LineString","coordinates":[[4.316827,51.85366],[4.316722,51.8539],[4.316459,51.8545]]},"properties":{"name":"Winston Churchilllaan","maxspeed":"50","highway":"tertiary","profile":"car","distance":"16417.11","time":"7873.783"}},{"type":"Feature","name":"ShapeMeta","geometry":{"type":"LineString","coordinates":[[4.316459,51.8545],[4.316312,51.85477],[4.315972,51.85545]]},"properties":{"name":"Winston Churchilllaan","maxspeed":"50","highway":"tertiary","profile":"car","distance":"16527.8","time":"7884.411"}},{"type":"Feature","name":"ShapeMeta","geometry":{"type":"LineString","coordinates":[[4.315972,51.85545],[4.315952,51.85565],[4.315853,51.85585],[4.315795,51.85597]]},"properties":{"name":"Winston Churchilllaan","maxspeed":"50","highway":"tertiary","oneway":"yes","profile":"car","distance":"16587.5","time":"7890.142"}},{"type":"Feature","name":"ShapeMeta","geometry":{"type":"LineString","coordinates":[[4.315795,51.85597],[4.315802,51.85608],[4.315858,51.85614]]},"properties":{"highway":"unclassified","maxspeed":"50","oneway":"yes","profile":"car","distance":"16607.11","time":"7892.023"}},{"type":"Feature","name":"ShapeMeta","geometry":{"type":"LineString","coordinates":[[4.315858,51.85614],[4.316232,51.85624],[4.316476,51.85632]]},"properties":{"highway":"unclassified","maxspeed":"50","oneway":"yes","profile":"car","distance":"16654","time":"7896.526"}},{"type":"Feature","name":"ShapeMeta","geometry":{"type":"LineString","coordinates":[[4.316476,51.85632],[4.316631,51.85635]]},"properties":{"name":"Willemshoevelaan","highway":"unclassified","maxspeed":"50","profile":"car","distance":"16665","time":"7897.582"}},{"type":"Feature","name":"ShapeMeta","geometry":{"type":"LineString","coordinates":[[4.316631,51.85635],[4.316713,51.85616]]},"properties":{"name":"Anjerstraat","highway":"residential","maxspeed":"30","profile":"car","distance":"16686.9","time":"7901.086"}},{"type":"Feature","name":"ShapeMeta","geometry":{"type":"LineString","coordinates":[[4.316713,51.85616],[4.316796,51.85596]]},"properties":{"name":"Anjerstraat","highway":"residential","maxspeed":"30","profile":"car","distance":"16709.21","time":"7904.654"}},{"type":"Feature","name":"ShapeMeta","geometry":{"type":"LineString","coordinates":[[4.316796,51.85596],[4.316669,51.85594]]},"properties":{"name":"Anjerplein","highway":"service","profile":"car","distance":"16718.3","time":"7906.11"}},{"type":"Feature","name":"ShapeMeta","geometry":{"type":"LineString","coordinates":[[4.316669,51.85594],[4.316796,51.85596]]},"properties":{"name":"Anjerplein","highway":"service","profile":"car","distance":"16727.4","time":"8087.566"}},{"type":"Feature","name":"ShapeMeta","geometry":{"type":"LineString","coordinates":[[4.316796,51.85596],[4.316713,51.85616]]},"properties":{"name":"Anjerstraat","highway":"residential","maxspeed":"30","profile":"car","distance":"16749.7","time":"8091.134"}},{"type":"Feature","name":"ShapeMeta","geometry":{"type":"LineString","coordinates":[[4.316713,51.85616],[4.316631,51.85635]]},"properties":{"name":"Anjerstraat","highway":"residential","maxspeed":"30","profile":"car","distance":"16771.6","time":"8094.638"}},{"type":"Feature","name":"ShapeMeta","geometry":{"type":"LineString","coordinates":[[4.316631,51.85635],[4.316476,51.85632]]},"properties":{"name":"Willemshoevelaan","highway":"unclassified","maxspeed":"50","profile":"car","distance":"16782.6","time":"8095.694"}},{"type":"Feature","name":"ShapeMeta","geometry":{"type":"LineString","coordinates":[[4.316476,51.85632],[4.315814,51.85624]]},"properties":{"highway":"unclassified","maxspeed":"50","oneway":"yes","profile":"car","distance":"16828.8","time":"8100.129"}},{"type":"Feature","name":"ShapeMeta","geometry":{"type":"LineString","coordinates":[[4.315814,51.85624],[4.315743,51.8562],[4.315708,51.85615]]},"properties":{"highway":"unclassified","maxspeed":"50","oneway":"yes","profile":"car","distance":"16841.3","time":"8101.329"}},{"type":"Feature","name":"ShapeMeta","geometry":{"type":"LineString","coordinates":[[4.315708,51.85615],[4.315665,51.85609],[4.315639,51.85601]]},"properties":{"highway":"unclassified","maxspeed":"50","oneway":"yes","profile":"car","distance":"16857.7","time":"8102.903"}},{"type":"Feature","name":"ShapeMeta","geometry":{"type":"LineString","coordinates":[[4.315639,51.85601],[4.315657,51.85597],[4.315834,51.85561],[4.315972,51.85545]]},"properties":{"name":"Winston Churchilllaan","maxspeed":"50","highway":"tertiary","oneway":"yes","profile":"car","distance":"16924.4","time":"8109.307"}},{"type":"Feature","name":"ShapeMeta","geometry":{"type":"LineString","coordinates":[[4.315972,51.85545],[4.316312,51.85477],[4.316459,51.8545]]},"properties":{"name":"Winston Churchilllaan","maxspeed":"50","highway":"tertiary","profile":"car","distance":"17035.1","time":"8119.934"}},{"type":"Feature","name":"ShapeMeta","geometry":{"type":"LineString","coordinates":[[4.316459,51.8545],[4.316307,51.85448],[4.315477,51.85431]]},"properties":{"name":"A M de Jongstraat","highway":"unclassified","maxspeed":"30","profile":"car","distance":"17105.9","time":"8131.262"}},{"type":"Feature","name":"ShapeMeta","geometry":{"type":"LineString","coordinates":[[4.315477,51.85431],[4.315622,51.85399]]},"properties":{"name":"Herman Gorterstraat","highway":"residential","maxspeed":"30","profile":"car","distance":"17142.12","time":"8137.056"}},{"type":"Feature","name":"ShapeMeta","geometry":{"type":"LineString","coordinates":[[4.315622,51.85399],[4.315617,51.854]]},"properties":{"name":"Herman Gorterstraat","highway":"residential","maxspeed":"30","profile":"car","distance":"17143.48","time":"8317.274"}},{"type":"Feature","name":"ShapeMeta","geometry":{"type":"LineString","coordinates":[[4.315617,51.854],[4.315956,51.85327]]},"properties":{"name":"Herman Gorterstraat","highway":"residential","maxspeed":"30","profile":"car","distance":"17228.12","time":"8510.817"}},{"type":"Feature","name":"ShapeMeta","geometry":{"type":"LineString","coordinates":[[4.315956,51.85327],[4.315232,51.85314]]},"properties":{"name":"P A de Genestetstraat","highway":"residential","maxspeed":"30","profile":"car","distance":"17279.92","time":"8519.105"}},{"type":"Feature","name":"ShapeMeta","geometry":{"type":"LineString","coordinates":[[4.315232,51.85314],[4.314386,51.85291]]},"properties":{"bridge":"yes","name":"P A de Genestetstraat","highway":"residential","maxspeed":"30","profile":"car","distance":"17343.52","time":"8709.281"}},{"type":"Feature","name":"ShapeMeta","geometry":{"type":"LineString","coordinates":[[4.314386,51.85291],[4.314612,51.85265],[4.314917,51.85229]]},"properties":{"name":"Vondelsingel","highway":"unclassified","maxspeed":"30","profile":"car","distance":"17420.46","time":"8721.593"}},{"type":"Feature","name":"ShapeMeta","geometry":{"type":"LineString","coordinates":[[4.314917,51.85229],[4.314612,51.85265],[4.314386,51.85291]]},"properties":{"name":"Vondelsingel","highway":"unclassified","maxspeed":"30","profile":"car","distance":"17497.4","time":"8913.903"}},{"type":"Feature","name":"ShapeMeta","geometry":{"type":"LineString","coordinates":[[4.314386,51.85291],[4.314265,51.85306],[4.314041,51.85334],[4.3136,51.8539]]},"properties":{"name":"Vondelsingel","highway":"unclassified","maxspeed":"30","profile":"car","distance":"17620.5","time":"8933.6"}},{"type":"Feature","name":"ShapeMeta","geometry":{"type":"LineString","coordinates":[[4.3136,51.8539],[4.314414,51.85413]]},"properties":{"name":"A M de Jongstraat","highway":"unclassified","maxspeed":"30","profile":"car","distance":"17682.1","time":"8943.456"}},{"type":"Feature","name":"ShapeMeta","geometry":{"type":"LineString","coordinates":[[4.314414,51.85413],[4.315199,51.85427]]},"properties":{"name":"A M de Jongstraat","highway":"unclassified","maxspeed":"30","profile":"car","distance":"17738","time":"8952.399"}},{"type":"Feature","name":"ShapeMeta","geometry":{"type":"LineString","coordinates":[[4.315199,51.85427],[4.315067,51.85454]]},"properties":{"name":"Slauerhoffstraat","highway":"residential","maxspeed":"30","profile":"car","distance":"17769.88","time":"8957.5"}},{"type":"Feature","name":"ShapeMeta","geometry":{"type":"LineString","coordinates":[[4.315067,51.85454],[4.31471,51.85528],[4.314587,51.85526]]},"properties":{"name":"Slauerhoffstraat","highway":"residential","maxspeed":"30","profile":"car","distance":"17864.44","time":"9152.629"}},{"type":"Feature","name":"ShapeMeta","geometry":{"type":"LineString","coordinates":[[4.314587,51.85526],[4.314373,51.85522]]},"properties":{"name":"Slauerhoffstraat","highway":"residential","maxspeed":"30","profile":"car","distance":"17879.71","time":"9335.071"}},{"type":"Feature","name":"ShapeMeta","geometry":{"type":"LineString","coordinates":[[4.314373,51.85522],[4.314267,51.85545]]},"properties":{"name":"Heyermansstraat","highway":"residential","maxspeed":"30","profile":"car","distance":"17905.3","time":"9339.167"}},{"type":"Feature","name":"ShapeMeta","geometry":{"type":"LineString","coordinates":[[4.314267,51.85545],[4.314075,51.85585]]},"properties":{"name":"Heyermansstraat","highway":"residential","maxspeed":"30","profile":"car","distance":"17952.11","time":"9346.655"}},{"type":"Feature","name":"ShapeMeta","geometry":{"type":"LineString","coordinates":[[4.314075,51.85585],[4.314385,51.8559]]},"properties":{"highway":"service","profile":"car","distance":"17973.9","time":"9350.144"}},{"type":"Feature","name":"ShapeMeta","geometry":{"type":"LineString","coordinates":[[4.314385,51.8559],[4.314075,51.85585]]},"properties":{"highway":"service","profile":"car","distance":"17995.7","time":"9533.632"}},{"type":"Feature","name":"ShapeMeta","geometry":{"type":"LineString","coordinates":[[4.314075,51.85585],[4.313799,51.85641]]},"properties":{"name":"Heyermansstraat","highway":"residential","maxspeed":"30","profile":"car","distance":"18060.4","time":"9543.983"}},{"type":"Feature","name":"ShapeMeta","geometry":{"type":"LineString","coordinates":[[4.313799,51.85641],[4.31376,51.8565]]},"properties":{"name":"Heyermansstraat","highway":"unclassified","maxspeed":"30","profile":"car","distance":"18071.3","time":"9545.728"}},{"type":"Feature","name":"ShapeMeta","geometry":{"type":"LineString","coordinates":[[4.31376,51.8565],[4.312825,51.8562]]},"properties":{"name":"Sportlaan","maxspeed":"50","highway":"tertiary","profile":"car","distance":"18143.5","time":"9552.659"}},{"type":"Feature","name":"ShapeMeta","geometry":{"type":"LineString","coordinates":[[4.312825,51.8562],[4.312864,51.85612],[4.312924,51.85599]]},"properties":{"name":"Menno ter Braakstraat","highway":"residential","maxspeed":"30","profile":"car","distance":"18168.58","time":"9556.671"}},{"type":"Feature","name":"ShapeMeta","geometry":{"type":"LineString","coordinates":[[4.312924,51.85599],[4.312864,51.85612],[4.312825,51.8562]]},"properties":{"name":"Menno ter Braakstraat","highway":"residential","maxspeed":"30","profile":"car","distance":"18193.66","time":"9740.683"}},{"type":"Feature","name":"ShapeMeta","geometry":{"type":"LineString","coordinates":[[4.312825,51.8562],[4.312306,51.85604],[4.311938,51.85593]]},"properties":{"name":"Sportlaan","maxspeed":"50","highway":"tertiary","profile":"car","distance":"18261.96","time":"9747.24"}},{"type":"Feature","name":"ShapeMeta","geometry":{"type":"LineString","coordinates":[[4.311938,51.85593],[4.311979,51.85584]]},"properties":{"name":"Vondelsingel","highway":"unclassified","maxspeed":"30","profile":"car","distance":"18272.06","time":"9748.855"}},{"type":"Feature","name":"ShapeMeta","geometry":{"type":"LineString","coordinates":[[4.311979,51.85584],[4.312379,51.85535]]},"properties":{"name":"Vondelsingel","highway":"unclassified","maxspeed":"30","profile":"car","distance":"18333.26","time":"9758.649"}},{"type":"Feature","name":"ShapeMeta","geometry":{"type":"LineString","coordinates":[[4.312379,51.85535],[4.312426,51.85529]]},"properties":{"name":"Vondelsingel","highway":"unclassified","maxspeed":"30","profile":"car","distance":"18340.35","time":"9939.784"}},{"type":"Feature","name":"ShapeMeta","geometry":{"type":"LineString","coordinates":[[4.312426,51.85529],[4.312773,51.85486]]},"properties":{"name":"Vondelsingel","highway":"unclassified","profile":"car","distance":"18393.45","time":"9944.882"}},{"type":"Feature","name":"ShapeMeta","geometry":{"type":"LineString","coordinates":[[4.312773,51.85486],[4.313175,51.85438]]},"properties":{"name":"Vondelsingel","highway":"unclassified","profile":"car","distance":"18453.87","time":"9950.682"}},{"type":"Feature","name":"ShapeMeta","geometry":{"type":"LineString","coordinates":[[4.313175,51.85438],[4.313207,51.85434]]},"properties":{"name":"Vondelsingel","highway":"unclassified","profile":"car","distance":"18458.65","time":"10131.14"}},{"type":"Feature","name":"ShapeMeta","geometry":{"type":"LineString","coordinates":[[4.313207,51.85434],[4.3136,51.8539]]},"properties":{"name":"Vondelsingel","highway":"unclassified","profile":"car","distance":"18514.35","time":"10136.49"}},{"type":"Feature","name":"ShapeMeta","geometry":{"type":"LineString","coordinates":[[4.3136,51.8539],[4.313242,51.85378],[4.312785,51.85363]]},"properties":{"name":"A M de Jongstraat","highway":"unclassified","maxspeed":"30","profile":"car","distance":"18577.85","time":"10146.65"}},{"type":"Feature","name":"ShapeMeta","geometry":{"type":"LineString","coordinates":[[4.312785,51.85363],[4.312048,51.8534],[4.311304,51.85318]]},"properties":{"name":"A M de Jongstraat","highway":"unclassified","maxspeed":"30","profile":"car","distance":"18691.35","time":"10164.81"}},{"type":"Feature","name":"ShapeMeta","geometry":{"type":"LineString","coordinates":[[4.311304,51.85318],[4.311505,51.85294]]},"properties":{"name":"Jacob Catsstraat","highway":"unclassified","maxspeed":"30","profile":"car","distance":"18721.45","time":"10169.62"}},{"type":"Feature","name":"ShapeMeta","geometry":{"type":"LineString","coordinates":[[4.311505,51.85294],[4.311612,51.85281]]},"properties":{"name":"Jacob Catsstraat","highway":"unclassified","maxspeed":"30","profile":"car","distance":"18736.85","time":"10172.09"}},{"type":"Feature","name":"ShapeMeta","geometry":{"type":"LineString","coordinates":[[4.311612,51.85281],[4.31178,51.85262]]},"properties":{"name":"Jacob Catsstraat","highway":"unclassified","maxspeed":"30","profile":"car","distance":"18761.65","time":"10176.05"}},{"type":"Feature","name":"ShapeMeta","geometry":{"type":"LineString","coordinates":[[4.31178,51.85262],[4.31118,51.85243]]},"properties":{"name":"Westersingel","highway":"residential","maxspeed":"30","profile":"car","distance":"18807.55","time":"10183.4"}},{"type":"Feature","name":"ShapeMeta","geometry":{"type":"LineString","coordinates":[[4.31118,51.85243],[4.3105,51.8522],[4.310389,51.85228],[4.309909,51.85262]]},"properties":{"name":"Westersingel","highway":"residential","maxspeed":"30","profile":"car","distance":"18922.9","time":"10201.85"}},{"type":"Feature","name":"ShapeMeta","geometry":{"type":"LineString","coordinates":[[4.309909,51.85262],[4.310389,51.85228],[4.3105,51.8522],[4.31118,51.85243]]},"properties":{"name":"Westersingel","highway":"residential","maxspeed":"30","profile":"car","distance":"19038.25","time":"10400.31"}},{"type":"Feature","name":"ShapeMeta","geometry":{"type":"LineString","coordinates":[[4.31118,51.85243],[4.31178,51.85262]]},"properties":{"name":"Westersingel","highway":"residential","maxspeed":"30","profile":"car","distance":"19084.15","time":"10407.65"}},{"type":"Feature","name":"ShapeMeta","geometry":{"type":"LineString","coordinates":[[4.31178,51.85262],[4.312022,51.85233]]},"properties":{"name":"Jacob Catsstraat","highway":"unclassified","maxspeed":"30","profile":"car","distance":"19120.49","time":"10413.46"}},{"type":"Feature","name":"ShapeMeta","geometry":{"type":"LineString","coordinates":[[4.312022,51.85233],[4.31178,51.85262]]},"properties":{"name":"Jacob Catsstraat","highway":"unclassified","maxspeed":"30","profile":"car","distance":"19156.83","time":"10599.27"}},{"type":"Feature","name":"ShapeMeta","geometry":{"type":"LineString","coordinates":[[4.31178,51.85262],[4.311612,51.85281]]},"properties":{"name":"Jacob Catsstraat","highway":"unclassified","maxspeed":"30","profile":"car","distance":"19181.63","time":"10603.24"}},{"type":"Feature","name":"ShapeMeta","geometry":{"type":"LineString","coordinates":[[4.311612,51.85281],[4.311505,51.85294]]},"properties":{"name":"Jacob Catsstraat","highway":"unclassified","maxspeed":"30","profile":"car","distance":"19197.03","time":"10605.71"}},{"type":"Feature","name":"ShapeMeta","geometry":{"type":"LineString","coordinates":[[4.311505,51.85294],[4.311304,51.85318]]},"properties":{"name":"Jacob Catsstraat","highway":"unclassified","maxspeed":"30","profile":"car","distance":"19227.13","time":"10610.52"}},{"type":"Feature","name":"ShapeMeta","geometry":{"type":"LineString","coordinates":[[4.311304,51.85318],[4.310989,51.85359]]},"properties":{"name":"Jacob Catsstraat","highway":"unclassified","maxspeed":"30","profile":"car","distance":"19277.73","time":"10618.62"}},{"type":"Feature","name":"ShapeMeta","geometry":{"type":"LineString","coordinates":[[4.310989,51.85359],[4.310945,51.85366]]},"properties":{"name":"Jacob Catsstraat","highway":"unclassified","maxspeed":"30","profile":"car","distance":"19285.93","time":"10619.93"}},{"type":"Feature","name":"ShapeMeta","geometry":{"type":"LineString","coordinates":[[4.310945,51.85366],[4.310486,51.85424]]},"properties":{"name":"Jacob Catsstraat","highway":"unclassified","maxspeed":"30","profile":"car","distance":"19357.63","time":"10631.4"}},{"type":"Feature","name":"ShapeMeta","geometry":{"type":"LineString","coordinates":[[4.310486,51.85424],[4.310596,51.85427]]},"properties":{"name":"Jacob van Lennepstraat","highway":"residential","maxspeed":"30","profile":"car","distance":"19366.04","time":"10632.75"}},{"type":"Feature","name":"ShapeMeta","geometry":{"type":"LineString","coordinates":[[4.310596,51.85427],[4.311101,51.85442],[4.311192,51.85436],[4.311326,51.85434],[4.311436,51.85436],[4.312037,51.85455]]},"properties":{"name":"Jacob van Lennepstraat","highway":"residential","maxspeed":"30","profile":"car","distance":"19477.33","time":"10830.56"}},{"type":"Feature","name":"ShapeMeta","geometry":{"type":"LineString","coordinates":[[4.312037,51.85455],[4.311648,51.85504]]},"properties":{"name":"Bilderdijkstraat","highway":"residential","maxspeed":"30","profile":"car","distance":"19537.43","time":"10840.17"}},{"type":"Feature","name":"ShapeMeta","geometry":{"type":"LineString","coordinates":[[4.311648,51.85504],[4.312426,51.85529]]},"properties":{"name":"P C Hooftstraat","highway":"residential","maxspeed":"30","profile":"car","distance":"19597.63","time":"10849.8"}},{"type":"Feature","name":"ShapeMeta","geometry":{"type":"LineString","coordinates":[[4.312426,51.85529],[4.311979,51.85584]]},"properties":{"name":"Vondelsingel","highway":"unclassified","maxspeed":"30","profile":"car","distance":"19665.93","time":"10860.73"}},{"type":"Feature","name":"ShapeMeta","geometry":{"type":"LineString","coordinates":[[4.311979,51.85584],[4.311938,51.85593]]},"properties":{"name":"Vondelsingel","highway":"unclassified","maxspeed":"30","profile":"car","distance":"19676.03","time":"10862.35"}},{"type":"Feature","name":"ShapeMeta","geometry":{"type":"LineString","coordinates":[[4.311938,51.85593],[4.311883,51.85602],[4.311533,51.85647]]},"properties":{"name":"Vondelsingel","highway":"residential","profile":"car","distance":"19742.73","time":"10868.75"}},{"type":"Feature","name":"ShapeMeta","geometry":{"type":"LineString","coordinates":[[4.311533,51.85647],[4.313444,51.85705]]},"properties":{"name":"Rembrandtstraat","highway":"unclassified","maxspeed":"30","profile":"car","distance":"19888.9","time":"10892.14"}},{"type":"Feature","name":"ShapeMeta","geometry":{"type":"LineString","coordinates":[[4.313444,51.85705],[4.313505,51.85707],[4.313129,51.85751],[4.313,51.85766]]},"properties":{"name":"Rembrandtstraat","highway":"unclassified","maxspeed":"30","profile":"car","distance":"19967.53","time":"11084.72"}},{"type":"Feature","name":"ShapeMeta","geometry":{"type":"LineString","coordinates":[[4.313,51.85766],[4.312923,51.85775],[4.312542,51.85823],[4.312494,51.85836]]},"properties":{"name":"Rembrandtstraat","highway":"unclassified","maxspeed":"30","profile":"car","distance":"20052.83","time":"11098.37"}},{"type":"Feature","name":"ShapeMeta","geometry":{"type":"LineString","coordinates":[[4.312494,51.85836],[4.312392,51.85861]]},"properties":{"name":"Rembrandtstraat","highway":"unclassified","maxspeed":"30","profile":"car","distance":"20081.63","time":"11102.98"}},{"type":"Feature","name":"ShapeMeta","geometry":{"type":"LineString","coordinates":[[4.312392,51.85861],[4.312364,51.85868]]},"properties":{"name":"Rembrandtstraat","highway":"unclassified","maxspeed":"30","profile":"car","distance":"20090.23","time":"11104.35"}},{"type":"Feature","name":"ShapeMeta","geometry":{"type":"LineString","coordinates":[[4.312364,51.85868],[4.31227,51.85867]]},"properties":{"name":"Frans Halsstraat","highway":"unclassified","maxspeed":"30","profile":"car","distance":"20096.92","time":"11105.42"}},{"type":"Feature","name":"Stop","Shape":"0","geometry":{"type":"Point","coordinates":[4.312275,51.85863]},"properties":{"index":"15","distance":"0","time":"0","cost_time":"180"}},{"type":"Feature","name":"Stop","Shape":"9","geometry":{"type":"Point","coordinates":[4.308912,51.85757]},"properties":{"index":"11","distance":"305.5163","time":"48.88262","cost_time":"180"}},{"type":"Feature","name":"Stop","Shape":"12","geometry":{"type":"Point","coordinates":[4.310231,51.85749]},"properties":{"index":"10","distance":"423.2225","time":"247.7156","cost_time":"180"}},{"type":"Feature","name":"Stop","Shape":"23","geometry":{"type":"Point","coordinates":[4.306557,51.85662]},"properties":{"index":"13","distance":"782.3154","time":"485.1705","cost_time":"180"}},{"type":"Feature","name":"Stop","Shape":"28","geometry":{"type":"Point","coordinates":[4.308197,51.85633]},"properties":{"index":"12","distance":"938.2914","time":"690.1266","cost_time":"180"}},{"type":"Feature","name":"Stop","Shape":"31","geometry":{"type":"Point","coordinates":[4.308828,51.85566]},"properties":{"index":"14","distance":"1029.311","time":"884.6897","cost_time":"180"}},{"type":"Feature","name":"Stop","Shape":"34","geometry":{"type":"Point","coordinates":[4.311151,51.85653]},"properties":{"index":"9","distance":"1217.957","time":"1094.873","cost_time":"180"}},{"type":"Feature","name":"Stop","Shape":"128","geometry":{"type":"Point","coordinates":[4.3185,51.8365]},"properties":{"index":"285","distance":"4274.35","time":"1551.9","cost_time":"180"}},{"type":"Feature","name":"Stop","Shape":"220","geometry":{"type":"Point","coordinates":[4.331917,51.82372]},"properties":{"index":"324","distance":"6900.233","time":"1982.813","cost_time":"180"}},{"type":"Feature","name":"Stop","Shape":"257","geometry":{"type":"Point","coordinates":[4.340611,51.82544]},"properties":{"index":"325","distance":"7702.396","time":"2365.682","cost_time":"180"}},{"type":"Feature","name":"Stop","Shape":"272","geometry":{"type":"Point","coordinates":[4.342778,51.82503]},"properties":{"index":"334","distance":"8235.14","time":"2794.514","cost_time":"180"}},{"type":"Feature","name":"Stop","Shape":"274","geometry":{"type":"Point","coordinates":[4.34206,51.82628]},"properties":{"index":"333","distance":"8382.979","time":"3116.44","cost_time":"180"}},{"type":"Feature","name":"Stop","Shape":"278","geometry":{"type":"Point","coordinates":[4.342639,51.82403]},"properties":{"index":"326","distance":"8681.592","time":"3541.301","cost_time":"180"}},{"type":"Feature","name":"Stop","Shape":"283","geometry":{"type":"Point","coordinates":[4.344584,51.82447]},"properties":{"index":"327","distance":"8822.157","time":"3743.792","cost_time":"180"}},{"type":"Feature","name":"Stop","Shape":"286","geometry":{"type":"Point","coordinates":[4.344368,51.82638]},"properties":{"index":"331","distance":"9086.809","time":"4131.063","cost_time":"180"}},{"type":"Feature","name":"Stop","Shape":"291","geometry":{"type":"Point","coordinates":[4.346139,51.82478]},"properties":{"index":"328","distance":"9360.274","time":"4519.744","cost_time":"180"}},{"type":"Feature","name":"Stop","Shape":"297","geometry":{"type":"Point","coordinates":[4.34836,51.82544]},"properties":{"index":"329","distance":"9536.004","time":"4725.587","cost_time":"180"}},{"type":"Feature","name":"Stop","Shape":"302","geometry":{"type":"Point","coordinates":[4.34678,51.82622]},"properties":{"index":"330","distance":"9747.745","time":"4937.192","cost_time":"180"}},{"type":"Feature","name":"Stop","Shape":"311","geometry":{"type":"Point","coordinates":[4.342834,51.82692]},"properties":{"index":"332","distance":"10071.75","time":"5163.128","cost_time":"180"}},{"type":"Feature","name":"Stop","Shape":"390","geometry":{"type":"Point","coordinates":[4.334539,51.84207]},"properties":{"index":"50","distance":"12387.2","time":"5615.046","cost_time":"180"}},{"type":"Feature","name":"Stop","Shape":"395","geometry":{"type":"Point","coordinates":[4.333399,51.84276]},"properties":{"index":"51","distance":"12520.16","time":"5922.691","cost_time":"180"}},{"type":"Feature","name":"Stop","Shape":"434","geometry":{"type":"Point","coordinates":[4.3335,51.84505]},"properties":{"index":"179","distance":"13354.48","time":"6302.439","cost_time":"180"}},{"type":"Feature","name":"Stop","Shape":"437","geometry":{"type":"Point","coordinates":[4.334778,51.84566]},"properties":{"index":"177","distance":"13494.16","time":"6504.31","cost_time":"180"}},{"type":"Feature","name":"Stop","Shape":"441","geometry":{"type":"Point","coordinates":[4.336056,51.84514]},"properties":{"index":"176","distance":"13600.43","time":"6701.313","cost_time":"180"}},{"type":"Feature","name":"Stop","Shape":"447","geometry":{"type":"Point","coordinates":[4.33736,51.84447]},"properties":{"index":"175","distance":"13713.89","time":"6899.228","cost_time":"180"}},{"type":"Feature","name":"Stop","Shape":"457","geometry":{"type":"Point","coordinates":[4.33475,51.84447]},"properties":{"index":"178","distance":"13976.34","time":"7114.125","cost_time":"180"}},{"type":"Feature","name":"Stop","Shape":"464","geometry":{"type":"Point","coordinates":[4.333,51.84378]},"properties":{"index":"180","distance":"14266.32","time":"7321.963","cost_time":"180"}},{"type":"Feature","name":"Stop","Shape":"522","geometry":{"type":"Point","coordinates":[4.316804,51.85365]},"properties":{"index":"3","distance":"16320.81","time":"7684.539","cost_time":"180"}},{"type":"Feature","name":"Stop","Shape":"537","geometry":{"type":"Point","coordinates":[4.316559,51.85595]},"properties":{"index":"4","distance":"16718.3","time":"7906.11","cost_time":"180"}},{"type":"Feature","name":"Stop","Shape":"554","geometry":{"type":"Point","coordinates":[4.315493,51.85392]},"properties":{"index":"24","distance":"17142.12","time":"8137.056","cost_time":"180"}},{"type":"Feature","name":"Stop","Shape":"555","geometry":{"type":"Point","coordinates":[4.315526,51.85396]},"properties":{"index":"25","distance":"17143.48","time":"8317.274","cost_time":"180"}},{"type":"Feature","name":"Stop","Shape":"557","geometry":{"type":"Point","coordinates":[4.315224,51.85316]},"properties":{"index":"23","distance":"17279.92","time":"8519.105","cost_time":"180"}},{"type":"Feature","name":"Stop","Shape":"560","geometry":{"type":"Point","coordinates":[4.314861,51.85225]},"properties":{"index":"22","distance":"17420.46","time":"8721.593","cost_time":"180"}},{"type":"Feature","name":"Stop","Shape":"568","geometry":{"type":"Point","coordinates":[4.315077,51.85455]},"properties":{"index":"5","distance":"17769.88","time":"8957.5","cost_time":"180"}},{"type":"Feature","name":"Stop","Shape":"570","geometry":{"type":"Point","coordinates":[4.314584,51.8553]},"properties":{"index":"6","distance":"17864.44","time":"9152.629","cost_time":"180"}},{"type":"Feature","name":"Stop","Shape":"574","geometry":{"type":"Point","coordinates":[4.314807,51.85614]},"properties":{"index":"7","distance":"17973.9","time":"9350.144","cost_time":"180"}},{"type":"Feature","name":"Stop","Shape":"580","geometry":{"type":"Point","coordinates":[4.31295,51.856]},"properties":{"index":"8","distance":"18168.58","time":"9556.671","cost_time":"180"}},{"type":"Feature","name":"Stop","Shape":"586","geometry":{"type":"Point","coordinates":[4.312361,51.85533]},"properties":{"index":"17","distance":"18333.26","time":"9758.649","cost_time":"180"}},{"type":"Feature","name":"Stop","Shape":"589","geometry":{"type":"Point","coordinates":[4.313155,51.85436]},"properties":{"index":"18","distance":"18453.87","time":"9950.682","cost_time":"180"}},{"type":"Feature","name":"Stop","Shape":"602","geometry":{"type":"Point","coordinates":[4.309917,51.85264]},"properties":{"index":"20","distance":"18922.9","time":"10201.85","cost_time":"180"}},{"type":"Feature","name":"Stop","Shape":"607","geometry":{"type":"Point","coordinates":[4.311972,51.85228]},"properties":{"index":"21","distance":"19120.49","time":"10413.46","cost_time":"180"}},{"type":"Feature","name":"Stop","Shape":"615","geometry":{"type":"Point","coordinates":[4.310591,51.85429]},"properties":{"index":"19","distance":"19366.04","time":"10632.75","cost_time":"180"}},{"type":"Feature","name":"Stop","Shape":"627","geometry":{"type":"Point","coordinates":[4.313437,51.85707]},"properties":{"index":"16","distance":"19888.9","time":"10892.14","cost_time":"180"}},{"type":"Feature","name":"Stop","Shape":"636","geometry":{"type":"Point","coordinates":[4.312275,51.85863]},"properties":{"index":"15","distance":"20096.92","time":"11105.42","cost_time":"180"}}]}