{"Shape":[[4.365939,51.8376],[4.365883,51.83719],[4.365823,51.83672],[4.36585,51.83667],[4.365958,51.83659],[4.366187,51.83652],[4.366364,51.83651],[4.366499,51.83652],[4.366606,51.83655],[4.366833,51.83669],[4.36686,51.83676],[4.367617,51.8368],[4.368389,51.83685],[4.368356,51.83699],[4.368389,51.83685],[4.368972,51.8369],[4.370177,51.83698],[4.3704,51.837],[4.370506,51.83659],[4.370606,51.8362],[4.370678,51.83587],[4.370903,51.83588],[4.370893,51.83534],[4.370876,51.83529],[4.370724,51.83487],[4.370527,51.83491],[4.370261,51.83447],[4.369798,51.83403],[4.369626,51.83411],[4.369594,51.83409],[4.369626,51.83411],[4.369798,51.83403],[4.369971,51.83395],[4.369474,51.83356],[4.369341,51.83345],[4.368838,51.83305],[4.368187,51.83253],[4.368289,51.83248],[4.368187,51.83253],[4.368838,51.83305],[4.369474,51.83356],[4.369971,51.83395],[4.369798,51.83403],[4.370261,51.83447],[4.370527,51.83491],[4.370679,51.83535],[4.370678,51.83587],[4.370462,51.83586],[4.370457,51.83588],[4.370326,51.83643],[4.370177,51.83698],[4.3704,51.837],[4.370615,51.83702],[4.370728,51.8366],[4.370615,51.83702],[4.3704,51.837],[4.370241,51.83762],[4.370094,51.83818],[4.369893,51.83816],[4.370005,51.83772],[4.369893,51.83816],[4.370094,51.83818],[4.36999,51.83858],[4.370255,51.83857],[4.370311,51.83854],[4.370436,51.83859],[4.370712,51.83867],[4.37106,51.83872],[4.371407,51.83873],[4.3717,51.83871],[4.372097,51.83863],[4.372175,51.83837],[4.372507,51.8371],[4.372175,51.83837],[4.372097,51.83863],[4.3717,51.83871],[4.371407,51.83873],[4.371304,51.83873],[4.37106,51.83872],[4.370712,51.83867],[4.370436,51.83859],[4.370311,51.83854],[4.370255,51.83857],[4.36999,51.83858],[4.369776,51.83852],[4.369727,51.83857],[4.369326,51.83877],[4.36897,51.83887],[4.368508,51.83893],[4.367927,51.83892],[4.367903,51.83892],[4.366362,51.83887],[4.36481,51.83882],[4.364714,51.83876],[4.364704,51.83848],[4.36464,51.83818],[4.364522,51.83761],[4.364458,51.83731],[4.364371,51.83671],[4.36506,51.8367],[4.365064,51.8366],[4.365098,51.83566],[4.365858,51.83567],[4.365995,51.83579],[4.366209,51.83587],[4.366416,51.83591],[4.366599,51.83589],[4.366675,51.83588],[4.366899,51.83581],[4.367046,51.8357],[4.367049,51.83558],[4.367056,51.83533],[4.367445,51.83514],[4.368117,51.83483],[4.367445,51.83514],[4.367056,51.83533],[4.367049,51.83558],[4.367046,51.8357],[4.366899,51.83581],[4.366675,51.83588],[4.366416,51.83591],[4.366209,51.83587],[4.365995,51.83579],[4.365858,51.83567],[4.365098,51.83566],[4.364598,51.83564],[4.3645,51.8348],[4.364818,51.83464],[4.3645,51.8348],[4.364598,51.83564],[4.363756,51.83563],[4.363647,51.83459],[4.363661,51.83393],[4.363647,51.83459],[4.363756,51.83563],[4.363699,51.83563],[4.363351,51.83562],[4.363294,51.83529],[4.363256,51.83514],[4.362886,51.83512],[4.362876,51.8352],[4.362886,51.83512],[4.363256,51.83514],[4.363294,51.83529],[4.363351,51.83562],[4.362383,51.8356],[4.362183,51.8356],[4.362207,51.83537],[4.362295,51.83504],[4.36259,51.83456],[4.362716,51.8344],[4.362961,51.83414],[4.363196,51.83397],[4.363072,51.8339],[4.362954,51.83384],[4.362914,51.83384],[4.362954,51.83384],[4.363072,51.8339],[4.363196,51.83397],[4.363334,51.83386],[4.363766,51.83361],[4.365041,51.83299],[4.365505,51.83278],[4.365628,51.83289],[4.366334,51.83255],[4.366681,51.83285],[4.3668,51.83321],[4.366941,51.83331],[4.367129,51.83322],[4.367483,51.83282],[4.367792,51.83266],[4.367764,51.83264],[4.367792,51.83266],[4.367483,51.83282],[4.367129,51.83322],[4.366941,51.83331],[4.366846,51.83372],[4.367596,51.83383],[4.366846,51.83372],[4.365999,51.83372],[4.365982,51.83362],[4.365887,51.8331],[4.365628,51.83289],[4.365505,51.83278],[4.365041,51.83299],[4.363766,51.83361],[4.363334,51.83386],[4.363196,51.83397],[4.362961,51.83414],[4.362716,51.8344],[4.36259,51.83456],[4.362263,51.83449],[4.36189,51.8344],[4.361663,51.83434],[4.36149,51.8343],[4.361216,51.83426],[4.360715,51.83423],[4.360428,51.83422],[4.359982,51.83422],[4.359963,51.83443],[4.359956,51.83451],[4.360041,51.83551],[4.360006,51.83558],[4.359909,51.83559],[4.359545,51.83559],[4.359371,51.83561],[4.358798,51.83573],[4.358778,51.83574],[4.358304,51.83594],[4.357912,51.83622],[4.357645,51.83656],[4.357581,51.83673],[4.357536,51.83692],[4.357599,51.83693],[4.358421,51.83695],[4.358706,51.83696],[4.359236,51.83698],[4.359298,51.83698],[4.359346,51.83698],[4.359304,51.83751],[4.359249,51.83808],[4.359207,51.83857],[4.359298,51.83863],[4.359503,51.83864],[4.359298,51.83863],[4.359207,51.83857],[4.358305,51.83854],[4.357405,51.83851],[4.35744,51.83802],[4.3567,51.838],[4.35744,51.83802],[4.357405,51.83851],[4.357304,51.83856],[4.356604,51.83854],[4.356521,51.83856],[4.356054,51.83867],[4.356095,51.83873],[4.356225,51.83888],[4.356655,51.83944],[4.356703,51.8395],[4.356782,51.83951],[4.356853,51.83953],[4.356906,51.83957],[4.35694,51.83961],[4.356953,51.83965],[4.356946,51.83969],[4.356892,51.83976],[4.356812,51.8398],[4.356715,51.83981],[4.35661,51.8398],[4.356521,51.83977],[4.356156,51.83985],[4.354842,51.84018],[4.350435,51.84134],[4.35021,51.84141],[4.350195,51.84144],[4.350135,51.8415],[4.350092,51.84152],[4.35,51.84155],[4.349898,51.84155],[4.349844,51.84155],[4.349792,51.84153],[4.349741,51.84151],[4.349668,51.84145],[4.349641,51.84138],[4.349648,51.84134],[4.349666,51.84131],[4.349733,51.84125],[4.349779,51.84123],[4.349773,51.84107],[4.349725,51.84097],[4.349637,51.84082],[4.349562,51.84072],[4.349473,51.84055],[4.349343,51.84038],[4.349247,51.84026],[4.349227,51.84022],[4.349242,51.84018],[4.349291,51.84015],[4.349341,51.84015],[4.349291,51.84015],[4.349242,51.84018],[4.349227,51.84022],[4.349247,51.84026],[4.349343,51.84038],[4.349473,51.84055],[4.349562,51.84072],[4.349637,51.84082],[4.349725,51.84097],[4.349773,51.84107],[4.349949,51.8412],[4.350004,51.84121],[4.350057,51.84122],[4.350117,51.84124],[4.350166,51.84128],[4.350214,51.84137],[4.35021,51.84141],[4.350195,51.84144],[4.350135,51.8415],[4.350092,51.84152],[4.350068,51.8416],[4.350081,51.84171],[4.350096,51.84182],[4.350115,51.84187],[4.350371,51.84264],[4.350522,51.84336],[4.350533,51.84388],[4.350525,51.8441],[4.350395,51.8441],[4.350248,51.8441],[4.350013,51.8441],[4.349563,51.8441],[4.3491,51.8441],[4.348827,51.84428],[4.348561,51.84444],[4.348224,51.84465],[4.348118,51.84472],[4.348224,51.84465],[4.348561,51.84444],[4.348827,51.84428],[4.3491,51.8441],[4.349563,51.8441],[4.34956,51.84381],[4.349555,51.8434],[4.349551,51.84338],[4.349442,51.84301],[4.34936,51.84275],[4.348871,51.84282],[4.3484,51.8429],[4.348277,51.84294],[4.348071,51.843],[4.347911,51.84306],[4.347693,51.84321],[4.347419,51.84338],[4.3471,51.84357],[4.347057,51.84359],[4.3471,51.84357],[4.347419,51.84338],[4.347693,51.84321],[4.347911,51.84306],[4.348071,51.843],[4.348277,51.84294],[4.3484,51.8429],[4.348871,51.84282],[4.34936,51.84275],[4.349819,51.8427],[4.35025,51.84265],[4.350371,51.84264],[4.350115,51.84187],[4.350096,51.84182],[4.350018,51.84171],[4.349961,51.84163],[4.349898,51.84155],[4.349844,51.84155],[4.349792,51.84153],[4.349741,51.84151],[4.349668,51.84145],[4.349641,51.84138],[4.349648,51.84134],[4.349666,51.84131],[4.349733,51.84125],[4.349779,51.84123],[4.349833,51.84121],[4.34989,51.8412],[4.349949,51.8412],[4.350004,51.84121],[4.350057,51.84122],[4.350151,51.84123],[4.350306,51.84121],[4.351436,51.84094],[4.353651,51.84037],[4.355665,51.83982],[4.356448,51.83964],[4.356467,51.83959],[4.356505,51.83955],[4.356559,51.83953],[4.356528,51.83948],[4.356172,51.83889],[4.356095,51.83873],[4.356054,51.83867],[4.355865,51.83872],[4.355744,51.83854],[4.355442,51.83807],[4.355262,51.83775],[4.355149,51.83741],[4.355262,51.83775],[4.355442,51.83807],[4.354567,51.83827],[4.354502,51.83861],[4.354394,51.83879],[4.354266,51.83889],[4.353954,51.83899],[4.353641,51.83902],[4.353499,51.83899],[4.353641,51.83902],[4.353954,51.83899],[4.354266,51.83889],[4.354394,51.83879],[4.354502,51.83861],[4.354567,51.83827],[4.354431,51.83799],[4.354358,51.83789],[4.354114,51.83788],[4.353674,51.83787],[4.353401,51.83786],[4.3535,51.83787],[4.353249,51.83786],[4.353267,51.83731],[4.352183,51.83727],[4.35223,51.83674],[4.352281,51.83624],[4.352559,51.83624],[4.3527,51.83624],[4.353416,51.83625],[4.354496,51.83628],[4.354723,51.8363],[4.355241,51.83632],[4.355292,51.83623],[4.355379,51.83607],[4.355661,51.83566],[4.356078,51.83521],[4.355773,51.83496],[4.355624,51.83485],[4.35489,51.83435],[4.354307,51.83396],[4.354263,51.83387],[4.354132,51.83377],[4.353737,51.83353],[4.353667,51.83348],[4.35358,51.83342],[4.353667,51.83348],[4.353737,51.83353],[4.354132,51.83377],[4.354263,51.83387],[4.354307,51.83396],[4.354862,51.83434],[4.35489,51.83435],[4.355624,51.83485],[4.354878,51.83525],[4.354701,51.83535],[4.3546,51.83545],[4.354561,51.83556],[4.354558,51.8356],[4.354561,51.83556],[4.3546,51.83545],[4.354701,51.83535],[4.354878,51.83525],[4.355624,51.83485],[4.355773,51.83496],[4.35603,51.8348],[4.356064,51.83468],[4.356438,51.83448],[4.35656,51.83442],[4.356722,51.83442],[4.357036,51.83429],[4.357344,51.83449],[4.357435,51.83458],[4.35772,51.83448],[4.358244,51.83437],[4.358519,51.8343],[4.358867,51.83425],[4.359239,51.83422],[4.359233,51.8341],[4.359243,51.83399],[4.3593,51.8334],[4.359339,51.8329],[4.359152,51.83241],[4.359224,51.83157],[4.358534,51.83154],[4.358211,51.83153],[4.358202,51.83168],[4.358144,51.83232],[4.357605,51.83242],[4.357409,51.83244],[4.357197,51.83241],[4.3567,51.8323],[4.356502,51.83228],[4.3567,51.8323],[4.357197,51.83241],[4.357409,51.83244],[4.357605,51.83242],[4.358144,51.83232],[4.358191,51.8318],[4.358144,51.83232],[4.357605,51.83242],[4.357409,51.83244],[4.357197,51.83241],[4.3567,51.8323],[4.356392,51.83227],[4.356239,51.83227],[4.356162,51.83229],[4.356112,51.83237],[4.355743,51.83256],[4.355162,51.83287],[4.355031,51.83289],[4.354982,51.83286],[4.354829,51.83276],[4.354083,51.83223],[4.354129,51.83141],[4.354129,51.83141],[4.354129,51.83141],[4.354083,51.83223],[4.354829,51.83276],[4.354982,51.83286],[4.355031,51.83289],[4.355329,51.8331],[4.35606,51.83361],[4.35673,51.83325],[4.357482,51.83284],[4.3575,51.83284],[4.358464,51.83288],[4.359339,51.8329],[4.3593,51.8334],[4.359233,51.8341],[4.359239,51.83422],[4.359355,51.83421],[4.359982,51.83422],[4.360428,51.83422],[4.360715,51.83423],[4.361216,51.83426],[4.36149,51.8343],[4.361445,51.8344],[4.361368,51.83445],[4.361287,51.83451],[4.361287,51.83468],[4.361362,51.83472],[4.361629,51.83485],[4.36163,51.83494],[4.361629,51.83485],[4.361362,51.83472],[4.361287,51.83468],[4.361287,51.83451],[4.361368,51.83445],[4.361445,51.8344],[4.36149,51.8343],[4.361663,51.83434],[4.36189,51.8344],[4.362263,51.83449],[4.36259,51.83456],[4.362295,51.83504],[4.362207,51.83537],[4.362183,51.8356],[4.362249,51.83609],[4.362183,51.8356],[4.362,51.83559],[4.36209,51.83628],[4.362113,51.83641],[4.362199,51.83688],[4.362391,51.8378],[4.362199,51.83688],[4.362395,51.83686],[4.362588,51.83685],[4.362637,51.83716],[4.362693,51.83744],[4.362755,51.83772],[4.362759,51.83774],[4.362813,51.83805],[4.362897,51.83831],[4.362933,51.83848],[4.363002,51.83858],[4.36314,51.83867],[4.363311,51.83872],[4.363814,51.83873],[4.364505,51.83876],[4.364714,51.83876],[4.364704,51.83848],[4.36464,51.83818],[4.364522,51.83761],[4.365499,51.83763],[4.365944,51.83764],[4.365939,51.8376]],"ShapeMeta":[{"Shape":0,"Attributes":{"profile":"car"}},{"Shape":2,"Attributes":{"name":"Corrie Vonkplantsoen","highway":"residential","maxspeed":"30","profile":"car","distance":"99.07668","time":"15.85227"}},{"Shape":10,"Attributes":{"name":"Theo Mann-Bouwmeesterstraat","highway":"residential","maxspeed":"30","profile":"car","distance":"193.0767","time":"30.89227"}},{"Shape":11,"Attributes":{"name":"Theo Mann-Bouwmeesterstraat","highway":"residential","maxspeed":"30","profile":"car","distance":"245.1767","time":"39.22827"}},{"Shape":12,"Attributes":{"name":"Theo Mann-Bouwmeesterstraat","highway":"residential","maxspeed":"30","profile":"car","distance":"298.5767","time":"47.77227"}},{"Shape":13,"Attributes":{"name":"Top Naeffstraat","highway":"residential","maxspeed":"30","profile":"car","distance":"313.9966","time":"50.23946"}},{"Shape":14,"Attributes":{"name":"Top Naeffstraat","highway":"residential","maxspeed":"30","profile":"car","distance":"329.4166","time":"232.7067"}},{"Shape":16,"Attributes":{"name":"Theo Mann-Bouwmeesterstraat","highway":"residential","maxspeed":"30","profile":"car","distance":"452.9166","time":"252.4667"}},{"Shape":17,"Attributes":{"name":"Theo Mann-Bouwmeesterstraat","highway":"residential","maxspeed":"30","profile":"car","distance":"468.5166","time":"254.9627"}},{"Shape":20,"Attributes":{"name":"Geertruida Bosboom-Toussaintlaan","maxspeed":"50","highway":"tertiary","profile":"car","distance":"595.9166","time":"267.1931"}},{"Shape":21,"Attributes":{"name":"Sientje Mesdag-van Houtenstraat","highway":"residential","maxspeed":"30","profile":"car","distance":"611.3167","time":"269.6571"}},{"Shape":22,"Attributes":{"name":"Else van der Banstraat","highway":"residential","maxspeed":"30","profile":"car","distance":"671.1166","time":"279.2251"}},{"Shape":23,"Attributes":{"name":"Else van der Banstraat","highway":"residential","maxspeed":"30","profile":"car","distance":"676.733","time":"280.1237"}},{"Shape":24,"Attributes":{"name":"Else van der Banstraat","highway":"residential","maxspeed":"30","profile":"car","distance":"725.3165","time":"467.8971"}},{"Shape":25,"Attributes":{"name":"Truus Schröderstraat","highway":"unclassified","maxspeed":"30","profile":"car","distance":"739.6166","time":"470.1851"}},{"Shape":27,"Attributes":{"name":"Geertruida Bosboom-Toussaintlaan","maxspeed":"50","highway":"tertiary","profile":"car","distance":"849.5166","time":"480.7355"}},{"Shape":28,"Attributes":{"name":"Belle van Zuylenstraat","highway":"residential","maxspeed":"30","profile":"car","distance":"864.3166","time":"483.1035"}},{"Shape":29,"Attributes":{"name":"Beb Vuykstraat","highway":"residential","maxspeed":"30","profile":"car","distance":"867.8625","time":"483.6708"}},{"Shape":30,"Attributes":{"name":"Beb Vuykstraat","highway":"residential","maxspeed":"30","profile":"car","distance":"871.4084","time":"664.2381"}},{"Shape":31,"Attributes":{"name":"Belle van Zuylenstraat","highway":"residential","maxspeed":"30","profile":"car","distance":"886.2084","time":"666.6061"}},{"Shape":32,"Attributes":{"name":"Belle van Zuylenstraat","highway":"residential","maxspeed":"30","profile":"car","distance":"901.3084","time":"669.0221"}},{"Shape":33,"Attributes":{"name":"Else van der Banstraat","highway":"residential","maxspeed":"30","profile":"car","distance":"956.7084","time":"677.8861"}},{"Shape":34,"Attributes":{"name":"Else van der Banstraat","highway":"residential","maxspeed":"30","profile":"car","distance":"971.5657","time":"680.2633"}},{"Shape":35,"Attributes":{"name":"Else van der Banstraat","highway":"residential","maxspeed":"30","profile":"car","distance":"1028.008","time":"869.2941"}},{"Shape":36,"Attributes":{"name":"Else van der Banstraat","highway":"residential","maxspeed":"30","profile":"car","distance":"1100.908","time":"880.9581"}},{"Shape":37,"Attributes":{"name":"Hélène Swarthstraat","highway":"residential","maxspeed":"30","profile":"car","distance":"1109.731","time":"882.3698"}},{"Shape":38,"Attributes":{"name":"Hélène Swarthstraat","highway":"residential","maxspeed":"30","profile":"car","distance":"1118.554","time":"1063.782"}},{"Shape":39,"Attributes":{"name":"Else van der Banstraat","highway":"residential","maxspeed":"30","profile":"car","distance":"1191.454","time":"1075.446"}},{"Shape":40,"Attributes":{"name":"Else van der Banstraat","highway":"residential","maxspeed":"30","profile":"car","distance":"1262.754","time":"1086.854"}},{"Shape":41,"Attributes":{"name":"Else van der Banstraat","highway":"residential","maxspeed":"30","profile":"car","distance":"1318.154","time":"1095.718"}},{"Shape":42,"Attributes":{"name":"Belle van Zuylenstraat","highway":"residential","maxspeed":"30","profile":"car","distance":"1333.254","time":"1098.134"}},{"Shape":44,"Attributes":{"name":"Geertruida Bosboom-Toussaintlaan","maxspeed":"50","highway":"tertiary","profile":"car","distance":"1443.154","time":"1108.684"}},{"Shape":46,"Attributes":{"name":"Geertruida Bosboom-Toussaintlaan","maxspeed":"50","highway":"tertiary","profile":"car","distance":"1551.054","time":"1119.042"}},{"Shape":47,"Attributes":{"name":"Sientje Mesdag-van Houtenstraat","highway":"residential","maxspeed":"30","profile":"car","distance":"1565.854","time":"1121.41"}},{"Shape":48,"Attributes":{"name":"Beb Vuykstraat","highway":"residential","maxspeed":"30","profile":"car","distance":"1568.425","time":"1121.822"}},{"Shape":49,"Attributes":{"name":"Beb Vuykstraat","highway":"residential","maxspeed":"30","profile":"car","distance":"1629.654","time":"1311.619"}},{"Shape":50,"Attributes":{"name":"Beb Vuykstraat","highway":"residential","maxspeed":"30","profile":"car","distance":"1691.154","time":"1321.459"}},{"Shape":51,"Attributes":{"name":"Theo Mann-Bouwmeesterstraat","highway":"residential","maxspeed":"30","profile":"car","distance":"1706.754","time":"1323.955"}},{"Shape":52,"Attributes":{"name":"Theo Mann-Bouwmeesterstraat","highway":"residential","maxspeed":"30","profile":"car","distance":"1721.654","time":"1326.339"}},{"Shape":53,"Attributes":{"name":"Else van der Banstraat","highway":"residential","maxspeed":"30","profile":"car","distance":"1769.771","time":"1334.037"}},{"Shape":54,"Attributes":{"name":"Else van der Banstraat","highway":"residential","maxspeed":"30","profile":"car","distance":"1817.888","time":"1521.736"}},{"Shape":55,"Attributes":{"name":"Theo Mann-Bouwmeesterstraat","highway":"residential","maxspeed":"30","profile":"car","distance":"1832.788","time":"1524.12"}},{"Shape":56,"Attributes":{"name":"Geertruida Bosboom-Toussaintlaan","maxspeed":"50","highway":"tertiary","profile":"car","distance":"1901.902","time":"1530.755"}},{"Shape":57,"Attributes":{"name":"Geertruida Bosboom-Toussaintlaan","maxspeed":"50","highway":"tertiary","profile":"car","distance":"1965.888","time":"1716.898"}},{"Shape":58,"Attributes":{"name":"Maria Tesselschadestraat","highway":"residential","maxspeed":"30","profile":"car","distance":"1979.888","time":"1719.138"}},{"Shape":59,"Attributes":{"name":"Beb Vuykstraat","highway":"residential","maxspeed":"30","profile":"car","distance":"2029.228","time":"1727.032"}},{"Shape":60,"Attributes":{"name":"Beb Vuykstraat","highway":"residential","maxspeed":"30","profile":"car","distance":"2078.568","time":"1914.926"}},{"Shape":61,"Attributes":{"name":"Maria Tesselschadestraat","highway":"residential","maxspeed":"30","profile":"car","distance":"2092.568","time":"1917.166"}},{"Shape":62,"Attributes":{"name":"Geertruida Bosboom-Toussaintlaan","maxspeed":"50","highway":"tertiary","profile":"car","distance":"2137.168","time":"1921.448"}},{"Shape":64,"Attributes":{"name":"Henriëtte Roland Holststraat","highway":"residential","maxspeed":"30","profile":"car","distance":"2160.268","time":"1925.144"}},{"Shape":70,"Attributes":{"name":"Henriëtte Roland Holststraat","highway":"residential","maxspeed":"30","profile":"car","distance":"2288.568","time":"1945.672"}},{"Shape":72,"Attributes":{"name":"Lange Groeneweg","highway":"residential","maxspeed":"30","profile":"car","distance":"2460.55","time":"1973.189"}},{"Shape":74,"Attributes":{"name":"Lange Groeneweg","highway":"residential","maxspeed":"30","profile":"car","distance":"2632.532","time":"2180.706"}},{"Shape":77,"Attributes":{"name":"Henriëtte Roland Holststraat","highway":"residential","maxspeed":"30","profile":"car","distance":"2688.512","time":"2189.663"}},{"Shape":81,"Attributes":{"name":"Henriëtte Roland Holststraat","highway":"residential","maxspeed":"30","profile":"car","distance":"2760.833","time":"2381.234"}},{"Shape":83,"Attributes":{"name":"Henriëtte Roland Holststraat","highway":"residential","maxspeed":"30","profile":"car","distance":"2783.933","time":"2384.93"}},{"Shape":84,"Attributes":{"name":"Maria Kleine-Gartmanstraat","highway":"residential","maxspeed":"30","profile":"car","distance":"2799.933","time":"2387.49"}},{"Shape":89,"Attributes":{"name":"Maria Kleine-Gartmanstraat","highway":"residential","maxspeed":"30","profile":"car","distance":"2940.733","time":"2410.018"}},{"Shape":90,"Attributes":{"name":"Maria Kleine-Gartmanstraat","highway":"residential","maxspeed":"30","profile":"car","distance":"2942.401","time":"2410.285"}},{"Shape":93,"Attributes":{"name":"Maria Kleine-Gartmanstraat","highway":"residential","maxspeed":"30","profile":"car","distance":"3164.333","time":"2625.794"}},{"Shape":94,"Attributes":{"name":"Esther de Boer-van Rijkstraat","highway":"residential","maxspeed":"30","profile":"car","distance":"3195.633","time":"2630.802"}},{"Shape":95,"Attributes":{"name":"Esther de Boer-van Rijkstraat","highway":"residential","maxspeed":"30","profile":"car","distance":"3229.833","time":"2636.274"}},{"Shape":96,"Attributes":{"name":"Esther de Boer-van Rijkstraat","highway":"residential","maxspeed":"30","profile":"car","distance":"3293.133","time":"2646.402"}},{"Shape":97,"Attributes":{"name":"Esther de Boer-van Rijkstraat","highway":"residential","maxspeed":"30","profile":"car","distance":"3327.333","time":"2651.874"}},{"Shape":98,"Attributes":{"name":"Esther de Boer-van Rijkstraat","highway":"residential","maxspeed":"30","profile":"car","distance":"3393.732","time":"2662.498"}},{"Shape":99,"Attributes":{"name":"Theo Mann-Bouwmeesterstraat","highway":"residential","maxspeed":"30","profile":"car","distance":"3441.032","time":"2670.066"}},{"Shape":100,"Attributes":{"name":"Suze Robertsonstraat","highway":"residential","maxspeed":"30","profile":"car","distance":"3451.638","time":"2671.763"}},{"Shape":101,"Attributes":{"name":"Suze Robertsonstraat","highway":"residential","maxspeed":"30","profile":"car","distance":"3556.833","time":"2868.594"}},{"Shape":102,"Attributes":{"name":"Sientje Mesdag-van Houtenstraat","highway":"residential","maxspeed":"30","profile":"car","distance":"3609.032","time":"2876.946"}},{"Shape":105,"Attributes":{"name":"Sientje Mesdag-van Houtenstraat","highway":"residential","maxspeed":"30","profile":"car","distance":"3657.732","time":"2884.738"}},{"Shape":106,"Attributes":{"name":"Sientje Mesdag-van Houtenstraat","highway":"residential","maxspeed":"30","profile":"car","distance":"3670.439","time":"2886.771"}},{"Shape":109,"Attributes":{"name":"Sientje Mesdag-van Houtenstraat","highway":"residential","maxspeed":"30","profile":"car","distance":"3708.432","time":"3072.85"}},{"Shape":113,"Attributes":{"name":"Martina Kramersstraat","highway":"residential","maxspeed":"30","profile":"car","distance":"3841.793","time":"3094.188"}},{"Shape":117,"Attributes":{"name":"Martina Kramersstraat","highway":"residential","maxspeed":"30","profile":"car","distance":"3975.154","time":"3295.526"}},{"Shape":120,"Attributes":{"name":"Sientje Mesdag-van Houtenstraat","highway":"residential","maxspeed":"30","profile":"car","distance":"4025.854","time":"3303.638"}},{"Shape":123,"Attributes":{"name":"Sientje Mesdag-van Houtenstraat","highway":"residential","maxspeed":"30","profile":"car","distance":"4074.554","time":"3311.43"}},{"Shape":124,"Attributes":{"name":"Sientje Mesdag-van Houtenstraat","highway":"residential","maxspeed":"30","profile":"car","distance":"4126.754","time":"3319.782"}},{"Shape":125,"Attributes":{"name":"Sientje Mesdag-van Houtenstraat","highway":"residential","maxspeed":"30","profile":"car","distance":"4161.054","time":"3325.27"}},{"Shape":127,"Attributes":{"name":"Harriët Freezerstraat","highway":"residential","maxspeed":"30","profile":"car","distance":"4283.279","time":"3344.826"}},{"Shape":129,"Attributes":{"name":"Harriët Freezerstraat","highway":"residential","maxspeed":"30","profile":"car","distance":"4405.504","time":"3544.382"}},{"Shape":130,"Attributes":{"name":"Sientje Mesdag-van Houtenstraat","highway":"residential","maxspeed":"30","profile":"car","distance":"4463.305","time":"3553.63"}},{"Shape":132,"Attributes":{"name":"Henriëtte van der Meijstraat","highway":"residential","maxspeed":"30","profile":"car","distance":"4652.737","time":"3583.939"}},{"Shape":134,"Attributes":{"name":"Henriëtte van der Meijstraat","highway":"residential","maxspeed":"30","profile":"car","distance":"4842.169","time":"3794.248"}},{"Shape":135,"Attributes":{"name":"Sientje Mesdag-van Houtenstraat","highway":"residential","maxspeed":"30","profile":"car","distance":"4846.041","time":"3794.868"}},{"Shape":136,"Attributes":{"name":"Sientje Mesdag-van Houtenstraat","highway":"residential","maxspeed":"30","profile":"car","distance":"4869.97","time":"3978.697"}},{"Shape":137,"Attributes":{"name":"Lizzy Ansinghstraat","highway":"unclassified","maxspeed":"30","profile":"car","distance":"4907.47","time":"3984.697"}},{"Shape":138,"Attributes":{"name":"Lizzy Ansinghstraat","highway":"unclassified","maxspeed":"30","profile":"car","distance":"4924.17","time":"3987.368"}},{"Shape":140,"Attributes":{"name":"Lizzy Ansinghstraat","highway":"unclassified","maxspeed":"30","profile":"car","distance":"4957.69","time":"3992.732"}},{"Shape":142,"Attributes":{"name":"Lizzy Ansinghstraat","highway":"unclassified","maxspeed":"30","profile":"car","distance":"4991.21","time":"4178.095"}},{"Shape":143,"Attributes":{"name":"Lizzy Ansinghstraat","highway":"unclassified","maxspeed":"30","profile":"car","distance":"5007.91","time":"4180.767"}},{"Shape":144,"Attributes":{"name":"Lizzy Ansinghstraat","highway":"unclassified","maxspeed":"30","profile":"car","distance":"5045.41","time":"4186.767"}},{"Shape":145,"Attributes":{"name":"Sientje Mesdag-van Houtenstraat","highway":"residential","maxspeed":"30","profile":"car","distance":"5111.91","time":"4197.407"}},{"Shape":146,"Attributes":{"name":"Sientje Mesdag-van Houtenstraat","highway":"residential","maxspeed":"30","profile":"car","distance":"5125.61","time":"4199.599"}},{"Shape":149,"Attributes":{"name":"Annie Romein-Verschoorlaan","maxspeed":"50","highway":"tertiary","profile":"car","distance":"5244.81","time":"4211.042"}},{"Shape":150,"Attributes":{"name":"Annie Romein-Verschoorlaan","maxspeed":"50","highway":"tertiary","profile":"car","distance":"5265.31","time":"4213.01"}},{"Shape":152,"Attributes":{"name":"Annie Romein-Verschoorlaan","maxspeed":"50","highway":"tertiary","profile":"car","distance":"5323.61","time":"4218.607"}},{"Shape":154,"Attributes":{"name":"Hadewychplaats","highway":"service","profile":"car","distance":"5345.31","time":"4222.079"}},{"Shape":155,"Attributes":{"name":"Ida Gerhardtplein","highway":"service","profile":"car","distance":"5348.049","time":"4222.518"}},{"Shape":156,"Attributes":{"name":"Ida Gerhardtplein","highway":"service","profile":"car","distance":"5350.789","time":"4402.957"}},{"Shape":158,"Attributes":{"name":"Hadewychplaats","highway":"service","profile":"car","distance":"5372.488","time":"4406.428"}},{"Shape":161,"Attributes":{"name":"Annie Romein-Verschoorlaan","maxspeed":"50","highway":"tertiary","profile":"car","distance":"5539.389","time":"4422.451"}},{"Shape":162,"Attributes":{"name":"Annie Romein-Verschoorlaan","maxspeed":"50","highway":"tertiary","profile":"car","distance":"5578.889","time":"4426.243"}},{"Shape":163,"Attributes":{"name":"Marie van Zeggelenstraat","highway":"residential","maxspeed":"30","profile":"car","distance":"5593.389","time":"4428.563"}},{"Shape":164,"Attributes":{"name":"Lucretia van Merkenstraat","highway":"residential","maxspeed":"30","profile":"car","distance":"5654.889","time":"4438.403"}},{"Shape":167,"Attributes":{"name":"Anke Servaesstraat","highway":"residential","maxspeed":"30","profile":"car","distance":"5751.088","time":"4453.795"}},{"Shape":170,"Attributes":{"name":"Anke Servaesstraat","highway":"residential","maxspeed":"30","profile":"car","distance":"5845.488","time":"4468.899"}},{"Shape":171,"Attributes":{"name":"Beb Vuykstraat","highway":"residential","maxspeed":"30","profile":"car","distance":"5848.603","time":"4469.397"}},{"Shape":172,"Attributes":{"name":"Beb Vuykstraat","highway":"residential","maxspeed":"30","profile":"car","distance":"5851.717","time":"4649.895"}},{"Shape":175,"Attributes":{"name":"Anke Servaesstraat","highway":"residential","maxspeed":"30","profile":"car","distance":"5946.117","time":"4664.999"}},{"Shape":176,"Attributes":{"name":"Anke Servaesstraat","highway":"residential","maxspeed":"30","profile":"car","distance":"5992.717","time":"4672.455"}},{"Shape":177,"Attributes":{"name":"Madelon Lulofsstraat","highway":"residential","maxspeed":"30","profile":"car","distance":"6045.646","time":"4680.924"}},{"Shape":178,"Attributes":{"name":"Madelon Lulofsstraat","highway":"residential","maxspeed":"30","profile":"car","distance":"6098.575","time":"4869.393"}},{"Shape":179,"Attributes":{"name":"Marie van Zeggelenstraat","highway":"residential","maxspeed":"30","profile":"car","distance":"6156.675","time":"4878.688"}},{"Shape":180,"Attributes":{"name":"Marie van Zeggelenstraat","highway":"residential","maxspeed":"30","profile":"car","distance":"6167.349","time":"4880.396"}},{"Shape":182,"Attributes":{"name":"Marie van Zeggelenstraat","highway":"residential","maxspeed":"30","profile":"car","distance":"6255.075","time":"5074.432"}},{"Shape":183,"Attributes":{"name":"Marie van Zeggelenstraat","highway":"residential","maxspeed":"30","profile":"car","distance":"6269.575","time":"5076.752"}},{"Shape":184,"Attributes":{"name":"Annie Romein-Verschoorlaan","maxspeed":"50","highway":"tertiary","profile":"car","distance":"6309.075","time":"5080.544"}},{"Shape":187,"Attributes":{"name":"Annie Romein-Verschoorlaan","maxspeed":"50","highway":"tertiary","profile":"car","distance":"6475.975","time":"5096.566"}},{"Shape":189,"Attributes":{"name":"Annie Romein-Verschoorlaan","maxspeed":"50","highway":"tertiary","profile":"car","distance":"6534.275","time":"5102.164"}},{"Shape":190,"Attributes":{"name":"Annie Romein-Verschoorlaan","maxspeed":"50","highway":"tertiary","profile":"car","distance":"6554.775","time":"5104.131"}},{"Shape":193,"Attributes":{"name":"Joke Smitlaan","maxspeed":"50","highway":"tertiary","profile":"car","distance":"6623.175","time":"5110.698"}},{"Shape":194,"Attributes":{"name":"Joke Smitlaan","maxspeed":"50","highway":"tertiary","profile":"car","distance":"6635.575","time":"5111.888"}},{"Shape":195,"Attributes":{"name":"Joke Smitlaan","maxspeed":"50","highway":"tertiary","profile":"car","distance":"6654.975","time":"5113.75"}},{"Shape":197,"Attributes":{"name":"Joke Smitlaan","maxspeed":"50","highway":"tertiary","profile":"car","distance":"6709.275","time":"5118.963"}},{"Shape":198,"Attributes":{"name":"Joke Smitlaan","maxspeed":"50","highway":"tertiary","profile":"car","distance":"6739.875","time":"5121.901"}},{"Shape":199,"Attributes":{"name":"Clara Visserstraat","highway":"residential","maxspeed":"30","profile":"car","distance":"6763.651","time":"5125.705"}},{"Shape":202,"Attributes":{"name":"Clara Visserstraat","highway":"residential","maxspeed":"30","profile":"car","distance":"6891.375","time":"5326.141"}},{"Shape":205,"Attributes":{"name":"Wilhelmina Bladergroenstraat","highway":"residential","maxspeed":"30","profile":"car","distance":"6935.175","time":"5333.149"}},{"Shape":206,"Attributes":{"name":"Wilhelmina Bladergroenstraat","highway":"residential","maxspeed":"30","profile":"car","distance":"6976.875","time":"5339.821"}},{"Shape":207,"Attributes":{"name":"Wilhelmina Bladergroenstraat","highway":"residential","maxspeed":"30","profile":"car","distance":"6978.471","time":"5340.076"}},{"Shape":209,"Attributes":{"name":"Wilhelmina Bladergroenstraat","highway":"residential","maxspeed":"30","profile":"car","distance":"7059.375","time":"5713.021"}},{"Shape":210,"Attributes":{"name":"Wilhelmina Bladergroenstraat","highway":"residential","maxspeed":"30","profile":"car","distance":"7100.875","time":"5719.661"}},{"Shape":212,"Attributes":{"name":"Wilhelmina Bladergroenstraat","highway":"residential","maxspeed":"30","profile":"car","distance":"7141.875","time":"5726.221"}},{"Shape":213,"Attributes":{"name":"Maria Rutgers-Hoitsemastraat","highway":"residential","maxspeed":"30","profile":"car","distance":"7146.219","time":"5726.916"}},{"Shape":214,"Attributes":{"name":"Maria Rutgers-Hoitsemastraat","highway":"residential","maxspeed":"30","profile":"car","distance":"7202.775","time":"5915.965"}},{"Shape":217,"Attributes":{"name":"Maria Rutgers-Hoitsemastraat","highway":"residential","maxspeed":"30","profile":"car","distance":"7263.055","time":"5925.61"}},{"Shape":218,"Attributes":{"name":"Maria Rutgers-Hoitsemastraat","highway":"residential","maxspeed":"30","profile":"car","distance":"7266.375","time":"6106.141"}},{"Shape":219,"Attributes":{"name":"Hélène Mercierstraat","highway":"residential","maxspeed":"30","profile":"car","distance":"7325.375","time":"6115.581"}},{"Shape":220,"Attributes":{"name":"Hélène Mercierstraat","highway":"residential","maxspeed":"30","profile":"car","distance":"7388.675","time":"6125.709"}},{"Shape":221,"Attributes":{"name":"Hélène Mercierstraat","highway":"residential","maxspeed":"30","profile":"car","distance":"7443.375","time":"6134.461"}},{"Shape":223,"Attributes":{"name":"Aletta Jacobsstraat","highway":"residential","maxspeed":"30","profile":"car","distance":"7466.376","time":"6138.141"}},{"Shape":225,"Attributes":{"name":"Aletta Jacobsstraat","highway":"residential","maxspeed":"30","profile":"car","distance":"7489.377","time":"6321.821"}},{"Shape":226,"Attributes":{"name":"Aletta Jacobsstraat","highway":"residential","maxspeed":"30","profile":"car","distance":"7551.477","time":"6331.757"}},{"Shape":227,"Attributes":{"name":"Aletta Jacobsstraat","highway":"residential","maxspeed":"30","profile":"car","distance":"7613.277","time":"6341.645"}},{"Shape":228,"Attributes":{"name":"Wilhelmina Bladergroenstraat","highway":"residential","maxspeed":"30","profile":"car","distance":"7667.577","time":"6350.333"}},{"Shape":229,"Attributes":{"name":"Catharina van Tussenbroekstraat","highway":"residential","maxspeed":"30","profile":"car","distance":"7718.436","time":"6358.471"}},{"Shape":230,"Attributes":{"name":"Catharina van Tussenbroekstraat","highway":"residential","maxspeed":"30","profile":"car","distance":"7769.295","time":"6546.608"}},{"Shape":231,"Attributes":{"name":"Wilhelmina Bladergroenstraat","highway":"residential","maxspeed":"30","profile":"car","distance":"7823.595","time":"6555.297"}},{"Shape":235,"Attributes":{"name":"Aletta Jacobsstraat","highway":"residential","maxspeed":"30","profile":"car","distance":"7921.395","time":"6570.945"}},{"Shape":236,"Attributes":{"name":"Joke Smitlaan","maxspeed":"50","highway":"tertiary","profile":"car","distance":"7927.895","time":"6571.569"}},{"Shape":239,"Attributes":{"name":"Joke Smitlaan","maxspeed":"50","highway":"tertiary","oneway":"yes","profile":"car","distance":"8023.595","time":"6580.756"}},{"Shape":241,"Attributes":{"name":"Maaswijkweg","maxspeed":"50","highway":"tertiary","junction":"roundabout","profile":"car","distance":"8034.495","time":"6581.802"}},{"Shape":244,"Attributes":{"name":"Maaswijkweg","maxspeed":"50","highway":"tertiary","junction":"roundabout","profile":"car","distance":"8050.095","time":"6583.3"}},{"Shape":250,"Attributes":{"name":"Maaswijkweg","maxspeed":"50","highway":"tertiary","junction":"roundabout","profile":"car","distance":"8091.195","time":"6587.246"}},{"Shape":251,"Attributes":{"name":"Maaswijkweg","maxspeed":"50","highway":"tertiary","oneway":"yes","profile":"car","distance":"8117.895","time":"6589.809"}},{"Shape":254,"Attributes":{"name":"Maaswijkweg","maxspeed":"50","highway":"tertiary","oneway":"yes","profile":"car","distance":"8561.595","time":"6632.404"}},{"Shape":257,"Attributes":{"name":"Maaswijkweg","maxspeed":"50","highway":"tertiary","junction":"roundabout","profile":"car","distance":"8576.995","time":"6633.882"}},{"Shape":259,"Attributes":{"name":"Maaswijkweg","maxspeed":"50","highway":"tertiary","junction":"roundabout","profile":"car","distance":"8590.995","time":"6635.226"}},{"Shape":261,"Attributes":{"name":"Maaswijkweg","maxspeed":"50","highway":"tertiary","junction":"roundabout","profile":"car","distance":"8598.695","time":"6635.965"}},{"Shape":265,"Attributes":{"name":"Maaswijkweg","maxspeed":"50","highway":"tertiary","junction":"roundabout","profile":"car","distance":"8624.195","time":"6638.414"}},{"Shape":268,"Attributes":{"name":"Maaswijkweg","maxspeed":"50","highway":"tertiary","junction":"roundabout","profile":"car","distance":"8639.795","time":"6639.911"}},{"Shape":269,"Attributes":{"highway":"unclassified","oneway":"yes","profile":"car","distance":"8657.095","time":"6641.572"}},{"Shape":270,"Attributes":{"name":"Hürthstraat","highway":"living_street","profile":"car","distance":"8669.396","time":"6653.38"}},{"Shape":271,"Attributes":{"name":"Hürthstraat","highway":"living_street","profile":"car","distance":"8686.595","time":"6669.892"}},{"Shape":273,"Attributes":{"name":"Hürthstraat","highway":"living_street","profile":"car","distance":"8718.396","time":"6700.42"}},{"Shape":274,"Attributes":{"name":"Hürthstraat","highway":"living_street","profile":"car","distance":"8739.795","time":"6720.964"}},{"Shape":279,"Attributes":{"name":"Hürthstraat","highway":"living_street","profile":"car","distance":"8772.018","time":"6751.897"}},{"Shape":284,"Attributes":{"name":"Hürthstraat","highway":"living_street","profile":"car","distance":"8804.239","time":"6962.83"}},{"Shape":285,"Attributes":{"name":"Hürthstraat","highway":"living_street","profile":"car","distance":"8825.64","time":"6983.374"}},{"Shape":287,"Attributes":{"name":"Hürthstraat","highway":"living_street","profile":"car","distance":"8857.439","time":"7013.902"}},{"Shape":288,"Attributes":{"name":"Hürthstraat","highway":"living_street","profile":"car","distance":"8874.64","time":"7030.414"}},{"Shape":289,"Attributes":{"name":"Hürthstraat","highway":"living_street","profile":"car","distance":"8886.939","time":"7042.222"}},{"Shape":290,"Attributes":{"name":"Hürthstraat","highway":"unclassified","oneway":"yes","profile":"car","distance":"8905.739","time":"7044.027"}},{"Shape":292,"Attributes":{"name":"Maaswijkweg","maxspeed":"50","highway":"tertiary","junction":"roundabout","profile":"car","distance":"8913.34","time":"7044.756"}},{"Shape":296,"Attributes":{"name":"Maaswijkweg","maxspeed":"50","highway":"tertiary","junction":"roundabout","profile":"car","distance":"8938.34","time":"7047.156"}},{"Shape":299,"Attributes":{"name":"Maaswijkweg","maxspeed":"50","highway":"tertiary","junction":"roundabout","profile":"car","distance":"8953.739","time":"7048.635"}},{"Shape":302,"Attributes":{"highway":"unclassified","maxspeed":"50","oneway":"yes","profile":"car","distance":"8987.439","time":"7051.87"}},{"Shape":303,"Attributes":{"name":"Rivierlaan","highway":"unclassified","maxspeed":"50","profile":"car","distance":"8993.04","time":"7052.408"}},{"Shape":304,"Attributes":{"name":"Rivierlaan","highway":"unclassified","maxspeed":"50","profile":"car","distance":"9079.64","time":"7060.721"}},{"Shape":307,"Attributes":{"name":"Rivierlaan","highway":"unclassified","maxspeed":"50","profile":"car","distance":"9243.14","time":"7076.417"}},{"Shape":309,"Attributes":{"name":"Coloradostraat","highway":"residential","profile":"car","distance":"9262.2","time":"7078.247"}},{"Shape":311,"Attributes":{"name":"Coloradostraat","highway":"residential","profile":"car","distance":"9309.239","time":"7262.763"}},{"Shape":313,"Attributes":{"name":"Coloradostraat","highway":"residential","profile":"car","distance":"9368.039","time":"7268.408"}},{"Shape":315,"Attributes":{"name":"Coloradostraat","highway":"residential","profile":"car","distance":"9426.64","time":"7274.033"}},{"Shape":316,"Attributes":{"name":"Coloradostraat","highway":"residential","profile":"car","distance":"9437.155","time":"7275.042"}},{"Shape":317,"Attributes":{"name":"Coloradostraat","highway":"residential","profile":"car","distance":"9447.671","time":"7456.052"}},{"Shape":319,"Attributes":{"name":"Coloradostraat","highway":"residential","profile":"car","distance":"9506.271","time":"7461.678"}},{"Shape":321,"Attributes":{"name":"Coloradostraat","highway":"residential","profile":"car","distance":"9565.071","time":"7467.323"}},{"Shape":324,"Attributes":{"name":"Columbiastraat","highway":"residential","maxspeed":"30","profile":"car","distance":"9645.257","time":"7480.153"}},{"Shape":326,"Attributes":{"name":"Columbiastraat","highway":"residential","maxspeed":"30","profile":"car","distance":"9716.87","time":"7671.611"}},{"Shape":330,"Attributes":{"name":"Amazonestraat","highway":"residential","profile":"car","distance":"9810.271","time":"7680.578"}},{"Shape":333,"Attributes":{"name":"Amazonestraat","highway":"residential","profile":"car","distance":"9872.271","time":"7686.529"}},{"Shape":335,"Attributes":{"name":"Amazonestraat","highway":"residential","profile":"car","distance":"9906.442","time":"7689.81"}},{"Shape":337,"Attributes":{"name":"Amazonestraat","highway":"residential","profile":"car","distance":"9940.614","time":"7873.09"}},{"Shape":340,"Attributes":{"name":"Amazonestraat","highway":"residential","profile":"car","distance":"10002.61","time":"7879.042"}},{"Shape":344,"Attributes":{"name":"Amazonestraat","highway":"residential","profile":"car","distance":"10096.01","time":"7888.009"}},{"Shape":347,"Attributes":{"name":"Amazonestraat","highway":"residential","profile":"car","distance":"10166.41","time":"7894.768"}},{"Shape":348,"Attributes":{"name":"Rivierlaan","highway":"unclassified","maxspeed":"50","profile":"car","distance":"10253.01","time":"7903.081"}},{"Shape":349,"Attributes":{"name":"Rivierlaan","highway":"unclassified","maxspeed":"50","profile":"car","distance":"10258.61","time":"7903.619"}},{"Shape":352,"Attributes":{"name":"Rivierlaan","highway":"unclassified","maxspeed":"50","oneway":"yes","profile":"car","distance":"10291.61","time":"7906.787"}},{"Shape":354,"Attributes":{"name":"Maaswijkweg","maxspeed":"50","highway":"tertiary","junction":"roundabout","profile":"car","distance":"10299.31","time":"7907.526"}},{"Shape":358,"Attributes":{"name":"Maaswijkweg","maxspeed":"50","highway":"tertiary","junction":"roundabout","profile":"car","distance":"10324.81","time":"7909.974"}},{"Shape":361,"Attributes":{"name":"Maaswijkweg","maxspeed":"50","highway":"tertiary","junction":"roundabout","profile":"car","distance":"10340.41","time":"7911.471"}},{"Shape":364,"Attributes":{"name":"Maaswijkweg","maxspeed":"50","highway":"tertiary","junction":"roundabout","profile":"car","distance":"10352.61","time":"7912.643"}},{"Shape":366,"Attributes":{"name":"Maaswijkweg","maxspeed":"50","highway":"tertiary","junction":"roundabout","profile":"car","distance":"10360.21","time":"7913.372"}},{"Shape":372,"Attributes":{"name":"Maaswijkweg","maxspeed":"50","highway":"tertiary","oneway":"yes","profile":"car","distance":"10834.41","time":"7958.896"}},{"Shape":375,"Attributes":{"name":"Maaswijkweg","maxspeed":"50","highway":"tertiary","junction":"roundabout","profile":"car","distance":"10849.31","time":"7960.326"}},{"Shape":378,"Attributes":{"name":"Joke Smitlaan","maxspeed":"50","highway":"tertiary","oneway":"yes","profile":"car","distance":"10943.91","time":"7969.407"}},{"Shape":379,"Attributes":{"name":"Joke Smitlaan","maxspeed":"50","highway":"tertiary","profile":"car","distance":"10950.41","time":"7970.031"}},{"Shape":380,"Attributes":{"name":"Marga Klompéstraat","highway":"residential","maxspeed":"30","profile":"car","distance":"10964.41","time":"7972.271"}},{"Shape":381,"Attributes":{"name":"Suze Groenewegstraat","highway":"residential","maxspeed":"30","profile":"car","distance":"10986.82","time":"7975.857"}},{"Shape":382,"Attributes":{"name":"Suze Groenewegstraat","highway":"residential","maxspeed":"30","profile":"car","distance":"11042.91","time":"8164.832"}},{"Shape":384,"Attributes":{"name":"Suze Groenewegstraat","highway":"residential","maxspeed":"30","profile":"car","distance":"11118.24","time":"8176.884"}},{"Shape":386,"Attributes":{"name":"Suze Groenewegstraat","highway":"residential","maxspeed":"30","profile":"car","distance":"11193.57","time":"8368.937"}},{"Shape":387,"Attributes":{"name":"Johanna Engwirda-Agricolastraat","highway":"residential","maxspeed":"30","profile":"car","distance":"11257.87","time":"8379.225"}},{"Shape":393,"Attributes":{"name":"Johanna Engwirda-Agricolastraat","highway":"residential","maxspeed":"30","profile":"car","distance":"11387.17","time":"8399.913"}},{"Shape":399,"Attributes":{"name":"Johanna Engwirda-Agricolastraat","highway":"residential","maxspeed":"30","profile":"car","distance":"11516.47","time":"8600.602"}},{"Shape":402,"Attributes":{"name":"Johanna Engwirda-Agricolastraat","highway":"residential","maxspeed":"30","profile":"car","distance":"11578.07","time":"8610.458"}},{"Shape":403,"Attributes":{"name":"Johanna Engwirda-Agricolastraat","highway":"residential","maxspeed":"30","profile":"car","distance":"11608.27","time":"8615.29"}},{"Shape":404,"Attributes":{"name":"Johanna Engwirda-Agricolastraat","highway":"residential","maxspeed":"30","profile":"car","distance":"11627.03","time":"8618.291"}},{"Shape":405,"Attributes":{"name":"Johanna Engwirda-Agricolastraat","highway":"residential","maxspeed":"30","profile":"car","distance":"11633.84","time":"8799.382"}},{"Shape":406,"Attributes":{"name":"Johanna Engwirda-Agricolastraat","highway":"residential","maxspeed":"30","profile":"car","distance":"11651.1","time":"8982.143"}},{"Shape":407,"Attributes":{"name":"Carry Pothuis-Smitstraat","highway":"residential","maxspeed":"30","profile":"car","distance":"11712.6","time":"8991.982"}},{"Shape":409,"Attributes":{"name":"Wilhelmina Hofman-Pootstraat","highway":"residential","maxspeed":"30","profile":"car","distance":"11845.8","time":"9013.295"}},{"Shape":411,"Attributes":{"name":"Wilhelmina Druckerstraat","highway":"residential","maxspeed":"30","profile":"car","distance":"11921","time":"9025.327"}},{"Shape":412,"Attributes":{"name":"Wilhelmina Druckerstraat","highway":"residential","maxspeed":"30","profile":"car","distance":"11930.69","time":"9026.878"}},{"Shape":414,"Attributes":{"name":"Wilhelmina Druckerstraat","highway":"residential","maxspeed":"30","profile":"car","distance":"12054.1","time":"9226.622"}},{"Shape":415,"Attributes":{"name":"Wilhelmina Druckerstraat","highway":"residential","maxspeed":"30","profile":"car","distance":"12069.7","time":"9229.118"}},{"Shape":416,"Attributes":{"name":"Wilhelmina Druckerstraat","highway":"residential","maxspeed":"30","profile":"car","distance":"12105.4","time":"9234.83"}},{"Shape":417,"Attributes":{"name":"Mina Krusemanstraat","highway":"residential","maxspeed":"30","profile":"car","distance":"12116.12","time":"9236.546"}},{"Shape":420,"Attributes":{"name":"Mina Krusemanstraat","highway":"residential","maxspeed":"30","profile":"car","distance":"12242.3","time":"9436.734"}},{"Shape":421,"Attributes":{"name":"Maria Doorman-Kielstrastraat","highway":"residential","maxspeed":"30","profile":"car","distance":"12276.8","time":"9442.254"}},{"Shape":422,"Attributes":{"name":"Maria Doorman-Kielstrastraat","highway":"residential","maxspeed":"30","profile":"car","distance":"12292.8","time":"9444.814"}},{"Shape":424,"Attributes":{"name":"Maria Doorman-Kielstrastraat","highway":"residential","maxspeed":"30","profile":"car","distance":"12426.4","time":"9466.19"}},{"Shape":426,"Attributes":{"name":"Maria Doorman-Kielstrastraat","highway":"residential","maxspeed":"30","profile":"car","distance":"12450.9","time":"9470.11"}},{"Shape":427,"Attributes":{"name":"Maria Doorman-Kielstrastraat","highway":"residential","maxspeed":"30","profile":"car","distance":"12488.9","time":"9476.19"}},{"Shape":429,"Attributes":{"name":"Willemijn Posthumusstraat","highway":"residential","maxspeed":"30","profile":"car","distance":"12505.38","time":"9478.827"}},{"Shape":431,"Attributes":{"name":"Willemijn Posthumusstraat","highway":"residential","maxspeed":"30","profile":"car","distance":"12521.86","time":"9661.464"}},{"Shape":432,"Attributes":{"name":"Maria Doorman-Kielstrastraat","highway":"residential","maxspeed":"30","profile":"car","distance":"12559.86","time":"9667.544"}},{"Shape":434,"Attributes":{"name":"Maria Doorman-Kielstrastraat","highway":"residential","maxspeed":"30","profile":"car","distance":"12584.36","time":"9671.464"}},{"Shape":435,"Attributes":{"name":"Maria Doorman-Kielstrastraat","highway":"residential","maxspeed":"30","profile":"car","distance":"12640.8","time":"9680.494"}},{"Shape":437,"Attributes":{"name":"Maria Doorman-Kielstrastraat","highway":"residential","maxspeed":"30","profile":"car","distance":"12717.96","time":"9872.84"}},{"Shape":438,"Attributes":{"name":"Roosje Vosstraat","highway":"residential","maxspeed":"30","profile":"car","distance":"12785.76","time":"9883.688"}},{"Shape":439,"Attributes":{"name":"Roosje Vosstraat","highway":"residential","maxspeed":"30","profile":"car","distance":"12802.16","time":"9886.312"}},{"Shape":442,"Attributes":{"name":"Roosje Vosstraat","highway":"residential","maxspeed":"30","profile":"car","distance":"12832.25","time":"9891.126"}},{"Shape":445,"Attributes":{"name":"Roosje Vosstraat","highway":"residential","maxspeed":"30","profile":"car","distance":"12862.34","time":"10075.94"}},{"Shape":446,"Attributes":{"name":"Roosje Vosstraat","highway":"residential","maxspeed":"30","profile":"car","distance":"12878.74","time":"10078.57"}},{"Shape":447,"Attributes":{"name":"Roosje Vosstraat","highway":"residential","maxspeed":"30","profile":"car","distance":"12946.54","time":"10089.42"}},{"Shape":448,"Attributes":{"name":"Maria Doorman-Kielstrastraat","highway":"residential","maxspeed":"30","profile":"car","distance":"12962.54","time":"10091.98"}},{"Shape":451,"Attributes":{"highway":"residential","maxspeed":"30","profile":"car","distance":"13035.02","time":"10103.57"}},{"Shape":454,"Attributes":{"highway":"residential","maxspeed":"30","profile":"car","distance":"13083.34","time":"10291.3"}},{"Shape":455,"Attributes":{"name":"Etty Hillesumstraat","highway":"residential","maxspeed":"30","profile":"car","distance":"13114.15","time":"10296.23"}},{"Shape":456,"Attributes":{"name":"Etty Hillesumstraat","highway":"residential","maxspeed":"30","profile":"car","distance":"13126.04","time":"10298.13"}},{"Shape":458,"Attributes":{"name":"Joke Smitlaan","maxspeed":"50","highway":"tertiary","oneway":"yes","profile":"car","distance":"13186.65","time":"10303.95"}},{"Shape":461,"Attributes":{"name":"Joke Smitlaan","maxspeed":"50","highway":"tertiary","profile":"car","distance":"13257.15","time":"10310.72"}},{"Shape":462,"Attributes":{"name":"Anne Frankstraat","highway":"residential","maxspeed":"30","profile":"car","distance":"13270.25","time":"10312.82"}},{"Shape":463,"Attributes":{"name":"Anne Frankstraat","highway":"residential","maxspeed":"30","profile":"car","distance":"13282.14","time":"10314.72"}},{"Shape":465,"Attributes":{"name":"Anne Frankstraat","highway":"residential","maxspeed":"30","profile":"car","distance":"13404.04","time":"10514.22"}},{"Shape":467,"Attributes":{"name":"Anne Frankstraat","highway":"residential","maxspeed":"30","profile":"car","distance":"13552.84","time":"10538.03"}},{"Shape":468,"Attributes":{"name":"Anne Frankstraat","highway":"residential","maxspeed":"30","profile":"car","distance":"13600.34","time":"10545.63"}},{"Shape":469,"Attributes":{"name":"Anne Frankstraat","highway":"residential","maxspeed":"30","profile":"car","distance":"13622.54","time":"10549.18"}},{"Shape":470,"Attributes":{"name":"Petronella Brugsmastraat","highway":"residential","maxspeed":"30","profile":"car","distance":"13639.04","time":"10551.82"}},{"Shape":476,"Attributes":{"name":"Petronella Brugsmastraat","highway":"residential","maxspeed":"30","profile":"car","distance":"13827.88","time":"10582.04"}},{"Shape":482,"Attributes":{"name":"Petronella Brugsmastraat","highway":"residential","maxspeed":"30","profile":"car","distance":"14003.13","time":"10790.08"}},{"Shape":490,"Attributes":{"name":"Petronella Brugsmastraat","highway":"residential","maxspeed":"30","profile":"car","distance":"14202.44","time":"11001.97"}},{"Shape":492,"Attributes":{"name":"Mien Sneevliet-Draaijerstraat","highway":"residential","maxspeed":"30","oneway":"yes","profile":"car","distance":"14244.84","time":"11008.75"}},{"Shape":494,"Attributes":{"name":"Mien Sneevliet-Draaijerstraat","highway":"residential","maxspeed":"30","oneway":"yes","profile":"car","distance":"14306.84","time":"11018.67"}},{"Shape":495,"Attributes":{"name":"Etty Hillesumstraat","highway":"residential","maxspeed":"30","profile":"car","distance":"14311.84","time":"11019.47"}},{"Shape":499,"Attributes":{"name":"Etty Hillesumstraat","highway":"residential","maxspeed":"30","profile":"car","distance":"14496.32","time":"11048.99"}},{"Shape":503,"Attributes":{"name":"Etty Hillesumstraat","highway":"residential","maxspeed":"30","profile":"car","distance":"14680.8","time":"11258.51"}},{"Shape":504,"Attributes":{"name":"Etty Hillesumstraat","highway":"residential","maxspeed":"30","profile":"car","distance":"14685.8","time":"11259.31"}},{"Shape":505,"Attributes":{"name":"Etty Hillesumstraat","highway":"residential","maxspeed":"30","profile":"car","distance":"14716.5","time":"11264.22"}},{"Shape":506,"Attributes":{"name":"Etty Hillesumstraat","highway":"residential","maxspeed":"30","profile":"car","distance":"14792","time":"11276.3"}},{"Shape":507,"Attributes":{"name":"Hannie Schaftstraat","highway":"residential","maxspeed":"30","profile":"car","distance":"14852.9","time":"11286.04"}},{"Shape":509,"Attributes":{"name":"Hannie Schaftstraat","highway":"residential","maxspeed":"30","profile":"car","distance":"14923.15","time":"11297.28"}},{"Shape":510,"Attributes":{"name":"Hannie Schaftstraat","highway":"residential","maxspeed":"30","profile":"car","distance":"14989.59","time":"11487.91"}},{"Shape":511,"Attributes":{"name":"Hannie Schaftstraat","highway":"residential","maxspeed":"30","profile":"car","distance":"15049.7","time":"11497.53"}},{"Shape":513,"Attributes":{"name":"Anne Frankstraat","highway":"residential","maxspeed":"30","profile":"car","distance":"15183.5","time":"11518.94"}},{"Shape":514,"Attributes":{"name":"Anne Frankstraat","highway":"residential","maxspeed":"30","profile":"car","distance":"15196.59","time":"11521.03"}},{"Shape":515,"Attributes":{"name":"Joke Smitlaan","maxspeed":"50","highway":"tertiary","profile":"car","distance":"15204.59","time":"11521.8"}},{"Shape":516,"Attributes":{"name":"Joke Smitlaan","maxspeed":"50","highway":"tertiary","profile":"car","distance":"15247.59","time":"11525.93"}},{"Shape":517,"Attributes":{"name":"Joke Smitlaan","maxspeed":"50","highway":"tertiary","profile":"car","distance":"15278.2","time":"11528.87"}},{"Shape":519,"Attributes":{"name":"Joke Smitlaan","maxspeed":"50","highway":"tertiary","profile":"car","distance":"15332.5","time":"11534.08"}},{"Shape":520,"Attributes":{"name":"Joke Smitlaan","maxspeed":"50","highway":"tertiary","profile":"car","distance":"15351.89","time":"11535.94"}},{"Shape":521,"Attributes":{"name":"Margaretha Roosenboomstraat","highway":"residential","profile":"car","distance":"15363.29","time":"11537.03"}},{"Shape":525,"Attributes":{"name":"Margaretha Roosenboomstraat","highway":"residential","profile":"car","distance":"15405.09","time":"11541.05"}},{"Shape":526,"Attributes":{"name":"Margaretha Roosenboomstraat","highway":"residential","profile":"car","distance":"15428.39","time":"11543.28"}},{"Shape":527,"Attributes":{"name":"Margaretha Roosenboomstraat","highway":"residential","profile":"car","distance":"15438.14","time":"11544.22"}},{"Shape":528,"Attributes":{"name":"Margaretha Roosenboomstraat","highway":"residential","profile":"car","distance":"15447.88","time":"11725.16"}},{"Shape":529,"Attributes":{"name":"Margaretha Roosenboomstraat","highway":"residential","profile":"car","distance":"15471.18","time":"11727.39"}},{"Shape":533,"Attributes":{"name":"Margaretha Roosenboomstraat","highway":"residential","profile":"car","distance":"15512.98","time":"11731.4"}},{"Shape":534,"Attributes":{"name":"Margaretha Roosenboomstraat","highway":"residential","profile":"car","distance":"15524.38","time":"11732.5"}},{"Shape":535,"Attributes":{"name":"Joke Smitlaan","maxspeed":"50","highway":"tertiary","profile":"car","distance":"15536.78","time":"11733.69"}},{"Shape":538,"Attributes":{"name":"Joke Smitlaan","maxspeed":"50","highway":"tertiary","profile":"car","distance":"15605.18","time":"11740.26"}},{"Shape":541,"Attributes":{"name":"Annie Romein-Verschoorlaan","maxspeed":"50","highway":"tertiary","profile":"car","distance":"15724.38","time":"11751.7"}},{"Shape":542,"Attributes":{"name":"Annie Romein-Verschoorlaan","maxspeed":"50","highway":"tertiary","profile":"car","distance":"15779.29","time":"11756.97"}},{"Shape":543,"Attributes":{"name":"Annie Romein-Verschoorlaan","maxspeed":"50","highway":"tertiary","profile":"car","distance":"15834.19","time":"11942.24"}},{"Shape":544,"Attributes":{"name":"Marie van Regteren Altenastraat","highway":"residential","maxspeed":"30","profile":"car","distance":"15846.69","time":"11944.24"}},{"Shape":546,"Attributes":{"name":"Margaretha Roosenboomstraat","highway":"residential","maxspeed":"30","profile":"car","distance":"15937.32","time":"11958.74"}},{"Shape":547,"Attributes":{"name":"Margaretha Roosenboomstraat","highway":"residential","maxspeed":"30","profile":"car","distance":"15989.79","time":"12147.14"}},{"Shape":548,"Attributes":{"name":"Ida Wassermanstraat","highway":"residential","maxspeed":"30","profile":"car","distance":"16093.2","time":"12163.68"}},{"Shape":549,"Attributes":{"name":"Ida Wassermanstraat","highway":"residential","maxspeed":"30","profile":"car","distance":"16196.61","time":"12360.22"}},{"Shape":550,"Attributes":{"name":"Mimi Boesnachstraat","highway":"residential","maxspeed":"30","profile":"car","distance":"16210.11","time":"12362.38"}},{"Shape":551,"Attributes":{"name":"Theo Mann-Bouwmeesterstraat","highway":"residential","maxspeed":"30","profile":"car","distance":"16223.51","time":"12364.53"}},{"Shape":552,"Attributes":{"name":"Maria Kleine-Gartmanstraat","highway":"residential","maxspeed":"30","profile":"car","distance":"16258.81","time":"12370.18"}},{"Shape":553,"Attributes":{"name":"Maria Kleine-Gartmanstraat","highway":"residential","maxspeed":"30","profile":"car","distance":"16290.41","time":"12375.23"}},{"Shape":554,"Attributes":{"name":"Maria Kleine-Gartmanstraat","highway":"residential","maxspeed":"30","profile":"car","distance":"16321.61","time":"12380.22"}},{"Shape":555,"Attributes":{"name":"Maria Kleine-Gartmanstraat","highway":"residential","maxspeed":"30","profile":"car","distance":"16323.74","time":"12380.57"}},{"Shape":556,"Attributes":{"name":"Maria Kleine-Gartmanstraat","highway":"residential","maxspeed":"30","profile":"car","distance":"16357.81","time":"12566.02"}},{"Shape":557,"Attributes":{"name":"Maria Kleine-Gartmanstraat","highway":"residential","maxspeed":"30","profile":"car","distance":"16388.01","time":"12570.85"}},{"Shape":562,"Attributes":{"name":"Maria Kleine-Gartmanstraat","highway":"residential","maxspeed":"30","profile":"car","distance":"16480.01","time":"12585.57"}},{"Shape":563,"Attributes":{"name":"Maria Kleine-Gartmanstraat","highway":"residential","maxspeed":"30","profile":"car","distance":"16527.54","time":"12593.18"}},{"Shape":564,"Attributes":{"name":"Maria Kleine-Gartmanstraat","highway":"residential","maxspeed":"30","profile":"car","distance":"16541.91","time":"12775.48"}},{"Shape":565,"Attributes":{"name":"Esther de Boer-van Rijkstraat","highway":"residential","maxspeed":"30","profile":"car","distance":"16573.21","time":"12780.49"}},{"Shape":566,"Attributes":{"name":"Esther de Boer-van Rijkstraat","highway":"residential","maxspeed":"30","profile":"car","distance":"16607.41","time":"12785.96"}},{"Shape":567,"Attributes":{"name":"Esther de Boer-van Rijkstraat","highway":"residential","maxspeed":"30","profile":"car","distance":"16670.71","time":"12796.09"}},{"Shape":568,"Attributes":{"name":"Josephine van Gasterenstraat","highway":"residential","maxspeed":"30","profile":"car","distance":"16737.81","time":"12806.82"}},{"Shape":569,"Attributes":{"name":"Josephine van Gasterenstraat","highway":"residential","maxspeed":"30","profile":"car","distance":"16768.31","time":"12811.7"}},{"Shape":570,"Attributes":{"name":"Corrie Vonkplantsoen","highway":"residential","maxspeed":"30","profile":"car","distance":"16772.13","time":"12812.31"}}],"Stops":[{"Shape":0,"Coordinates":[4.366,51.8376],"Attributes":{"index":"158","distance":"0","time":"0","cost_time":"180"}},{"Shape":13,"Coordinates":[4.3684,51.837],"Attributes":{"index":"154","distance":"313.9966","time":"50.23946","cost_time":"180"}},{"Shape":23,"Coordinates":[4.37083,51.83531],"Attributes":{"index":"150","distance":"676.733","time":"280.1237","cost_time":"180"}},{"Shape":29,"Coordinates":[4.36964,51.83403],"Attributes":{"index":"147","distance":"867.8625","time":"483.6708","cost_time":"180"}},{"Shape":34,"Coordinates":[4.36933,51.83347],"Attributes":{"index":"148","distance":"971.5657","time":"680.2633","cost_time":"180"}},{"Shape":37,"Coordinates":[4.3683,51.8325],"Attributes":{"index":"149","distance":"1109.731","time":"882.3698","cost_time":"180"}},{"Shape":48,"Coordinates":[4.3705,51.8359],"Attributes":{"index":"153","distance":"1568.425","time":"1121.822","cost_time":"180"}},{"Shape":53,"Coordinates":[4.370707,51.83658],"Attributes":{"index":"152","distance":"1769.771","time":"1334.037","cost_time":"180"}},{"Shape":56,"Coordinates":[4.3702,51.8376],"Attributes":{"index":"162","distance":"1901.902","time":"1530.755","cost_time":"180"}},{"Shape":59,"Coordinates":[4.3699,51.8377],"Attributes":{"index":"151","distance":"2029.228","time":"1727.032","cost_time":"180"}},{"Shape":72,"Coordinates":[4.3725,51.8371],"Attributes":{"index":"164","distance":"2460.55","time":"1973.189","cost_time":"180"}},{"Shape":77,"Coordinates":[4.3713,51.8388],"Attributes":{"index":"163","distance":"2688.512","time":"2189.663","cost_time":"180"}},{"Shape":90,"Coordinates":[4.3679,51.839],"Attributes":{"index":"155","distance":"2942.401","time":"2410.285","cost_time":"180"}},{"Shape":100,"Coordinates":[4.3652,51.8366],"Attributes":{"index":"159","distance":"3451.638","time":"2671.763","cost_time":"180"}},{"Shape":106,"Coordinates":[4.3666,51.8359],"Attributes":{"index":"160","distance":"3670.439","time":"2886.771","cost_time":"180"}},{"Shape":113,"Coordinates":[4.3681,51.8348],"Attributes":{"index":"161","distance":"3841.793","time":"3094.188","cost_time":"180"}},{"Shape":127,"Coordinates":[4.3648,51.8346],"Attributes":{"index":"142","distance":"4283.279","time":"3344.826","cost_time":"180"}},{"Shape":132,"Coordinates":[4.36365,51.83393],"Attributes":{"index":"143","distance":"4652.737","time":"3583.939","cost_time":"180"}},{"Shape":135,"Coordinates":[4.3637,51.8356],"Attributes":{"index":"141","distance":"4846.041","time":"3794.868","cost_time":"180"}},{"Shape":140,"Coordinates":[4.3629,51.8352],"Attributes":{"index":"140","distance":"4957.69","time":"3992.732","cost_time":"180"}},{"Shape":155,"Coordinates":[4.362908,51.83392],"Attributes":{"index":"136","distance":"5348.049","time":"4222.518","cost_time":"180"}},{"Shape":171,"Coordinates":[4.3678,51.8326],"Attributes":{"index":"146","distance":"5848.603","time":"4469.397","cost_time":"180"}},{"Shape":177,"Coordinates":[4.3676,51.8338],"Attributes":{"index":"145","distance":"6045.646","time":"4680.924","cost_time":"180"}},{"Shape":180,"Coordinates":[4.3661,51.8336],"Attributes":{"index":"144","distance":"6167.349","time":"4880.396","cost_time":"180"}},{"Shape":199,"Coordinates":[4.36006,51.83444],"Attributes":{"index":"123","distance":"6763.651","time":"5125.705","cost_time":"180"}},{"Shape":207,"Coordinates":[4.3588,51.8358],"Attributes":{"index":"121","distance":"6978.471","time":"5340.076","cost_time":"180"}},{"Shape":207,"Coordinates":[4.3588,51.8358],"Attributes":{"index":"122","distance":"6978.471","time":"5520.076","cost_time":"180"}},{"Shape":213,"Coordinates":[4.3576,51.8369],"Attributes":{"index":"120","distance":"7146.219","time":"5726.916","cost_time":"180"}},{"Shape":217,"Coordinates":[4.3593,51.8369],"Attributes":{"index":"119","distance":"7263.055","time":"5925.61","cost_time":"180"}},{"Shape":223,"Coordinates":[4.3595,51.8387],"Attributes":{"index":"118","distance":"7466.376","time":"6138.141","cost_time":"180"}},{"Shape":229,"Coordinates":[4.3567,51.838],"Attributes":{"index":"117","distance":"7718.436","time":"6358.471","cost_time":"180"}},{"Shape":279,"Coordinates":[4.349341,51.84015],"Attributes":{"index":"111","distance":"8772.018","time":"6751.897","cost_time":"180"}},{"Shape":309,"Coordinates":[4.350248,51.84405],"Attributes":{"index":"102","distance":"9262.2","time":"7078.247","cost_time":"180"}},{"Shape":316,"Coordinates":[4.348139,51.84475],"Attributes":{"index":"99","distance":"9437.155","time":"7275.042","cost_time":"180"}},{"Shape":324,"Coordinates":[4.349528,51.84339],"Attributes":{"index":"101","distance":"9645.257","time":"7480.153","cost_time":"180"}},{"Shape":335,"Coordinates":[4.347083,51.84364],"Attributes":{"index":"100","distance":"9906.442","time":"7689.81","cost_time":"180"}},{"Shape":381,"Coordinates":[4.3558,51.8385],"Attributes":{"index":"112","distance":"10986.82","time":"7975.857","cost_time":"180"}},{"Shape":384,"Coordinates":[4.3552,51.8374],"Attributes":{"index":"116","distance":"11118.24","time":"8176.884","cost_time":"180"}},{"Shape":393,"Coordinates":[4.3535,51.839],"Attributes":{"index":"115","distance":"11387.17","time":"8399.913","cost_time":"180"}},{"Shape":404,"Coordinates":[4.3534,51.8379],"Attributes":{"index":"114","distance":"11627.03","time":"8618.291","cost_time":"180"}},{"Shape":405,"Coordinates":[4.3535,51.8379],"Attributes":{"index":"113","distance":"11633.84","time":"8799.382","cost_time":"180"}},{"Shape":412,"Coordinates":[4.3527,51.8362],"Attributes":{"index":"132","distance":"11930.69","time":"9026.878","cost_time":"180"}},{"Shape":417,"Coordinates":[4.35533,51.83625],"Attributes":{"index":"133","distance":"12116.12","time":"9236.546","cost_time":"180"}},{"Shape":429,"Coordinates":[4.3536,51.8334],"Attributes":{"index":"129","distance":"12505.38","time":"9478.827","cost_time":"180"}},{"Shape":435,"Coordinates":[4.35483,51.83439],"Attributes":{"index":"130","distance":"12640.8","time":"9680.494","cost_time":"180"}},{"Shape":442,"Coordinates":[4.3546,51.8356],"Attributes":{"index":"131","distance":"12832.25","time":"9891.126","cost_time":"180"}},{"Shape":451,"Coordinates":[4.3565,51.8346],"Attributes":{"index":"134","distance":"13035.02","time":"10103.57","cost_time":"180"}},{"Shape":463,"Coordinates":[4.3593,51.834],"Attributes":{"index":"124","distance":"13282.14","time":"10314.72","cost_time":"180"}},{"Shape":476,"Coordinates":[4.3565,51.8323],"Attributes":{"index":"126","distance":"13827.88","time":"10582.04","cost_time":"180"}},{"Shape":482,"Coordinates":[4.3582,51.8318],"Attributes":{"index":"127","distance":"14003.13","time":"10790.08","cost_time":"180"}},{"Shape":499,"Coordinates":[4.3541,51.8314],"Attributes":{"index":"128","distance":"14496.32","time":"11048.99","cost_time":"180"}},{"Shape":509,"Coordinates":[4.3575,51.83281],"Attributes":{"index":"125","distance":"14923.15","time":"11297.28","cost_time":"180"}},{"Shape":527,"Coordinates":[4.36169,51.83494],"Attributes":{"index":"135","distance":"15438.14","time":"11544.22","cost_time":"180"}},{"Shape":542,"Coordinates":[4.3622,51.8361],"Attributes":{"index":"137","distance":"15779.29","time":"11756.97","cost_time":"180"}},{"Shape":546,"Coordinates":[4.362184,51.8364],"Attributes":{"index":"139","distance":"15937.32","time":"11958.74","cost_time":"180"}},{"Shape":548,"Coordinates":[4.3624,51.8378],"Attributes":{"index":"138","distance":"16093.2","time":"12163.68","cost_time":"180"}},{"Shape":555,"Coordinates":[4.36272,51.83775],"Attributes":{"index":"157","distance":"16323.74","time":"12380.57","cost_time":"180"}},{"Shape":563,"Coordinates":[4.3645,51.8389],"Attributes":{"index":"156","distance":"16527.54","time":"12593.18","cost_time":"180"}},{"Shape":570,"Coordinates":[4.366,51.8376],"Attributes":{"index":"158","distance":"16772.13","time":"12812.31","cost_time":"180"}}],"Branches":[{"Shape":2,"Coordinates":[4.36506,51.8367],"Attributes":{"name":"Theo Mann-Bouwmeesterstraat","highway":"residential","maxspeed":"30"}},{"Shape":10,"Coordinates":[4.36671,51.83765],"Attributes":{"name":"Corrie Vonkplantsoen","highway":"residential","maxspeed":"30"}},{"Shape":11,"Coordinates":[4.367727,51.83575],"Attributes":{"name":"Rosa Spierstraat","highway":"residential","maxspeed":"30"}},{"Shape":12,"Coordinates":[4.368241,51.83746],"Attributes":{"name":"Top Naeffstraat","highway":"residential","maxspeed":"30"}},{"Shape":12,"Coordinates":[4.368972,51.8369],"Attributes":{"name":"Theo Mann-Bouwmeesterstraat","highway":"residential","maxspeed":"30"}},{"Shape":14,"Coordinates":[4.367617,51.8368],"Attributes":{"name":"Theo Mann-Bouwmeesterstraat","highway":"residential","maxspeed":"30"}},{"Shape":16,"Coordinates":[4.370326,51.83643],"Attributes":{"name":"Beb Vuykstraat","highway":"residential","maxspeed":"30"}},{"Shape":16,"Coordinates":[4.370038,51.8376],"Attributes":{"name":"Beb Vuykstraat","highway":"residential","maxspeed":"30"}},{"Shape":17,"Coordinates":[4.370615,51.83702],"Attributes":{"name":"Theo Mann-Bouwmeesterstraat","highway":"residential","maxspeed":"30"}},{"Shape":17,"Coordinates":[4.370094,51.83818],"Attributes":{"name":"Geertruida Bosboom-Toussaintlaan","maxspeed":"50","highway":"tertiary"}},{"Shape":20,"Coordinates":[4.370462,51.83586],"Attributes":{"name":"Sientje Mesdag-van Houtenstraat","highway":"residential","maxspeed":"30"}},{"Shape":20,"Coordinates":[4.370679,51.83535],"Attributes":{"name":"Geertruida Bosboom-Toussaintlaan","maxspeed":"50","highway":"tertiary"}},{"Shape":21,"Coordinates":[4.370826,51.8362],"Attributes":{"name":"Else van der Banstraat","highway":"residential","maxspeed":"30"}},{"Shape":21,"Coordinates":[4.372729,51.83594],"Attributes":{"name":"Sientje Mesdag-van Houtenstraat","highway":"residential","maxspeed":"30"}},{"Shape":22,"Coordinates":[4.370724,51.83487],"Attributes":{"name":"Else van der Banstraat","highway":"residential","maxspeed":"30"}},{"Shape":22,"Coordinates":[4.3717,51.8353],"Attributes":{"name":"Lotte Beesestraat","highway":"residential","maxspeed":"30"}},{"Shape":24,"Coordinates":[4.37044,51.83441],"Attributes":{"name":"Else van der Banstraat","highway":"residential","maxspeed":"30"}},{"Shape":24,"Coordinates":[4.371654,51.83469],"Attributes":{"name":"Truus Schröderstraat","highway":"residential","maxspeed":"30"}},{"Shape":25,"Coordinates":[4.370315,51.83495],"Attributes":{"name":"Truus Schröderstraat","highway":"unclassified","maxspeed":"30"}},{"Shape":25,"Coordinates":[4.370679,51.83535],"Attributes":{"name":"Geertruida Bosboom-Toussaintlaan","maxspeed":"50","highway":"tertiary"}},{"Shape":27,"Coordinates":[4.369971,51.83395],"Attributes":{"name":"Belle van Zuylenstraat","highway":"residential","maxspeed":"30"}},{"Shape":27,"Coordinates":[4.367404,51.83212],"Attributes":{"name":"Geertruida Bosboom-Toussaintlaan","maxspeed":"50","highway":"tertiary"}},{"Shape":28,"Coordinates":[4.369088,51.83369],"Attributes":{"name":"Beb Vuykstraat","highway":"residential","maxspeed":"30"}},{"Shape":28,"Coordinates":[4.370059,51.83451],"Attributes":{"name":"Beb Vuykstraat","highway":"residential","maxspeed":"30"}},{"Shape":28,"Coordinates":[4.368752,51.83453],"Attributes":{"name":"Belle van Zuylenstraat","highway":"residential","maxspeed":"30"}},{"Shape":30,"Coordinates":[4.370059,51.83451],"Attributes":{"name":"Beb Vuykstraat","highway":"residential","maxspeed":"30"}},{"Shape":30,"Coordinates":[4.368752,51.83453],"Attributes":{"name":"Belle van Zuylenstraat","highway":"residential","maxspeed":"30"}},{"Shape":31,"Coordinates":[4.367404,51.83212],"Attributes":{"name":"Geertruida Bosboom-Toussaintlaan","maxspeed":"50","highway":"tertiary"}},{"Shape":31,"Coordinates":[4.370261,51.83447],"Attributes":{"name":"Geertruida Bosboom-Toussaintlaan","maxspeed":"50","highway":"tertiary"}},{"Shape":32,"Coordinates":[4.37044,51.83441],"Attributes":{"name":"Else van der Banstraat","highway":"residential","maxspeed":"30"}},{"Shape":32,"Coordinates":[4.370699,51.83359],"Attributes":{"name":"Belle van Zuylenstraat","highway":"residential","maxspeed":"30"}},{"Shape":33,"Coordinates":[4.368838,51.83305],"Attributes":{"name":"Else van der Banstraat","highway":"residential","maxspeed":"30"}},{"Shape":33,"Coordinates":[4.369666,51.83346],"Attributes":{"name":"Clare Lennartstraat","highway":"residential","maxspeed":"30"}},{"Shape":35,"Coordinates":[4.369786,51.8326],"Attributes":{"name":"Jeanne van Schaik-Willingstraat","highway":"residential","maxspeed":"30"}},{"Shape":36,"Coordinates":[4.367612,51.83207],"Attributes":{"name":"Else van der Banstraat","highway":"residential","maxspeed":"30"}},{"Shape":36,"Coordinates":[4.368486,51.83239],"Attributes":{"name":"Hélène Swarthstraat","highway":"residential","maxspeed":"30"}},{"Shape":38,"Coordinates":[4.367612,51.83207],"Attributes":{"name":"Else van der Banstraat","highway":"residential","maxspeed":"30"}},{"Shape":39,"Coordinates":[4.369786,51.8326],"Attributes":{"name":"Jeanne van Schaik-Willingstraat","highway":"residential","maxspeed":"30"}},{"Shape":40,"Coordinates":[4.369666,51.83346],"Attributes":{"name":"Clare Lennartstraat","highway":"residential","maxspeed":"30"}},{"Shape":41,"Coordinates":[4.37044,51.83441],"Attributes":{"name":"Else van der Banstraat","highway":"residential","maxspeed":"30"}},{"Shape":41,"Coordinates":[4.370699,51.83359],"Attributes":{"name":"Belle van Zuylenstraat","highway":"residential","maxspeed":"30"}},{"Shape":42,"Coordinates":[4.369626,51.83411],"Attributes":{"name":"Belle van Zuylenstraat","highway":"residential","maxspeed":"30"}},{"Shape":42,"Coordinates":[4.367404,51.83212],"Attributes":{"name":"Geertruida Bosboom-Toussaintlaan","maxspeed":"50","highway":"tertiary"}},{"Shape":44,"Coordinates":[4.370315,51.83495],"Attributes":{"name":"Truus Schröderstraat","highway":"unclassified","maxspeed":"30"}},{"Shape":44,"Coordinates":[4.370724,51.83487],"Attributes":{"name":"Truus Schröderstraat","highway":"unclassified","maxspeed":"30"}},{"Shape":46,"Coordinates":[4.370903,51.83588],"Attributes":{"name":"Sientje Mesdag-van Houtenstraat","highway":"residential","maxspeed":"30"}},{"Shape":46,"Coordinates":[4.370606,51.8362],"Attributes":{"name":"Geertruida Bosboom-Toussaintlaan","maxspeed":"50","highway":"tertiary"}},{"Shape":47,"Coordinates":[4.370476,51.83536],"Attributes":{"name":"Beb Vuykstraat","highway":"residential","maxspeed":"30"}},{"Shape":47,"Coordinates":[4.370326,51.83643],"Attributes":{"name":"Beb Vuykstraat","highway":"residential","maxspeed":"30"}},{"Shape":47,"Coordinates":[4.368702,51.83578],"Attributes":{"name":"Sientje Mesdag-van Houtenstraat","highway":"residential","maxspeed":"30"}},{"Shape":49,"Coordinates":[4.369906,51.8364],"Attributes":{"name":"Catharina van Renneshof","highway":"residential","maxspeed":"30"}},{"Shape":50,"Coordinates":[4.370038,51.8376],"Attributes":{"name":"Beb Vuykstraat","highway":"residential","maxspeed":"30"}},{"Shape":50,"Coordinates":[4.368972,51.8369],"Attributes":{"name":"Theo Mann-Bouwmeesterstraat","highway":"residential","maxspeed":"30"}},{"Shape":51,"Coordinates":[4.370606,51.8362],"Attributes":{"name":"Geertruida Bosboom-Toussaintlaan","maxspeed":"50","highway":"tertiary"}},{"Shape":51,"Coordinates":[4.370094,51.83818],"Attributes":{"name":"Geertruida Bosboom-Toussaintlaan","maxspeed":"50","highway":"tertiary"}},{"Shape":52,"Coordinates":[4.370763,51.83647],"Attributes":{"name":"Else van der Banstraat","highway":"residential","maxspeed":"30"}},{"Shape":52,"Coordinates":[4.370445,51.83764],"Attributes":{"name":"Else van der Banstraat","highway":"residential","maxspeed":"30"}},{"Shape":52,"Coordinates":[4.372372,51.83723],"Attributes":{"name":"Theo Mann-Bouwmeesterstraat","highway":"residential","maxspeed":"30"}},{"Shape":54,"Coordinates":[4.370445,51.83764],"Attributes":{"name":"Else van der Banstraat","highway":"residential","maxspeed":"30"}},{"Shape":54,"Coordinates":[4.372372,51.83723],"Attributes":{"name":"Theo Mann-Bouwmeesterstraat","highway":"residential","maxspeed":"30"}},{"Shape":55,"Coordinates":[4.370177,51.83698],"Attributes":{"name":"Theo Mann-Bouwmeesterstraat","highway":"residential","maxspeed":"30"}},{"Shape":55,"Coordinates":[4.370606,51.8362],"Attributes":{"name":"Geertruida Bosboom-Toussaintlaan","maxspeed":"50","highway":"tertiary"}},{"Shape":55,"Coordinates":[4.370094,51.83818],"Attributes":{"name":"Geertruida Bosboom-Toussaintlaan","maxspeed":"50","highway":"tertiary"}},{"Shape":57,"Coordinates":[4.370308,51.83821],"Attributes":{"name":"Maria Tesselschadestraat","highway":"residential","maxspeed":"30"}},{"Shape":57,"Coordinates":[4.36999,51.83858],"Attributes":{"name":"Geertruida Bosboom-Toussaintlaan","maxspeed":"50","highway":"tertiary"}},{"Shape":58,"Coordinates":[4.370038,51.8376],"Attributes":{"name":"Beb Vuykstraat","highway":"residential","maxspeed":"30"}},{"Shape":58,"Coordinates":[4.368901,51.83807],"Attributes":{"name":"Maria Tesselschadestraat","highway":"residential","maxspeed":"30"}},{"Shape":60,"Coordinates":[4.368901,51.83807],"Attributes":{"name":"Maria Tesselschadestraat","highway":"residential","maxspeed":"30"}},{"Shape":61,"Coordinates":[4.370308,51.83821],"Attributes":{"name":"Maria Tesselschadestraat","highway":"residential","maxspeed":"30"}},{"Shape":61,"Coordinates":[4.3704,51.837],"Attributes":{"name":"Geertruida Bosboom-Toussaintlaan","maxspeed":"50","highway":"tertiary"}},{"Shape":62,"Coordinates":[4.369864,51.83901],"Attributes":{"name":"Geertruida Bosboom-Toussaintlaan","maxspeed":"50","highway":"tertiary"}},{"Shape":62,"Coordinates":[4.369776,51.83852],"Attributes":{"name":"Maria Kleine-Gartmanstraat","highway":"residential","maxspeed":"30"}},{"Shape":64,"Coordinates":[4.37021,51.83849],"Attributes":{"name":"Henriëtte Roland Holststraat","highway":"residential","maxspeed":"30"}},{"Shape":70,"Coordinates":[4.372942,51.83545],"Attributes":{"name":"Lange Groeneweg","highway":"residential","maxspeed":"30"}},{"Shape":74,"Coordinates":[4.370436,51.83859],"Attributes":{"name":"Henriëtte Roland Holststraat","highway":"residential","maxspeed":"30"}},{"Shape":81,"Coordinates":[4.37021,51.83849],"Attributes":{"name":"Henriëtte Roland Holststraat","highway":"residential","maxspeed":"30"}},{"Shape":83,"Coordinates":[4.370094,51.83818],"Attributes":{"name":"Geertruida Bosboom-Toussaintlaan","maxspeed":"50","highway":"tertiary"}},{"Shape":83,"Coordinates":[4.369864,51.83901],"Attributes":{"name":"Geertruida Bosboom-Toussaintlaan","maxspeed":"50","highway":"tertiary"}},{"Shape":84,"Coordinates":[4.36989,51.8384],"Attributes":{"name":"Maria Kleine-Gartmanstraat","highway":"residential","maxspeed":"30"}},{"Shape":89,"Coordinates":[4.367966,51.83858],"Attributes":{"name":"Top Naeffstraat","highway":"residential","maxspeed":"30"}},{"Shape":89,"Coordinates":[4.36481,51.83882],"Attributes":{"name":"Maria Kleine-Gartmanstraat","highway":"residential","maxspeed":"30"}},{"Shape":93,"Coordinates":[4.363814,51.83873],"Attributes":{"name":"Maria Kleine-Gartmanstraat","highway":"residential","maxspeed":"30"}},{"Shape":94,"Coordinates":[4.365851,51.83851],"Attributes":{"name":"Vera Bondamstraat","highway":"residential","maxspeed":"30"}},{"Shape":95,"Coordinates":[4.36574,51.83821],"Attributes":{"name":"Else Mauhsstraat","highway":"residential","maxspeed":"30"}},{"Shape":96,"Coordinates":[4.365499,51.83763],"Attributes":{"name":"Josephine van Gasterenstraat","highway":"residential","maxspeed":"30"}},{"Shape":97,"Coordinates":[4.365455,51.83734],"Attributes":{"name":"Ronnie Biermanstraat","highway":"residential","maxspeed":"30"}},{"Shape":98,"Coordinates":[4.363842,51.83675],"Attributes":{"name":"Theo Mann-Bouwmeesterstraat","highway":"residential","maxspeed":"30"}},{"Shape":99,"Coordinates":[4.365823,51.83672],"Attributes":{"name":"Theo Mann-Bouwmeesterstraat","highway":"residential","maxspeed":"30"}},{"Shape":99,"Coordinates":[4.365098,51.83566],"Attributes":{"name":"Suze Robertsonstraat","highway":"residential","maxspeed":"30"}},{"Shape":101,"Coordinates":[4.364598,51.83564],"Attributes":{"name":"Sientje Mesdag-van Houtenstraat","highway":"residential","maxspeed":"30"}},{"Shape":102,"Coordinates":[4.365564,51.83504],"Attributes":{"name":"Emmy Belinfantestraat","highway":"residential","maxspeed":"30"}},{"Shape":105,"Coordinates":[4.366899,51.83581],"Attributes":{"name":"Sientje Mesdag-van Houtenstraat","highway":"residential","maxspeed":"30"}},{"Shape":109,"Coordinates":[4.367727,51.83575],"Attributes":{"name":"Sientje Mesdag-van Houtenstraat","highway":"residential","maxspeed":"30"}},{"Shape":109,"Coordinates":[4.367445,51.83514],"Attributes":{"name":"Martina Kramersstraat","highway":"residential","maxspeed":"30"}},{"Shape":117,"Coordinates":[4.367727,51.83575],"Attributes":{"name":"Sientje Mesdag-van Houtenstraat","highway":"residential","maxspeed":"30"}},{"Shape":123,"Coordinates":[4.365564,51.83504],"Attributes":{"name":"Emmy Belinfantestraat","highway":"residential","maxspeed":"30"}},{"Shape":124,"Coordinates":[4.36506,51.8367],"Attributes":{"name":"Suze Robertsonstraat","highway":"residential","maxspeed":"30"}},{"Shape":125,"Coordinates":[4.363756,51.83563],"Attributes":{"name":"Sientje Mesdag-van Houtenstraat","highway":"residential","maxspeed":"30"}},{"Shape":125,"Coordinates":[4.3645,51.8348],"Attributes":{"name":"Harriët Freezerstraat","highway":"residential","maxspeed":"30"}},{"Shape":129,"Coordinates":[4.365098,51.83566],"Attributes":{"name":"Sientje Mesdag-van Houtenstraat","highway":"residential","maxspeed":"30"}},{"Shape":130,"Coordinates":[4.363351,51.83562],"Attributes":{"name":"Sientje Mesdag-van Houtenstraat","highway":"residential","maxspeed":"30"}},{"Shape":130,"Coordinates":[4.36375,51.83378],"Attributes":{"name":"Henriëtte van der Meijstraat","highway":"residential","maxspeed":"30"}},{"Shape":134,"Coordinates":[4.363351,51.83562],"Attributes":{"name":"Sientje Mesdag-van Houtenstraat","highway":"residential","maxspeed":"30"}},{"Shape":134,"Coordinates":[4.364598,51.83564],"Attributes":{"name":"Sientje Mesdag-van Houtenstraat","highway":"residential","maxspeed":"30"}},{"Shape":136,"Coordinates":[4.362383,51.8356],"Attributes":{"name":"Sientje Mesdag-van Houtenstraat","highway":"residential","maxspeed":"30"}},{"Shape":137,"Coordinates":[4.362867,51.83527],"Attributes":{"name":"Lizzy Ansinghstraat","highway":"unclassified","maxspeed":"30"}},{"Shape":138,"Coordinates":[4.362886,51.83512],"Attributes":{"name":"Lizzy Ansinghstraat","highway":"unclassified","maxspeed":"30"}},{"Shape":143,"Coordinates":[4.362867,51.83527],"Attributes":{"name":"Lizzy Ansinghstraat","highway":"unclassified","maxspeed":"30"}},{"Shape":144,"Coordinates":[4.363756,51.83563],"Attributes":{"name":"Sientje Mesdag-van Houtenstraat","highway":"residential","maxspeed":"30"}},{"Shape":145,"Coordinates":[4.362482,51.83507],"Attributes":{"name":"Lizzy Ansinghstraat","highway":"residential","maxspeed":"30"}},{"Shape":145,"Coordinates":[4.362459,51.83624],"Attributes":{"name":"Lizzy Ansinghstraat","highway":"residential","maxspeed":"30"}},{"Shape":146,"Coordinates":[4.362,51.83559],"Attributes":{"name":"Marie van Regteren Altenastraat","highway":"residential","maxspeed":"30"}},{"Shape":146,"Coordinates":[4.362269,51.83624],"Attributes":{"name":"Annie Romein-Verschoorlaan","maxspeed":"50","highway":"tertiary"}},{"Shape":149,"Coordinates":[4.362263,51.83449],"Attributes":{"name":"Joke Smitlaan","maxspeed":"50","highway":"tertiary"}},{"Shape":152,"Coordinates":[4.363766,51.83361],"Attributes":{"name":"Annie Romein-Verschoorlaan","maxspeed":"50","highway":"tertiary"}},{"Shape":154,"Coordinates":[4.362726,51.83382],"Attributes":{"name":"Ida Gerhardtplein","highway":"service"}},{"Shape":154,"Coordinates":[4.363036,51.83369],"Attributes":{"name":"Ida Gerhardtplein","highway":"service"}},{"Shape":156,"Coordinates":[4.363036,51.83369],"Attributes":{"name":"Ida Gerhardtplein","highway":"service"}},{"Shape":158,"Coordinates":[4.362961,51.83414],"Attributes":{"name":"Annie Romein-Verschoorlaan","maxspeed":"50","highway":"tertiary"}},{"Shape":161,"Coordinates":[4.364963,51.83293],"Attributes":{"name":"Beylshoflaan","highway":"residential","maxspeed":"30"}},{"Shape":162,"Coordinates":[4.366881,51.83212],"Attributes":{"name":"Annie Romein-Verschoorlaan","maxspeed":"50","highway":"tertiary"}},{"Shape":163,"Coordinates":[4.365887,51.8331],"Attributes":{"name":"Marie van Zeggelenstraat","highway":"residential","maxspeed":"30"}},{"Shape":163,"Coordinates":[4.364795,51.83329],"Attributes":{"name":"Lucretia van Merkenstraat","highway":"residential","maxspeed":"30"}},{"Shape":164,"Coordinates":[4.367011,51.83223],"Attributes":{"name":"Lucretia van Merkenstraat","highway":"residential","maxspeed":"30"}},{"Shape":167,"Coordinates":[4.366846,51.83372],"Attributes":{"name":"Anke Servaesstraat","highway":"residential","maxspeed":"30"}},{"Shape":170,"Coordinates":[4.367285,51.83224],"Attributes":{"name":"Beb Vuykstraat","highway":"residential","maxspeed":"30"}},{"Shape":170,"Coordinates":[4.368437,51.83317],"Attributes":{"name":"Beb Vuykstraat","highway":"residential","maxspeed":"30"}},{"Shape":172,"Coordinates":[4.368437,51.83317],"Attributes":{"name":"Beb Vuykstraat","highway":"residential","maxspeed":"30"}},{"Shape":175,"Coordinates":[4.366681,51.83285],"Attributes":{"name":"Anke Servaesstraat","highway":"residential","maxspeed":"30"}},{"Shape":176,"Coordinates":[4.365999,51.83372],"Attributes":{"name":"Marie van Zeggelenstraat","highway":"residential","maxspeed":"30"}},{"Shape":176,"Coordinates":[4.367658,51.83384],"Attributes":{"name":"Madelon Lulofsstraat","highway":"residential","maxspeed":"30"}},{"Shape":178,"Coordinates":[4.366941,51.83331],"Attributes":{"name":"Anke Servaesstraat","highway":"residential","maxspeed":"30"}},{"Shape":179,"Coordinates":[4.365298,51.83384],"Attributes":{"name":"Marie van Zeggelenstraat","highway":"residential","maxspeed":"30"}},{"Shape":179,"Coordinates":[4.365887,51.8331],"Attributes":{"name":"Marie van Zeggelenstraat","highway":"residential","maxspeed":"30"}},{"Shape":182,"Coordinates":[4.364795,51.83329],"Attributes":{"name":"Lucretia van Merkenstraat","highway":"residential","maxspeed":"30"}},{"Shape":182,"Coordinates":[4.366334,51.83255],"Attributes":{"name":"Lucretia van Merkenstraat","highway":"residential","maxspeed":"30"}},{"Shape":183,"Coordinates":[4.366881,51.83212],"Attributes":{"name":"Annie Romein-Verschoorlaan","maxspeed":"50","highway":"tertiary"}},{"Shape":184,"Coordinates":[4.364963,51.83293],"Attributes":{"name":"Beylshoflaan","highway":"residential","maxspeed":"30"}},{"Shape":187,"Coordinates":[4.363072,51.8339],"Attributes":{"name":"Hadewychplaats","highway":"service"}},{"Shape":190,"Coordinates":[4.362295,51.83504],"Attributes":{"name":"Annie Romein-Verschoorlaan","maxspeed":"50","highway":"tertiary"}},{"Shape":194,"Coordinates":[4.361445,51.8344],"Attributes":{"name":"Margaretha Roosenboomstraat","highway":"residential"}},{"Shape":195,"Coordinates":[4.361255,51.83418],"Attributes":{"name":"Hadewychplaats","highway":"service"}},{"Shape":197,"Coordinates":[4.36026,51.83197],"Attributes":{"name":"Drogendijk","highway":"unclassified","maxspeed":"30"}},{"Shape":197,"Coordinates":[4.360504,51.83558],"Attributes":{"name":"Drogendijk","highway":"unclassified","maxspeed":"30"}},{"Shape":198,"Coordinates":[4.359956,51.83451],"Attributes":{"name":"Clara Visserstraat","highway":"residential","maxspeed":"30"}},{"Shape":198,"Coordinates":[4.359355,51.83421],"Attributes":{"name":"Joke Smitlaan","maxspeed":"50","highway":"tertiary"}},{"Shape":205,"Coordinates":[4.359009,51.83457],"Attributes":{"name":"Annie Mankes-Zernikestraat","highway":"residential","maxspeed":"30"}},{"Shape":206,"Coordinates":[4.358304,51.83594],"Attributes":{"name":"Wilhelmina Bladergroenstraat","highway":"residential","maxspeed":"30"}},{"Shape":206,"Coordinates":[4.358029,51.83479],"Attributes":{"name":"Anna Storm-van der Chijsstraat","highway":"residential","maxspeed":"30"}},{"Shape":209,"Coordinates":[4.356453,51.83565],"Attributes":{"name":"Johanna Westerdijkstraat","highway":"residential","maxspeed":"30"}},{"Shape":210,"Coordinates":[4.356021,51.83622],"Attributes":{"name":"Lau Mazirelstraat","highway":"residential","maxspeed":"30"}},{"Shape":212,"Coordinates":[4.357479,51.83744],"Attributes":{"name":"Wilhelmina Bladergroenstraat","highway":"residential","maxspeed":"30"}},{"Shape":212,"Coordinates":[4.358421,51.83695],"Attributes":{"name":"Maria Rutgers-Hoitsemastraat","highway":"residential","maxspeed":"30"}},{"Shape":214,"Coordinates":[4.358305,51.83854],"Attributes":{"name":"Mary Zeldenrust-Noordanusstraat","highway":"residential","maxspeed":"30"}},{"Shape":214,"Coordinates":[4.358706,51.83696],"Attributes":{"name":"Maria Rutgers-Hoitsemastraat","highway":"residential","maxspeed":"30"}},{"Shape":218,"Coordinates":[4.360314,51.83701],"Attributes":{"name":"Maria Rutgers-Hoitsemastraat","highway":"residential","maxspeed":"30"}},{"Shape":219,"Coordinates":[4.360465,51.83755],"Attributes":{"name":"Liesbeth Tilanusstraat","highway":"residential","maxspeed":"30"}},{"Shape":220,"Coordinates":[4.36062,51.83812],"Attributes":{"name":"Cornelia de Langestraat","highway":"residential","maxspeed":"30"}},{"Shape":221,"Coordinates":[4.358305,51.83854],"Attributes":{"name":"Aletta Jacobsstraat","highway":"residential","maxspeed":"30"}},{"Shape":221,"Coordinates":[4.359298,51.83863],"Attributes":{"name":"Aletta Jacobsstraat","highway":"residential","maxspeed":"30"}},{"Shape":225,"Coordinates":[4.359249,51.83808],"Attributes":{"name":"Hélène Mercierstraat","highway":"residential","maxspeed":"30"}},{"Shape":226,"Coordinates":[4.358421,51.83695],"Attributes":{"name":"Mary Zeldenrust-Noordanusstraat","highway":"residential","maxspeed":"30"}},{"Shape":227,"Coordinates":[4.356521,51.83856],"Attributes":{"name":"Aletta Jacobsstraat","highway":"residential","maxspeed":"30"}},{"Shape":228,"Coordinates":[4.357479,51.83744],"Attributes":{"name":"Wilhelmina Bladergroenstraat","highway":"residential","maxspeed":"30"}},{"Shape":228,"Coordinates":[4.356625,51.83799],"Attributes":{"name":"Catharina van Tussenbroekstraat","highway":"residential","maxspeed":"30"}},{"Shape":230,"Coordinates":[4.357479,51.83744],"Attributes":{"name":"Wilhelmina Bladergroenstraat","highway":"residential","maxspeed":"30"}},{"Shape":231,"Coordinates":[4.358305,51.83854],"Attributes":{"name":"Aletta Jacobsstraat","highway":"residential","maxspeed":"30"}},{"Shape":235,"Coordinates":[4.355865,51.83872],"Attributes":{"name":"Marga Klompéstraat","highway":"residential","maxspeed":"30"}},{"Shape":235,"Coordinates":[4.355722,51.83817],"Attributes":{"name":"Joke Smitlaan","maxspeed":"50","highway":"tertiary"}},{"Shape":236,"Coordinates":[4.356528,51.83948],"Attributes":{"name":"Joke Smitlaan","maxspeed":"50","highway":"tertiary","oneway":"yes"}},{"Shape":239,"Coordinates":[4.356627,51.8395],"Attributes":{"name":"Maaswijkweg","maxspeed":"50","highway":"tertiary","junction":"roundabout"}},{"Shape":241,"Coordinates":[4.35768,51.83932],"Attributes":{"name":"Maaswijkweg","maxspeed":"50","highway":"tertiary","oneway":"yes"}},{"Shape":244,"Coordinates":[4.358794,51.83924],"Attributes":{"name":"Maaswijkweg","maxspeed":"50","highway":"tertiary","oneway":"yes"}},{"Shape":250,"Coordinates":[4.356475,51.83973],"Attributes":{"name":"Maaswijkweg","maxspeed":"50","highway":"tertiary","junction":"roundabout"}},{"Shape":251,"Coordinates":[4.35493,51.84024],"Attributes":{"highway":"service"}},{"Shape":254,"Coordinates":[4.350117,51.84124],"Attributes":{"name":"Maaswijkweg","maxspeed":"50","highway":"tertiary","junction":"roundabout"}},{"Shape":257,"Coordinates":[4.350068,51.8416],"Attributes":{"highway":"unclassified","maxspeed":"50","oneway":"yes"}},{"Shape":259,"Coordinates":[4.350018,51.84171],"Attributes":{"name":"Rivierlaan","highway":"unclassified","maxspeed":"50","oneway":"yes"}},{"Shape":261,"Coordinates":[4.349615,51.84154],"Attributes":{"name":"Maaswijkweg","maxspeed":"50","highway":"tertiary","oneway":"yes"}},{"Shape":265,"Coordinates":[4.348705,51.84158],"Attributes":{"name":"Maaswijkweg","maxspeed":"50","highway":"tertiary","oneway":"yes"}},{"Shape":268,"Coordinates":[4.349833,51.84121],"Attributes":{"name":"Maaswijkweg","maxspeed":"50","highway":"tertiary","junction":"roundabout"}},{"Shape":269,"Coordinates":[4.349949,51.8412],"Attributes":{"name":"Hürthstraat","highway":"unclassified","oneway":"yes"}},{"Shape":270,"Coordinates":[4.349835,51.84094],"Attributes":{"name":"Hürthstraat","highway":"living_street"}},{"Shape":271,"Coordinates":[4.349546,51.84083],"Attributes":{"name":"Thetfordstraat","highway":"living_street"}},{"Shape":273,"Coordinates":[4.349468,51.84029],"Attributes":{"name":"Hürthstraat","highway":"living_street"}},{"Shape":274,"Coordinates":[4.349247,51.84026],"Attributes":{"name":"Hürthstraat","highway":"living_street"}},{"Shape":285,"Coordinates":[4.349468,51.84029],"Attributes":{"name":"Hürthstraat","highway":"living_street"}},{"Shape":287,"Coordinates":[4.349546,51.84083],"Attributes":{"name":"Thetfordstraat","highway":"living_street"}},{"Shape":288,"Coordinates":[4.349835,51.84094],"Attributes":{"name":"Hürthstraat","highway":"living_street"}},{"Shape":289,"Coordinates":[4.349779,51.84123],"Attributes":{"highway":"unclassified","oneway":"yes"}},{"Shape":290,"Coordinates":[4.349833,51.84121],"Attributes":{"name":"Maaswijkweg","maxspeed":"50","highway":"tertiary","junction":"roundabout"}},{"Shape":292,"Coordinates":[4.350151,51.84123],"Attributes":{"name":"Maaswijkweg","maxspeed":"50","highway":"tertiary","oneway":"yes"}},{"Shape":296,"Coordinates":[4.354842,51.84018],"Attributes":{"name":"Maaswijkweg","maxspeed":"50","highway":"tertiary","oneway":"yes"}},{"Shape":299,"Coordinates":[4.35,51.84155],"Attributes":{"name":"Maaswijkweg","maxspeed":"50","highway":"tertiary","junction":"roundabout"}},{"Shape":302,"Coordinates":[4.350018,51.84171],"Attributes":{"name":"Rivierlaan","highway":"unclassified","maxspeed":"50","oneway":"yes"}},{"Shape":303,"Coordinates":[4.348724,51.84186],"Attributes":{"highway":"service"}},{"Shape":303,"Coordinates":[4.350286,51.84183],"Attributes":{"highway":"service"}},{"Shape":304,"Coordinates":[4.35025,51.84265],"Attributes":{"name":"Amazonestraat","highway":"residential"}},{"Shape":304,"Coordinates":[4.3505,51.84262],"Attributes":{"name":"Indusstraat","highway":"residential","maxspeed":"30"}},{"Shape":307,"Coordinates":[4.350658,51.8441],"Attributes":{"name":"Gangesstraat","highway":"unclassified"}},{"Shape":307,"Coordinates":[4.350013,51.8441],"Attributes":{"name":"Coloradostraat","highway":"residential"}},{"Shape":307,"Coordinates":[4.350538,51.84435],"Attributes":{"name":"Rivierlaan","highway":"unclassified","maxspeed":"50"}},{"Shape":311,"Coordinates":[4.349442,51.84301],"Attributes":{"name":"Columbiastraat","highway":"residential","maxspeed":"30"}},{"Shape":313,"Coordinates":[4.347736,51.84357],"Attributes":{"name":"Yukonstraat","highway":"residential","maxspeed":"30"}},{"Shape":315,"Coordinates":[4.348057,51.84476],"Attributes":{"name":"Coloradostraat","highway":"residential"}},{"Shape":315,"Coordinates":[4.347808,51.84441],"Attributes":{"name":"Rio Grandestraat","highway":"residential"}},{"Shape":317,"Coordinates":[4.347808,51.84441],"Attributes":{"name":"Rio Grandestraat","highway":"residential"}},{"Shape":319,"Coordinates":[4.347736,51.84357],"Attributes":{"name":"Yukonstraat","highway":"residential","maxspeed":"30"}},{"Shape":321,"Coordinates":[4.350013,51.8441],"Attributes":{"name":"Coloradostraat","highway":"residential"}},{"Shape":321,"Coordinates":[4.349442,51.84301],"Attributes":{"name":"Columbiastraat","highway":"residential","maxspeed":"30"}},{"Shape":326,"Coordinates":[4.35025,51.84265],"Attributes":{"name":"Amazonestraat","highway":"residential"}},{"Shape":330,"Coordinates":[4.347898,51.8428],"Attributes":{"highway":"residential"}},{"Shape":333,"Coordinates":[4.3471,51.84357],"Attributes":{"name":"Amazonestraat","highway":"residential"}},{"Shape":333,"Coordinates":[4.347736,51.84357],"Attributes":{"name":"Yukonstraat","highway":"residential","maxspeed":"30"}},{"Shape":337,"Coordinates":[4.347736,51.84357],"Attributes":{"name":"Yukonstraat","highway":"residential","maxspeed":"30"}},{"Shape":340,"Coordinates":[4.347898,51.8428],"Attributes":{"highway":"residential"}},{"Shape":344,"Coordinates":[4.349442,51.84301],"Attributes":{"name":"Columbiastraat","highway":"residential","maxspeed":"30"}},{"Shape":347,"Coordinates":[4.3505,51.84262],"Attributes":{"name":"Indusstraat","highway":"residential","maxspeed":"30"}},{"Shape":347,"Coordinates":[4.350522,51.84336],"Attributes":{"name":"Rivierlaan","highway":"unclassified","maxspeed":"50"}},{"Shape":348,"Coordinates":[4.348724,51.84186],"Attributes":{"highway":"service"}},{"Shape":348,"Coordinates":[4.350286,51.84183],"Attributes":{"highway":"service"}},{"Shape":349,"Coordinates":[4.350068,51.8416],"Attributes":{"highway":"unclassified","maxspeed":"50","oneway":"yes"}},{"Shape":352,"Coordinates":[4.35,51.84155],"Attributes":{"name":"Maaswijkweg","maxspeed":"50","highway":"tertiary","junction":"roundabout"}},{"Shape":354,"Coordinates":[4.349615,51.84154],"Attributes":{"name":"Maaswijkweg","maxspeed":"50","highway":"tertiary","oneway":"yes"}},{"Shape":358,"Coordinates":[4.348705,51.84158],"Attributes":{"name":"Maaswijkweg","maxspeed":"50","highway":"tertiary","oneway":"yes"}},{"Shape":361,"Coordinates":[4.349773,51.84107],"Attributes":{"highway":"unclassified","oneway":"yes"}},{"Shape":364,"Coordinates":[4.349773,51.84107],"Attributes":{"name":"Hürthstraat","highway":"unclassified","oneway":"yes"}},{"Shape":366,"Coordinates":[4.350117,51.84124],"Attributes":{"name":"Maaswijkweg","maxspeed":"50","highway":"tertiary","junction":"roundabout"}},{"Shape":372,"Coordinates":[4.356475,51.83973],"Attributes":{"name":"Maaswijkweg","maxspeed":"50","highway":"tertiary","junction":"roundabout"}},{"Shape":375,"Coordinates":[4.356627,51.8395],"Attributes":{"name":"Maaswijkweg","maxspeed":"50","highway":"tertiary","junction":"roundabout"}},{"Shape":378,"Coordinates":[4.356225,51.83888],"Attributes":{"name":"Joke Smitlaan","maxspeed":"50","highway":"tertiary","oneway":"yes"}},{"Shape":379,"Coordinates":[4.356521,51.83856],"Attributes":{"name":"Aletta Jacobsstraat","highway":"residential","maxspeed":"30"}},{"Shape":379,"Coordinates":[4.355722,51.83817],"Attributes":{"name":"Joke Smitlaan","maxspeed":"50","highway":"tertiary"}},{"Shape":380,"Coordinates":[4.355413,51.83882],"Attributes":{"name":"Marga Klompéstraat","highway":"residential","maxspeed":"30"}},{"Shape":380,"Coordinates":[4.355442,51.83807],"Attributes":{"name":"Suze Groenewegstraat","highway":"residential","maxspeed":"30"}},{"Shape":382,"Coordinates":[4.355262,51.83775],"Attributes":{"name":"Suze Groenewegstraat","highway":"residential","maxspeed":"30"}},{"Shape":382,"Coordinates":[4.354567,51.83827],"Attributes":{"name":"Johanna Engwirda-Agricolastraat","highway":"residential","maxspeed":"30"}},{"Shape":386,"Coordinates":[4.355865,51.83872],"Attributes":{"name":"Suze Groenewegstraat","highway":"residential","maxspeed":"30"}},{"Shape":387,"Coordinates":[4.354358,51.83789],"Attributes":{"name":"Johanna Engwirda-Agricolastraat","highway":"residential","maxspeed":"30"}},{"Shape":387,"Coordinates":[4.354502,51.83861],"Attributes":{"name":"Johanna Engwirda-Agricolastraat","highway":"residential","maxspeed":"30"}},{"Shape":399,"Coordinates":[4.355442,51.83807],"Attributes":{"name":"Johanna Engwirda-Agricolastraat","highway":"residential","maxspeed":"30"}},{"Shape":402,"Coordinates":[4.354056,51.83848],"Attributes":{"name":"Liesbeth Ribbius Peletierpad","highway":"residential","maxspeed":"30"}},{"Shape":403,"Coordinates":[4.353249,51.83786],"Attributes":{"name":"Johanna Engwirda-Agricolastraat","highway":"residential","maxspeed":"30"}},{"Shape":403,"Coordinates":[4.353606,51.83847],"Attributes":{"name":"Anna de Waalpad","highway":"residential","maxspeed":"30"}},{"Shape":406,"Coordinates":[4.353225,51.83834],"Attributes":{"name":"Carry Pothuis-Smitstraat","highway":"residential","maxspeed":"30"}},{"Shape":406,"Coordinates":[4.352627,51.83785],"Attributes":{"name":"Truus Smulders-Beliënstraat","highway":"residential","maxspeed":"30"}},{"Shape":407,"Coordinates":[4.354631,51.83735],"Attributes":{"name":"Wilhelmina Hofman-Pootstraat","highway":"residential","maxspeed":"30"}},{"Shape":411,"Coordinates":[4.353416,51.83625],"Attributes":{"name":"Wilhelmina Druckerstraat","highway":"residential","maxspeed":"30"}},{"Shape":411,"Coordinates":[4.352559,51.83601],"Attributes":{"name":"Annette Versluys-Poelmanstraat","highway":"residential","maxspeed":"30"}},{"Shape":414,"Coordinates":[4.354549,51.83569],"Attributes":{"name":"Roosje Vosstraat","highway":"residential","maxspeed":"30"}},{"Shape":415,"Coordinates":[4.35471,51.83656],"Attributes":{"highway":"residential","maxspeed":"30"}},{"Shape":416,"Coordinates":[4.355383,51.83632],"Attributes":{"name":"Wilhelmina Druckerstraat","highway":"residential","maxspeed":"30"}},{"Shape":416,"Coordinates":[4.355661,51.83566],"Attributes":{"name":"Mina Krusemanstraat","highway":"residential","maxspeed":"30"}},{"Shape":420,"Coordinates":[4.35621,51.83526],"Attributes":{"name":"Maria Doorman-Kielstrastraat","highway":"residential","maxspeed":"30"}},{"Shape":421,"Coordinates":[4.356722,51.83442],"Attributes":{"highway":"residential","maxspeed":"30"}},{"Shape":422,"Coordinates":[4.354878,51.83525],"Attributes":{"name":"Roosje Vosstraat","highway":"residential","maxspeed":"30"}},{"Shape":424,"Coordinates":[4.353589,51.83436],"Attributes":{"name":"Annette Versluys-Poelmanstraat","highway":"residential","maxspeed":"30"}},{"Shape":426,"Coordinates":[4.355028,51.83327],"Attributes":{"highway":"residential","maxspeed":"30"}},{"Shape":427,"Coordinates":[4.353489,51.83369],"Attributes":{"name":"Johanna Naberstraat","highway":"residential","maxspeed":"30"}},{"Shape":427,"Coordinates":[4.353667,51.83348],"Attributes":{"name":"Willemijn Posthumusstraat","highway":"residential","maxspeed":"30"}},{"Shape":427,"Coordinates":[4.354767,51.83298],"Attributes":{"name":"Mien Sneevliet-Draaijerstraat","highway":"residential","maxspeed":"30"}},{"Shape":431,"Coordinates":[4.353489,51.83369],"Attributes":{"name":"Johanna Naberstraat","highway":"residential","maxspeed":"30"}},{"Shape":431,"Coordinates":[4.354767,51.83298],"Attributes":{"name":"Mien Sneevliet-Draaijerstraat","highway":"residential","maxspeed":"30"}},{"Shape":432,"Coordinates":[4.355028,51.83327],"Attributes":{"highway":"residential","maxspeed":"30"}},{"Shape":434,"Coordinates":[4.353589,51.83436],"Attributes":{"name":"Annette Versluys-Poelmanstraat","highway":"residential","maxspeed":"30"}},{"Shape":434,"Coordinates":[4.35489,51.83435],"Attributes":{"name":"Maria Doorman-Kielstrastraat","highway":"residential","maxspeed":"30"}},{"Shape":437,"Coordinates":[4.355773,51.83496],"Attributes":{"name":"Maria Doorman-Kielstrastraat","highway":"residential","maxspeed":"30"}},{"Shape":438,"Coordinates":[4.3546,51.8357],"Attributes":{"name":"Roosje Vosstraat","highway":"residential","maxspeed":"30"}},{"Shape":438,"Coordinates":[4.354136,51.83476],"Attributes":{"name":"Theodora Haverstraat","highway":"residential","maxspeed":"30"}},{"Shape":439,"Coordinates":[4.3546,51.83545],"Attributes":{"name":"Roosje Vosstraat","highway":"residential","maxspeed":"30"}},{"Shape":446,"Coordinates":[4.3546,51.8357],"Attributes":{"name":"Roosje Vosstraat","highway":"residential","maxspeed":"30"}},{"Shape":446,"Coordinates":[4.354136,51.83476],"Attributes":{"name":"Theodora Haverstraat","highway":"residential","maxspeed":"30"}},{"Shape":447,"Coordinates":[4.35489,51.83435],"Attributes":{"name":"Maria Doorman-Kielstrastraat","highway":"residential","maxspeed":"30"}},{"Shape":448,"Coordinates":[4.356078,51.83521],"Attributes":{"name":"Maria Doorman-Kielstrastraat","highway":"residential","maxspeed":"30"}},{"Shape":448,"Coordinates":[4.356722,51.83442],"Attributes":{"highway":"residential","maxspeed":"30"}},{"Shape":454,"Coordinates":[4.356118,51.83365],"Attributes":{"name":"Etty Hillesumstraat","highway":"residential","maxspeed":"30"}},{"Shape":455,"Coordinates":[4.358588,51.83418],"Attributes":{"name":"Mies van Oort-Laustraat","highway":"residential","maxspeed":"30"}},{"Shape":456,"Coordinates":[4.357471,51.83462],"Attributes":{"name":"Etty Hillesumstraat","highway":"residential","maxspeed":"30"}},{"Shape":456,"Coordinates":[4.356462,51.83506],"Attributes":{"name":"Joke Smitlaan","maxspeed":"50","highway":"tertiary","oneway":"yes"}},{"Shape":458,"Coordinates":[4.358017,51.83445],"Attributes":{"name":"Joke Smitlaan","maxspeed":"50","highway":"tertiary","oneway":"yes"}},{"Shape":461,"Coordinates":[4.359355,51.83421],"Attributes":{"name":"Joke Smitlaan","maxspeed":"50","highway":"tertiary"}},{"Shape":462,"Coordinates":[4.3593,51.8334],"Attributes":{"name":"Anne Frankstraat","highway":"residential","maxspeed":"30"}},{"Shape":462,"Coordinates":[4.358588,51.83418],"Attributes":{"name":"Mies van Oort-Laustraat","highway":"residential","maxspeed":"30"}},{"Shape":465,"Coordinates":[4.358464,51.83288],"Attributes":{"name":"Hannie Schaftstraat","highway":"residential","maxspeed":"30"}},{"Shape":467,"Coordinates":[4.35925,51.83126],"Attributes":{"name":"Anne Frankstraat","highway":"residential","maxspeed":"30"}},{"Shape":468,"Coordinates":[4.35855,51.83125],"Attributes":{"name":"Anne Frankstraat","highway":"residential","maxspeed":"30"}},{"Shape":469,"Coordinates":[4.35819,51.83139],"Attributes":{"name":"Petronella Brugsmastraat","highway":"residential","maxspeed":"30"}},{"Shape":470,"Coordinates":[4.358144,51.83232],"Attributes":{"name":"Petronella Brugsmastraat","highway":"residential","maxspeed":"30"}},{"Shape":470,"Coordinates":[4.357997,51.83171],"Attributes":{"name":"Zuster Reichertstraat","highway":"residential","maxspeed":"30"}},{"Shape":490,"Coordinates":[4.356006,51.83215],"Attributes":{"name":"Petronella Brugsmastraat","highway":"residential","maxspeed":"30"}},{"Shape":490,"Coordinates":[4.35604,51.83231],"Attributes":{"name":"Mien Sneevliet-Draaijerstraat","highway":"residential","maxspeed":"30","oneway":"yes"}},{"Shape":492,"Coordinates":[4.355672,51.83251],"Attributes":{"name":"Mia van der Wall-Duyvendakstraat","highway":"residential","maxspeed":"30"}},{"Shape":492,"Coordinates":[4.35673,51.83325],"Attributes":{"name":"Jacoba Pulskensstraat","highway":"residential","maxspeed":"30"}},{"Shape":494,"Coordinates":[4.355329,51.8331],"Attributes":{"name":"Etty Hillesumstraat","highway":"residential","maxspeed":"30"}},{"Shape":494,"Coordinates":[4.355093,51.83282],"Attributes":{"name":"Mien Sneevliet-Draaijerstraat","highway":"residential","maxspeed":"30","oneway":"yes"}},{"Shape":495,"Coordinates":[4.354129,51.83141],"Attributes":{"name":"Etty Hillesumstraat","highway":"residential","maxspeed":"30"}},{"Shape":495,"Coordinates":[4.354767,51.83298],"Attributes":{"name":"Mien Sneevliet-Draaijerstraat","highway":"residential","maxspeed":"30"}},{"Shape":503,"Coordinates":[4.354767,51.83298],"Attributes":{"name":"Mien Sneevliet-Draaijerstraat","highway":"residential","maxspeed":"30"}},{"Shape":504,"Coordinates":[4.355162,51.83287],"Attributes":{"name":"Mien Sneevliet-Draaijerstraat","highway":"residential","maxspeed":"30","oneway":"yes"}},{"Shape":504,"Coordinates":[4.355093,51.83282],"Attributes":{"name":"Mien Sneevliet-Draaijerstraat","highway":"residential","maxspeed":"30","oneway":"yes"}},{"Shape":505,"Coordinates":[4.355028,51.83327],"Attributes":{"highway":"residential","maxspeed":"30"}},{"Shape":506,"Coordinates":[4.356118,51.83365],"Attributes":{"name":"Etty Hillesumstraat","highway":"residential","maxspeed":"30"}},{"Shape":507,"Coordinates":[4.355743,51.83256],"Attributes":{"name":"Jacoba Pulskensstraat","highway":"residential","maxspeed":"30"}},{"Shape":507,"Coordinates":[4.357482,51.83284],"Attributes":{"name":"Hannie Schaftstraat","highway":"residential","maxspeed":"30"}},{"Shape":507,"Coordinates":[4.35724,51.83361],"Attributes":{"name":"Trix Terwindtstraat","highway":"residential","maxspeed":"30"}},{"Shape":510,"Coordinates":[4.358418,51.83335],"Attributes":{"name":"Trix Terwindtstraat","highway":"residential","maxspeed":"30"}},{"Shape":511,"Coordinates":[4.359152,51.83241],"Attributes":{"name":"Anne Frankstraat","highway":"residential","maxspeed":"30"}},{"Shape":513,"Coordinates":[4.358588,51.83418],"Attributes":{"name":"Mies van Oort-Laustraat","highway":"residential","maxspeed":"30"}},{"Shape":514,"Coordinates":[4.358867,51.83425],"Attributes":{"name":"Joke Smitlaan","maxspeed":"50","highway":"tertiary"}},{"Shape":516,"Coordinates":[4.359956,51.83451],"Attributes":{"name":"Clara Visserstraat","highway":"residential","maxspeed":"30"}},{"Shape":517,"Coordinates":[4.36026,51.83197],"Attributes":{"name":"Drogendijk","highway":"unclassified","maxspeed":"30"}},{"Shape":517,"Coordinates":[4.360504,51.83558],"Attributes":{"name":"Drogendijk","highway":"unclassified","maxspeed":"30"}},{"Shape":519,"Coordinates":[4.361255,51.83418],"Attributes":{"name":"Hadewychplaats","highway":"service"}},{"Shape":520,"Coordinates":[4.361663,51.83434],"Attributes":{"name":"Joke Smitlaan","maxspeed":"50","highway":"tertiary"}},{"Shape":521,"Coordinates":[4.361462,51.83443],"Attributes":{"name":"Margaretha Roosenboomstraat","highway":"residential","maxspeed":"30"}},{"Shape":525,"Coordinates":[4.361384,51.83525],"Attributes":{"name":"Margaretha Roosenboomstraat","highway":"residential"}},{"Shape":526,"Coordinates":[4.361636,51.83525],"Attributes":{"name":"Margaretha Roosenboomstraat","highway":"residential"}},{"Shape":529,"Coordinates":[4.361384,51.83525],"Attributes":{"name":"Margaretha Roosenboomstraat","highway":"residential"}},{"Shape":533,"Coordinates":[4.361462,51.83443],"Attributes":{"name":"Margaretha Roosenboomstraat","highway":"residential","maxspeed":"30"}},{"Shape":534,"Coordinates":[4.361216,51.83426],"Attributes":{"name":"Joke Smitlaan","maxspeed":"50","highway":"tertiary"}},{"Shape":538,"Coordinates":[4.362716,51.8344],"Attributes":{"name":"Annie Romein-Verschoorlaan","maxspeed":"50","highway":"tertiary"}},{"Shape":541,"Coordinates":[4.362383,51.8356],"Attributes":{"name":"Sientje Mesdag-van Houtenstraat","highway":"residential","maxspeed":"30"}},{"Shape":541,"Coordinates":[4.362,51.83559],"Attributes":{"name":"Marie van Regteren Altenastraat","highway":"residential","maxspeed":"30"}},{"Shape":541,"Coordinates":[4.362269,51.83624],"Attributes":{"name":"Annie Romein-Verschoorlaan","maxspeed":"50","highway":"tertiary"}},{"Shape":543,"Coordinates":[4.362383,51.8356],"Attributes":{"name":"Sientje Mesdag-van Houtenstraat","highway":"residential","maxspeed":"30"}},{"Shape":543,"Coordinates":[4.362295,51.83504],"Attributes":{"name":"Annie Romein-Verschoorlaan","maxspeed":"50","highway":"tertiary"}},{"Shape":544,"Coordinates":[4.361133,51.83561],"Attributes":{"name":"Marie van Regteren Altenastraat","highway":"residential","maxspeed":"30"}},{"Shape":544,"Coordinates":[4.361462,51.83443],"Attributes":{"name":"Margaretha Roosenboomstraat","highway":"residential","maxspeed":"30"}},{"Shape":544,"Coordinates":[4.36209,51.83628],"Attributes":{"name":"Margaretha Roosenboomstraat","highway":"residential","maxspeed":"30"}},{"Shape":547,"Coordinates":[4.362408,51.83788],"Attributes":{"name":"Ida Wassermanstraat","highway":"residential","maxspeed":"30"}},{"Shape":547,"Coordinates":[4.361285,51.83695],"Attributes":{"name":"Mimi Boesnachstraat","highway":"residential","maxspeed":"30"}},{"Shape":547,"Coordinates":[4.362395,51.83686],"Attributes":{"name":"Mimi Boesnachstraat","highway":"residential","maxspeed":"30"}},{"Shape":549,"Coordinates":[4.361285,51.83695],"Attributes":{"name":"Mimi Boesnachstraat","highway":"residential","maxspeed":"30"}},{"Shape":549,"Coordinates":[4.36209,51.83628],"Attributes":{"name":"Margaretha Roosenboomstraat","highway":"residential","maxspeed":"30"}},{"Shape":550,"Coordinates":[4.362269,51.83624],"Attributes":{"name":"Annie Romein-Verschoorlaan","maxspeed":"50","highway":"tertiary"}},{"Shape":550,"Coordinates":[4.362519,51.83747],"Attributes":{"name":"Annie Romein-Verschoorlaan","maxspeed":"50","highway":"tertiary"}},{"Shape":551,"Coordinates":[4.363842,51.83675],"Attributes":{"name":"Theo Mann-Bouwmeesterstraat","highway":"residential","maxspeed":"30"}},{"Shape":551,"Coordinates":[4.362459,51.83624],"Attributes":{"name":"Lizzy Ansinghstraat","highway":"residential","maxspeed":"30"}},{"Shape":552,"Coordinates":[4.363731,51.83709],"Attributes":{"name":"Magda Janssenstraat","highway":"residential","maxspeed":"30","oneway":"yes"}},{"Shape":553,"Coordinates":[4.363787,51.83738],"Attributes":{"name":"Fie Carelsenstraat","highway":"residential","maxspeed":"30","oneway":"yes"}},{"Shape":554,"Coordinates":[4.362813,51.83805],"Attributes":{"name":"Maria Kleine-Gartmanstraat","highway":"residential","maxspeed":"30"}},{"Shape":554,"Coordinates":[4.363823,51.83765],"Attributes":{"name":"Annie van Eesstraat","highway":"residential","maxspeed":"30","oneway":"yes"}},{"Shape":556,"Coordinates":[4.363896,51.83796],"Attributes":{"name":"Charlotte Köhlerstraat","highway":"residential","maxspeed":"30","oneway":"yes"}},{"Shape":557,"Coordinates":[4.363446,51.83828],"Attributes":{"name":"Fien de la Marstraat","highway":"residential","maxspeed":"30"}},{"Shape":562,"Coordinates":[4.364714,51.83876],"Attributes":{"name":"Maria Kleine-Gartmanstraat","highway":"residential","maxspeed":"30"}},{"Shape":562,"Coordinates":[4.363836,51.83839],"Attributes":{"name":"Fien de la Marstraat","highway":"residential","maxspeed":"30"}},{"Shape":564,"Coordinates":[4.36481,51.83882],"Attributes":{"name":"Maria Kleine-Gartmanstraat","highway":"residential","maxspeed":"30"}},{"Shape":565,"Coordinates":[4.365851,51.83851],"Attributes":{"name":"Vera Bondamstraat","highway":"residential","maxspeed":"30"}},{"Shape":566,"Coordinates":[4.36574,51.83821],"Attributes":{"name":"Else Mauhsstraat","highway":"residential","maxspeed":"30"}},{"Shape":567,"Coordinates":[4.364458,51.83731],"Attributes":{"name":"Esther de Boer-van Rijkstraat","highway":"residential","maxspeed":"30"}},{"Shape":568,"Coordinates":[4.365455,51.83734],"Attributes":{"name":"Ronnie Biermanstraat","highway":"residential","maxspeed":"30"}},{"Shape":569,"Coordinates":[4.365883,51.83719],"Attributes":{"name":"Corrie Vonkplantsoen","highway":"residential","maxspeed":"30"}},{"Shape":569,"Coordinates":[4.365971,51.83768],"Attributes":{"name":"Corrie Vonkplantsoen","highway":"residential","maxspeed":"30"}}]}