{"Shape":[[4.323625,51.82804],[4.3238,51.8281],[4.323964,51.82794],[4.323978,51.82785],[4.323929,51.82782],[4.324032,51.8278],[4.324051,51.82774],[4.324228,51.82755],[4.32445,51.82742],[4.324635,51.82752],[4.325648,51.82758],[4.326152,51.82763],[4.326246,51.82762],[4.326326,51.82755],[4.326459,51.82742],[4.326574,51.82732],[4.326578,51.82731],[4.327075,51.82685],[4.327601,51.82707],[4.327955,51.82675],[4.3283,51.82676],[4.328506,51.82678],[4.3285,51.8269],[4.32848,51.82714],[4.3287,51.8275],[4.329133,51.82769],[4.329199,51.82771],[4.329133,51.82769],[4.3287,51.8275],[4.32848,51.82714],[4.3285,51.8269],[4.328506,51.82678],[4.32921,51.82681],[4.329642,51.8264],[4.329827,51.82649],[4.33096,51.82693],[4.331447,51.82714],[4.331119,51.82741],[4.33076,51.82779],[4.330727,51.82787],[4.330682,51.82795],[4.330356,51.82829],[4.330429,51.82832],[4.331422,51.82874],[4.331116,51.82903],[4.330764,51.82922],[4.330435,51.82941],[4.330293,51.8293],[4.330207,51.82924],[4.329662,51.829],[4.329456,51.82892],[4.329662,51.829],[4.330064,51.82854],[4.330356,51.82829],[4.330682,51.82795],[4.330727,51.82787],[4.33076,51.82779],[4.331119,51.82741],[4.331447,51.82714],[4.331657,51.82722],[4.33187,51.82724],[4.332062,51.82724],[4.332664,51.82726],[4.332792,51.82726],[4.333635,51.82729],[4.333645,51.82717],[4.333664,51.82705],[4.333744,51.8268],[4.33385,51.82658],[4.333961,51.8264],[4.33405,51.82627],[4.334378,51.82594],[4.335342,51.82512],[4.335522,51.82494],[4.336068,51.82415],[4.336126,51.82407],[4.336066,51.82405],[4.336001,51.82398],[4.336003,51.82393],[4.336028,51.82389],[4.335911,51.82384],[4.334841,51.82349],[4.334756,51.82359],[4.334716,51.82365],[4.334577,51.82385],[4.3334,51.8235],[4.332743,51.82334],[4.332283,51.82323],[4.332163,51.82327],[4.331876,51.82364],[4.331853,51.82368],[4.331876,51.82364],[4.332163,51.82327],[4.332283,51.82323],[4.332743,51.82334],[4.3334,51.8235],[4.334577,51.82385],[4.334716,51.82365],[4.334756,51.82359],[4.334841,51.82349],[4.335911,51.82384],[4.336028,51.82389],[4.33609,51.82385],[4.336174,51.82383],[4.336262,51.82384],[4.336315,51.82386],[4.336358,51.82388],[4.336389,51.82391],[4.336401,51.82398],[4.336381,51.82402],[4.336499,51.82405],[4.33668,51.82414],[4.33679,51.82429],[4.336846,51.82446],[4.336892,51.82459],[4.336991,51.8247],[4.337099,51.82479],[4.337746,51.82512],[4.337956,51.8252],[4.338127,51.82525],[4.338193,51.82534],[4.338586,51.82557],[4.338606,51.82558],[4.338667,51.82562],[4.340603,51.82642],[4.340839,51.82645],[4.341228,51.82641],[4.341273,51.82649],[4.341389,51.82682],[4.3417,51.8268],[4.3422,51.82679],[4.342414,51.82681],[4.342551,51.82685],[4.342699,51.82686],[4.342846,51.82686],[4.342914,51.82685],[4.342882,51.82694],[4.342914,51.82685],[4.343071,51.82683],[4.343616,51.82676],[4.34544,51.82673],[4.345498,51.8264],[4.345333,51.82642],[4.344657,51.82649],[4.344408,51.82651],[4.344432,51.8264],[4.344509,51.82603],[4.345376,51.82465],[4.344595,51.82444],[4.345376,51.82465],[4.345696,51.82476],[4.3461,51.8249],[4.346175,51.82483],[4.3461,51.8249],[4.346587,51.82507],[4.347044,51.82518],[4.347862,51.82531],[4.347973,51.82533],[4.348367,51.82538],[4.347973,51.82533],[4.347862,51.82531],[4.347044,51.82518],[4.346753,51.8257],[4.346719,51.82622],[4.346717,51.82624],[4.346737,51.82638],[4.346358,51.82637],[4.345498,51.8264],[4.34544,51.82673],[4.343616,51.82676],[4.343071,51.82683],[4.342914,51.82685],[4.342846,51.82686],[4.342699,51.82686],[4.342551,51.82685],[4.342414,51.82681],[4.3422,51.82679],[4.3417,51.8268],[4.3419,51.82639],[4.34261,51.82515],[4.342735,51.82499],[4.34261,51.82515],[4.341987,51.82624],[4.34261,51.82515],[4.343371,51.8242],[4.342718,51.8241],[4.342631,51.82408],[4.342392,51.82404],[4.342094,51.82398],[4.341346,51.82405],[4.340723,51.82417],[4.340543,51.82424],[4.340341,51.82455],[4.340148,51.82472],[4.339321,51.82494],[4.339457,51.82515],[4.339618,51.8252],[4.340388,51.82536],[4.340495,51.82538],[4.340618,51.82541],[4.340495,51.82538],[4.340388,51.82536],[4.339618,51.8252],[4.339457,51.82515],[4.339321,51.82494],[4.339011,51.82504],[4.338372,51.8252],[4.338127,51.82525],[4.337956,51.8252],[4.337746,51.82512],[4.337099,51.82479],[4.336991,51.8247],[4.336892,51.82459],[4.336846,51.82446],[4.33679,51.82429],[4.33668,51.82414],[4.336499,51.82405],[4.336381,51.82402],[4.336336,51.82405],[4.336199,51.82409],[4.336126,51.82407],[4.336068,51.82415],[4.335522,51.82494],[4.335342,51.82512],[4.334378,51.82594],[4.33405,51.82627],[4.333961,51.8264],[4.33385,51.82658],[4.333744,51.8268],[4.333664,51.82705],[4.333645,51.82717],[4.333635,51.82729],[4.332792,51.82726],[4.332664,51.82726],[4.33187,51.82724],[4.331889,51.82714],[4.332015,51.82701],[4.33219,51.82686],[4.332633,51.82648],[4.33267,51.82645],[4.332827,51.8263],[4.333327,51.82583],[4.333529,51.82565],[4.3326,51.82527],[4.332518,51.82497],[4.332428,51.82493],[4.332235,51.82495],[4.332095,51.82497],[4.331566,51.82503],[4.331062,51.82549],[4.330714,51.82558],[4.330599,51.82568],[4.330424,51.82561],[4.330135,51.82549],[4.330122,51.82536],[4.330196,51.82535],[4.330313,51.82524],[4.330194,51.82519],[4.330144,51.82495],[4.330244,51.82487],[4.330024,51.82478],[4.329967,51.8244],[4.329338,51.82444],[4.329267,51.82452],[4.328756,51.82455],[4.329267,51.82452],[4.329338,51.82444],[4.329967,51.8244],[4.330024,51.82478],[4.330244,51.82487],[4.330144,51.82495],[4.330194,51.82519],[4.330313,51.82524],[4.330196,51.82535],[4.330122,51.82536],[4.330135,51.82549],[4.330424,51.82561],[4.330363,51.82567],[4.330359,51.82567],[4.330073,51.82594],[4.330017,51.82604],[4.329928,51.82612],[4.329642,51.8264],[4.329519,51.82633],[4.329319,51.82624],[4.329207,51.82624],[4.329189,51.82618],[4.329207,51.82624],[4.329098,51.82625],[4.328909,51.82643],[4.328842,51.82646],[4.328746,51.82647],[4.328321,51.82647],[4.327702,51.82644],[4.327579,51.82644],[4.327452,51.82648],[4.327274,51.82667],[4.327075,51.82685],[4.326947,51.8268],[4.327075,51.82685],[4.326459,51.82742],[4.326326,51.82755],[4.326246,51.82762],[4.326152,51.82763],[4.325648,51.82758],[4.324635,51.82752],[4.32445,51.82742],[4.324352,51.82729],[4.324353,51.82724],[4.324549,51.82706],[4.324645,51.82698],[4.324591,51.82695],[4.324645,51.82698],[4.324769,51.82686],[4.324896,51.82674],[4.32495,51.82668],[4.3249,51.8266],[4.324084,51.82627],[4.324549,51.82586],[4.325205,51.82614],[4.32558,51.8258],[4.325654,51.82572],[4.325709,51.82571],[4.32597,51.82549],[4.325709,51.82571],[4.325654,51.82572],[4.324994,51.82545],[4.324544,51.82525],[4.324535,51.82526],[4.324481,51.82527],[4.323082,51.82571],[4.322707,51.82604],[4.322643,51.8261],[4.322271,51.82625],[4.322172,51.82629],[4.32182,51.82644],[4.32108,51.82668],[4.320981,51.82671],[4.32095,51.82671],[4.320851,51.82719],[4.320894,51.82724],[4.320767,51.82735],[4.320676,51.82753],[4.320607,51.82765],[4.32025,51.82798],[4.320175,51.8282],[4.319719,51.82866],[4.319564,51.82862],[4.319398,51.82874],[4.319112,51.82903],[4.3196,51.8292],[4.319678,51.82932],[4.3197,51.8294],[4.320009,51.82952],[4.320292,51.82962],[4.320328,51.82964],[4.320348,51.82964],[4.3205,51.8297],[4.320771,51.82981],[4.321562,51.83012],[4.322044,51.82968],[4.322126,51.82971],[4.322044,51.82968],[4.321562,51.83012],[4.320771,51.82981],[4.320288,51.83024],[4.320295,51.83033],[4.320365,51.83053],[4.320485,51.83075],[4.320511,51.83083],[4.320485,51.83075],[4.320365,51.83053],[4.320295,51.83033],[4.320288,51.83024],[4.319713,51.83031],[4.3192,51.8304],[4.318905,51.83068],[4.318375,51.83117],[4.318245,51.83133],[4.318063,51.8315],[4.317719,51.8318],[4.317508,51.8321],[4.317215,51.83207],[4.317102,51.83206],[4.316184,51.83197],[4.315844,51.83194],[4.315454,51.83191],[4.315334,51.83186],[4.315286,51.83182],[4.315272,51.83174],[4.315341,51.83139],[4.315196,51.83126],[4.314439,51.83104],[4.313993,51.83092],[4.31342,51.83075],[4.312895,51.8306],[4.312871,51.83063],[4.312492,51.83113],[4.312871,51.83063],[4.312895,51.8306],[4.312179,51.83036],[4.311956,51.83028],[4.311861,51.83015],[4.31181,51.83003],[4.312047,51.82973],[4.312156,51.82977],[4.312047,51.82973],[4.31181,51.83003],[4.311861,51.83015],[4.311956,51.83028],[4.312179,51.83036],[4.312139,51.83042],[4.311629,51.83107],[4.31166,51.83118],[4.311706,51.83121],[4.311726,51.83125],[4.311714,51.8313],[4.311377,51.83171],[4.311354,51.8319],[4.311369,51.83208],[4.311313,51.83216],[4.3111,51.8324],[4.3104,51.8322],[4.310345,51.83225],[4.31,51.8327],[4.309956,51.83276],[4.309976,51.83276],[4.3101,51.8328],[4.3105,51.8329],[4.310278,51.83334],[4.310574,51.8334],[4.310595,51.8334],[4.310574,51.8334],[4.310278,51.83334],[4.3105,51.8329],[4.3101,51.8328],[4.309956,51.83276],[4.31,51.8327],[4.310345,51.83225],[4.3104,51.8322],[4.3111,51.8324],[4.311313,51.83216],[4.311369,51.83208],[4.311354,51.8319],[4.311377,51.83171],[4.311714,51.8313],[4.311726,51.83125],[4.311706,51.83121],[4.31166,51.83118],[4.311045,51.83103],[4.310897,51.83098],[4.310841,51.83096],[4.3103,51.8308],[4.3102,51.8307],[4.310424,51.83036],[4.310561,51.8302],[4.310561,51.8302],[4.310561,51.8302],[4.310424,51.83036],[4.309793,51.83016],[4.310177,51.82966],[4.310244,51.82963],[4.310635,51.82913],[4.310569,51.82904],[4.310726,51.82884],[4.310816,51.82873],[4.311817,51.82867],[4.312079,51.82864],[4.312039,51.82847],[4.3127,51.82841],[4.312694,51.82837],[4.3127,51.82841],[4.313531,51.82862],[4.313651,51.82849],[4.3143,51.8287],[4.314325,51.82867],[4.3143,51.8287],[4.314403,51.82874],[4.314411,51.82878],[4.313951,51.82935],[4.314341,51.82946],[4.314004,51.82993],[4.313996,51.82993],[4.3138,51.8301],[4.313619,51.83037],[4.313622,51.83051],[4.313481,51.83067],[4.31342,51.83075],[4.313993,51.83092],[4.314439,51.83104],[4.315196,51.83126],[4.315222,51.83123],[4.315257,51.83118],[4.315222,51.83123],[4.315196,51.83126],[4.315341,51.83139],[4.315272,51.83174],[4.315286,51.83182],[4.315334,51.83186],[4.315454,51.83191],[4.315844,51.83194],[4.315817,51.83203],[4.315722,51.83256],[4.315658,51.83283],[4.316317,51.83288],[4.316851,51.83292],[4.316317,51.83288],[4.315658,51.83283],[4.315717,51.83258],[4.315722,51.83256],[4.315817,51.83203],[4.315844,51.83194],[4.316184,51.83197],[4.317102,51.83206],[4.317125,51.83195],[4.317163,51.83176],[4.317125,51.83195],[4.317102,51.83206],[4.317215,51.83207],[4.317508,51.8321],[4.317451,51.83236],[4.317508,51.8321],[4.317719,51.8318],[4.318063,51.8315],[4.318245,51.83133],[4.318407,51.83141],[4.318482,51.83144],[4.318594,51.83147],[4.319433,51.83155],[4.319611,51.83156],[4.319842,51.83157],[4.319839,51.83158],[4.319842,51.83157],[4.319611,51.83156],[4.319433,51.83155],[4.318594,51.83147],[4.318407,51.83141],[4.318245,51.83133],[4.318375,51.83117],[4.318905,51.83068],[4.3192,51.8304],[4.318602,51.83013],[4.318447,51.83006],[4.317927,51.82984],[4.31764,51.83009],[4.317563,51.83021],[4.31764,51.83009],[4.317927,51.82984],[4.3179,51.8297],[4.317315,51.82947],[4.317045,51.82946],[4.316325,51.82922],[4.316325,51.82922],[4.316508,51.82901],[4.316429,51.82885],[4.316552,51.82873],[4.316682,51.82869],[4.316874,51.82851],[4.316949,51.82843],[4.317934,51.82849],[4.31817,51.82857],[4.318342,51.8285],[4.319132,51.82821],[4.3194,51.828],[4.319579,51.82809],[4.320042,51.82767],[4.320178,51.82741],[4.320266,51.82742],[4.320676,51.82753],[4.320607,51.82765],[4.320794,51.82771],[4.321002,51.82779],[4.3214,51.82795],[4.321916,51.82817],[4.322241,51.82782],[4.322273,51.82777],[4.322984,51.82807],[4.323168,51.82816],[4.323351,51.82816],[4.3235,51.828],[4.323625,51.82804]],"ShapeMeta":[{"Shape":0,"Attributes":{"profile":"car"}},{"Shape":2,"Attributes":{"name":"Vlotgras","highway":"unclassified","profile":"car","distance":"34.35809","time":"3.298377"}},{"Shape":4,"Attributes":{"name":"Vlotgras","highway":"unclassified","profile":"car","distance":"48.85809","time":"4.690377"}},{"Shape":8,"Attributes":{"name":"Borstelgras","highway":"unclassified","profile":"car","distance":"108.2581","time":"10.39278"}},{"Shape":9,"Attributes":{"name":"Fakkelgras","maxspeed":"30","highway":"tertiary","profile":"car","distance":"125.0581","time":"13.08078"}},{"Shape":14,"Attributes":{"name":"Kreek","maxspeed":"30","highway":"tertiary","profile":"car","distance":"263.0581","time":"35.16078"}},{"Shape":15,"Attributes":{"name":"Kreek","maxspeed":"30","highway":"tertiary","profile":"car","distance":"277.3118","time":"37.44137"}},{"Shape":16,"Attributes":{"name":"Kreek","maxspeed":"30","highway":"tertiary","profile":"car","distance":"277.7177","time":"217.5063"}},{"Shape":17,"Attributes":{"name":"Kreek","maxspeed":"30","highway":"tertiary","profile":"car","distance":"339.0581","time":"407.3207"}},{"Shape":19,"Attributes":{"name":"Nomadenkreek","highway":"unclassified","maxspeed":"30","profile":"car","distance":"425.4581","time":"421.1447"}},{"Shape":21,"Attributes":{"name":"Kreek","highway":"unclassified","maxspeed":"30","profile":"car","distance":"463.4581","time":"427.2248"}},{"Shape":26,"Attributes":{"name":"Erosiekreek","highway":"unclassified","maxspeed":"30","profile":"car","distance":"588.0841","time":"447.1649"}},{"Shape":31,"Attributes":{"name":"Erosiekreek","highway":"unclassified","maxspeed":"30","profile":"car","distance":"712.7101","time":"647.1051"}},{"Shape":33,"Attributes":{"name":"IJzertijdkreek","highway":"unclassified","maxspeed":"30","profile":"car","distance":"815.4101","time":"663.5371"}},{"Shape":36,"Attributes":{"name":"Kreek","maxspeed":"50","highway":"tertiary","profile":"car","distance":"964.3101","time":"677.8315"}},{"Shape":37,"Attributes":{"name":"Ebkreek","maxspeed":"30","highway":"tertiary","profile":"car","distance":"1001.91","time":"683.8475"}},{"Shape":38,"Attributes":{"name":"Ebkreek","maxspeed":"30","highway":"tertiary","profile":"car","distance":"1051.31","time":"691.7515"}},{"Shape":39,"Attributes":{"name":"Ebkreek","maxspeed":"30","highway":"tertiary","profile":"car","distance":"1059.61","time":"693.0795"}},{"Shape":41,"Attributes":{"name":"Wijngaard","maxspeed":"30","highway":"tertiary","profile":"car","distance":"1112.91","time":"701.6075"}},{"Shape":42,"Attributes":{"name":"Medocgaard","highway":"unclassified","profile":"car","distance":"1118.986","time":"702.1908"}},{"Shape":43,"Attributes":{"name":"Medocgaard","highway":"unclassified","profile":"car","distance":"1201.81","time":"890.1419"}},{"Shape":46,"Attributes":{"name":"Egergaard","highway":"unclassified","profile":"car","distance":"1303.71","time":"899.9243"}},{"Shape":47,"Attributes":{"name":"Muskadetgaard","highway":"unclassified","profile":"car","distance":"1319.462","time":"901.4365"}},{"Shape":49,"Attributes":{"name":"Muskadetgaard","highway":"unclassified","profile":"car","distance":"1374.51","time":"1086.722"}},{"Shape":50,"Attributes":{"name":"Falernogaard","highway":"unclassified","profile":"car","distance":"1391.319","time":"1088.335"}},{"Shape":51,"Attributes":{"name":"Falernogaard","highway":"unclassified","profile":"car","distance":"1408.129","time":"1269.949"}},{"Shape":52,"Attributes":{"name":"Wijngaard","maxspeed":"30","highway":"tertiary","profile":"car","distance":"1466.329","time":"1279.261"}},{"Shape":53,"Attributes":{"name":"Wijngaard","maxspeed":"30","highway":"tertiary","profile":"car","distance":"1501.029","time":"1284.813"}},{"Shape":55,"Attributes":{"name":"Wijngaard","maxspeed":"30","highway":"tertiary","profile":"car","distance":"1554.329","time":"1293.341"}},{"Shape":56,"Attributes":{"name":"Ebkreek","maxspeed":"30","highway":"tertiary","profile":"car","distance":"1562.629","time":"1294.669"}},{"Shape":57,"Attributes":{"name":"Ebkreek","maxspeed":"30","highway":"tertiary","profile":"car","distance":"1612.029","time":"1302.573"}},{"Shape":58,"Attributes":{"name":"Ebkreek","maxspeed":"30","highway":"tertiary","profile":"car","distance":"1649.629","time":"1308.589"}},{"Shape":60,"Attributes":{"name":"Kreek","maxspeed":"50","highway":"tertiary","profile":"car","distance":"1681.529","time":"1311.651"}},{"Shape":61,"Attributes":{"name":"Kreek","maxspeed":"50","highway":"tertiary","profile":"car","distance":"1694.699","time":"1312.915"}},{"Shape":63,"Attributes":{"name":"Kreek","maxspeed":"50","highway":"tertiary","profile":"car","distance":"1744.928","time":"1497.738"}},{"Shape":64,"Attributes":{"name":"Kreek","maxspeed":"50","highway":"tertiary","profile":"car","distance":"1802.928","time":"1503.306"}},{"Shape":69,"Attributes":{"name":"Hekelingseweg","maxspeed":"50","highway":"secondary","profile":"car","distance":"1904.828","time":"1513.089"}},{"Shape":75,"Attributes":{"name":"Hekelingseweg","maxspeed":"50","highway":"secondary","profile":"car","distance":"2205.128","time":"1541.917"}},{"Shape":79,"Attributes":{"name":"Hekelingseweg","junction":"roundabout","maxspeed":"80","highway":"secondary","profile":"car","distance":"2228.928","time":"1543.345"}},{"Shape":81,"Attributes":{"name":"Westdijk","maxspeed":"80","highway":"secondary","profile":"car","distance":"2321.928","time":"1548.925"}},{"Shape":84,"Attributes":{"name":"Wachthoevestraat","highway":"unclassified","maxspeed":"30","profile":"car","distance":"2365.329","time":"1555.869"}},{"Shape":85,"Attributes":{"name":"Moleneind","highway":"unclassified","maxspeed":"30","profile":"car","distance":"2454.928","time":"1570.205"}},{"Shape":86,"Attributes":{"name":"Moleneind","highway":"unclassified","maxspeed":"30","profile":"car","distance":"2503.428","time":"1577.965"}},{"Shape":87,"Attributes":{"name":"Moleneind","highway":"unclassified","maxspeed":"30","profile":"car","distance":"2537.428","time":"1583.405"}},{"Shape":89,"Attributes":{"name":"Visserskreek","highway":"unclassified","maxspeed":"30","profile":"car","distance":"2593.029","time":"1592.301"}},{"Shape":90,"Attributes":{"name":"Visserskreek","highway":"unclassified","maxspeed":"30","profile":"car","distance":"2597.963","time":"1593.091"}},{"Shape":91,"Attributes":{"name":"Visserskreek","highway":"unclassified","maxspeed":"30","profile":"car","distance":"2602.897","time":"1773.88"}},{"Shape":93,"Attributes":{"name":"Visserskreek","highway":"unclassified","maxspeed":"30","profile":"car","distance":"2658.497","time":"1782.776"}},{"Shape":94,"Attributes":{"name":"Moleneind","highway":"unclassified","maxspeed":"30","profile":"car","distance":"2692.497","time":"1788.216"}},{"Shape":95,"Attributes":{"name":"Moleneind","highway":"unclassified","maxspeed":"30","profile":"car","distance":"2740.997","time":"1795.976"}},{"Shape":96,"Attributes":{"name":"Moleneind","highway":"unclassified","maxspeed":"30","profile":"car","distance":"2830.597","time":"1810.313"}},{"Shape":99,"Attributes":{"name":"Wachthoevestraat","highway":"unclassified","maxspeed":"30","profile":"car","distance":"2873.997","time":"1817.256"}},{"Shape":101,"Attributes":{"name":"Westdijk","maxspeed":"80","highway":"secondary","profile":"car","distance":"2966.997","time":"1822.836"}},{"Shape":104,"Attributes":{"name":"Hekelingseweg","junction":"roundabout","maxspeed":"80","highway":"secondary","profile":"car","distance":"2985.497","time":"1823.946"}},{"Shape":109,"Attributes":{"name":"Hekelingseweg","junction":"roundabout","maxspeed":"80","highway":"secondary","profile":"car","distance":"3009.797","time":"1825.404"}},{"Shape":110,"Attributes":{"name":"Dorpsstraat","maxspeed":"30","highway":"tertiary","profile":"car","distance":"3018.697","time":"1826.828"}},{"Shape":114,"Attributes":{"name":"Dorpsstraat","maxspeed":"30","highway":"tertiary","profile":"car","distance":"3086.897","time":"1837.74"}},{"Shape":115,"Attributes":{"name":"Dorpsstraat","maxspeed":"30","highway":"tertiary","profile":"car","distance":"3100.497","time":"1839.917"}},{"Shape":117,"Attributes":{"name":"Dorpsstraat","maxspeed":"30","highway":"tertiary","profile":"car","distance":"3170.597","time":"1851.132"}},{"Shape":119,"Attributes":{"name":"Dorpsstraat","maxspeed":"30","highway":"tertiary","profile":"car","distance":"3200.797","time":"1855.964"}},{"Shape":122,"Attributes":{"name":"Dorpsstraat","highway":"residential","maxspeed":"30","profile":"car","distance":"3251.197","time":"1864.028"}},{"Shape":126,"Attributes":{"name":"Dorpsstraat","highway":"residential","maxspeed":"30","profile":"car","distance":"3460.697","time":"1897.548"}},{"Shape":128,"Attributes":{"name":"Kerkstraat","highway":"unclassified","maxspeed":"30","profile":"car","distance":"3507.797","time":"1905.084"}},{"Shape":129,"Attributes":{"name":"Achterweg","highway":"unclassified","profile":"car","distance":"3529.297","time":"1907.148"}},{"Shape":132,"Attributes":{"name":"Achterweg","highway":"unclassified","profile":"car","distance":"3588.697","time":"1912.851"}},{"Shape":135,"Attributes":{"name":"Achterweg","highway":"unclassified","profile":"car","distance":"3613.797","time":"1915.26"}},{"Shape":136,"Attributes":{"highway":"living_street","profile":"car","distance":"3623.32","time":"1924.403"}},{"Shape":137,"Attributes":{"highway":"living_street","profile":"car","distance":"3632.844","time":"2113.546"}},{"Shape":140,"Attributes":{"name":"Achterweg","highway":"unclassified","profile":"car","distance":"3807.543","time":"2130.317"}},{"Shape":141,"Attributes":{"name":"Achterweg","highway":"residential","profile":"car","distance":"3844.144","time":"2133.83"}},{"Shape":142,"Attributes":{"name":"Dorpsstraat","highway":"residential","maxspeed":"30","profile":"car","distance":"3855.644","time":"2135.67"}},{"Shape":144,"Attributes":{"name":"Dorpsstraat","highway":"residential","maxspeed":"30","profile":"car","distance":"3919.943","time":"2145.958"}},{"Shape":145,"Attributes":{"name":"Schoollaan","highway":"living_street","profile":"car","distance":"3932.786","time":"2158.287"}},{"Shape":147,"Attributes":{"name":"Schoollaan","highway":"living_street","profile":"car","distance":"4138.943","time":"2536.198"}},{"Shape":148,"Attributes":{"name":"Lede","highway":"residential","maxspeed":"30","profile":"car","distance":"4197.438","time":"2545.558"}},{"Shape":149,"Attributes":{"name":"Lede","highway":"residential","maxspeed":"30","profile":"car","distance":"4255.932","time":"2734.917"}},{"Shape":151,"Attributes":{"name":"Lede","highway":"residential","maxspeed":"30","profile":"car","distance":"4313.132","time":"2744.069"}},{"Shape":152,"Attributes":{"name":"Kluivertweg","maxspeed":"30","highway":"living_street","profile":"car","distance":"4323.24","time":"2745.687"}},{"Shape":153,"Attributes":{"name":"Kluivertweg","maxspeed":"30","highway":"living_street","profile":"car","distance":"4333.349","time":"2927.304"}},{"Shape":155,"Attributes":{"name":"Lede","highway":"residential","maxspeed":"30","profile":"car","distance":"4405.548","time":"2938.856"}},{"Shape":156,"Attributes":{"name":"Lede","highway":"residential","maxspeed":"30","profile":"car","distance":"4463.449","time":"2948.12"}},{"Shape":157,"Attributes":{"name":"Kors Monsterstraat","highway":"residential","profile":"car","distance":"4471.449","time":"2948.888"}},{"Shape":158,"Attributes":{"name":"Kors Monsterstraat","highway":"residential","profile":"car","distance":"4498.969","time":"2951.53"}},{"Shape":159,"Attributes":{"name":"Kors Monsterstraat","highway":"residential","profile":"car","distance":"4526.49","time":"3134.172"}},{"Shape":160,"Attributes":{"name":"Kors Monsterstraat","highway":"residential","profile":"car","distance":"4534.49","time":"3134.94"}},{"Shape":161,"Attributes":{"name":"Lede","highway":"residential","maxspeed":"30","profile":"car","distance":"4592.39","time":"3144.204"}},{"Shape":162,"Attributes":{"name":"L de Raatlaan","highway":"residential","maxspeed":"30","profile":"car","distance":"4652.99","time":"3153.9"}},{"Shape":163,"Attributes":{"name":"L de Raatlaan","highway":"residential","maxspeed":"30","profile":"car","distance":"4710.711","time":"3163.135"}},{"Shape":165,"Attributes":{"name":"L de Raatlaan","highway":"residential","maxspeed":"30","profile":"car","distance":"4728.59","time":"3345.996"}},{"Shape":167,"Attributes":{"name":"Dorpsstraat","highway":"residential","maxspeed":"30","profile":"car","distance":"4813.89","time":"3359.644"}},{"Shape":168,"Attributes":{"name":"Achterweg","highway":"residential","profile":"car","distance":"4850.49","time":"3363.157"}},{"Shape":171,"Attributes":{"name":"Achterweg","highway":"unclassified","profile":"car","distance":"5025.19","time":"3379.928"}},{"Shape":174,"Attributes":{"name":"Achterweg","highway":"unclassified","profile":"car","distance":"5050.291","time":"3382.338"}},{"Shape":177,"Attributes":{"name":"Achterweg","highway":"unclassified","profile":"car","distance":"5109.69","time":"3388.041"}},{"Shape":178,"Attributes":{"name":"Smidsweg","highway":"unclassified","profile":"car","distance":"5157.49","time":"3392.629"}},{"Shape":180,"Attributes":{"name":"Emmalaan","highway":"living_street","profile":"car","distance":"5323.376","time":"3551.88"}},{"Shape":182,"Attributes":{"name":"Emmalaan","highway":"living_street","profile":"car","distance":"5471.216","time":"3873.806"}},{"Shape":184,"Attributes":{"name":"Emmalaan","highway":"living_street","profile":"car","distance":"5717.569","time":"4290.306"}},{"Shape":185,"Attributes":{"name":"Lede","highway":"residential","maxspeed":"30","profile":"car","distance":"5763.669","time":"4297.682"}},{"Shape":186,"Attributes":{"name":"Lede","highway":"residential","maxspeed":"30","profile":"car","distance":"5769.829","time":"4298.667"}},{"Shape":187,"Attributes":{"name":"Lede","highway":"residential","maxspeed":"30","profile":"car","distance":"5786.77","time":"4481.377"}},{"Shape":188,"Attributes":{"name":"Lede","highway":"residential","maxspeed":"30","profile":"car","distance":"5808.27","time":"4484.817"}},{"Shape":189,"Attributes":{"name":"Groede","highway":"unclassified","profile":"car","distance":"5860.169","time":"4489.8"}},{"Shape":194,"Attributes":{"name":"Groede","highway":"unclassified","maxspeed":"30","profile":"car","distance":"6041.669","time":"4518.84"}},{"Shape":198,"Attributes":{"name":"Schare","highway":"living_street","profile":"car","distance":"6142.87","time":"4615.992"}},{"Shape":199,"Attributes":{"name":"Schare","highway":"living_street","profile":"car","distance":"6151.798","time":"4624.564"}},{"Shape":200,"Attributes":{"name":"Schare","highway":"living_street","profile":"car","distance":"6160.727","time":"4813.136"}},{"Shape":204,"Attributes":{"name":"Schare","highway":"living_street","profile":"car","distance":"6261.927","time":"4910.288"}},{"Shape":205,"Attributes":{"name":"Groede","highway":"unclassified","maxspeed":"30","profile":"car","distance":"6285.927","time":"4914.128"}},{"Shape":207,"Attributes":{"name":"Groede","highway":"unclassified","maxspeed":"30","profile":"car","distance":"6351.127","time":"4924.56"}},{"Shape":209,"Attributes":{"name":"Dorpsstraat","maxspeed":"30","highway":"tertiary","profile":"car","distance":"6381.327","time":"4929.392"}},{"Shape":211,"Attributes":{"name":"Dorpsstraat","maxspeed":"30","highway":"tertiary","profile":"car","distance":"6451.427","time":"4940.608"}},{"Shape":212,"Attributes":{"name":"Dorpsstraat","maxspeed":"30","highway":"tertiary","profile":"car","distance":"6465.027","time":"4942.784"}},{"Shape":216,"Attributes":{"name":"Dorpsstraat","maxspeed":"30","highway":"tertiary","profile":"car","distance":"6533.227","time":"4953.696"}},{"Shape":217,"Attributes":{"name":"Dorpsstraat","maxspeed":"30","highway":"tertiary","profile":"car","distance":"6542.127","time":"4955.12"}},{"Shape":220,"Attributes":{"name":"Hekelingseweg","junction":"roundabout","maxspeed":"80","highway":"secondary","profile":"car","distance":"6562.627","time":"4956.35"}},{"Shape":226,"Attributes":{"name":"Hekelingseweg","maxspeed":"50","highway":"secondary","profile":"car","distance":"6862.927","time":"4985.179"}},{"Shape":231,"Attributes":{"name":"Hekelingseweg","maxspeed":"50","highway":"secondary","profile":"car","distance":"6964.827","time":"4994.961"}},{"Shape":232,"Attributes":{"name":"Kreek","maxspeed":"50","highway":"tertiary","profile":"car","distance":"7022.827","time":"5000.529"}},{"Shape":234,"Attributes":{"name":"Kreek","maxspeed":"50","highway":"tertiary","profile":"car","distance":"7086.227","time":"5006.615"}},{"Shape":238,"Attributes":{"name":"Vuursteenkreek","highway":"unclassified","maxspeed":"30","profile":"car","distance":"7185.927","time":"5022.567"}},{"Shape":239,"Attributes":{"name":"Vuursteenkreek","highway":"unclassified","maxspeed":"30","profile":"car","distance":"7190.642","time":"5023.322"}},{"Shape":242,"Attributes":{"name":"Vuursteenkreek","highway":"unclassified","maxspeed":"30","profile":"car","distance":"7297.027","time":"5220.343"}},{"Shape":243,"Attributes":{"name":"Steurkreek","highway":"unclassified","maxspeed":"30","profile":"car","distance":"7373.928","time":"5232.647"}},{"Shape":246,"Attributes":{"name":"Steurkreek","highway":"unclassified","maxspeed":"30","profile":"car","distance":"7428.535","time":"5241.385"}},{"Shape":247,"Attributes":{"name":"Steurkreek","highway":"unclassified","maxspeed":"30","profile":"car","distance":"7438.328","time":"5422.952"}},{"Shape":251,"Attributes":{"name":"Woonkreek","highway":"unclassified","maxspeed":"30","profile":"car","distance":"7576.428","time":"5445.047"}},{"Shape":252,"Attributes":{"name":"Woonkreek","highway":"unclassified","maxspeed":"30","profile":"car","distance":"7590.828","time":"5447.352"}},{"Shape":253,"Attributes":{"name":"Woonkreek","highway":"unclassified","maxspeed":"30","profile":"car","distance":"7614.828","time":"5451.191"}},{"Shape":254,"Attributes":{"name":"Berenkreek","highway":"residential","maxspeed":"30","profile":"car","distance":"7628.828","time":"5453.432"}},{"Shape":264,"Attributes":{"name":"Berenkreek","highway":"residential","maxspeed":"30","profile":"car","distance":"7845.416","time":"5488.085"}},{"Shape":274,"Attributes":{"name":"Berenkreek","highway":"residential","maxspeed":"30","profile":"car","distance":"8062.004","time":"5702.739"}},{"Shape":275,"Attributes":{"name":"Berenkreek","highway":"residential","maxspeed":"30","profile":"car","distance":"8076.004","time":"5704.979"}},{"Shape":276,"Attributes":{"name":"Woonkreek","highway":"unclassified","maxspeed":"30","profile":"car","distance":"8100.004","time":"5708.819"}},{"Shape":277,"Attributes":{"name":"Woonkreek","highway":"unclassified","maxspeed":"30","profile":"car","distance":"8107.894","time":"5710.082"}},{"Shape":278,"Attributes":{"name":"Woonkreek","highway":"unclassified","maxspeed":"30","profile":"car","distance":"8108.404","time":"5890.164"}},{"Shape":279,"Attributes":{"name":"Woonkreek","highway":"unclassified","maxspeed":"30","profile":"car","distance":"8143.904","time":"5895.844"}},{"Shape":282,"Attributes":{"name":"Woonkreek","highway":"unclassified","maxspeed":"30","profile":"car","distance":"8203.004","time":"5905.3"}},{"Shape":285,"Attributes":{"name":"Pijlpuntkreek","maxspeed":"50","highway":"tertiary","profile":"car","distance":"8238.704","time":"5908.727"}},{"Shape":286,"Attributes":{"name":"Pijlpuntkreek","highway":"unclassified","maxspeed":"30","profile":"car","distance":"8245.553","time":"5909.823"}},{"Shape":287,"Attributes":{"name":"Pijlpuntkreek","highway":"unclassified","maxspeed":"30","profile":"car","distance":"8252.401","time":"6090.919"}},{"Shape":293,"Attributes":{"name":"Pijlpuntkreek","maxspeed":"50","highway":"tertiary","profile":"car","distance":"8368.201","time":"6102.036"}},{"Shape":297,"Attributes":{"name":"Kreek","maxspeed":"50","highway":"tertiary","profile":"car","distance":"8435.701","time":"6108.516"}},{"Shape":298,"Attributes":{"name":"Jagerskreek","highway":"unclassified","maxspeed":"30","profile":"car","distance":"8446.229","time":"6110.2"}},{"Shape":299,"Attributes":{"name":"Jagerskreek","highway":"unclassified","maxspeed":"30","profile":"car","distance":"8456.757","time":"6291.885"}},{"Shape":300,"Attributes":{"name":"Kreek","maxspeed":"30","highway":"tertiary","profile":"car","distance":"8532.757","time":"6304.045"}},{"Shape":305,"Attributes":{"name":"Kreek","maxspeed":"30","highway":"tertiary","profile":"car","distance":"8670.757","time":"6326.125"}},{"Shape":306,"Attributes":{"name":"Fakkelgras","maxspeed":"30","highway":"tertiary","profile":"car","distance":"8687.557","time":"6328.813"}},{"Shape":308,"Attributes":{"name":"Fakkelgras","maxspeed":"30","highway":"tertiary","profile":"car","distance":"8709.356","time":"6332.301"}},{"Shape":310,"Attributes":{"name":"Schaduwgras","maxspeed":"30","highway":"tertiary","profile":"car","distance":"8744.757","time":"6337.965"}},{"Shape":311,"Attributes":{"highway":"service","profile":"car","distance":"8749.188","time":"6338.674"}},{"Shape":312,"Attributes":{"highway":"service","profile":"car","distance":"8753.62","time":"6519.383"}},{"Shape":313,"Attributes":{"name":"Schaduwgras","maxspeed":"30","highway":"tertiary","profile":"car","distance":"8769.221","time":"6521.879"}},{"Shape":314,"Attributes":{"name":"Schaduwgras","maxspeed":"30","highway":"tertiary","profile":"car","distance":"8785.32","time":"6524.455"}},{"Shape":317,"Attributes":{"name":"Schaduwgras","maxspeed":"30","highway":"tertiary","profile":"car","distance":"8869.021","time":"6537.847"}},{"Shape":318,"Attributes":{"name":"Duinrietgras","highway":"unclassified","maxspeed":"30","profile":"car","distance":"8924.521","time":"6546.727"}},{"Shape":319,"Attributes":{"name":"Smelegras","highway":"unclassified","maxspeed":"30","profile":"car","distance":"8979.221","time":"6555.479"}},{"Shape":320,"Attributes":{"highway":"residential","maxspeed":"30","profile":"car","distance":"9024.82","time":"6562.775"}},{"Shape":321,"Attributes":{"name":"Smelegras","highway":"unclassified","maxspeed":"30","profile":"car","distance":"9035.021","time":"6564.407"}},{"Shape":323,"Attributes":{"name":"Vedergras","highway":"unclassified","maxspeed":"30","profile":"car","distance":"9069.756","time":"6569.965"}},{"Shape":325,"Attributes":{"name":"Vedergras","highway":"unclassified","maxspeed":"30","profile":"car","distance":"9104.491","time":"6755.522"}},{"Shape":326,"Attributes":{"name":"Raaigras","highway":"unclassified","maxspeed":"30","profile":"car","distance":"9159.191","time":"6764.274"}},{"Shape":328,"Attributes":{"name":"Raaigras","highway":"unclassified","maxspeed":"30","profile":"car","distance":"9197.521","time":"6770.407"}},{"Shape":329,"Attributes":{"name":"Raaigras","highway":"unclassified","maxspeed":"30","profile":"car","distance":"9201.491","time":"6951.042"}},{"Shape":331,"Attributes":{"name":"Raaigras","highway":"unclassified","maxspeed":"30","profile":"car","distance":"9354.592","time":"6975.539"}},{"Shape":333,"Attributes":{"name":"Raaigras","highway":"unclassified","maxspeed":"30","profile":"car","distance":"9393.092","time":"6981.698"}},{"Shape":334,"Attributes":{"name":"Raaigras","highway":"unclassified","maxspeed":"30","profile":"car","distance":"9401.36","time":"6983.021"}},{"Shape":336,"Attributes":{"name":"Raaigras","highway":"unclassified","maxspeed":"30","profile":"car","distance":"9487.892","time":"7176.866"}},{"Shape":337,"Attributes":{"name":"Raaigras","highway":"unclassified","maxspeed":"30","profile":"car","distance":"9495.313","time":"7178.053"}},{"Shape":339,"Attributes":{"name":"Raaigras","highway":"unclassified","maxspeed":"30","profile":"car","distance":"9551.394","time":"7367.026"}},{"Shape":340,"Attributes":{"name":"Baardgras","highway":"unclassified","maxspeed":"30","profile":"car","distance":"9557.193","time":"7367.954"}},{"Shape":341,"Attributes":{"name":"Schaduwgras","maxspeed":"30","highway":"tertiary","profile":"car","distance":"9571.894","time":"7370.306"}},{"Shape":342,"Attributes":{"name":"Buntgras","maxspeed":"30","highway":"tertiary","profile":"car","distance":"9593.493","time":"7373.762"}},{"Shape":343,"Attributes":{"name":"Buntgras","maxspeed":"30","highway":"tertiary","profile":"car","distance":"9606.993","time":"7375.922"}},{"Shape":346,"Attributes":{"name":"Buntgras","maxspeed":"30","highway":"tertiary","profile":"car","distance":"9735.693","time":"7396.514"}},{"Shape":349,"Attributes":{"name":"Brongras","highway":"unclassified","profile":"car","distance":"9801.993","time":"7402.879"}},{"Shape":351,"Attributes":{"name":"Pampasgras","highway":"unclassified","profile":"car","distance":"9854.094","time":"7407.88"}},{"Shape":352,"Attributes":{"name":"Pampasgras","highway":"unclassified","profile":"car","distance":"9863.493","time":"7408.783"}},{"Shape":354,"Attributes":{"name":"Pampasgras","highway":"unclassified","profile":"car","distance":"9910.993","time":"7413.343"}},{"Shape":355,"Attributes":{"name":"Pampasgras","highway":"unclassified","profile":"car","distance":"9913.919","time":"7413.624"}},{"Shape":358,"Attributes":{"name":"Pampasgras","highway":"unclassified","profile":"car","distance":"9950.293","time":"7777.116"}},{"Shape":359,"Attributes":{"name":"Parelgras","highway":"unclassified","profile":"car","distance":"10014.59","time":"7783.289"}},{"Shape":360,"Attributes":{"name":"Borstelgras","highway":"unclassified","profile":"car","distance":"10073.89","time":"7788.981"}},{"Shape":361,"Attributes":{"name":"Borstelgras","highway":"unclassified","profile":"car","distance":"10080.36","time":"7789.603"}},{"Shape":362,"Attributes":{"name":"Borstelgras","highway":"unclassified","profile":"car","distance":"10086.83","time":"7970.224"}},{"Shape":363,"Attributes":{"name":"Borstelgras","highway":"unclassified","profile":"car","distance":"10146.13","time":"7975.917"}},{"Shape":364,"Attributes":{"name":"Parelgras","highway":"unclassified","profile":"car","distance":"10210.43","time":"7982.09"}},{"Shape":365,"Attributes":{"name":"Buntgras","maxspeed":"30","highway":"tertiary","profile":"car","distance":"10268.03","time":"7991.306"}},{"Shape":366,"Attributes":{"highway":"residential","profile":"car","distance":"10277.73","time":"7992.237"}},{"Shape":367,"Attributes":{"bridge":"yes","highway":"residential","profile":"car","distance":"10301.13","time":"7994.483"}},{"Shape":368,"Attributes":{"highway":"residential","maxspeed":"30","profile":"car","distance":"10326.63","time":"7998.563"}},{"Shape":369,"Attributes":{"highway":"residential","maxspeed":"30","profile":"car","distance":"10335.32","time":"7999.955"}},{"Shape":370,"Attributes":{"highway":"residential","maxspeed":"30","profile":"car","distance":"10344.02","time":"8181.346"}},{"Shape":371,"Attributes":{"highway":"residential","maxspeed":"30","profile":"car","distance":"10369.52","time":"8185.426"}},{"Shape":372,"Attributes":{"bridge":"yes","highway":"residential","profile":"car","distance":"10392.92","time":"8187.673"}},{"Shape":373,"Attributes":{"highway":"residential","profile":"car","distance":"10402.62","time":"8188.604"}},{"Shape":375,"Attributes":{"name":"Buntgras","maxspeed":"30","highway":"tertiary","profile":"car","distance":"10479.52","time":"8200.908"}},{"Shape":378,"Attributes":{"name":"Buntgras","maxspeed":"30","highway":"tertiary","profile":"car","distance":"10601.72","time":"8220.46"}},{"Shape":380,"Attributes":{"name":"Buntgras","maxspeed":"30","highway":"tertiary","profile":"car","distance":"10665.82","time":"8230.716"}},{"Shape":381,"Attributes":{"name":"Buntgras","maxspeed":"30","highway":"tertiary","profile":"car","distance":"10701.92","time":"8236.492"}},{"Shape":383,"Attributes":{"name":"Vogelenzanglaan","highway":"tertiary","profile":"car","distance":"10730.22","time":"8238.433"}},{"Shape":384,"Attributes":{"name":"Vogelenzanglaan","highway":"tertiary","profile":"car","distance":"10794.02","time":"8242.808"}},{"Shape":385,"Attributes":{"name":"Vogelenzanglaan","highway":"tertiary","profile":"car","distance":"10817.52","time":"8244.419"}},{"Shape":389,"Attributes":{"name":"Vogelenzanglaan","highway":"tertiary","profile":"car","distance":"10869.12","time":"8247.957"}},{"Shape":391,"Attributes":{"name":"Vogelenzanglaan","highway":"tertiary","profile":"car","distance":"10925.82","time":"8251.845"}},{"Shape":392,"Attributes":{"name":"Vogelenzanglaan","highway":"tertiary","profile":"car","distance":"10983.12","time":"8255.774"}},{"Shape":394,"Attributes":{"name":"Vogelenzanglaan","highway":"tertiary","profile":"car","distance":"11060.32","time":"8261.068"}},{"Shape":395,"Attributes":{"name":"Vogelenzanglaan","highway":"tertiary","profile":"car","distance":"11100.02","time":"8263.79"}},{"Shape":397,"Attributes":{"name":"Schumannlaan","highway":"unclassified","profile":"car","distance":"11165.68","time":"8270.094"}},{"Shape":399,"Attributes":{"name":"Schumannlaan","highway":"unclassified","profile":"car","distance":"11231.34","time":"8456.397"}},{"Shape":400,"Attributes":{"name":"Vogelenzanglaan","highway":"tertiary","profile":"car","distance":"11286.84","time":"8460.203"}},{"Shape":403,"Attributes":{"name":"Vogelenzanglaan","highway":"tertiary","profile":"car","distance":"11334.75","time":"8463.488"}},{"Shape":404,"Attributes":{"name":"J Ingenhovenstraat","highway":"unclassified","profile":"car","distance":"11371.54","time":"8467.021"}},{"Shape":405,"Attributes":{"highway":"unclassified","profile":"car","distance":"11379.87","time":"8467.82"}},{"Shape":406,"Attributes":{"highway":"unclassified","profile":"car","distance":"11388.2","time":"8648.62"}},{"Shape":407,"Attributes":{"name":"J Ingenhovenstraat","highway":"unclassified","profile":"car","distance":"11425","time":"8652.152"}},{"Shape":410,"Attributes":{"name":"Vogelenzanglaan","highway":"tertiary","profile":"car","distance":"11472.9","time":"8655.438"}},{"Shape":413,"Attributes":{"name":"Bachbaan","highway":"unclassified","profile":"car","distance":"11572.9","time":"8665.037"}},{"Shape":421,"Attributes":{"name":"Bachbaan","highway":"unclassified","profile":"car","distance":"11720","time":"8679.159"}},{"Shape":423,"Attributes":{"name":"Mozartweg","highway":"residential","profile":"car","distance":"11779.7","time":"8684.89"}},{"Shape":424,"Attributes":{"name":"Schubertstraat","highway":"residential","profile":"car","distance":"11835","time":"8690.199"}},{"Shape":425,"Attributes":{"name":"Schubertstraat","highway":"residential","profile":"car","distance":"11842","time":"8690.871"}},{"Shape":426,"Attributes":{"name":"Schubertstraat","highway":"residential","profile":"car","distance":"11843.58","time":"8691.023"}},{"Shape":429,"Attributes":{"name":"Schubertstraat","highway":"residential","profile":"car","distance":"11933.79","time":"8879.684"}},{"Shape":430,"Attributes":{"name":"Dallelaan","highway":"unclassified","profile":"car","distance":"11954.99","time":"8881.719"}},{"Shape":431,"Attributes":{"name":"Dallelaan","highway":"unclassified","profile":"car","distance":"11956.5","time":"8881.863"}},{"Shape":432,"Attributes":{"name":"Dallelaan","highway":"unclassified","profile":"car","distance":"11958","time":"9062.008"}},{"Shape":433,"Attributes":{"name":"Dallelaan","highway":"unclassified","profile":"car","distance":"11979.2","time":"9064.043"}},{"Shape":436,"Attributes":{"name":"Schubertstraat","highway":"residential","profile":"car","distance":"12071","time":"9072.855"}},{"Shape":437,"Attributes":{"name":"Schubertstraat","highway":"residential","profile":"car","distance":"12078","time":"9073.527"}},{"Shape":438,"Attributes":{"name":"Schubertstraat","highway":"residential","profile":"car","distance":"12133.3","time":"9078.837"}},{"Shape":440,"Attributes":{"name":"Mozartweg","highway":"residential","profile":"car","distance":"12193","time":"9084.567"}},{"Shape":448,"Attributes":{"name":"Bachbaan","highway":"unclassified","profile":"car","distance":"12340.1","time":"9098.689"}},{"Shape":449,"Attributes":{"name":"Wagnerlaan","highway":"unclassified","profile":"car","distance":"12385.6","time":"9103.058"}},{"Shape":450,"Attributes":{"name":"Wagnerlaan","highway":"unclassified","profile":"car","distance":"12397.14","time":"9104.165"}},{"Shape":451,"Attributes":{"name":"Wagnerlaan","highway":"unclassified","profile":"car","distance":"12401.5","time":"9284.584"}},{"Shape":454,"Attributes":{"name":"Wagnerlaan","highway":"unclassified","profile":"car","distance":"12497","time":"9293.752"}},{"Shape":456,"Attributes":{"name":"Wagnerlaan","highway":"unclassified","profile":"car","distance":"12516.76","time":"9295.648"}},{"Shape":458,"Attributes":{"name":"Wagnerlaan","highway":"unclassified","profile":"car","distance":"12536.51","time":"9477.545"}},{"Shape":462,"Attributes":{"name":"J P Sweelinckstraat","highway":"unclassified","profile":"car","distance":"12714.11","time":"9494.595"}},{"Shape":464,"Attributes":{"name":"J P Sweelinckstraat","highway":"unclassified","profile":"car","distance":"12749.34","time":"9497.977"}},{"Shape":465,"Attributes":{"name":"J P Sweelinckstraat","highway":"unclassified","profile":"car","distance":"12763.11","time":"9679.299"}},{"Shape":466,"Attributes":{"name":"A Diepenbrockstraat","highway":"unclassified","profile":"car","distance":"12832.21","time":"9685.933"}},{"Shape":467,"Attributes":{"name":"A Diepenbrockstraat","highway":"unclassified","profile":"car","distance":"12850.41","time":"9687.68"}},{"Shape":469,"Attributes":{"name":"A Diepenbrockstraat","highway":"unclassified","profile":"car","distance":"12915.51","time":"9693.929"}},{"Shape":470,"Attributes":{"name":"L Verweelstraat","highway":"unclassified","profile":"car","distance":"12921.04","time":"9694.46"}},{"Shape":471,"Attributes":{"name":"L Verweelstraat","highway":"unclassified","profile":"car","distance":"12926.57","time":"9874.99"}},{"Shape":472,"Attributes":{"name":"A Diepenbrockstraat","highway":"unclassified","profile":"car","distance":"12988.07","time":"9880.895"}},{"Shape":473,"Attributes":{"name":"W Pijperstraat","highway":"unclassified","profile":"car","distance":"13004.67","time":"9882.488"}},{"Shape":474,"Attributes":{"name":"A Diepenbrockstraat","highway":"unclassified","profile":"car","distance":"13054.97","time":"9887.316"}},{"Shape":475,"Attributes":{"name":"E Flipsestraat","highway":"unclassified","profile":"car","distance":"13059.1","time":"9887.714"}},{"Shape":476,"Attributes":{"name":"E Flipsestraat","highway":"unclassified","profile":"car","distance":"13063.24","time":"10068.11"}},{"Shape":478,"Attributes":{"name":"E Flipsestraat","highway":"unclassified","profile":"car","distance":"13076.33","time":"10069.36"}},{"Shape":479,"Attributes":{"name":"H Andriessenstraat","highway":"unclassified","profile":"car","distance":"13146.93","time":"10076.14"}},{"Shape":480,"Attributes":{"name":"P van Anrooystraat","highway":"residential","profile":"car","distance":"13176.63","time":"10078.99"}},{"Shape":482,"Attributes":{"name":"J Wagenaarstraat","highway":"residential","profile":"car","distance":"13233.87","time":"10084.49"}},{"Shape":487,"Attributes":{"name":"J Wagenaarstraat","highway":"residential","profile":"car","distance":"13334.44","time":"10274.14"}},{"Shape":489,"Attributes":{"name":"Vogelenzanglaan","highway":"tertiary","profile":"car","distance":"13411.64","time":"10279.44"}},{"Shape":490,"Attributes":{"name":"Vogelenzanglaan","highway":"tertiary","profile":"car","distance":"13468.94","time":"10283.37"}},{"Shape":492,"Attributes":{"name":"Vivaldiplein","highway":"unclassified","profile":"car","distance":"13477.98","time":"10284.24"}},{"Shape":494,"Attributes":{"name":"Vivaldiplein","highway":"unclassified","profile":"car","distance":"13487.02","time":"10465.11"}},{"Shape":496,"Attributes":{"name":"Vogelenzanglaan","highway":"tertiary","profile":"car","distance":"13543.72","time":"10469"}},{"Shape":500,"Attributes":{"name":"Vogelenzanglaan","highway":"tertiary","profile":"car","distance":"13595.32","time":"10472.54"}},{"Shape":501,"Attributes":{"name":"Vogelenzanglaan","highway":"unclassified","profile":"car","distance":"13605.22","time":"10473.49"}},{"Shape":503,"Attributes":{"name":"Verdilaan","highway":"unclassified","profile":"car","distance":"13694.92","time":"10482.1"}},{"Shape":505,"Attributes":{"name":"Paganinihof","highway":"unclassified","profile":"car","distance":"13777.36","time":"10490.01"}},{"Shape":507,"Attributes":{"name":"Paganinihof","highway":"unclassified","profile":"car","distance":"13859.8","time":"10677.92"}},{"Shape":508,"Attributes":{"name":"Verdilaan","highway":"unclassified","profile":"car","distance":"13887.64","time":"10680.6"}},{"Shape":510,"Attributes":{"name":"Verdilaan","highway":"unclassified","profile":"car","distance":"13949.5","time":"10866.54"}},{"Shape":511,"Attributes":{"name":"Vogelenzanglaan","highway":"unclassified","profile":"car","distance":"13959.4","time":"10867.49"}},{"Shape":512,"Attributes":{"name":"Vogelenzanglaan","highway":"tertiary","profile":"car","distance":"13982.9","time":"10869.1"}},{"Shape":513,"Attributes":{"name":"Vogelenzanglaan","highway":"tertiary","profile":"car","distance":"14046.7","time":"10873.47"}},{"Shape":515,"Attributes":{"name":"Torellistraat","highway":"unclassified","profile":"car","distance":"14079.62","time":"10876.63"}},{"Shape":517,"Attributes":{"name":"Torellistraat","highway":"unclassified","profile":"car","distance":"14112.54","time":"11059.79"}},{"Shape":519,"Attributes":{"name":"Vogelenzanglaan","highway":"tertiary","profile":"car","distance":"14140.84","time":"11061.73"}},{"Shape":520,"Attributes":{"name":"Akkersweg","highway":"tertiary","profile":"car","distance":"14169.93","time":"11063.73"}},{"Shape":521,"Attributes":{"name":"Akkersweg","highway":"tertiary","profile":"car","distance":"14199.02","time":"11245.72"}},{"Shape":522,"Attributes":{"name":"Buntgras","maxspeed":"30","highway":"tertiary","profile":"car","distance":"14235.12","time":"11251.5"}},{"Shape":524,"Attributes":{"name":"Buntgras","maxspeed":"30","highway":"tertiary","profile":"car","distance":"14299.22","time":"11261.76"}},{"Shape":526,"Attributes":{"name":"Zuidakker","highway":"unclassified","maxspeed":"30","profile":"car","distance":"14319.84","time":"11265.06"}},{"Shape":529,"Attributes":{"name":"Zuidakker","highway":"unclassified","maxspeed":"30","profile":"car","distance":"14399.12","time":"11457.74"}},{"Shape":530,"Attributes":{"name":"Zuidakker","highway":"unclassified","maxspeed":"30","profile":"car","distance":"14415.02","time":"11460.29"}},{"Shape":531,"Attributes":{"highway":"service","profile":"car","distance":"14416.72","time":"11460.56"}},{"Shape":532,"Attributes":{"highway":"service","profile":"car","distance":"14418.42","time":"11640.83"}},{"Shape":533,"Attributes":{"name":"Zuidakker","highway":"unclassified","maxspeed":"30","profile":"car","distance":"14434.33","time":"11643.38"}},{"Shape":537,"Attributes":{"name":"Zuidakker","highway":"unclassified","maxspeed":"30","profile":"car","distance":"14534.22","time":"11659.36"}},{"Shape":540,"Attributes":{"name":"Buntgras","maxspeed":"30","highway":"tertiary","profile":"car","distance":"14656.42","time":"11678.91"}},{"Shape":541,"Attributes":{"name":"Parelgras","highway":"unclassified","profile":"car","distance":"14707.33","time":"11683.8"}},{"Shape":542,"Attributes":{"name":"Kamgras","highway":"unclassified","profile":"car","distance":"14720.33","time":"11685.05"}},{"Shape":543,"Attributes":{"name":"Pluimgras","highway":"unclassified","profile":"car","distance":"14763.42","time":"11689.18"}},{"Shape":545,"Attributes":{"name":"Pluimgras","highway":"unclassified","profile":"car","distance":"14811.92","time":"11693.84"}},{"Shape":547,"Attributes":{"name":"Pluimgras","highway":"unclassified","profile":"car","distance":"14860.41","time":"11878.5"}},{"Shape":549,"Attributes":{"name":"Pluimgras","highway":"unclassified","profile":"car","distance":"14923.71","time":"11884.57"}},{"Shape":552,"Attributes":{"name":"Parelgras","highway":"unclassified","profile":"car","distance":"14998.6","time":"11891.76"}},{"Shape":557,"Attributes":{"name":"Parelgras","highway":"unclassified","profile":"car","distance":"15093.21","time":"12080.84"}},{"Shape":560,"Attributes":{"name":"Parelgras","highway":"unclassified","profile":"car","distance":"15190.71","time":"12090.2"}},{"Shape":561,"Attributes":{"name":"Parelgras","highway":"unclassified","profile":"car","distance":"15204.48","time":"12091.52"}},{"Shape":568,"Attributes":{"name":"Parelgras","highway":"unclassified","profile":"car","distance":"15437.31","time":"12293.87"}},{"Shape":569,"Attributes":{"name":"Buntgras","maxspeed":"30","highway":"tertiary","profile":"car","distance":"15450.81","time":"12296.03"}},{"Shape":571,"Attributes":{"name":"Doddegras","highway":"unclassified","profile":"car","distance":"15482.33","time":"12299.06"}},{"Shape":572,"Attributes":{"name":"Doddegras","highway":"unclassified","profile":"car","distance":"15514.51","time":"12482.15"}},{"Shape":573,"Attributes":{"name":"Doddegras","highway":"unclassified","profile":"car","distance":"15557.81","time":"12486.31"}},{"Shape":575,"Attributes":{"name":"Vlotgras","highway":"unclassified","profile":"car","distance":"15609.01","time":"12491.22"}},{"Shape":576,"Attributes":{"name":"Vlotgras","highway":"unclassified","profile":"car","distance":"15668.41","time":"12496.92"}},{"Shape":577,"Attributes":{"name":"Vlotgras","highway":"unclassified","profile":"car","distance":"15684.11","time":"12498.43"}},{"Shape":579,"Attributes":{"name":"Vlotgras","highway":"unclassified","profile":"car","distance":"15716.81","time":"12501.57"}},{"Shape":580,"Attributes":{"name":"Vlotgras","highway":"unclassified","profile":"car","distance":"15726.55","time":"12502.5"}}],"Stops":[{"Shape":0,"Coordinates":[4.323639,51.828],"Attributes":{"index":"308","distance":"0","time":"0","cost_time":"180"}},{"Shape":15,"Coordinates":[4.326629,51.82738],"Attributes":{"index":"314","distance":"277.3118","time":"37.44137","cost_time":"180"}},{"Shape":16,"Coordinates":[4.326634,51.82738],"Attributes":{"index":"315","distance":"277.7177","time":"217.5063","cost_time":"180"}},{"Shape":26,"Coordinates":[4.329222,51.82767],"Attributes":{"index":"317","distance":"588.0841","time":"447.1649","cost_time":"180"}},{"Shape":42,"Coordinates":[4.330416,51.82835],"Attributes":{"index":"227","distance":"1118.986","time":"702.1908","cost_time":"180"}},{"Shape":47,"Coordinates":[4.330333,51.82925],"Attributes":{"index":"225","distance":"1319.462","time":"901.4365","cost_time":"180"}},{"Shape":50,"Coordinates":[4.329472,51.82889],"Attributes":{"index":"226","distance":"1391.319","time":"1088.335","cost_time":"180"}},{"Shape":61,"Coordinates":[4.33206,51.82731],"Attributes":{"index":"323","distance":"1694.699","time":"1312.915","cost_time":"180"}},{"Shape":90,"Coordinates":[4.331917,51.82372],"Attributes":{"index":"324","distance":"2597.963","time":"1593.091","cost_time":"180"}},{"Shape":136,"Coordinates":[4.342834,51.82692],"Attributes":{"index":"332","distance":"3623.32","time":"1924.403","cost_time":"180"}},{"Shape":145,"Coordinates":[4.344368,51.82638],"Attributes":{"index":"331","distance":"3932.786","time":"2158.287","cost_time":"180"}},{"Shape":148,"Coordinates":[4.344584,51.82447],"Attributes":{"index":"327","distance":"4197.438","time":"2545.558","cost_time":"180"}},{"Shape":152,"Coordinates":[4.346139,51.82478],"Attributes":{"index":"328","distance":"4323.24","time":"2745.687","cost_time":"180"}},{"Shape":158,"Coordinates":[4.34836,51.82544],"Attributes":{"index":"329","distance":"4498.969","time":"2951.53","cost_time":"180"}},{"Shape":163,"Coordinates":[4.34678,51.82622],"Attributes":{"index":"330","distance":"4710.711","time":"3163.135","cost_time":"180"}},{"Shape":180,"Coordinates":[4.342778,51.82503],"Attributes":{"index":"334","distance":"5323.376","time":"3551.88","cost_time":"180"}},{"Shape":182,"Coordinates":[4.34206,51.82628],"Attributes":{"index":"333","distance":"5471.216","time":"3873.806","cost_time":"180"}},{"Shape":186,"Coordinates":[4.342639,51.82403],"Attributes":{"index":"326","distance":"5769.829","time":"4298.667","cost_time":"180"}},{"Shape":199,"Coordinates":[4.340611,51.82544],"Attributes":{"index":"325","distance":"6151.798","time":"4624.564","cost_time":"180"}},{"Shape":239,"Coordinates":[4.332701,51.82648],"Attributes":{"index":"322","distance":"7190.642","time":"5023.322","cost_time":"180"}},{"Shape":246,"Coordinates":[4.332229,51.82491],"Attributes":{"index":"321","distance":"7428.535","time":"5241.385","cost_time":"180"}},{"Shape":264,"Coordinates":[4.328758,51.82459],"Attributes":{"index":"319","distance":"7845.416","time":"5488.085","cost_time":"180"}},{"Shape":277,"Coordinates":[4.330333,51.82564],"Attributes":{"index":"320","distance":"8107.894","time":"5710.082","cost_time":"180"}},{"Shape":286,"Coordinates":[4.329236,51.82616],"Attributes":{"index":"318","distance":"8245.553","time":"5909.823","cost_time":"180"}},{"Shape":298,"Coordinates":[4.326929,51.82686],"Attributes":{"index":"316","distance":"8446.229","time":"6110.2","cost_time":"180"}},{"Shape":311,"Coordinates":[4.324611,51.82692],"Attributes":{"index":"313","distance":"8749.188","time":"6338.674","cost_time":"180"}},{"Shape":323,"Coordinates":[4.326,51.82553],"Attributes":{"index":"312","distance":"9069.756","time":"6569.965","cost_time":"180"}},{"Shape":328,"Coordinates":[4.324528,51.82522],"Attributes":{"index":"311","distance":"9197.521","time":"6770.407","cost_time":"180"}},{"Shape":334,"Coordinates":[4.32217,51.82628],"Attributes":{"index":"310","distance":"9401.36","time":"6983.021","cost_time":"180"}},{"Shape":337,"Coordinates":[4.32097,51.82667],"Attributes":{"index":"309","distance":"9495.313","time":"7178.053","cost_time":"180"}},{"Shape":355,"Coordinates":[4.320306,51.82969],"Attributes":{"index":"303","distance":"9913.919","time":"7413.624","cost_time":"180"}},{"Shape":355,"Coordinates":[4.320306,51.82969],"Attributes":{"index":"302","distance":"9913.919","time":"7593.624","cost_time":"180"}},{"Shape":361,"Coordinates":[4.322111,51.82975],"Attributes":{"index":"301","distance":"10080.36","time":"7789.603","cost_time":"180"}},{"Shape":369,"Coordinates":[4.320583,51.83081],"Attributes":{"index":"300","distance":"10335.32","time":"7999.955","cost_time":"180"}},{"Shape":397,"Coordinates":[4.312528,51.83117],"Attributes":{"index":"291","distance":"11165.68","time":"8270.094","cost_time":"180"}},{"Shape":405,"Coordinates":[4.31217,51.82972],"Attributes":{"index":"294","distance":"11379.87","time":"8467.82","cost_time":"180"}},{"Shape":426,"Coordinates":[4.30997,51.83278],"Attributes":{"index":"277","distance":"11843.58","time":"8691.023","cost_time":"180"}},{"Shape":431,"Coordinates":[4.31058,51.83347],"Attributes":{"index":"278","distance":"11956.5","time":"8881.863","cost_time":"180"}},{"Shape":450,"Coordinates":[4.310917,51.83092],"Attributes":{"index":"292","distance":"12397.14","time":"9104.165","cost_time":"180"}},{"Shape":456,"Coordinates":[4.310528,51.83017],"Attributes":{"index":"293","distance":"12516.76","time":"9295.648","cost_time":"180"}},{"Shape":464,"Coordinates":[4.310778,51.82889],"Attributes":{"index":"295","distance":"12749.34","time":"9497.977","cost_time":"180"}},{"Shape":470,"Coordinates":[4.31275,51.82836],"Attributes":{"index":"296","distance":"12921.04","time":"9694.46","cost_time":"180"}},{"Shape":475,"Coordinates":[4.314348,51.82869],"Attributes":{"index":"297","distance":"13059.1","time":"9887.714","cost_time":"180"}},{"Shape":482,"Coordinates":[4.314028,51.82997],"Attributes":{"index":"298","distance":"13233.87","time":"10084.49","cost_time":"180"}},{"Shape":492,"Coordinates":[4.315333,51.83125],"Attributes":{"index":"299","distance":"13477.98","time":"10284.24","cost_time":"180"}},{"Shape":505,"Coordinates":[4.316852,51.83292],"Attributes":{"index":"290","distance":"13777.36","time":"10490.01","cost_time":"180"}},{"Shape":508,"Coordinates":[4.315755,51.83259],"Attributes":{"index":"289","distance":"13887.64","time":"10680.6","cost_time":"180"}},{"Shape":515,"Coordinates":[4.317222,51.83178],"Attributes":{"index":"288","distance":"14079.62","time":"10876.63","cost_time":"180"}},{"Shape":520,"Coordinates":[4.317611,51.83239],"Attributes":{"index":"287","distance":"14169.93","time":"11063.73","cost_time":"180"}},{"Shape":526,"Coordinates":[4.318444,51.83155],"Attributes":{"index":"244","distance":"14319.84","time":"11265.06","cost_time":"180"}},{"Shape":531,"Coordinates":[4.319833,51.83158],"Attributes":{"index":"243","distance":"14416.72","time":"11460.56","cost_time":"180"}},{"Shape":545,"Coordinates":[4.317528,51.83019],"Attributes":{"index":"304","distance":"14811.92","time":"11693.84","cost_time":"180"}},{"Shape":552,"Coordinates":[4.31625,51.82925],"Attributes":{"index":"305","distance":"14998.6","time":"11891.76","cost_time":"180"}},{"Shape":561,"Coordinates":[4.318361,51.82856],"Attributes":{"index":"306","distance":"15204.48","time":"12091.52","cost_time":"180"}},{"Shape":571,"Coordinates":[4.320972,51.82786],"Attributes":{"index":"307","distance":"15482.33","time":"12299.06","cost_time":"180"}},{"Shape":580,"Coordinates":[4.323639,51.828],"Attributes":{"index":"308","distance":"15726.55","time":"12502.5","cost_time":"180"}}],"Branches":[{"Shape":4,"Coordinates":[4.323675,51.82786],"Attributes":{"name":"Vlotgras","highway":"unclassified"}},{"Shape":8,"Coordinates":[4.324352,51.82729],"Attributes":{"name":"Fakkelgras","maxspeed":"30","highway":"tertiary"}},{"Shape":14,"Coordinates":[4.326637,51.8275],"Attributes":{"name":"Klokbekerkreek","highway":"unclassified","maxspeed":"30"}},{"Shape":14,"Coordinates":[4.327075,51.82685],"Attributes":{"name":"Kreek","maxspeed":"30","highway":"tertiary"}},{"Shape":17,"Coordinates":[4.326376,51.82656],"Attributes":{"name":"Jagerskreek","highway":"unclassified","maxspeed":"30"}},{"Shape":17,"Coordinates":[4.327579,51.82644],"Attributes":{"name":"Kreek","maxspeed":"50","highway":"tertiary"}},{"Shape":21,"Coordinates":[4.3285,51.8269],"Attributes":{"name":"Erosiekreek","highway":"unclassified","maxspeed":"30"}},{"Shape":21,"Coordinates":[4.32921,51.82681],"Attributes":{"name":"IJzertijdkreek","highway":"unclassified","maxspeed":"30"}},{"Shape":31,"Coordinates":[4.3283,51.82676],"Attributes":{"name":"Kreek","highway":"unclassified","maxspeed":"30"}},{"Shape":33,"Coordinates":[4.329519,51.82633],"Attributes":{"name":"Pijlpuntkreek","maxspeed":"50","highway":"tertiary"}},{"Shape":33,"Coordinates":[4.330017,51.82604],"Attributes":{"name":"Woonkreek","highway":"unclassified","maxspeed":"30"}},{"Shape":36,"Coordinates":[4.331657,51.82722],"Attributes":{"name":"Kreek","maxspeed":"50","highway":"tertiary"}},{"Shape":37,"Coordinates":[4.330698,51.82723],"Attributes":{"name":"Vloedkreek","highway":"unclassified","maxspeed":"30"}},{"Shape":38,"Coordinates":[4.329939,51.8279],"Attributes":{"name":"Ebkreek","highway":"unclassified","maxspeed":"30"}},{"Shape":39,"Coordinates":[4.33185,51.82735],"Attributes":{"name":"Getijdenkreek","highway":"unclassified","maxspeed":"30"}},{"Shape":41,"Coordinates":[4.331422,51.82874],"Attributes":{"name":"Medocgaard","highway":"unclassified"}},{"Shape":41,"Coordinates":[4.330064,51.82854],"Attributes":{"name":"Wijngaard","maxspeed":"30","highway":"tertiary"}},{"Shape":43,"Coordinates":[4.331706,51.82888],"Attributes":{"name":"Pomerolgaard","highway":"unclassified"}},{"Shape":46,"Coordinates":[4.330207,51.82924],"Attributes":{"name":"Muskadetgaard","highway":"unclassified"}},{"Shape":46,"Coordinates":[4.329777,51.82982],"Attributes":{"name":"Egergaard","highway":"unclassified"}},{"Shape":49,"Coordinates":[4.328728,51.82864],"Attributes":{"name":"Falernogaard","highway":"unclassified"}},{"Shape":49,"Coordinates":[4.329209,51.82944],"Attributes":{"name":"Wijngaard","maxspeed":"30","highway":"tertiary"}},{"Shape":49,"Coordinates":[4.330064,51.82854],"Attributes":{"name":"Wijngaard","maxspeed":"30","highway":"tertiary"}},{"Shape":51,"Coordinates":[4.330207,51.82924],"Attributes":{"name":"Muskadetgaard","highway":"unclassified"}},{"Shape":51,"Coordinates":[4.329209,51.82944],"Attributes":{"name":"Wijngaard","maxspeed":"30","highway":"tertiary"}},{"Shape":52,"Coordinates":[4.329197,51.82819],"Attributes":{"name":"Bardolinogaard","highway":"unclassified","maxspeed":"30"}},{"Shape":53,"Coordinates":[4.331422,51.82874],"Attributes":{"name":"Medocgaard","highway":"unclassified"}},{"Shape":55,"Coordinates":[4.33185,51.82735],"Attributes":{"name":"Getijdenkreek","highway":"unclassified","maxspeed":"30"}},{"Shape":56,"Coordinates":[4.329939,51.8279],"Attributes":{"name":"Ebkreek","highway":"unclassified","maxspeed":"30"}},{"Shape":57,"Coordinates":[4.330698,51.82723],"Attributes":{"name":"Vloedkreek","highway":"unclassified","maxspeed":"30"}},{"Shape":58,"Coordinates":[4.329827,51.82649],"Attributes":{"name":"Kreek","maxspeed":"50","highway":"tertiary"}},{"Shape":60,"Coordinates":[4.33219,51.82686],"Attributes":{"name":"Vuursteenkreek","highway":"unclassified","maxspeed":"30"}},{"Shape":60,"Coordinates":[4.332664,51.82726],"Attributes":{"name":"Kreek","maxspeed":"50","highway":"tertiary"}},{"Shape":60,"Coordinates":[4.33185,51.82735],"Attributes":{"name":"Getijdenkreek","highway":"unclassified","maxspeed":"30"}},{"Shape":64,"Coordinates":[4.333636,51.82741],"Attributes":{"name":"Hekelingseweg","maxspeed":"50","highway":"secondary"}},{"Shape":75,"Coordinates":[4.336336,51.82405],"Attributes":{"name":"Hekelingseweg","junction":"roundabout","maxspeed":"80","highway":"secondary"}},{"Shape":79,"Coordinates":[4.33609,51.82385],"Attributes":{"name":"Hekelingseweg","junction":"roundabout","maxspeed":"80","highway":"secondary"}},{"Shape":81,"Coordinates":[4.325887,51.82326],"Attributes":{"name":"Westdijk","maxspeed":"80","highway":"secondary"}},{"Shape":84,"Coordinates":[4.333726,51.82465],"Attributes":{"name":"Wachthoevestraat","highway":"unclassified","maxspeed":"30"}},{"Shape":84,"Coordinates":[4.335528,51.82416],"Attributes":{"name":"Moleneind","highway":"unclassified","maxspeed":"30"}},{"Shape":85,"Coordinates":[4.333118,51.8239],"Attributes":{"name":"Moleneind","highway":"unclassified","maxspeed":"30"}},{"Shape":86,"Coordinates":[4.332581,51.82359],"Attributes":{"name":"Moleneind","highway":"unclassified","maxspeed":"30"}},{"Shape":89,"Coordinates":[4.331159,51.82349],"Attributes":{"name":"Visserskreek","highway":"unclassified","maxspeed":"30"}},{"Shape":89,"Coordinates":[4.33172,51.82394],"Attributes":{"name":"Visserskreek","highway":"unclassified","maxspeed":"30"}},{"Shape":91,"Coordinates":[4.331159,51.82349],"Attributes":{"name":"Visserskreek","highway":"unclassified","maxspeed":"30"}},{"Shape":94,"Coordinates":[4.332581,51.82359],"Attributes":{"name":"Moleneind","highway":"unclassified","maxspeed":"30"}},{"Shape":95,"Coordinates":[4.333118,51.8239],"Attributes":{"name":"Moleneind","highway":"unclassified","maxspeed":"30"}},{"Shape":96,"Coordinates":[4.333726,51.82465],"Attributes":{"name":"Wachthoevestraat","highway":"unclassified","maxspeed":"30"}},{"Shape":96,"Coordinates":[4.335528,51.82416],"Attributes":{"name":"Moleneind","highway":"unclassified","maxspeed":"30"}},{"Shape":99,"Coordinates":[4.325887,51.82326],"Attributes":{"name":"Westdijk","maxspeed":"80","highway":"secondary"}},{"Shape":101,"Coordinates":[4.336066,51.82405],"Attributes":{"name":"Hekelingseweg","junction":"roundabout","maxspeed":"80","highway":"secondary"}},{"Shape":104,"Coordinates":[4.336392,51.82365],"Attributes":{"name":"Hekelingseweg","maxspeed":"80","highway":"secondary"}},{"Shape":109,"Coordinates":[4.336336,51.82405],"Attributes":{"name":"Hekelingseweg","junction":"roundabout","maxspeed":"80","highway":"secondary"}},{"Shape":114,"Coordinates":[4.336764,51.82473],"Attributes":{"name":"Dorpsstraat","highway":"service"}},{"Shape":117,"Coordinates":[4.336764,51.82473],"Attributes":{"name":"Dorpsstraat","highway":"service"}},{"Shape":119,"Coordinates":[4.338372,51.8252],"Attributes":{"name":"Groede","highway":"unclassified","maxspeed":"30"}},{"Shape":122,"Coordinates":[4.338445,51.82574],"Attributes":{"name":"Noorderweg","highway":"residential"}},{"Shape":126,"Coordinates":[4.341187,51.82632],"Attributes":{"bridge":"yes","name":"Jan Hoogstadlaan","highway":"living_street"}},{"Shape":126,"Coordinates":[4.341535,51.82636],"Attributes":{"name":"Dorpsstraat","highway":"residential","maxspeed":"30"}},{"Shape":128,"Coordinates":[4.341413,51.827],"Attributes":{"name":"Meeldijk","highway":"unclassified","maxspeed":"30"}},{"Shape":129,"Coordinates":[4.3419,51.82639],"Attributes":{"name":"Smidsweg","highway":"unclassified"}},{"Shape":132,"Coordinates":[4.3423,51.8271],"Attributes":{"name":"Grote Watering","highway":"living_street"}},{"Shape":135,"Coordinates":[4.343616,51.82676],"Attributes":{"name":"Achterweg","highway":"unclassified"}},{"Shape":135,"Coordinates":[4.342711,51.82738],"Attributes":{"highway":"living_street"}},{"Shape":137,"Coordinates":[4.342846,51.82686],"Attributes":{"name":"Achterweg","highway":"unclassified"}},{"Shape":140,"Coordinates":[4.34537,51.82695],"Attributes":{"name":"Middelweg","highway":"unclassified"}},{"Shape":141,"Coordinates":[4.346358,51.82637],"Attributes":{"name":"Dorpsstraat","highway":"residential","maxspeed":"30"}},{"Shape":142,"Coordinates":[4.345284,51.82626],"Attributes":{"name":"Kluivertweg","maxspeed":"30","highway":"living_street"}},{"Shape":144,"Coordinates":[4.344509,51.82603],"Attributes":{"name":"Schoollaan","highway":"living_street"}},{"Shape":144,"Coordinates":[4.344038,51.82652],"Attributes":{"name":"Dorpsstraat","highway":"residential","maxspeed":"30"}},{"Shape":147,"Coordinates":[4.344522,51.82442],"Attributes":{"name":"Lede","highway":"residential","maxspeed":"30"}},{"Shape":147,"Coordinates":[4.345696,51.82476],"Attributes":{"name":"Lede","highway":"residential","maxspeed":"30"}},{"Shape":147,"Coordinates":[4.346452,51.82275],"Attributes":{"name":"Kaatje Mollaan","highway":"residential"}},{"Shape":149,"Coordinates":[4.344509,51.82603],"Attributes":{"name":"Schoollaan","highway":"living_street"}},{"Shape":149,"Coordinates":[4.346452,51.82275],"Attributes":{"name":"Kaatje Mollaan","highway":"residential"}},{"Shape":151,"Coordinates":[4.346587,51.82507],"Attributes":{"name":"Lede","highway":"residential","maxspeed":"30"}},{"Shape":151,"Coordinates":[4.346221,51.82478],"Attributes":{"name":"Kluivertweg","maxspeed":"30","highway":"living_street"}},{"Shape":151,"Coordinates":[4.345762,51.82548],"Attributes":{"name":"Kluivertweg","highway":"living_street"}},{"Shape":153,"Coordinates":[4.345696,51.82476],"Attributes":{"name":"Lede","highway":"residential","maxspeed":"30"}},{"Shape":153,"Coordinates":[4.345762,51.82548],"Attributes":{"name":"Kluivertweg","highway":"living_street"}},{"Shape":155,"Coordinates":[4.346753,51.8257],"Attributes":{"name":"L de Raatlaan","highway":"residential","maxspeed":"30"}},{"Shape":156,"Coordinates":[4.347569,51.82576],"Attributes":{"name":"Zwaag","highway":"living_street"}},{"Shape":157,"Coordinates":[4.348474,51.82539],"Attributes":{"name":"Kors Monsterstraat","highway":"residential"}},{"Shape":160,"Coordinates":[4.347569,51.82576],"Attributes":{"name":"Zwaag","highway":"living_street"}},{"Shape":161,"Coordinates":[4.346587,51.82507],"Attributes":{"name":"Lede","highway":"residential","maxspeed":"30"}},{"Shape":162,"Coordinates":[4.345762,51.82548],"Attributes":{"name":"Voorde","maxspeed":"30","highway":"living_street"}},{"Shape":162,"Coordinates":[4.346717,51.82624],"Attributes":{"name":"L de Raatlaan","highway":"residential","maxspeed":"30"}},{"Shape":165,"Coordinates":[4.348071,51.8264],"Attributes":{"name":"Dorpsstraat","highway":"residential","maxspeed":"30"}},{"Shape":167,"Coordinates":[4.345333,51.82642],"Attributes":{"name":"Dorpsstraat","highway":"residential","maxspeed":"30"}},{"Shape":168,"Coordinates":[4.34537,51.82695],"Attributes":{"name":"Middelweg","highway":"unclassified"}},{"Shape":171,"Coordinates":[4.342711,51.82738],"Attributes":{"highway":"living_street"}},{"Shape":174,"Coordinates":[4.3423,51.8271],"Attributes":{"name":"Grote Watering","highway":"living_street"}},{"Shape":177,"Coordinates":[4.341389,51.82682],"Attributes":{"name":"Achterweg","highway":"unclassified"}},{"Shape":178,"Coordinates":[4.34261,51.82515],"Attributes":{"name":"Emmalaan","highway":"living_street"}},{"Shape":178,"Coordinates":[4.341535,51.82636],"Attributes":{"name":"Dorpsstraat","highway":"residential","maxspeed":"30"}},{"Shape":178,"Coordinates":[4.342137,51.82642],"Attributes":{"name":"Dorpsstraat","highway":"residential","maxspeed":"30"}},{"Shape":184,"Coordinates":[4.34341,51.8242],"Attributes":{"name":"Lede","highway":"residential","maxspeed":"30"}},{"Shape":185,"Coordinates":[4.342987,51.82362],"Attributes":{"name":"Lede","highway":"living_street"}},{"Shape":185,"Coordinates":[4.342392,51.82404],"Attributes":{"name":"Lede","highway":"residential","maxspeed":"30"}},{"Shape":187,"Coordinates":[4.341794,51.82514],"Attributes":{"name":"Jan Hoogstadlaan","highway":"living_street"}},{"Shape":188,"Coordinates":[4.342379,51.82346],"Attributes":{"name":"Lede","highway":"living_street"}},{"Shape":189,"Coordinates":[4.341437,51.82423],"Attributes":{"name":"Zwette","highway":"living_street"}},{"Shape":194,"Coordinates":[4.339011,51.82504],"Attributes":{"name":"Groede","highway":"unclassified","maxspeed":"30"}},{"Shape":198,"Coordinates":[4.340766,51.82544],"Attributes":{"name":"Schare","highway":"living_street"}},{"Shape":198,"Coordinates":[4.340343,51.82568],"Attributes":{"highway":"living_street"}},{"Shape":200,"Coordinates":[4.340343,51.82568],"Attributes":{"highway":"living_street"}},{"Shape":204,"Coordinates":[4.340723,51.82417],"Attributes":{"name":"Groede","highway":"unclassified","maxspeed":"30"}},{"Shape":205,"Coordinates":[4.338839,51.82524],"Attributes":{"name":"Groede","highway":"residential"}},{"Shape":207,"Coordinates":[4.338193,51.82534],"Attributes":{"name":"Dorpsstraat","highway":"residential","maxspeed":"30"}},{"Shape":209,"Coordinates":[4.336764,51.82473],"Attributes":{"name":"Dorpsstraat","highway":"service"}},{"Shape":212,"Coordinates":[4.336764,51.82473],"Attributes":{"name":"Dorpsstraat","highway":"service"}},{"Shape":217,"Coordinates":[4.336315,51.82386],"Attributes":{"name":"Hekelingseweg","junction":"roundabout","maxspeed":"80","highway":"secondary"}},{"Shape":220,"Coordinates":[4.336066,51.82405],"Attributes":{"name":"Hekelingseweg","junction":"roundabout","maxspeed":"80","highway":"secondary"}},{"Shape":231,"Coordinates":[4.333636,51.82741],"Attributes":{"name":"Hekelingseweg","maxspeed":"50","highway":"secondary"}},{"Shape":234,"Coordinates":[4.331657,51.82722],"Attributes":{"name":"Kreek","maxspeed":"50","highway":"tertiary"}},{"Shape":234,"Coordinates":[4.33185,51.82735],"Attributes":{"name":"Getijdenkreek","highway":"unclassified","maxspeed":"30"}},{"Shape":238,"Coordinates":[4.333327,51.82583],"Attributes":{"name":"Vuursteenkreek","highway":"unclassified","maxspeed":"30"}},{"Shape":238,"Coordinates":[4.332315,51.82635],"Attributes":{"name":"Moeraskreek","highway":"unclassified","maxspeed":"30"}},{"Shape":243,"Coordinates":[4.332394,51.82546],"Attributes":{"name":"Biezenkreek","highway":"unclassified","maxspeed":"30"}},{"Shape":243,"Coordinates":[4.332428,51.82493],"Attributes":{"name":"Steurkreek","highway":"unclassified","maxspeed":"30"}},{"Shape":251,"Coordinates":[4.330917,51.82581],"Attributes":{"name":"Rietkreek","highway":"unclassified","maxspeed":"30"}},{"Shape":252,"Coordinates":[4.330359,51.82567],"Attributes":{"name":"Woonkreek","highway":"unclassified","maxspeed":"30"}},{"Shape":254,"Coordinates":[4.329816,51.82538],"Attributes":{"name":"Speerpuntkreek","highway":"unclassified","maxspeed":"30"}},{"Shape":254,"Coordinates":[4.329267,51.82452],"Attributes":{"name":"Berenkreek","highway":"residential","maxspeed":"30"}},{"Shape":274,"Coordinates":[4.329816,51.82538],"Attributes":{"name":"Speerpuntkreek","highway":"unclassified","maxspeed":"30"}},{"Shape":276,"Coordinates":[4.330599,51.82568],"Attributes":{"name":"Woonkreek","highway":"unclassified","maxspeed":"30"}},{"Shape":276,"Coordinates":[4.330359,51.82567],"Attributes":{"name":"Woonkreek","highway":"unclassified","maxspeed":"30"}},{"Shape":278,"Coordinates":[4.330034,51.8257],"Attributes":{"name":"Woonkreek","highway":"unclassified","maxspeed":"30"}},{"Shape":279,"Coordinates":[4.330034,51.8257],"Attributes":{"name":"Woonkreek","highway":"unclassified","maxspeed":"30"}},{"Shape":282,"Coordinates":[4.329827,51.82649],"Attributes":{"name":"Kreek","maxspeed":"50","highway":"tertiary"}},{"Shape":282,"Coordinates":[4.32921,51.82681],"Attributes":{"name":"IJzertijdkreek","highway":"unclassified","maxspeed":"30"}},{"Shape":285,"Coordinates":[4.329098,51.82625],"Attributes":{"name":"Pijlpuntkreek","maxspeed":"50","highway":"tertiary"}},{"Shape":285,"Coordinates":[4.32916,51.82608],"Attributes":{"name":"Pijlpuntkreek","highway":"unclassified","maxspeed":"30"}},{"Shape":287,"Coordinates":[4.329519,51.82633],"Attributes":{"name":"Pijlpuntkreek","maxspeed":"50","highway":"tertiary"}},{"Shape":293,"Coordinates":[4.32723,51.82602],"Attributes":{"name":"Jagerskreek","highway":"unclassified","maxspeed":"30"}},{"Shape":297,"Coordinates":[4.326459,51.82742],"Attributes":{"name":"Kreek","maxspeed":"30","highway":"tertiary"}},{"Shape":297,"Coordinates":[4.326376,51.82656],"Attributes":{"name":"Jagerskreek","highway":"unclassified","maxspeed":"30"}},{"Shape":297,"Coordinates":[4.327601,51.82707],"Attributes":{"name":"Nomadenkreek","highway":"unclassified","maxspeed":"30"}},{"Shape":299,"Coordinates":[4.327601,51.82707],"Attributes":{"name":"Nomadenkreek","highway":"unclassified","maxspeed":"30"}},{"Shape":299,"Coordinates":[4.327579,51.82644],"Attributes":{"name":"Kreek","maxspeed":"50","highway":"tertiary"}},{"Shape":300,"Coordinates":[4.326637,51.8275],"Attributes":{"name":"Klokbekerkreek","highway":"unclassified","maxspeed":"30"}},{"Shape":306,"Coordinates":[4.324032,51.8278],"Attributes":{"name":"Borstelgras","highway":"unclassified"}},{"Shape":310,"Coordinates":[4.324769,51.82686],"Attributes":{"name":"Schaduwgras","maxspeed":"30","highway":"tertiary"}},{"Shape":310,"Coordinates":[4.324249,51.82681],"Attributes":{"highway":"service"}},{"Shape":312,"Coordinates":[4.324549,51.82706],"Attributes":{"name":"Schaduwgras","maxspeed":"30","highway":"tertiary"}},{"Shape":313,"Coordinates":[4.324406,51.82671],"Attributes":{"highway":"service"}},{"Shape":314,"Coordinates":[4.324551,51.82659],"Attributes":{"highway":"service"}},{"Shape":317,"Coordinates":[4.323804,51.82615],"Attributes":{"name":"Schaduwgras","maxspeed":"30","highway":"tertiary"}},{"Shape":318,"Coordinates":[4.324994,51.82545],"Attributes":{"name":"Duinrietgras","highway":"unclassified","maxspeed":"30"}},{"Shape":319,"Coordinates":[4.325416,51.82623],"Attributes":{"name":"Smelegras","highway":"unclassified","maxspeed":"30"}},{"Shape":320,"Coordinates":[4.325787,51.82589],"Attributes":{"name":"Smelegras","highway":"unclassified","maxspeed":"30"}},{"Shape":321,"Coordinates":[4.326018,51.82545],"Attributes":{"name":"Vedergras","highway":"unclassified","maxspeed":"30"}},{"Shape":321,"Coordinates":[4.324994,51.82545],"Attributes":{"name":"Raaigras","highway":"unclassified","maxspeed":"30"}},{"Shape":325,"Coordinates":[4.32558,51.8258],"Attributes":{"name":"Smelegras","highway":"unclassified","maxspeed":"30"}},{"Shape":326,"Coordinates":[4.325323,51.82516],"Attributes":{"name":"Duinrietgras","highway":"unclassified","maxspeed":"30"}},{"Shape":326,"Coordinates":[4.324549,51.82586],"Attributes":{"name":"Duinrietgras","highway":"unclassified","maxspeed":"30"}},{"Shape":326,"Coordinates":[4.324544,51.82525],"Attributes":{"name":"Raaigras","highway":"unclassified","maxspeed":"30"}},{"Shape":329,"Coordinates":[4.3243,51.825],"Attributes":{"name":"Raaigras","highway":"service"}},{"Shape":331,"Coordinates":[4.322537,51.82583],"Attributes":{"name":"Zoutgras","highway":"unclassified"}},{"Shape":333,"Coordinates":[4.32182,51.82644],"Attributes":{"name":"Raaigras","highway":"unclassified","maxspeed":"30"}},{"Shape":333,"Coordinates":[4.322437,51.82642],"Attributes":{"name":"Wollegras","highway":"residential","maxspeed":"30"}},{"Shape":336,"Coordinates":[4.32097,51.82654],"Attributes":{"name":"Blauwgras","highway":"unclassified"}},{"Shape":336,"Coordinates":[4.32095,51.82671],"Attributes":{"name":"Raaigras","highway":"unclassified","maxspeed":"30"}},{"Shape":339,"Coordinates":[4.319942,51.82715],"Attributes":{"name":"Baardgras","highway":"unclassified","maxspeed":"30"}},{"Shape":340,"Coordinates":[4.322455,51.82724],"Attributes":{"name":"Schaduwgras","maxspeed":"30","highway":"tertiary"}},{"Shape":341,"Coordinates":[4.321013,51.82742],"Attributes":{"name":"Baardgras","highway":"unclassified"}},{"Shape":342,"Coordinates":[4.320266,51.82742],"Attributes":{"name":"Parelgras","highway":"unclassified"}},{"Shape":343,"Coordinates":[4.320794,51.82771],"Attributes":{"name":"Doddegras","highway":"unclassified"}},{"Shape":346,"Coordinates":[4.319798,51.82873],"Attributes":{"name":"Buntgras","maxspeed":"30","highway":"tertiary"}},{"Shape":349,"Coordinates":[4.3186,51.8288],"Attributes":{"name":"Pampasgras","highway":"unclassified"}},{"Shape":354,"Coordinates":[4.320348,51.82964],"Attributes":{"name":"Pampasgras","highway":"unclassified"}},{"Shape":354,"Coordinates":[4.31984,51.82999],"Attributes":{"name":"Pampasgras","highway":"unclassified"}},{"Shape":358,"Coordinates":[4.321227,51.82941],"Attributes":{"name":"Buntgras","maxspeed":"30","highway":"tertiary"}},{"Shape":358,"Coordinates":[4.320288,51.83024],"Attributes":{"name":"Buntgras","maxspeed":"30","highway":"tertiary"}},{"Shape":359,"Coordinates":[4.322,51.8303],"Attributes":{"name":"Borstelgras","highway":"unclassified"}},{"Shape":360,"Coordinates":[4.322065,51.82959],"Attributes":{"name":"Borstelgras","highway":"unclassified"}},{"Shape":360,"Coordinates":[4.322231,51.82975],"Attributes":{"name":"Borstelgras","highway":"unclassified"}},{"Shape":362,"Coordinates":[4.322065,51.82959],"Attributes":{"name":"Borstelgras","highway":"unclassified"}},{"Shape":363,"Coordinates":[4.322,51.8303],"Attributes":{"name":"Borstelgras","highway":"unclassified"}},{"Shape":364,"Coordinates":[4.321227,51.82941],"Attributes":{"name":"Buntgras","maxspeed":"30","highway":"tertiary"}},{"Shape":364,"Coordinates":[4.320348,51.82964],"Attributes":{"name":"Pampasgras","highway":"unclassified"}},{"Shape":365,"Coordinates":[4.319713,51.83031],"Attributes":{"name":"Buntgras","maxspeed":"30","highway":"tertiary"}},{"Shape":368,"Coordinates":[4.320588,51.83104],"Attributes":{"highway":"residential","maxspeed":"30"}},{"Shape":368,"Coordinates":[4.321059,51.8307],"Attributes":{"name":"Scherpgras","highway":"unclassified"}},{"Shape":368,"Coordinates":[4.3193,51.8309],"Attributes":{"name":"Scherpgras","highway":"unclassified"}},{"Shape":370,"Coordinates":[4.321059,51.8307],"Attributes":{"name":"Scherpgras","highway":"unclassified"}},{"Shape":370,"Coordinates":[4.3193,51.8309],"Attributes":{"name":"Scherpgras","highway":"unclassified"}},{"Shape":373,"Coordinates":[4.320771,51.82981],"Attributes":{"name":"Buntgras","maxspeed":"30","highway":"tertiary"}},{"Shape":375,"Coordinates":[4.318602,51.83013],"Attributes":{"name":"Parelgras","highway":"unclassified"}},{"Shape":378,"Coordinates":[4.319433,51.83155],"Attributes":{"name":"Zuidakker","highway":"unclassified","maxspeed":"30"}},{"Shape":378,"Coordinates":[4.318355,51.83146],"Attributes":{"highway":"service","motorcar":"no","oneway":"yes"}},{"Shape":380,"Coordinates":[4.318357,51.83153],"Attributes":{"highway":"service","motorcar":"no","oneway":"yes"}},{"Shape":381,"Coordinates":[4.317417,51.83252],"Attributes":{"name":"Akkersweg","highway":"tertiary"}},{"Shape":383,"Coordinates":[4.317125,51.83195],"Attributes":{"name":"Torellistraat","highway":"unclassified"}},{"Shape":384,"Coordinates":[4.316376,51.83117],"Attributes":{"name":"Torellistraat","highway":"unclassified"}},{"Shape":385,"Coordinates":[4.315817,51.83203],"Attributes":{"name":"Vogelenzanglaan","highway":"unclassified"}},{"Shape":389,"Coordinates":[4.315175,51.83174],"Attributes":{"name":"Rossinistraat","highway":"unclassified"}},{"Shape":391,"Coordinates":[4.3155,51.8309],"Attributes":{"name":"Vivaldiplein","highway":"unclassified"}},{"Shape":392,"Coordinates":[4.314407,51.83109],"Attributes":{"name":"Bellinistraat","highway":"living_street"}},{"Shape":394,"Coordinates":[4.314004,51.82993],"Attributes":{"name":"J Wagenaarstraat","highway":"residential"}},{"Shape":395,"Coordinates":[4.312871,51.83063],"Attributes":{"name":"Schumannlaan","highway":"unclassified"}},{"Shape":395,"Coordinates":[4.312179,51.83036],"Attributes":{"name":"Vogelenzanglaan","highway":"tertiary"}},{"Shape":399,"Coordinates":[4.31342,51.83075],"Attributes":{"name":"Vogelenzanglaan","highway":"tertiary"}},{"Shape":400,"Coordinates":[4.312139,51.83042],"Attributes":{"name":"Bachbaan","highway":"unclassified"}},{"Shape":403,"Coordinates":[4.311745,51.83001],"Attributes":{"name":"Vogelenzanglaan","highway":"residential"}},{"Shape":404,"Coordinates":[4.312366,51.82983],"Attributes":{"highway":"unclassified"}},{"Shape":404,"Coordinates":[4.312261,51.82947],"Attributes":{"name":"J Ingenhovenstraat","highway":"unclassified"}},{"Shape":406,"Coordinates":[4.312261,51.82947],"Attributes":{"name":"J Ingenhovenstraat","highway":"unclassified"}},{"Shape":407,"Coordinates":[4.311745,51.83001],"Attributes":{"name":"Vogelenzanglaan","highway":"residential"}},{"Shape":410,"Coordinates":[4.312895,51.8306],"Attributes":{"name":"Vogelenzanglaan","highway":"tertiary"}},{"Shape":413,"Coordinates":[4.311045,51.83103],"Attributes":{"name":"Wagnerlaan","highway":"unclassified"}},{"Shape":421,"Coordinates":[4.3111,51.8325],"Attributes":{"name":"Bachbaan","highway":"unclassified","motorcar":"no"}},{"Shape":423,"Coordinates":[4.309826,51.83209],"Attributes":{"name":"Mozartweg","highway":"residential"}},{"Shape":425,"Coordinates":[4.309826,51.83209],"Attributes":{"name":"Mozartweg","highway":"residential"}},{"Shape":425,"Coordinates":[4.3101,51.8328],"Attributes":{"name":"Schubertstraat","highway":"residential"}},{"Shape":429,"Coordinates":[4.309624,51.83321],"Attributes":{"name":"Dallelaan","highway":"unclassified"}},{"Shape":430,"Coordinates":[4.311372,51.83355],"Attributes":{"name":"Dallelaan","highway":"unclassified"}},{"Shape":430,"Coordinates":[4.3111,51.8325],"Attributes":{"name":"Bachbaan","highway":"unclassified","motorcar":"no"}},{"Shape":430,"Coordinates":[4.310143,51.83438],"Attributes":{"name":"Bachbaan","highway":"unclassified","motorcar":"no"}},{"Shape":432,"Coordinates":[4.3111,51.8325],"Attributes":{"name":"Bachbaan","highway":"unclassified","motorcar":"no"}},{"Shape":432,"Coordinates":[4.310143,51.83438],"Attributes":{"name":"Bachbaan","highway":"unclassified","motorcar":"no"}},{"Shape":433,"Coordinates":[4.309624,51.83321],"Attributes":{"name":"Dallelaan","highway":"unclassified"}},{"Shape":436,"Coordinates":[4.309826,51.83209],"Attributes":{"name":"Mozartweg","highway":"residential"}},{"Shape":438,"Coordinates":[4.309826,51.83209],"Attributes":{"name":"Mozartweg","highway":"residential"}},{"Shape":440,"Coordinates":[4.3111,51.8325],"Attributes":{"name":"Bachbaan","highway":"unclassified","motorcar":"no"}},{"Shape":448,"Coordinates":[4.312139,51.83042],"Attributes":{"name":"Bachbaan","highway":"unclassified"}},{"Shape":449,"Coordinates":[4.3107,51.8315],"Attributes":{"name":"Beethovenstraat","highway":"unclassified"}},{"Shape":449,"Coordinates":[4.310841,51.83096],"Attributes":{"name":"Wagnerlaan","highway":"unclassified"}},{"Shape":454,"Coordinates":[4.310561,51.8302],"Attributes":{"name":"Wagnerlaan","highway":"unclassified"}},{"Shape":454,"Coordinates":[4.310244,51.82963],"Attributes":{"name":"J P Sweelinckstraat","highway":"unclassified"}},{"Shape":458,"Coordinates":[4.3102,51.8307],"Attributes":{"name":"Wagnerlaan","highway":"unclassified"}},{"Shape":462,"Coordinates":[4.310569,51.82904],"Attributes":{"name":"J P Sweelinckstraat","highway":"unclassified"}},{"Shape":465,"Coordinates":[4.3108,51.8286],"Attributes":{"name":"J P Sweelinckstraat","highway":"unclassified"}},{"Shape":466,"Coordinates":[4.3117,51.8281],"Attributes":{"name":"P Hellendaalstraat","highway":"unclassified"}},{"Shape":467,"Coordinates":[4.3122,51.8292],"Attributes":{"name":"J Ingenhovenstraat","highway":"unclassified"}},{"Shape":469,"Coordinates":[4.312675,51.8282],"Attributes":{"name":"L Verweelstraat","highway":"unclassified"}},{"Shape":469,"Coordinates":[4.313531,51.82862],"Attributes":{"name":"A Diepenbrockstraat","highway":"unclassified"}},{"Shape":471,"Coordinates":[4.312039,51.82847],"Attributes":{"name":"A Diepenbrockstraat","highway":"unclassified"}},{"Shape":472,"Coordinates":[4.313146,51.82911],"Attributes":{"name":"W Pijperstraat","highway":"unclassified"}},{"Shape":473,"Coordinates":[4.313474,51.82843],"Attributes":{"name":"A Diepenbrockstraat","highway":"unclassified"}},{"Shape":474,"Coordinates":[4.3145,51.8282],"Attributes":{"name":"E Flipsestraat","highway":"unclassified"}},{"Shape":474,"Coordinates":[4.314403,51.82874],"Attributes":{"name":"E Flipsestraat","highway":"unclassified"}},{"Shape":476,"Coordinates":[4.313651,51.82849],"Attributes":{"name":"A Diepenbrockstraat","highway":"unclassified"}},{"Shape":478,"Coordinates":[4.315082,51.82899],"Attributes":{"name":"A Diepenbrockstraat","highway":"unclassified"}},{"Shape":479,"Coordinates":[4.3138,51.8293],"Attributes":{"name":"P van Anrooystraat","highway":"residential"}},{"Shape":480,"Coordinates":[4.314004,51.82993],"Attributes":{"name":"J Wagenaarstraat","highway":"residential"}},{"Shape":487,"Coordinates":[4.312895,51.8306],"Attributes":{"name":"Vogelenzanglaan","highway":"tertiary"}},{"Shape":489,"Coordinates":[4.314407,51.83109],"Attributes":{"name":"Bellinistraat","highway":"living_street"}},{"Shape":490,"Coordinates":[4.3155,51.8309],"Attributes":{"name":"Vivaldiplein","highway":"unclassified"}},{"Shape":490,"Coordinates":[4.315341,51.83139],"Attributes":{"name":"Vogelenzanglaan","highway":"tertiary"}},{"Shape":494,"Coordinates":[4.314439,51.83104],"Attributes":{"name":"Vogelenzanglaan","highway":"tertiary"}},{"Shape":496,"Coordinates":[4.315175,51.83174],"Attributes":{"name":"Rossinistraat","highway":"unclassified"}},{"Shape":500,"Coordinates":[4.316184,51.83197],"Attributes":{"name":"Vogelenzanglaan","highway":"tertiary"}},{"Shape":503,"Coordinates":[4.316317,51.83288],"Attributes":{"name":"Paganinihof","highway":"unclassified"}},{"Shape":507,"Coordinates":[4.315722,51.83256],"Attributes":{"name":"Verdilaan","highway":"unclassified"}},{"Shape":511,"Coordinates":[4.315286,51.83182],"Attributes":{"name":"Vogelenzanglaan","highway":"tertiary"}},{"Shape":512,"Coordinates":[4.316376,51.83117],"Attributes":{"name":"Torellistraat","highway":"unclassified"}},{"Shape":513,"Coordinates":[4.317125,51.83195],"Attributes":{"name":"Torellistraat","highway":"unclassified"}},{"Shape":513,"Coordinates":[4.317215,51.83207],"Attributes":{"name":"Vogelenzanglaan","highway":"tertiary"}},{"Shape":517,"Coordinates":[4.316184,51.83197],"Attributes":{"name":"Vogelenzanglaan","highway":"tertiary"}},{"Shape":519,"Coordinates":[4.317719,51.8318],"Attributes":{"name":"Buntgras","maxspeed":"30","highway":"tertiary"}},{"Shape":519,"Coordinates":[4.317417,51.83252],"Attributes":{"name":"Akkersweg","highway":"tertiary"}},{"Shape":521,"Coordinates":[4.317215,51.83207],"Attributes":{"name":"Vogelenzanglaan","highway":"tertiary"}},{"Shape":522,"Coordinates":[4.318357,51.83153],"Attributes":{"highway":"service","motorcar":"no","oneway":"yes"}},{"Shape":524,"Coordinates":[4.319433,51.83155],"Attributes":{"name":"Zuidakker","highway":"unclassified","maxspeed":"30"}},{"Shape":524,"Coordinates":[4.318905,51.83068],"Attributes":{"name":"Buntgras","maxspeed":"30","highway":"tertiary"}},{"Shape":524,"Coordinates":[4.318355,51.83146],"Attributes":{"highway":"service","motorcar":"no","oneway":"yes"}},{"Shape":529,"Coordinates":[4.319528,51.83194],"Attributes":{"highway":"service"}},{"Shape":530,"Coordinates":[4.320799,51.83149],"Attributes":{"name":"Zuidakker","highway":"unclassified","maxspeed":"30"}},{"Shape":530,"Coordinates":[4.319762,51.83196],"Attributes":{"highway":"service"}},{"Shape":532,"Coordinates":[4.320799,51.83149],"Attributes":{"name":"Zuidakker","highway":"unclassified","maxspeed":"30"}},{"Shape":533,"Coordinates":[4.319528,51.83194],"Attributes":{"highway":"service"}},{"Shape":537,"Coordinates":[4.318063,51.8315],"Attributes":{"name":"Buntgras","maxspeed":"30","highway":"tertiary"}},{"Shape":537,"Coordinates":[4.318355,51.83146],"Attributes":{"highway":"service","motorcar":"no","oneway":"yes"}},{"Shape":540,"Coordinates":[4.319713,51.83031],"Attributes":{"name":"Buntgras","maxspeed":"30","highway":"tertiary"}},{"Shape":541,"Coordinates":[4.318117,51.83054],"Attributes":{"name":"Meeldijk","highway":"unclassified"}},{"Shape":543,"Coordinates":[4.3179,51.8297],"Attributes":{"name":"Pluimgras","highway":"unclassified"}},{"Shape":543,"Coordinates":[4.31764,51.83009],"Attributes":{"name":"Pluimgras","highway":"unclassified"}},{"Shape":547,"Coordinates":[4.318447,51.83006],"Attributes":{"name":"Pluimgras","highway":"unclassified"}},{"Shape":549,"Coordinates":[4.316682,51.82869],"Attributes":{"name":"Parelgras","highway":"unclassified"}},{"Shape":549,"Coordinates":[4.317723,51.82914],"Attributes":{"name":"Pampasgras","highway":"unclassified"}},{"Shape":560,"Coordinates":[4.320266,51.82742],"Attributes":{"name":"Parelgras","highway":"unclassified"}},{"Shape":560,"Coordinates":[4.318277,51.82871],"Attributes":{"name":"Parelgras","highway":"unclassified"}},{"Shape":568,"Coordinates":[4.320767,51.82735],"Attributes":{"name":"Buntgras","maxspeed":"30","highway":"tertiary"}},{"Shape":569,"Coordinates":[4.32025,51.82798],"Attributes":{"name":"Buntgras","maxspeed":"30","highway":"tertiary"}},{"Shape":569,"Coordinates":[4.320794,51.82771],"Attributes":{"name":"Doddegras","highway":"unclassified"}},{"Shape":573,"Coordinates":[4.321912,51.82826],"Attributes":{"name":"Vlotgras","highway":"unclassified"}},{"Shape":575,"Coordinates":[4.322208,51.82758],"Attributes":{"name":"Vlotgras","highway":"unclassified"}},{"Shape":576,"Coordinates":[4.322736,51.82833],"Attributes":{"name":"Vlotgras","highway":"unclassified"}},{"Shape":577,"Coordinates":[4.323107,51.82822],"Attributes":{"name":"Vlotgras","highway":"unclassified"}},{"Shape":579,"Coordinates":[4.323675,51.82786],"Attributes":{"name":"Vlotgras","highway":"unclassified"}},{"Shape":579,"Coordinates":[4.3238,51.8281],"Attributes":{"name":"Vlotgras","highway":"unclassified"}}]}