{"Shape":[[4.362249,51.83609],[4.362183,51.8356],[4.362,51.83559],[4.36209,51.83628],[4.362113,51.83641],[4.362199,51.83688],[4.362391,51.8378],[4.362199,51.83688],[4.362395,51.83686],[4.362588,51.83685],[4.362637,51.83716],[4.362693,51.83744],[4.362755,51.83772],[4.362759,51.83774],[4.362813,51.83805],[4.362897,51.83831],[4.362933,51.83848],[4.363002,51.83858],[4.36314,51.83867],[4.363311,51.83872],[4.363814,51.83873],[4.364505,51.83876],[4.364714,51.83876],[4.36481,51.83882],[4.366362,51.83887],[4.367903,51.83892],[4.366362,51.83887],[4.36481,51.83882],[4.364714,51.83876],[4.364704,51.83848],[4.36464,51.83818],[4.364522,51.83761],[4.365499,51.83763],[4.365944,51.83764],[4.365939,51.8376],[4.365883,51.83719],[4.365823,51.83672],[4.36506,51.8367],[4.365064,51.8366],[4.365098,51.83566],[4.364598,51.83564],[4.3645,51.8348],[4.364818,51.83464],[4.3645,51.8348],[4.364598,51.83564],[4.365098,51.83566],[4.365858,51.83567],[4.365995,51.83579],[4.366209,51.83587],[4.366416,51.83591],[4.366599,51.83589],[4.366675,51.83588],[4.366899,51.83581],[4.367046,51.8357],[4.367049,51.83558],[4.367056,51.83533],[4.367445,51.83514],[4.368117,51.83483],[4.367445,51.83514],[4.367056,51.83533],[4.367049,51.83558],[4.367046,51.8357],[4.367727,51.83575],[4.367617,51.8368],[4.368389,51.83685],[4.368356,51.83699],[4.368389,51.83685],[4.368972,51.8369],[4.370177,51.83698],[4.370038,51.8376],[4.370005,51.83772],[4.369893,51.83816],[4.370094,51.83818],[4.370241,51.83762],[4.3704,51.837],[4.370615,51.83702],[4.370728,51.8366],[4.370615,51.83702],[4.3704,51.837],[4.370177,51.83698],[4.370326,51.83643],[4.370457,51.83588],[4.370462,51.83586],[4.370678,51.83587],[4.370903,51.83588],[4.370893,51.83534],[4.370876,51.83529],[4.370724,51.83487],[4.370527,51.83491],[4.370261,51.83447],[4.369798,51.83403],[4.369971,51.83395],[4.369474,51.83356],[4.369341,51.83345],[4.368838,51.83305],[4.368187,51.83253],[4.368289,51.83248],[4.368187,51.83253],[4.368838,51.83305],[4.369474,51.83356],[4.369971,51.83395],[4.369798,51.83403],[4.369626,51.83411],[4.369594,51.83409],[4.369088,51.83369],[4.368437,51.83317],[4.367792,51.83266],[4.367764,51.83264],[4.367792,51.83266],[4.367483,51.83282],[4.367129,51.83322],[4.366941,51.83331],[4.366846,51.83372],[4.367596,51.83383],[4.366846,51.83372],[4.365999,51.83372],[4.365982,51.83362],[4.365887,51.8331],[4.365628,51.83289],[4.364795,51.83329],[4.363894,51.83372],[4.36375,51.83378],[4.363663,51.83383],[4.363661,51.83393],[4.363647,51.83459],[4.363756,51.83563],[4.363699,51.83563],[4.363351,51.83562],[4.363294,51.83529],[4.363256,51.83514],[4.362886,51.83512],[4.362876,51.8352],[4.362886,51.83512],[4.363256,51.83514],[4.363294,51.83529],[4.363351,51.83562],[4.362383,51.8356],[4.362183,51.8356],[4.362207,51.83537],[4.362295,51.83504],[4.36259,51.83456],[4.362716,51.8344],[4.362961,51.83414],[4.363196,51.83397],[4.363072,51.8339],[4.362954,51.83384],[4.362914,51.83384],[4.362954,51.83384],[4.363072,51.8339],[4.363196,51.83397],[4.362961,51.83414],[4.362716,51.8344],[4.36259,51.83456],[4.362263,51.83449],[4.36189,51.8344],[4.361663,51.83434],[4.36149,51.8343],[4.361216,51.83426],[4.360715,51.83423],[4.360428,51.83422],[4.359982,51.83422],[4.359963,51.83443],[4.359956,51.83451],[4.360041,51.83551],[4.360006,51.83558],[4.359909,51.83559],[4.359545,51.83559],[4.359371,51.83561],[4.358798,51.83573],[4.358778,51.83574],[4.358304,51.83594],[4.357912,51.83622],[4.357645,51.83656],[4.357581,51.83673],[4.357536,51.83692],[4.357599,51.83693],[4.358421,51.83695],[4.358706,51.83696],[4.359236,51.83698],[4.359298,51.83698],[4.359346,51.83698],[4.359304,51.83751],[4.359249,51.83808],[4.359207,51.83857],[4.359298,51.83863],[4.359503,51.83864],[4.359298,51.83863],[4.359207,51.83857],[4.358305,51.83854],[4.357405,51.83851],[4.35744,51.83802],[4.3567,51.838],[4.35744,51.83802],[4.357405,51.83851],[4.357304,51.83856],[4.356604,51.83854],[4.356521,51.83856],[4.356054,51.83867],[4.356095,51.83873],[4.356225,51.83888],[4.356655,51.83944],[4.356703,51.8395],[4.356782,51.83951],[4.356853,51.83953],[4.35768,51.83932],[4.358326,51.83921],[4.358597,51.83918],[4.358951,51.83918],[4.359308,51.8392],[4.359479,51.8392],[4.362588,51.8393],[4.362784,51.83931],[4.363057,51.83931],[4.3678,51.8395],[4.369701,51.83956],[4.369735,51.83941],[4.369788,51.83918],[4.369864,51.83901],[4.36999,51.83858],[4.370255,51.83857],[4.370311,51.83854],[4.370436,51.83859],[4.370712,51.83867],[4.37106,51.83872],[4.371407,51.83873],[4.3717,51.83871],[4.372097,51.83863],[4.372175,51.83837],[4.372507,51.8371],[4.372175,51.83837],[4.372097,51.83863],[4.3717,51.83871],[4.371407,51.83873],[4.371304,51.83873],[4.37106,51.83872],[4.370712,51.83867],[4.370436,51.83859],[4.370311,51.83854],[4.370255,51.83857],[4.36999,51.83858],[4.369864,51.83901],[4.369873,51.83919],[4.369848,51.83942],[4.369828,51.83957],[4.369701,51.83956],[4.3678,51.8395],[4.363057,51.83931],[4.362784,51.83931],[4.362588,51.8393],[4.359479,51.8392],[4.359308,51.8392],[4.358794,51.83924],[4.358328,51.8393],[4.357975,51.83939],[4.356953,51.83965],[4.356946,51.83969],[4.356892,51.83976],[4.356812,51.8398],[4.356715,51.83981],[4.35661,51.8398],[4.356521,51.83977],[4.356475,51.83973],[4.35645,51.83968],[4.356448,51.83964],[4.356467,51.83959],[4.356505,51.83955],[4.356559,51.83953],[4.356528,51.83948],[4.356172,51.83889],[4.356095,51.83873],[4.356054,51.83867],[4.355865,51.83872],[4.355744,51.83854],[4.355442,51.83807],[4.355262,51.83775],[4.355149,51.83741],[4.355262,51.83775],[4.355442,51.83807],[4.354567,51.83827],[4.354502,51.83861],[4.354394,51.83879],[4.354266,51.83889],[4.353954,51.83899],[4.353641,51.83902],[4.353499,51.83899],[4.353641,51.83902],[4.353954,51.83899],[4.354266,51.83889],[4.354394,51.83879],[4.354502,51.83861],[4.354567,51.83827],[4.354431,51.83799],[4.354358,51.83789],[4.354114,51.83788],[4.353674,51.83787],[4.353401,51.83786],[4.3535,51.83787],[4.353249,51.83786],[4.353267,51.83731],[4.352183,51.83727],[4.35223,51.83674],[4.352281,51.83624],[4.352559,51.83624],[4.3527,51.83624],[4.353416,51.83625],[4.354496,51.83628],[4.354549,51.83569],[4.354558,51.8356],[4.354549,51.83569],[4.354496,51.83628],[4.354723,51.8363],[4.355241,51.83632],[4.355292,51.83623],[4.355379,51.83607],[4.355661,51.83566],[4.356078,51.83521],[4.35621,51.83526],[4.356462,51.83506],[4.35676,51.83488],[4.357081,51.83472],[4.357435,51.83458],[4.35772,51.83448],[4.358244,51.83437],[4.358519,51.8343],[4.358867,51.83425],[4.359239,51.83422],[4.359233,51.8341],[4.359243,51.83399],[4.3593,51.8334],[4.359339,51.8329],[4.358464,51.83288],[4.3575,51.83284],[4.357482,51.83284],[4.35673,51.83325],[4.355743,51.83256],[4.355672,51.83251],[4.35604,51.83231],[4.356162,51.83229],[4.356239,51.83227],[4.356392,51.83227],[4.356502,51.83228],[4.3567,51.8323],[4.357197,51.83241],[4.357409,51.83244],[4.357605,51.83242],[4.358144,51.83232],[4.358191,51.8318],[4.358144,51.83232],[4.357605,51.83242],[4.357409,51.83244],[4.357197,51.83241],[4.3567,51.8323],[4.356392,51.83227],[4.356239,51.83227],[4.356162,51.83229],[4.356112,51.83237],[4.355743,51.83256],[4.355162,51.83287],[4.355031,51.83289],[4.354982,51.83286],[4.354829,51.83276],[4.354083,51.83223],[4.354129,51.83141],[4.354129,51.83141],[4.354129,51.83141],[4.354083,51.83223],[4.354829,51.83276],[4.354982,51.83286],[4.354767,51.83298],[4.35451,51.83318],[4.354292,51.8333],[4.353833,51.83347],[4.353737,51.83353],[4.353667,51.83348],[4.35358,51.83342],[4.353667,51.83348],[4.353737,51.83353],[4.354132,51.83377],[4.354263,51.83387],[4.354307,51.83396],[4.354862,51.83434],[4.35489,51.83435],[4.355624,51.83485],[4.355773,51.83496],[4.35603,51.8348],[4.356064,51.83468],[4.356438,51.83448],[4.35656,51.83442],[4.356722,51.83442],[4.357036,51.83429],[4.357344,51.83449],[4.357435,51.83458],[4.35772,51.83448],[4.358244,51.83437],[4.358519,51.8343],[4.358867,51.83425],[4.359239,51.83422],[4.359355,51.83421],[4.359982,51.83422],[4.360428,51.83422],[4.360715,51.83423],[4.361216,51.83426],[4.36149,51.8343],[4.361445,51.8344],[4.361368,51.83445],[4.361287,51.83451],[4.361287,51.83468],[4.361362,51.83472],[4.361629,51.83485],[4.36163,51.83494],[4.361629,51.83485],[4.361362,51.83472],[4.361287,51.83468],[4.361287,51.83451],[4.361368,51.83445],[4.361445,51.8344],[4.36149,51.8343],[4.361663,51.83434],[4.36189,51.8344],[4.362263,51.83449],[4.36259,51.83456],[4.362295,51.83504],[4.362207,51.83537],[4.362183,51.8356],[4.362249,51.83609]],"ShapeMeta":[{"Shape":0,"Attributes":{"profile":"car"}},{"Shape":1,"Attributes":{"name":"Annie Romein-Verschoorlaan","maxspeed":"50","highway":"tertiary","profile":"car","distance":"54.90231","time":"5.270622"}},{"Shape":2,"Attributes":{"name":"Marie van Regteren Altenastraat","highway":"residential","maxspeed":"30","profile":"car","distance":"67.40231","time":"7.270622"}},{"Shape":4,"Attributes":{"name":"Margaretha Roosenboomstraat","highway":"residential","maxspeed":"30","profile":"car","distance":"158.0312","time":"21.77125"}},{"Shape":5,"Attributes":{"name":"Margaretha Roosenboomstraat","highway":"residential","maxspeed":"30","profile":"car","distance":"210.5023","time":"210.1667"}},{"Shape":6,"Attributes":{"name":"Ida Wassermanstraat","highway":"residential","maxspeed":"30","profile":"car","distance":"313.9079","time":"226.7116"}},{"Shape":7,"Attributes":{"name":"Ida Wassermanstraat","highway":"residential","maxspeed":"30","profile":"car","distance":"417.3135","time":"423.2565"}},{"Shape":8,"Attributes":{"name":"Mimi Boesnachstraat","highway":"residential","maxspeed":"30","profile":"car","distance":"430.8135","time":"425.4165"}},{"Shape":9,"Attributes":{"name":"Theo Mann-Bouwmeesterstraat","highway":"residential","maxspeed":"30","profile":"car","distance":"444.2135","time":"427.5605"}},{"Shape":10,"Attributes":{"name":"Maria Kleine-Gartmanstraat","highway":"residential","maxspeed":"30","profile":"car","distance":"479.5135","time":"433.2085"}},{"Shape":11,"Attributes":{"name":"Maria Kleine-Gartmanstraat","highway":"residential","maxspeed":"30","profile":"car","distance":"511.1135","time":"438.2645"}},{"Shape":12,"Attributes":{"name":"Maria Kleine-Gartmanstraat","highway":"residential","maxspeed":"30","profile":"car","distance":"542.3135","time":"443.2565"}},{"Shape":13,"Attributes":{"name":"Maria Kleine-Gartmanstraat","highway":"residential","maxspeed":"30","profile":"car","distance":"544.4462","time":"443.5977"}},{"Shape":14,"Attributes":{"name":"Maria Kleine-Gartmanstraat","highway":"residential","maxspeed":"30","profile":"car","distance":"578.5135","time":"629.0485"}},{"Shape":15,"Attributes":{"name":"Maria Kleine-Gartmanstraat","highway":"residential","maxspeed":"30","profile":"car","distance":"608.7135","time":"633.8805"}},{"Shape":20,"Attributes":{"name":"Maria Kleine-Gartmanstraat","highway":"residential","maxspeed":"30","profile":"car","distance":"700.7135","time":"648.6005"}},{"Shape":21,"Attributes":{"name":"Maria Kleine-Gartmanstraat","highway":"residential","maxspeed":"30","profile":"car","distance":"748.2415","time":"656.205"}},{"Shape":22,"Attributes":{"name":"Maria Kleine-Gartmanstraat","highway":"residential","maxspeed":"30","profile":"car","distance":"762.6135","time":"838.5044"}},{"Shape":25,"Attributes":{"name":"Maria Kleine-Gartmanstraat","highway":"residential","maxspeed":"30","profile":"car","distance":"984.5451","time":"874.0135"}},{"Shape":28,"Attributes":{"name":"Maria Kleine-Gartmanstraat","highway":"residential","maxspeed":"30","profile":"car","distance":"1206.477","time":"1089.522"}},{"Shape":29,"Attributes":{"name":"Esther de Boer-van Rijkstraat","highway":"residential","maxspeed":"30","profile":"car","distance":"1237.777","time":"1094.53"}},{"Shape":30,"Attributes":{"name":"Esther de Boer-van Rijkstraat","highway":"residential","maxspeed":"30","profile":"car","distance":"1271.977","time":"1100.002"}},{"Shape":31,"Attributes":{"name":"Esther de Boer-van Rijkstraat","highway":"residential","maxspeed":"30","profile":"car","distance":"1335.277","time":"1110.13"}},{"Shape":32,"Attributes":{"name":"Josephine van Gasterenstraat","highway":"residential","maxspeed":"30","profile":"car","distance":"1402.377","time":"1120.866"}},{"Shape":33,"Attributes":{"name":"Josephine van Gasterenstraat","highway":"residential","maxspeed":"30","profile":"car","distance":"1432.877","time":"1125.746"}},{"Shape":34,"Attributes":{"name":"Corrie Vonkplantsoen","highway":"residential","maxspeed":"30","profile":"car","distance":"1436.7","time":"1126.358"}},{"Shape":36,"Attributes":{"name":"Corrie Vonkplantsoen","highway":"residential","maxspeed":"30","profile":"car","distance":"1535.777","time":"1322.21"}},{"Shape":37,"Attributes":{"name":"Theo Mann-Bouwmeesterstraat","highway":"residential","maxspeed":"30","profile":"car","distance":"1588.177","time":"1330.594"}},{"Shape":38,"Attributes":{"name":"Suze Robertsonstraat","highway":"residential","maxspeed":"30","profile":"car","distance":"1598.782","time":"1332.291"}},{"Shape":39,"Attributes":{"name":"Suze Robertsonstraat","highway":"residential","maxspeed":"30","profile":"car","distance":"1703.976","time":"1529.122"}},{"Shape":40,"Attributes":{"name":"Sientje Mesdag-van Houtenstraat","highway":"residential","maxspeed":"30","profile":"car","distance":"1738.276","time":"1534.61"}},{"Shape":42,"Attributes":{"name":"Harriët Freezerstraat","highway":"residential","maxspeed":"30","profile":"car","distance":"1860.502","time":"1554.166"}},{"Shape":44,"Attributes":{"name":"Harriët Freezerstraat","highway":"residential","maxspeed":"30","profile":"car","distance":"1982.728","time":"1753.722"}},{"Shape":45,"Attributes":{"name":"Sientje Mesdag-van Houtenstraat","highway":"residential","maxspeed":"30","profile":"car","distance":"2017.028","time":"1759.21"}},{"Shape":46,"Attributes":{"name":"Sientje Mesdag-van Houtenstraat","highway":"residential","maxspeed":"30","profile":"car","distance":"2069.228","time":"1767.562"}},{"Shape":49,"Attributes":{"name":"Sientje Mesdag-van Houtenstraat","highway":"residential","maxspeed":"30","profile":"car","distance":"2117.928","time":"1775.354"}},{"Shape":50,"Attributes":{"name":"Sientje Mesdag-van Houtenstraat","highway":"residential","maxspeed":"30","profile":"car","distance":"2130.635","time":"1777.387"}},{"Shape":53,"Attributes":{"name":"Sientje Mesdag-van Houtenstraat","highway":"residential","maxspeed":"30","profile":"car","distance":"2168.628","time":"1963.466"}},{"Shape":57,"Attributes":{"name":"Martina Kramersstraat","highway":"residential","maxspeed":"30","profile":"car","distance":"2301.989","time":"1984.804"}},{"Shape":61,"Attributes":{"name":"Martina Kramersstraat","highway":"residential","maxspeed":"30","profile":"car","distance":"2435.35","time":"2186.141"}},{"Shape":62,"Attributes":{"name":"Sientje Mesdag-van Houtenstraat","highway":"residential","maxspeed":"30","profile":"car","distance":"2482.35","time":"2193.661"}},{"Shape":63,"Attributes":{"name":"Rosa Spierstraat","highway":"residential","maxspeed":"30","profile":"car","distance":"2599.15","time":"2212.349"}},{"Shape":64,"Attributes":{"name":"Theo Mann-Bouwmeesterstraat","highway":"residential","maxspeed":"30","profile":"car","distance":"2652.55","time":"2220.893"}},{"Shape":65,"Attributes":{"name":"Top Naeffstraat","highway":"residential","maxspeed":"30","profile":"car","distance":"2667.97","time":"2223.36"}},{"Shape":66,"Attributes":{"name":"Top Naeffstraat","highway":"residential","maxspeed":"30","profile":"car","distance":"2683.39","time":"2405.827"}},{"Shape":68,"Attributes":{"name":"Theo Mann-Bouwmeesterstraat","highway":"residential","maxspeed":"30","profile":"car","distance":"2806.89","time":"2425.587"}},{"Shape":69,"Attributes":{"name":"Beb Vuykstraat","highway":"residential","maxspeed":"30","profile":"car","distance":"2876.59","time":"2436.739"}},{"Shape":70,"Attributes":{"name":"Beb Vuykstraat","highway":"residential","maxspeed":"30","profile":"car","distance":"2890.75","time":"2439.005"}},{"Shape":71,"Attributes":{"name":"Beb Vuykstraat","highway":"residential","maxspeed":"30","profile":"car","distance":"2940.09","time":"2626.899"}},{"Shape":72,"Attributes":{"name":"Maria Tesselschadestraat","highway":"residential","maxspeed":"30","profile":"car","distance":"2954.09","time":"2629.139"}},{"Shape":73,"Attributes":{"name":"Geertruida Bosboom-Toussaintlaan","maxspeed":"50","highway":"tertiary","profile":"car","distance":"3018.076","time":"2635.282"}},{"Shape":74,"Attributes":{"name":"Geertruida Bosboom-Toussaintlaan","maxspeed":"50","highway":"tertiary","profile":"car","distance":"3087.19","time":"2821.917"}},{"Shape":75,"Attributes":{"name":"Theo Mann-Bouwmeesterstraat","highway":"residential","maxspeed":"30","profile":"car","distance":"3102.09","time":"2824.301"}},{"Shape":76,"Attributes":{"name":"Else van der Banstraat","highway":"residential","maxspeed":"30","profile":"car","distance":"3150.208","time":"2832"}},{"Shape":77,"Attributes":{"name":"Else van der Banstraat","highway":"residential","maxspeed":"30","profile":"car","distance":"3198.325","time":"3019.699"}},{"Shape":78,"Attributes":{"name":"Theo Mann-Bouwmeesterstraat","highway":"residential","maxspeed":"30","profile":"car","distance":"3213.225","time":"3022.083"}},{"Shape":79,"Attributes":{"name":"Theo Mann-Bouwmeesterstraat","highway":"residential","maxspeed":"30","profile":"car","distance":"3228.825","time":"3024.579"}},{"Shape":80,"Attributes":{"name":"Beb Vuykstraat","highway":"residential","maxspeed":"30","profile":"car","distance":"3290.325","time":"3034.419"}},{"Shape":81,"Attributes":{"name":"Beb Vuykstraat","highway":"residential","maxspeed":"30","profile":"car","distance":"3351.554","time":"3044.215"}},{"Shape":82,"Attributes":{"name":"Beb Vuykstraat","highway":"residential","maxspeed":"30","profile":"car","distance":"3354.125","time":"3224.626"}},{"Shape":83,"Attributes":{"name":"Sientje Mesdag-van Houtenstraat","highway":"residential","maxspeed":"30","profile":"car","distance":"3368.925","time":"3226.994"}},{"Shape":84,"Attributes":{"name":"Sientje Mesdag-van Houtenstraat","highway":"residential","maxspeed":"30","profile":"car","distance":"3384.325","time":"3229.458"}},{"Shape":85,"Attributes":{"name":"Else van der Banstraat","highway":"residential","maxspeed":"30","profile":"car","distance":"3444.125","time":"3239.026"}},{"Shape":86,"Attributes":{"name":"Else van der Banstraat","highway":"residential","maxspeed":"30","profile":"car","distance":"3449.741","time":"3239.925"}},{"Shape":87,"Attributes":{"name":"Else van der Banstraat","highway":"residential","maxspeed":"30","profile":"car","distance":"3498.324","time":"3427.698"}},{"Shape":88,"Attributes":{"name":"Truus Schröderstraat","highway":"unclassified","maxspeed":"30","profile":"car","distance":"3512.625","time":"3429.986"}},{"Shape":90,"Attributes":{"name":"Geertruida Bosboom-Toussaintlaan","maxspeed":"50","highway":"tertiary","profile":"car","distance":"3622.525","time":"3440.537"}},{"Shape":91,"Attributes":{"name":"Belle van Zuylenstraat","highway":"residential","maxspeed":"30","profile":"car","distance":"3637.625","time":"3442.953"}},{"Shape":92,"Attributes":{"name":"Else van der Banstraat","highway":"residential","maxspeed":"30","profile":"car","distance":"3693.025","time":"3451.817"}},{"Shape":93,"Attributes":{"name":"Else van der Banstraat","highway":"residential","maxspeed":"30","profile":"car","distance":"3707.882","time":"3454.194"}},{"Shape":94,"Attributes":{"name":"Else van der Banstraat","highway":"residential","maxspeed":"30","profile":"car","distance":"3764.325","time":"3643.225"}},{"Shape":95,"Attributes":{"name":"Else van der Banstraat","highway":"residential","maxspeed":"30","profile":"car","distance":"3837.225","time":"3654.889"}},{"Shape":96,"Attributes":{"name":"Hélène Swarthstraat","highway":"residential","maxspeed":"30","profile":"car","distance":"3846.048","time":"3656.301"}},{"Shape":97,"Attributes":{"name":"Hélène Swarthstraat","highway":"residential","maxspeed":"30","profile":"car","distance":"3854.871","time":"3837.713"}},{"Shape":98,"Attributes":{"name":"Else van der Banstraat","highway":"residential","maxspeed":"30","profile":"car","distance":"3927.771","time":"3849.377"}},{"Shape":99,"Attributes":{"name":"Else van der Banstraat","highway":"residential","maxspeed":"30","profile":"car","distance":"3999.071","time":"3860.785"}},{"Shape":100,"Attributes":{"name":"Else van der Banstraat","highway":"residential","maxspeed":"30","profile":"car","distance":"4054.471","time":"3869.649"}},{"Shape":101,"Attributes":{"name":"Belle van Zuylenstraat","highway":"residential","maxspeed":"30","profile":"car","distance":"4069.571","time":"3872.065"}},{"Shape":102,"Attributes":{"name":"Belle van Zuylenstraat","highway":"residential","maxspeed":"30","profile":"car","distance":"4084.371","time":"3874.433"}},{"Shape":103,"Attributes":{"name":"Beb Vuykstraat","highway":"residential","maxspeed":"30","profile":"car","distance":"4087.917","time":"3875"}},{"Shape":104,"Attributes":{"name":"Beb Vuykstraat","highway":"residential","maxspeed":"30","profile":"car","distance":"4144.171","time":"4064.001"}},{"Shape":105,"Attributes":{"name":"Beb Vuykstraat","highway":"residential","maxspeed":"30","profile":"car","distance":"4217.071","time":"4075.665"}},{"Shape":106,"Attributes":{"name":"Beb Vuykstraat","highway":"residential","maxspeed":"30","profile":"car","distance":"4289.171","time":"4087.201"}},{"Shape":107,"Attributes":{"name":"Beb Vuykstraat","highway":"residential","maxspeed":"30","profile":"car","distance":"4292.285","time":"4087.699"}},{"Shape":108,"Attributes":{"name":"Beb Vuykstraat","highway":"residential","maxspeed":"30","profile":"car","distance":"4295.399","time":"4268.197"}},{"Shape":111,"Attributes":{"name":"Anke Servaesstraat","highway":"residential","maxspeed":"30","profile":"car","distance":"4389.799","time":"4283.301"}},{"Shape":112,"Attributes":{"name":"Anke Servaesstraat","highway":"residential","maxspeed":"30","profile":"car","distance":"4436.399","time":"4290.757"}},{"Shape":113,"Attributes":{"name":"Madelon Lulofsstraat","highway":"residential","maxspeed":"30","profile":"car","distance":"4489.329","time":"4299.226"}},{"Shape":114,"Attributes":{"name":"Madelon Lulofsstraat","highway":"residential","maxspeed":"30","profile":"car","distance":"4542.258","time":"4487.695"}},{"Shape":115,"Attributes":{"name":"Marie van Zeggelenstraat","highway":"residential","maxspeed":"30","profile":"car","distance":"4600.358","time":"4496.991"}},{"Shape":116,"Attributes":{"name":"Marie van Zeggelenstraat","highway":"residential","maxspeed":"30","profile":"car","distance":"4611.032","time":"4498.699"}},{"Shape":118,"Attributes":{"name":"Marie van Zeggelenstraat","highway":"residential","maxspeed":"30","profile":"car","distance":"4698.758","time":"4692.735"}},{"Shape":119,"Attributes":{"name":"Lucretia van Merkenstraat","highway":"residential","maxspeed":"30","profile":"car","distance":"4770.958","time":"4704.288"}},{"Shape":120,"Attributes":{"name":"Lucretia van Merkenstraat","highway":"residential","maxspeed":"30","profile":"car","distance":"4849.258","time":"4716.815"}},{"Shape":123,"Attributes":{"name":"Henriëtte van der Meijstraat","highway":"residential","maxspeed":"30","profile":"car","distance":"4880.226","time":"4721.77"}},{"Shape":125,"Attributes":{"name":"Henriëtte van der Meijstraat","highway":"residential","maxspeed":"30","profile":"car","distance":"5069.659","time":"4932.079"}},{"Shape":126,"Attributes":{"name":"Sientje Mesdag-van Houtenstraat","highway":"residential","maxspeed":"30","profile":"car","distance":"5073.53","time":"4932.699"}},{"Shape":127,"Attributes":{"name":"Sientje Mesdag-van Houtenstraat","highway":"residential","maxspeed":"30","profile":"car","distance":"5097.458","time":"5116.528"}},{"Shape":128,"Attributes":{"name":"Lizzy Ansinghstraat","highway":"unclassified","maxspeed":"30","profile":"car","distance":"5134.958","time":"5122.528"}},{"Shape":129,"Attributes":{"name":"Lizzy Ansinghstraat","highway":"unclassified","maxspeed":"30","profile":"car","distance":"5151.659","time":"5125.2"}},{"Shape":131,"Attributes":{"name":"Lizzy Ansinghstraat","highway":"unclassified","maxspeed":"30","profile":"car","distance":"5185.179","time":"5130.563"}},{"Shape":133,"Attributes":{"name":"Lizzy Ansinghstraat","highway":"unclassified","maxspeed":"30","profile":"car","distance":"5218.699","time":"5315.926"}},{"Shape":134,"Attributes":{"name":"Lizzy Ansinghstraat","highway":"unclassified","maxspeed":"30","profile":"car","distance":"5235.399","time":"5318.598"}},{"Shape":135,"Attributes":{"name":"Lizzy Ansinghstraat","highway":"unclassified","maxspeed":"30","profile":"car","distance":"5272.899","time":"5324.598"}},{"Shape":136,"Attributes":{"name":"Sientje Mesdag-van Houtenstraat","highway":"residential","maxspeed":"30","profile":"car","distance":"5339.399","time":"5335.238"}},{"Shape":137,"Attributes":{"name":"Sientje Mesdag-van Houtenstraat","highway":"residential","maxspeed":"30","profile":"car","distance":"5353.099","time":"5337.43"}},{"Shape":140,"Attributes":{"name":"Annie Romein-Verschoorlaan","maxspeed":"50","highway":"tertiary","profile":"car","distance":"5472.299","time":"5348.874"}},{"Shape":141,"Attributes":{"name":"Annie Romein-Verschoorlaan","maxspeed":"50","highway":"tertiary","profile":"car","distance":"5492.799","time":"5350.841"}},{"Shape":143,"Attributes":{"name":"Annie Romein-Verschoorlaan","maxspeed":"50","highway":"tertiary","profile":"car","distance":"5551.099","time":"5356.438"}},{"Shape":145,"Attributes":{"name":"Hadewychplaats","highway":"service","profile":"car","distance":"5572.799","time":"5359.91"}},{"Shape":146,"Attributes":{"name":"Ida Gerhardtplein","highway":"service","profile":"car","distance":"5575.539","time":"5360.349"}},{"Shape":147,"Attributes":{"name":"Ida Gerhardtplein","highway":"service","profile":"car","distance":"5578.279","time":"5540.788"}},{"Shape":149,"Attributes":{"name":"Hadewychplaats","highway":"service","profile":"car","distance":"5599.979","time":"5544.259"}},{"Shape":151,"Attributes":{"name":"Annie Romein-Verschoorlaan","maxspeed":"50","highway":"tertiary","profile":"car","distance":"5658.279","time":"5549.856"}},{"Shape":152,"Attributes":{"name":"Annie Romein-Verschoorlaan","maxspeed":"50","highway":"tertiary","profile":"car","distance":"5678.779","time":"5551.824"}},{"Shape":155,"Attributes":{"name":"Joke Smitlaan","maxspeed":"50","highway":"tertiary","profile":"car","distance":"5747.179","time":"5558.391"}},{"Shape":156,"Attributes":{"name":"Joke Smitlaan","maxspeed":"50","highway":"tertiary","profile":"car","distance":"5759.579","time":"5559.581"}},{"Shape":157,"Attributes":{"name":"Joke Smitlaan","maxspeed":"50","highway":"tertiary","profile":"car","distance":"5778.979","time":"5561.443"}},{"Shape":159,"Attributes":{"name":"Joke Smitlaan","maxspeed":"50","highway":"tertiary","profile":"car","distance":"5833.279","time":"5566.656"}},{"Shape":160,"Attributes":{"name":"Joke Smitlaan","maxspeed":"50","highway":"tertiary","profile":"car","distance":"5863.879","time":"5569.594"}},{"Shape":161,"Attributes":{"name":"Clara Visserstraat","highway":"residential","maxspeed":"30","profile":"car","distance":"5887.655","time":"5573.398"}},{"Shape":164,"Attributes":{"name":"Clara Visserstraat","highway":"residential","maxspeed":"30","profile":"car","distance":"6015.378","time":"5773.834"}},{"Shape":167,"Attributes":{"name":"Wilhelmina Bladergroenstraat","highway":"residential","maxspeed":"30","profile":"car","distance":"6059.179","time":"5780.842"}},{"Shape":168,"Attributes":{"name":"Wilhelmina Bladergroenstraat","highway":"residential","maxspeed":"30","profile":"car","distance":"6100.878","time":"5787.514"}},{"Shape":169,"Attributes":{"name":"Wilhelmina Bladergroenstraat","highway":"residential","maxspeed":"30","profile":"car","distance":"6102.475","time":"5787.769"}},{"Shape":171,"Attributes":{"name":"Wilhelmina Bladergroenstraat","highway":"residential","maxspeed":"30","profile":"car","distance":"6183.379","time":"6160.714"}},{"Shape":172,"Attributes":{"name":"Wilhelmina Bladergroenstraat","highway":"residential","maxspeed":"30","profile":"car","distance":"6224.879","time":"6167.354"}},{"Shape":174,"Attributes":{"name":"Wilhelmina Bladergroenstraat","highway":"residential","maxspeed":"30","profile":"car","distance":"6265.879","time":"6173.914"}},{"Shape":175,"Attributes":{"name":"Maria Rutgers-Hoitsemastraat","highway":"residential","maxspeed":"30","profile":"car","distance":"6270.223","time":"6174.609"}},{"Shape":176,"Attributes":{"name":"Maria Rutgers-Hoitsemastraat","highway":"residential","maxspeed":"30","profile":"car","distance":"6326.779","time":"6363.658"}},{"Shape":179,"Attributes":{"name":"Maria Rutgers-Hoitsemastraat","highway":"residential","maxspeed":"30","profile":"car","distance":"6387.059","time":"6373.303"}},{"Shape":180,"Attributes":{"name":"Maria Rutgers-Hoitsemastraat","highway":"residential","maxspeed":"30","profile":"car","distance":"6390.379","time":"6553.834"}},{"Shape":181,"Attributes":{"name":"Hélène Mercierstraat","highway":"residential","maxspeed":"30","profile":"car","distance":"6449.379","time":"6563.274"}},{"Shape":182,"Attributes":{"name":"Hélène Mercierstraat","highway":"residential","maxspeed":"30","profile":"car","distance":"6512.679","time":"6573.402"}},{"Shape":183,"Attributes":{"name":"Hélène Mercierstraat","highway":"residential","maxspeed":"30","profile":"car","distance":"6567.379","time":"6582.154"}},{"Shape":185,"Attributes":{"name":"Aletta Jacobsstraat","highway":"residential","maxspeed":"30","profile":"car","distance":"6590.38","time":"6585.834"}},{"Shape":187,"Attributes":{"name":"Aletta Jacobsstraat","highway":"residential","maxspeed":"30","profile":"car","distance":"6613.381","time":"6769.514"}},{"Shape":188,"Attributes":{"name":"Aletta Jacobsstraat","highway":"residential","maxspeed":"30","profile":"car","distance":"6675.481","time":"6779.45"}},{"Shape":189,"Attributes":{"name":"Aletta Jacobsstraat","highway":"residential","maxspeed":"30","profile":"car","distance":"6737.281","time":"6789.338"}},{"Shape":190,"Attributes":{"name":"Wilhelmina Bladergroenstraat","highway":"residential","maxspeed":"30","profile":"car","distance":"6791.581","time":"6798.026"}},{"Shape":191,"Attributes":{"name":"Catharina van Tussenbroekstraat","highway":"residential","maxspeed":"30","profile":"car","distance":"6842.439","time":"6806.164"}},{"Shape":192,"Attributes":{"name":"Catharina van Tussenbroekstraat","highway":"residential","maxspeed":"30","profile":"car","distance":"6893.298","time":"6994.301"}},{"Shape":193,"Attributes":{"name":"Wilhelmina Bladergroenstraat","highway":"residential","maxspeed":"30","profile":"car","distance":"6947.598","time":"7002.989"}},{"Shape":197,"Attributes":{"name":"Aletta Jacobsstraat","highway":"residential","maxspeed":"30","profile":"car","distance":"7045.398","time":"7018.638"}},{"Shape":198,"Attributes":{"name":"Joke Smitlaan","maxspeed":"50","highway":"tertiary","profile":"car","distance":"7051.898","time":"7019.262"}},{"Shape":201,"Attributes":{"name":"Joke Smitlaan","maxspeed":"50","highway":"tertiary","oneway":"yes","profile":"car","distance":"7147.598","time":"7028.449"}},{"Shape":203,"Attributes":{"name":"Maaswijkweg","maxspeed":"50","highway":"tertiary","junction":"roundabout","profile":"car","distance":"7158.498","time":"7029.495"}},{"Shape":208,"Attributes":{"name":"Maaswijkweg","maxspeed":"50","highway":"tertiary","oneway":"yes","profile":"car","distance":"7333.998","time":"7046.343"}},{"Shape":209,"Attributes":{"name":"Maaswijkweg","maxspeed":"50","highway":"tertiary","profile":"car","distance":"7345.698","time":"7047.466"}},{"Shape":210,"Attributes":{"name":"Maaswijkweg","maxspeed":"50","highway":"tertiary","profile":"car","distance":"7559.498","time":"7067.991"}},{"Shape":211,"Attributes":{"name":"Maaswijkweg","maxspeed":"50","highway":"tertiary","profile":"car","distance":"7572.998","time":"7069.287"}},{"Shape":212,"Attributes":{"name":"Maaswijkweg","maxspeed":"50","highway":"tertiary","profile":"car","distance":"7591.698","time":"7071.083"}},{"Shape":214,"Attributes":{"name":"Maaswijkweg","maxspeed":"50","highway":"tertiary","profile":"car","distance":"8048.998","time":"7114.983"}},{"Shape":217,"Attributes":{"name":"Geertruida Bosboom-Toussaintlaan","maxspeed":"50","highway":"tertiary","oneway":"yes","profile":"car","distance":"8111.198","time":"7120.954"}},{"Shape":218,"Attributes":{"name":"Geertruida Bosboom-Toussaintlaan","maxspeed":"50","highway":"tertiary","profile":"car","distance":"8159.398","time":"7125.582"}},{"Shape":220,"Attributes":{"name":"Henriëtte Roland Holststraat","highway":"residential","maxspeed":"30","profile":"car","distance":"8182.498","time":"7129.277"}},{"Shape":226,"Attributes":{"name":"Henriëtte Roland Holststraat","highway":"residential","maxspeed":"30","profile":"car","distance":"8310.798","time":"7149.806"}},{"Shape":228,"Attributes":{"name":"Lange Groeneweg","highway":"residential","maxspeed":"30","profile":"car","distance":"8482.78","time":"7177.323"}},{"Shape":230,"Attributes":{"name":"Lange Groeneweg","highway":"residential","maxspeed":"30","profile":"car","distance":"8654.763","time":"7384.84"}},{"Shape":233,"Attributes":{"name":"Henriëtte Roland Holststraat","highway":"residential","maxspeed":"30","profile":"car","distance":"8710.742","time":"7393.797"}},{"Shape":237,"Attributes":{"name":"Henriëtte Roland Holststraat","highway":"residential","maxspeed":"30","profile":"car","distance":"8783.063","time":"7585.368"}},{"Shape":239,"Attributes":{"name":"Henriëtte Roland Holststraat","highway":"residential","maxspeed":"30","profile":"car","distance":"8806.163","time":"7589.064"}},{"Shape":240,"Attributes":{"name":"Geertruida Bosboom-Toussaintlaan","maxspeed":"50","highway":"tertiary","profile":"car","distance":"8854.363","time":"7593.691"}},{"Shape":243,"Attributes":{"name":"Geertruida Bosboom-Toussaintlaan","maxspeed":"50","highway":"tertiary","oneway":"yes","profile":"car","distance":"8916.363","time":"7599.644"}},{"Shape":244,"Attributes":{"name":"Maaswijkweg","maxspeed":"50","highway":"tertiary","profile":"car","distance":"8925.063","time":"7600.479"}},{"Shape":246,"Attributes":{"name":"Maaswijkweg","maxspeed":"50","highway":"tertiary","profile":"car","distance":"9382.363","time":"7644.379"}},{"Shape":247,"Attributes":{"name":"Maaswijkweg","maxspeed":"50","highway":"tertiary","profile":"car","distance":"9401.063","time":"7646.175"}},{"Shape":248,"Attributes":{"name":"Maaswijkweg","maxspeed":"50","highway":"tertiary","profile":"car","distance":"9414.563","time":"7647.471"}},{"Shape":249,"Attributes":{"name":"Maaswijkweg","maxspeed":"50","highway":"tertiary","profile":"car","distance":"9628.363","time":"7667.995"}},{"Shape":250,"Attributes":{"name":"Maaswijkweg","maxspeed":"50","highway":"tertiary","profile":"car","distance":"9640.063","time":"7669.119"}},{"Shape":254,"Attributes":{"name":"Maaswijkweg","maxspeed":"50","highway":"tertiary","oneway":"yes","profile":"car","distance":"9810.663","time":"7685.496"}},{"Shape":260,"Attributes":{"name":"Maaswijkweg","maxspeed":"50","highway":"tertiary","junction":"roundabout","profile":"car","distance":"9851.764","time":"7689.442"}},{"Shape":263,"Attributes":{"name":"Maaswijkweg","maxspeed":"50","highway":"tertiary","junction":"roundabout","profile":"car","distance":"9867.463","time":"7690.949"}},{"Shape":266,"Attributes":{"name":"Maaswijkweg","maxspeed":"50","highway":"tertiary","junction":"roundabout","profile":"car","distance":"9882.363","time":"7692.379"}},{"Shape":269,"Attributes":{"name":"Joke Smitlaan","maxspeed":"50","highway":"tertiary","oneway":"yes","profile":"car","distance":"9976.963","time":"7701.461"}},{"Shape":270,"Attributes":{"name":"Joke Smitlaan","maxspeed":"50","highway":"tertiary","profile":"car","distance":"9983.463","time":"7702.085"}},{"Shape":271,"Attributes":{"name":"Marga Klompéstraat","highway":"residential","maxspeed":"30","profile":"car","distance":"9997.463","time":"7704.325"}},{"Shape":272,"Attributes":{"name":"Suze Groenewegstraat","highway":"residential","maxspeed":"30","profile":"car","distance":"10019.87","time":"7707.911"}},{"Shape":273,"Attributes":{"name":"Suze Groenewegstraat","highway":"residential","maxspeed":"30","profile":"car","distance":"10075.96","time":"7896.886"}},{"Shape":275,"Attributes":{"name":"Suze Groenewegstraat","highway":"residential","maxspeed":"30","profile":"car","distance":"10151.29","time":"7908.938"}},{"Shape":277,"Attributes":{"name":"Suze Groenewegstraat","highway":"residential","maxspeed":"30","profile":"car","distance":"10226.62","time":"8100.991"}},{"Shape":278,"Attributes":{"name":"Johanna Engwirda-Agricolastraat","highway":"residential","maxspeed":"30","profile":"car","distance":"10290.92","time":"8111.279"}},{"Shape":284,"Attributes":{"name":"Johanna Engwirda-Agricolastraat","highway":"residential","maxspeed":"30","profile":"car","distance":"10420.22","time":"8131.967"}},{"Shape":290,"Attributes":{"name":"Johanna Engwirda-Agricolastraat","highway":"residential","maxspeed":"30","profile":"car","distance":"10549.52","time":"8332.656"}},{"Shape":293,"Attributes":{"name":"Johanna Engwirda-Agricolastraat","highway":"residential","maxspeed":"30","profile":"car","distance":"10611.12","time":"8342.513"}},{"Shape":294,"Attributes":{"name":"Johanna Engwirda-Agricolastraat","highway":"residential","maxspeed":"30","profile":"car","distance":"10641.32","time":"8347.345"}},{"Shape":295,"Attributes":{"name":"Johanna Engwirda-Agricolastraat","highway":"residential","maxspeed":"30","profile":"car","distance":"10660.08","time":"8350.346"}},{"Shape":296,"Attributes":{"name":"Johanna Engwirda-Agricolastraat","highway":"residential","maxspeed":"30","profile":"car","distance":"10666.89","time":"8531.437"}},{"Shape":297,"Attributes":{"name":"Johanna Engwirda-Agricolastraat","highway":"residential","maxspeed":"30","profile":"car","distance":"10684.15","time":"8714.197"}},{"Shape":298,"Attributes":{"name":"Carry Pothuis-Smitstraat","highway":"residential","maxspeed":"30","profile":"car","distance":"10745.65","time":"8724.037"}},{"Shape":300,"Attributes":{"name":"Wilhelmina Hofman-Pootstraat","highway":"residential","maxspeed":"30","profile":"car","distance":"10878.85","time":"8745.35"}},{"Shape":302,"Attributes":{"name":"Wilhelmina Druckerstraat","highway":"residential","maxspeed":"30","profile":"car","distance":"10954.05","time":"8757.382"}},{"Shape":303,"Attributes":{"name":"Wilhelmina Druckerstraat","highway":"residential","maxspeed":"30","profile":"car","distance":"10963.74","time":"8758.933"}},{"Shape":305,"Attributes":{"name":"Wilhelmina Druckerstraat","highway":"residential","maxspeed":"30","profile":"car","distance":"11087.15","time":"8958.677"}},{"Shape":306,"Attributes":{"name":"Roosje Vosstraat","highway":"residential","maxspeed":"30","profile":"car","distance":"11152.55","time":"8969.141"}},{"Shape":307,"Attributes":{"name":"Roosje Vosstraat","highway":"residential","maxspeed":"30","profile":"car","distance":"11163.16","time":"8970.838"}},{"Shape":308,"Attributes":{"name":"Roosje Vosstraat","highway":"residential","maxspeed":"30","profile":"car","distance":"11173.77","time":"9152.535"}},{"Shape":309,"Attributes":{"name":"Roosje Vosstraat","highway":"residential","maxspeed":"30","profile":"car","distance":"11239.17","time":"9162.999"}},{"Shape":310,"Attributes":{"name":"Wilhelmina Druckerstraat","highway":"residential","maxspeed":"30","profile":"car","distance":"11254.77","time":"9165.495"}},{"Shape":311,"Attributes":{"name":"Wilhelmina Druckerstraat","highway":"residential","maxspeed":"30","profile":"car","distance":"11290.47","time":"9171.207"}},{"Shape":312,"Attributes":{"name":"Mina Krusemanstraat","highway":"residential","maxspeed":"30","profile":"car","distance":"11301.19","time":"9172.923"}},{"Shape":315,"Attributes":{"name":"Mina Krusemanstraat","highway":"residential","maxspeed":"30","profile":"car","distance":"11427.37","time":"9373.111"}},{"Shape":316,"Attributes":{"name":"Maria Doorman-Kielstrastraat","highway":"residential","maxspeed":"30","profile":"car","distance":"11438.47","time":"9374.888"}},{"Shape":320,"Attributes":{"name":"Joke Smitlaan","maxspeed":"50","highway":"tertiary","oneway":"yes","profile":"car","distance":"11552.67","time":"9385.851"}},{"Shape":322,"Attributes":{"name":"Joke Smitlaan","maxspeed":"50","highway":"tertiary","oneway":"yes","profile":"car","distance":"11613.27","time":"9391.668"}},{"Shape":325,"Attributes":{"name":"Joke Smitlaan","maxspeed":"50","highway":"tertiary","profile":"car","distance":"11683.77","time":"9398.436"}},{"Shape":326,"Attributes":{"name":"Anne Frankstraat","highway":"residential","maxspeed":"30","profile":"car","distance":"11696.87","time":"9400.532"}},{"Shape":327,"Attributes":{"name":"Anne Frankstraat","highway":"residential","maxspeed":"30","profile":"car","distance":"11708.76","time":"9402.436"}},{"Shape":329,"Attributes":{"name":"Anne Frankstraat","highway":"residential","maxspeed":"30","profile":"car","distance":"11830.67","time":"9601.94"}},{"Shape":330,"Attributes":{"name":"Hannie Schaftstraat","highway":"residential","maxspeed":"30","profile":"car","distance":"11890.76","time":"9611.557"}},{"Shape":331,"Attributes":{"name":"Hannie Schaftstraat","highway":"residential","maxspeed":"30","profile":"car","distance":"11957.21","time":"9622.188"}},{"Shape":333,"Attributes":{"name":"Hannie Schaftstraat","highway":"residential","maxspeed":"30","profile":"car","distance":"12027.47","time":"9813.43"}},{"Shape":334,"Attributes":{"name":"Jacoba Pulskensstraat","highway":"residential","maxspeed":"30","profile":"car","distance":"12129.57","time":"9829.766"}},{"Shape":335,"Attributes":{"name":"Mia van der Wall-Duyvendakstraat","highway":"residential","maxspeed":"30","profile":"car","distance":"12136.87","time":"9830.934"}},{"Shape":337,"Attributes":{"name":"Mien Sneevliet-Draaijerstraat","highway":"residential","maxspeed":"30","oneway":"yes","profile":"car","distance":"12179.07","time":"9837.686"}},{"Shape":340,"Attributes":{"name":"Petronella Brugsmastraat","highway":"residential","maxspeed":"30","profile":"car","distance":"12203.13","time":"9841.536"}},{"Shape":346,"Attributes":{"name":"Petronella Brugsmastraat","highway":"residential","maxspeed":"30","profile":"car","distance":"12378.38","time":"10049.58"}},{"Shape":354,"Attributes":{"name":"Petronella Brugsmastraat","highway":"residential","maxspeed":"30","profile":"car","distance":"12577.69","time":"10261.47"}},{"Shape":356,"Attributes":{"name":"Mien Sneevliet-Draaijerstraat","highway":"residential","maxspeed":"30","oneway":"yes","profile":"car","distance":"12620.09","time":"10268.25"}},{"Shape":358,"Attributes":{"name":"Mien Sneevliet-Draaijerstraat","highway":"residential","maxspeed":"30","oneway":"yes","profile":"car","distance":"12682.09","time":"10278.17"}},{"Shape":359,"Attributes":{"name":"Etty Hillesumstraat","highway":"residential","maxspeed":"30","profile":"car","distance":"12687.09","time":"10278.97"}},{"Shape":363,"Attributes":{"name":"Etty Hillesumstraat","highway":"residential","maxspeed":"30","profile":"car","distance":"12871.57","time":"10308.49"}},{"Shape":367,"Attributes":{"name":"Etty Hillesumstraat","highway":"residential","maxspeed":"30","profile":"car","distance":"13056.05","time":"10518.01"}},{"Shape":372,"Attributes":{"name":"Mien Sneevliet-Draaijerstraat","highway":"residential","maxspeed":"30","profile":"car","distance":"13170.95","time":"10536.39"}},{"Shape":374,"Attributes":{"name":"Willemijn Posthumusstraat","highway":"residential","maxspeed":"30","profile":"car","distance":"13187.43","time":"10539.03"}},{"Shape":376,"Attributes":{"name":"Willemijn Posthumusstraat","highway":"residential","maxspeed":"30","profile":"car","distance":"13203.91","time":"10721.67"}},{"Shape":377,"Attributes":{"name":"Maria Doorman-Kielstrastraat","highway":"residential","maxspeed":"30","profile":"car","distance":"13241.91","time":"10727.75"}},{"Shape":379,"Attributes":{"name":"Maria Doorman-Kielstrastraat","highway":"residential","maxspeed":"30","profile":"car","distance":"13266.41","time":"10731.67"}},{"Shape":380,"Attributes":{"name":"Maria Doorman-Kielstrastraat","highway":"residential","maxspeed":"30","profile":"car","distance":"13322.85","time":"10740.7"}},{"Shape":382,"Attributes":{"name":"Maria Doorman-Kielstrastraat","highway":"residential","maxspeed":"30","profile":"car","distance":"13400.01","time":"10933.05"}},{"Shape":383,"Attributes":{"name":"Maria Doorman-Kielstrastraat","highway":"residential","maxspeed":"30","profile":"car","distance":"13416.01","time":"10935.61"}},{"Shape":386,"Attributes":{"highway":"residential","maxspeed":"30","profile":"car","distance":"13488.48","time":"10947.2"}},{"Shape":389,"Attributes":{"highway":"residential","maxspeed":"30","profile":"car","distance":"13536.81","time":"11134.93"}},{"Shape":390,"Attributes":{"name":"Etty Hillesumstraat","highway":"residential","maxspeed":"30","profile":"car","distance":"13567.61","time":"11139.86"}},{"Shape":391,"Attributes":{"name":"Etty Hillesumstraat","highway":"residential","maxspeed":"30","profile":"car","distance":"13579.51","time":"11141.76"}},{"Shape":393,"Attributes":{"name":"Joke Smitlaan","maxspeed":"50","highway":"tertiary","oneway":"yes","profile":"car","distance":"13640.11","time":"11147.58"}},{"Shape":396,"Attributes":{"name":"Joke Smitlaan","maxspeed":"50","highway":"tertiary","profile":"car","distance":"13710.61","time":"11154.35"}},{"Shape":397,"Attributes":{"name":"Joke Smitlaan","maxspeed":"50","highway":"tertiary","profile":"car","distance":"13718.61","time":"11155.12"}},{"Shape":398,"Attributes":{"name":"Joke Smitlaan","maxspeed":"50","highway":"tertiary","profile":"car","distance":"13761.61","time":"11159.25"}},{"Shape":399,"Attributes":{"name":"Joke Smitlaan","maxspeed":"50","highway":"tertiary","profile":"car","distance":"13792.21","time":"11162.18"}},{"Shape":401,"Attributes":{"name":"Joke Smitlaan","maxspeed":"50","highway":"tertiary","profile":"car","distance":"13846.51","time":"11167.4"}},{"Shape":402,"Attributes":{"name":"Joke Smitlaan","maxspeed":"50","highway":"tertiary","profile":"car","distance":"13865.91","time":"11169.26"}},{"Shape":403,"Attributes":{"name":"Margaretha Roosenboomstraat","highway":"residential","profile":"car","distance":"13877.31","time":"11170.35"}},{"Shape":407,"Attributes":{"name":"Margaretha Roosenboomstraat","highway":"residential","profile":"car","distance":"13919.11","time":"11174.37"}},{"Shape":408,"Attributes":{"name":"Margaretha Roosenboomstraat","highway":"residential","profile":"car","distance":"13942.41","time":"11176.6"}},{"Shape":409,"Attributes":{"name":"Margaretha Roosenboomstraat","highway":"residential","profile":"car","distance":"13952.15","time":"11177.54"}},{"Shape":410,"Attributes":{"name":"Margaretha Roosenboomstraat","highway":"residential","profile":"car","distance":"13961.89","time":"11358.48"}},{"Shape":411,"Attributes":{"name":"Margaretha Roosenboomstraat","highway":"residential","profile":"car","distance":"13985.19","time":"11360.71"}},{"Shape":415,"Attributes":{"name":"Margaretha Roosenboomstraat","highway":"residential","profile":"car","distance":"14026.99","time":"11364.72"}},{"Shape":416,"Attributes":{"name":"Margaretha Roosenboomstraat","highway":"residential","profile":"car","distance":"14038.39","time":"11365.82"}},{"Shape":417,"Attributes":{"name":"Joke Smitlaan","maxspeed":"50","highway":"tertiary","profile":"car","distance":"14050.79","time":"11367.01"}},{"Shape":420,"Attributes":{"name":"Joke Smitlaan","maxspeed":"50","highway":"tertiary","profile":"car","distance":"14119.19","time":"11373.58"}},{"Shape":423,"Attributes":{"name":"Annie Romein-Verschoorlaan","maxspeed":"50","highway":"tertiary","profile":"car","distance":"14238.39","time":"11385.02"}},{"Shape":424,"Attributes":{"name":"Annie Romein-Verschoorlaan","maxspeed":"50","highway":"tertiary","profile":"car","distance":"14293.3","time":"11390.29"}}],"Stops":[{"Shape":0,"Coordinates":[4.3622,51.8361],"Attributes":{"index":"137","distance":"0","time":"0","cost_time":"180"}},{"Shape":4,"Coordinates":[4.362184,51.8364],"Attributes":{"index":"139","distance":"158.0312","time":"21.77125","cost_time":"180"}},{"Shape":6,"Coordinates":[4.3624,51.8378],"Attributes":{"index":"138","distance":"313.9079","time":"226.7116","cost_time":"180"}},{"Shape":13,"Coordinates":[4.36272,51.83775],"Attributes":{"index":"157","distance":"544.4462","time":"443.5977","cost_time":"180"}},{"Shape":21,"Coordinates":[4.3645,51.8389],"Attributes":{"index":"156","distance":"748.2415","time":"656.205","cost_time":"180"}},{"Shape":25,"Coordinates":[4.3679,51.839],"Attributes":{"index":"155","distance":"984.5451","time":"874.0135","cost_time":"180"}},{"Shape":34,"Coordinates":[4.366,51.8376],"Attributes":{"index":"158","distance":"1436.7","time":"1126.358","cost_time":"180"}},{"Shape":38,"Coordinates":[4.3652,51.8366],"Attributes":{"index":"159","distance":"1598.782","time":"1332.291","cost_time":"180"}},{"Shape":42,"Coordinates":[4.3648,51.8346],"Attributes":{"index":"142","distance":"1860.502","time":"1554.166","cost_time":"180"}},{"Shape":50,"Coordinates":[4.3666,51.8359],"Attributes":{"index":"160","distance":"2130.635","time":"1777.387","cost_time":"180"}},{"Shape":57,"Coordinates":[4.3681,51.8348],"Attributes":{"index":"161","distance":"2301.989","time":"1984.804","cost_time":"180"}},{"Shape":65,"Coordinates":[4.3684,51.837],"Attributes":{"index":"154","distance":"2667.97","time":"2223.36","cost_time":"180"}},{"Shape":70,"Coordinates":[4.3699,51.8377],"Attributes":{"index":"151","distance":"2890.75","time":"2439.005","cost_time":"180"}},{"Shape":73,"Coordinates":[4.3702,51.8376],"Attributes":{"index":"162","distance":"3018.076","time":"2635.282","cost_time":"180"}},{"Shape":76,"Coordinates":[4.370707,51.83658],"Attributes":{"index":"152","distance":"3150.208","time":"2832","cost_time":"180"}},{"Shape":81,"Coordinates":[4.3705,51.8359],"Attributes":{"index":"153","distance":"3351.554","time":"3044.215","cost_time":"180"}},{"Shape":86,"Coordinates":[4.37083,51.83531],"Attributes":{"index":"150","distance":"3449.741","time":"3239.925","cost_time":"180"}},{"Shape":93,"Coordinates":[4.36933,51.83347],"Attributes":{"index":"148","distance":"3707.882","time":"3454.194","cost_time":"180"}},{"Shape":96,"Coordinates":[4.3683,51.8325],"Attributes":{"index":"149","distance":"3846.048","time":"3656.301","cost_time":"180"}},{"Shape":103,"Coordinates":[4.36964,51.83403],"Attributes":{"index":"147","distance":"4087.917","time":"3875","cost_time":"180"}},{"Shape":107,"Coordinates":[4.3678,51.8326],"Attributes":{"index":"146","distance":"4292.285","time":"4087.699","cost_time":"180"}},{"Shape":113,"Coordinates":[4.3676,51.8338],"Attributes":{"index":"145","distance":"4489.329","time":"4299.226","cost_time":"180"}},{"Shape":116,"Coordinates":[4.3661,51.8336],"Attributes":{"index":"144","distance":"4611.032","time":"4498.699","cost_time":"180"}},{"Shape":123,"Coordinates":[4.36365,51.83393],"Attributes":{"index":"143","distance":"4880.226","time":"4721.77","cost_time":"180"}},{"Shape":126,"Coordinates":[4.3637,51.8356],"Attributes":{"index":"141","distance":"5073.53","time":"4932.699","cost_time":"180"}},{"Shape":131,"Coordinates":[4.3629,51.8352],"Attributes":{"index":"140","distance":"5185.179","time":"5130.563","cost_time":"180"}},{"Shape":146,"Coordinates":[4.362908,51.83392],"Attributes":{"index":"136","distance":"5575.539","time":"5360.349","cost_time":"180"}},{"Shape":161,"Coordinates":[4.36006,51.83444],"Attributes":{"index":"123","distance":"5887.655","time":"5573.398","cost_time":"180"}},{"Shape":169,"Coordinates":[4.3588,51.8358],"Attributes":{"index":"122","distance":"6102.475","time":"5787.769","cost_time":"180"}},{"Shape":169,"Coordinates":[4.3588,51.8358],"Attributes":{"index":"121","distance":"6102.475","time":"5967.769","cost_time":"180"}},{"Shape":175,"Coordinates":[4.3576,51.8369],"Attributes":{"index":"120","distance":"6270.223","time":"6174.609","cost_time":"180"}},{"Shape":179,"Coordinates":[4.3593,51.8369],"Attributes":{"index":"119","distance":"6387.059","time":"6373.303","cost_time":"180"}},{"Shape":185,"Coordinates":[4.3595,51.8387],"Attributes":{"index":"118","distance":"6590.38","time":"6585.834","cost_time":"180"}},{"Shape":191,"Coordinates":[4.3567,51.838],"Attributes":{"index":"117","distance":"6842.439","time":"6806.164","cost_time":"180"}},{"Shape":228,"Coordinates":[4.3725,51.8371],"Attributes":{"index":"164","distance":"8482.78","time":"7177.323","cost_time":"180"}},{"Shape":233,"Coordinates":[4.3713,51.8388],"Attributes":{"index":"163","distance":"8710.742","time":"7393.797","cost_time":"180"}},{"Shape":272,"Coordinates":[4.3558,51.8385],"Attributes":{"index":"112","distance":"10019.87","time":"7707.911","cost_time":"180"}},{"Shape":275,"Coordinates":[4.3552,51.8374],"Attributes":{"index":"116","distance":"10151.29","time":"7908.938","cost_time":"180"}},{"Shape":284,"Coordinates":[4.3535,51.839],"Attributes":{"index":"115","distance":"10420.22","time":"8131.967","cost_time":"180"}},{"Shape":295,"Coordinates":[4.3534,51.8379],"Attributes":{"index":"114","distance":"10660.08","time":"8350.346","cost_time":"180"}},{"Shape":296,"Coordinates":[4.3535,51.8379],"Attributes":{"index":"113","distance":"10666.89","time":"8531.437","cost_time":"180"}},{"Shape":303,"Coordinates":[4.3527,51.8362],"Attributes":{"index":"132","distance":"10963.74","time":"8758.933","cost_time":"180"}},{"Shape":307,"Coordinates":[4.3546,51.8356],"Attributes":{"index":"131","distance":"11163.16","time":"8970.838","cost_time":"180"}},{"Shape":312,"Coordinates":[4.35533,51.83625],"Attributes":{"index":"133","distance":"11301.19","time":"9172.923","cost_time":"180"}},{"Shape":327,"Coordinates":[4.3593,51.834],"Attributes":{"index":"124","distance":"11708.76","time":"9402.436","cost_time":"180"}},{"Shape":331,"Coordinates":[4.3575,51.83281],"Attributes":{"index":"125","distance":"11957.21","time":"9622.188","cost_time":"180"}},{"Shape":340,"Coordinates":[4.3565,51.8323],"Attributes":{"index":"126","distance":"12203.13","time":"9841.536","cost_time":"180"}},{"Shape":346,"Coordinates":[4.3582,51.8318],"Attributes":{"index":"127","distance":"12378.38","time":"10049.58","cost_time":"180"}},{"Shape":363,"Coordinates":[4.3541,51.8314],"Attributes":{"index":"128","distance":"12871.57","time":"10308.49","cost_time":"180"}},{"Shape":374,"Coordinates":[4.3536,51.8334],"Attributes":{"index":"129","distance":"13187.43","time":"10539.03","cost_time":"180"}},{"Shape":380,"Coordinates":[4.35483,51.83439],"Attributes":{"index":"130","distance":"13322.85","time":"10740.7","cost_time":"180"}},{"Shape":386,"Coordinates":[4.3565,51.8346],"Attributes":{"index":"134","distance":"13488.48","time":"10947.2","cost_time":"180"}},{"Shape":409,"Coordinates":[4.36169,51.83494],"Attributes":{"index":"135","distance":"13952.15","time":"11177.54","cost_time":"180"}},{"Shape":424,"Coordinates":[4.3622,51.8361],"Attributes":{"index":"137","distance":"14293.3","time":"11390.29","cost_time":"180"}}],"Branches":[{"Shape":1,"Coordinates":[4.362383,51.8356],"Attributes":{"name":"Sientje Mesdag-van Houtenstraat","highway":"residential","maxspeed":"30"}},{"Shape":1,"Coordinates":[4.362295,51.83504],"Attributes":{"name":"Annie Romein-Verschoorlaan","maxspeed":"50","highway":"tertiary"}},{"Shape":2,"Coordinates":[4.361133,51.83561],"Attributes":{"name":"Marie van Regteren Altenastraat","highway":"residential","maxspeed":"30"}},{"Shape":2,"Coordinates":[4.361462,51.83443],"Attributes":{"name":"Margaretha Roosenboomstraat","highway":"residential","maxspeed":"30"}},{"Shape":2,"Coordinates":[4.36209,51.83628],"Attributes":{"name":"Margaretha Roosenboomstraat","highway":"residential","maxspeed":"30"}},{"Shape":5,"Coordinates":[4.362408,51.83788],"Attributes":{"name":"Ida Wassermanstraat","highway":"residential","maxspeed":"30"}},{"Shape":5,"Coordinates":[4.361285,51.83695],"Attributes":{"name":"Mimi Boesnachstraat","highway":"residential","maxspeed":"30"}},{"Shape":5,"Coordinates":[4.362395,51.83686],"Attributes":{"name":"Mimi Boesnachstraat","highway":"residential","maxspeed":"30"}},{"Shape":7,"Coordinates":[4.361285,51.83695],"Attributes":{"name":"Mimi Boesnachstraat","highway":"residential","maxspeed":"30"}},{"Shape":7,"Coordinates":[4.36209,51.83628],"Attributes":{"name":"Margaretha Roosenboomstraat","highway":"residential","maxspeed":"30"}},{"Shape":8,"Coordinates":[4.362269,51.83624],"Attributes":{"name":"Annie Romein-Verschoorlaan","maxspeed":"50","highway":"tertiary"}},{"Shape":8,"Coordinates":[4.362519,51.83747],"Attributes":{"name":"Annie Romein-Verschoorlaan","maxspeed":"50","highway":"tertiary"}},{"Shape":9,"Coordinates":[4.363842,51.83675],"Attributes":{"name":"Theo Mann-Bouwmeesterstraat","highway":"residential","maxspeed":"30"}},{"Shape":9,"Coordinates":[4.362459,51.83624],"Attributes":{"name":"Lizzy Ansinghstraat","highway":"residential","maxspeed":"30"}},{"Shape":10,"Coordinates":[4.363731,51.83709],"Attributes":{"name":"Magda Janssenstraat","highway":"residential","maxspeed":"30","oneway":"yes"}},{"Shape":11,"Coordinates":[4.363787,51.83738],"Attributes":{"name":"Fie Carelsenstraat","highway":"residential","maxspeed":"30","oneway":"yes"}},{"Shape":12,"Coordinates":[4.362813,51.83805],"Attributes":{"name":"Maria Kleine-Gartmanstraat","highway":"residential","maxspeed":"30"}},{"Shape":12,"Coordinates":[4.363823,51.83765],"Attributes":{"name":"Annie van Eesstraat","highway":"residential","maxspeed":"30","oneway":"yes"}},{"Shape":14,"Coordinates":[4.363896,51.83796],"Attributes":{"name":"Charlotte Köhlerstraat","highway":"residential","maxspeed":"30","oneway":"yes"}},{"Shape":15,"Coordinates":[4.363446,51.83828],"Attributes":{"name":"Fien de la Marstraat","highway":"residential","maxspeed":"30"}},{"Shape":20,"Coordinates":[4.364714,51.83876],"Attributes":{"name":"Maria Kleine-Gartmanstraat","highway":"residential","maxspeed":"30"}},{"Shape":20,"Coordinates":[4.363836,51.83839],"Attributes":{"name":"Fien de la Marstraat","highway":"residential","maxspeed":"30"}},{"Shape":22,"Coordinates":[4.364704,51.83848],"Attributes":{"name":"Esther de Boer-van Rijkstraat","highway":"residential","maxspeed":"30"}},{"Shape":22,"Coordinates":[4.36481,51.83882],"Attributes":{"name":"Maria Kleine-Gartmanstraat","highway":"residential","maxspeed":"30"}},{"Shape":28,"Coordinates":[4.363814,51.83873],"Attributes":{"name":"Maria Kleine-Gartmanstraat","highway":"residential","maxspeed":"30"}},{"Shape":29,"Coordinates":[4.365851,51.83851],"Attributes":{"name":"Vera Bondamstraat","highway":"residential","maxspeed":"30"}},{"Shape":30,"Coordinates":[4.36574,51.83821],"Attributes":{"name":"Else Mauhsstraat","highway":"residential","maxspeed":"30"}},{"Shape":31,"Coordinates":[4.364458,51.83731],"Attributes":{"name":"Esther de Boer-van Rijkstraat","highway":"residential","maxspeed":"30"}},{"Shape":32,"Coordinates":[4.365455,51.83734],"Attributes":{"name":"Ronnie Biermanstraat","highway":"residential","maxspeed":"30"}},{"Shape":33,"Coordinates":[4.365883,51.83719],"Attributes":{"name":"Corrie Vonkplantsoen","highway":"residential","maxspeed":"30"}},{"Shape":33,"Coordinates":[4.365971,51.83768],"Attributes":{"name":"Corrie Vonkplantsoen","highway":"residential","maxspeed":"30"}},{"Shape":36,"Coordinates":[4.36585,51.83667],"Attributes":{"name":"Theo Mann-Bouwmeesterstraat","highway":"residential","maxspeed":"30"}},{"Shape":37,"Coordinates":[4.364371,51.83671],"Attributes":{"name":"Theo Mann-Bouwmeesterstraat","highway":"residential","maxspeed":"30"}},{"Shape":37,"Coordinates":[4.365098,51.83566],"Attributes":{"name":"Suze Robertsonstraat","highway":"residential","maxspeed":"30"}},{"Shape":39,"Coordinates":[4.365858,51.83567],"Attributes":{"name":"Sientje Mesdag-van Houtenstraat","highway":"residential","maxspeed":"30"}},{"Shape":40,"Coordinates":[4.363756,51.83563],"Attributes":{"name":"Sientje Mesdag-van Houtenstraat","highway":"residential","maxspeed":"30"}},{"Shape":40,"Coordinates":[4.3645,51.8348],"Attributes":{"name":"Harriët Freezerstraat","highway":"residential","maxspeed":"30"}},{"Shape":44,"Coordinates":[4.363756,51.83563],"Attributes":{"name":"Sientje Mesdag-van Houtenstraat","highway":"residential","maxspeed":"30"}},{"Shape":45,"Coordinates":[4.36506,51.8367],"Attributes":{"name":"Suze Robertsonstraat","highway":"residential","maxspeed":"30"}},{"Shape":46,"Coordinates":[4.365564,51.83504],"Attributes":{"name":"Emmy Belinfantestraat","highway":"residential","maxspeed":"30"}},{"Shape":49,"Coordinates":[4.366899,51.83581],"Attributes":{"name":"Sientje Mesdag-van Houtenstraat","highway":"residential","maxspeed":"30"}},{"Shape":53,"Coordinates":[4.367727,51.83575],"Attributes":{"name":"Sientje Mesdag-van Houtenstraat","highway":"residential","maxspeed":"30"}},{"Shape":53,"Coordinates":[4.367445,51.83514],"Attributes":{"name":"Martina Kramersstraat","highway":"residential","maxspeed":"30"}},{"Shape":61,"Coordinates":[4.366899,51.83581],"Attributes":{"name":"Sientje Mesdag-van Houtenstraat","highway":"residential","maxspeed":"30"}},{"Shape":62,"Coordinates":[4.368702,51.83578],"Attributes":{"name":"Sientje Mesdag-van Houtenstraat","highway":"residential","maxspeed":"30"}},{"Shape":63,"Coordinates":[4.36686,51.83676],"Attributes":{"name":"Theo Mann-Bouwmeesterstraat","highway":"residential","maxspeed":"30"}},{"Shape":64,"Coordinates":[4.368241,51.83746],"Attributes":{"name":"Top Naeffstraat","highway":"residential","maxspeed":"30"}},{"Shape":64,"Coordinates":[4.368972,51.8369],"Attributes":{"name":"Theo Mann-Bouwmeesterstraat","highway":"residential","maxspeed":"30"}},{"Shape":66,"Coordinates":[4.367617,51.8368],"Attributes":{"name":"Theo Mann-Bouwmeesterstraat","highway":"residential","maxspeed":"30"}},{"Shape":68,"Coordinates":[4.370326,51.83643],"Attributes":{"name":"Beb Vuykstraat","highway":"residential","maxspeed":"30"}},{"Shape":68,"Coordinates":[4.3704,51.837],"Attributes":{"name":"Theo Mann-Bouwmeesterstraat","highway":"residential","maxspeed":"30"}},{"Shape":69,"Coordinates":[4.369893,51.83816],"Attributes":{"name":"Beb Vuykstraat","highway":"residential","maxspeed":"30"}},{"Shape":69,"Coordinates":[4.369532,51.83755],"Attributes":{"name":"Maria Dermoûtstraat","highway":"residential","maxspeed":"30"}},{"Shape":71,"Coordinates":[4.368901,51.83807],"Attributes":{"name":"Maria Tesselschadestraat","highway":"residential","maxspeed":"30"}},{"Shape":72,"Coordinates":[4.370308,51.83821],"Attributes":{"name":"Maria Tesselschadestraat","highway":"residential","maxspeed":"30"}},{"Shape":72,"Coordinates":[4.3704,51.837],"Attributes":{"name":"Geertruida Bosboom-Toussaintlaan","maxspeed":"50","highway":"tertiary"}},{"Shape":72,"Coordinates":[4.36999,51.83858],"Attributes":{"name":"Geertruida Bosboom-Toussaintlaan","maxspeed":"50","highway":"tertiary"}},{"Shape":74,"Coordinates":[4.370177,51.83698],"Attributes":{"name":"Theo Mann-Bouwmeesterstraat","highway":"residential","maxspeed":"30"}},{"Shape":74,"Coordinates":[4.370606,51.8362],"Attributes":{"name":"Geertruida Bosboom-Toussaintlaan","maxspeed":"50","highway":"tertiary"}},{"Shape":75,"Coordinates":[4.370763,51.83647],"Attributes":{"name":"Else van der Banstraat","highway":"residential","maxspeed":"30"}},{"Shape":75,"Coordinates":[4.370445,51.83764],"Attributes":{"name":"Else van der Banstraat","highway":"residential","maxspeed":"30"}},{"Shape":75,"Coordinates":[4.372372,51.83723],"Attributes":{"name":"Theo Mann-Bouwmeesterstraat","highway":"residential","maxspeed":"30"}},{"Shape":77,"Coordinates":[4.370445,51.83764],"Attributes":{"name":"Else van der Banstraat","highway":"residential","maxspeed":"30"}},{"Shape":77,"Coordinates":[4.372372,51.83723],"Attributes":{"name":"Theo Mann-Bouwmeesterstraat","highway":"residential","maxspeed":"30"}},{"Shape":78,"Coordinates":[4.370606,51.8362],"Attributes":{"name":"Geertruida Bosboom-Toussaintlaan","maxspeed":"50","highway":"tertiary"}},{"Shape":78,"Coordinates":[4.370094,51.83818],"Attributes":{"name":"Geertruida Bosboom-Toussaintlaan","maxspeed":"50","highway":"tertiary"}},{"Shape":79,"Coordinates":[4.370038,51.8376],"Attributes":{"name":"Beb Vuykstraat","highway":"residential","maxspeed":"30"}},{"Shape":79,"Coordinates":[4.368972,51.8369],"Attributes":{"name":"Theo Mann-Bouwmeesterstraat","highway":"residential","maxspeed":"30"}},{"Shape":80,"Coordinates":[4.370462,51.83586],"Attributes":{"name":"Beb Vuykstraat","highway":"residential","maxspeed":"30"}},{"Shape":80,"Coordinates":[4.369906,51.8364],"Attributes":{"name":"Catharina van Renneshof","highway":"residential","maxspeed":"30"}},{"Shape":82,"Coordinates":[4.370476,51.83536],"Attributes":{"name":"Beb Vuykstraat","highway":"residential","maxspeed":"30"}},{"Shape":82,"Coordinates":[4.368702,51.83578],"Attributes":{"name":"Sientje Mesdag-van Houtenstraat","highway":"residential","maxspeed":"30"}},{"Shape":83,"Coordinates":[4.370679,51.83535],"Attributes":{"name":"Geertruida Bosboom-Toussaintlaan","maxspeed":"50","highway":"tertiary"}},{"Shape":83,"Coordinates":[4.370606,51.8362],"Attributes":{"name":"Geertruida Bosboom-Toussaintlaan","maxspeed":"50","highway":"tertiary"}},{"Shape":84,"Coordinates":[4.370826,51.8362],"Attributes":{"name":"Else van der Banstraat","highway":"residential","maxspeed":"30"}},{"Shape":84,"Coordinates":[4.372729,51.83594],"Attributes":{"name":"Sientje Mesdag-van Houtenstraat","highway":"residential","maxspeed":"30"}},{"Shape":85,"Coordinates":[4.370724,51.83487],"Attributes":{"name":"Else van der Banstraat","highway":"residential","maxspeed":"30"}},{"Shape":85,"Coordinates":[4.3717,51.8353],"Attributes":{"name":"Lotte Beesestraat","highway":"residential","maxspeed":"30"}},{"Shape":87,"Coordinates":[4.37044,51.83441],"Attributes":{"name":"Else van der Banstraat","highway":"residential","maxspeed":"30"}},{"Shape":87,"Coordinates":[4.371654,51.83469],"Attributes":{"name":"Truus Schröderstraat","highway":"residential","maxspeed":"30"}},{"Shape":88,"Coordinates":[4.370315,51.83495],"Attributes":{"name":"Truus Schröderstraat","highway":"unclassified","maxspeed":"30"}},{"Shape":88,"Coordinates":[4.370679,51.83535],"Attributes":{"name":"Geertruida Bosboom-Toussaintlaan","maxspeed":"50","highway":"tertiary"}},{"Shape":90,"Coordinates":[4.369626,51.83411],"Attributes":{"name":"Belle van Zuylenstraat","highway":"residential","maxspeed":"30"}},{"Shape":90,"Coordinates":[4.367404,51.83212],"Attributes":{"name":"Geertruida Bosboom-Toussaintlaan","maxspeed":"50","highway":"tertiary"}},{"Shape":91,"Coordinates":[4.37044,51.83441],"Attributes":{"name":"Else van der Banstraat","highway":"residential","maxspeed":"30"}},{"Shape":91,"Coordinates":[4.370699,51.83359],"Attributes":{"name":"Belle van Zuylenstraat","highway":"residential","maxspeed":"30"}},{"Shape":92,"Coordinates":[4.368838,51.83305],"Attributes":{"name":"Else van der Banstraat","highway":"residential","maxspeed":"30"}},{"Shape":92,"Coordinates":[4.369666,51.83346],"Attributes":{"name":"Clare Lennartstraat","highway":"residential","maxspeed":"30"}},{"Shape":94,"Coordinates":[4.369786,51.8326],"Attributes":{"name":"Jeanne van Schaik-Willingstraat","highway":"residential","maxspeed":"30"}},{"Shape":95,"Coordinates":[4.367612,51.83207],"Attributes":{"name":"Else van der Banstraat","highway":"residential","maxspeed":"30"}},{"Shape":95,"Coordinates":[4.368486,51.83239],"Attributes":{"name":"Hélène Swarthstraat","highway":"residential","maxspeed":"30"}},{"Shape":97,"Coordinates":[4.367612,51.83207],"Attributes":{"name":"Else van der Banstraat","highway":"residential","maxspeed":"30"}},{"Shape":98,"Coordinates":[4.369786,51.8326],"Attributes":{"name":"Jeanne van Schaik-Willingstraat","highway":"residential","maxspeed":"30"}},{"Shape":99,"Coordinates":[4.369666,51.83346],"Attributes":{"name":"Clare Lennartstraat","highway":"residential","maxspeed":"30"}},{"Shape":100,"Coordinates":[4.37044,51.83441],"Attributes":{"name":"Else van der Banstraat","highway":"residential","maxspeed":"30"}},{"Shape":100,"Coordinates":[4.370699,51.83359],"Attributes":{"name":"Belle van Zuylenstraat","highway":"residential","maxspeed":"30"}},{"Shape":101,"Coordinates":[4.367404,51.83212],"Attributes":{"name":"Geertruida Bosboom-Toussaintlaan","maxspeed":"50","highway":"tertiary"}},{"Shape":101,"Coordinates":[4.370261,51.83447],"Attributes":{"name":"Geertruida Bosboom-Toussaintlaan","maxspeed":"50","highway":"tertiary"}},{"Shape":102,"Coordinates":[4.369088,51.83369],"Attributes":{"name":"Beb Vuykstraat","highway":"residential","maxspeed":"30"}},{"Shape":102,"Coordinates":[4.370059,51.83451],"Attributes":{"name":"Beb Vuykstraat","highway":"residential","maxspeed":"30"}},{"Shape":102,"Coordinates":[4.368752,51.83453],"Attributes":{"name":"Belle van Zuylenstraat","highway":"residential","maxspeed":"30"}},{"Shape":104,"Coordinates":[4.368303,51.83408],"Attributes":{"name":"Madelon Lulofsstraat","highway":"residential","maxspeed":"30"}},{"Shape":105,"Coordinates":[4.368081,51.83335],"Attributes":{"name":"Madelon Lulofsstraat","highway":"residential","maxspeed":"30"}},{"Shape":106,"Coordinates":[4.367285,51.83224],"Attributes":{"name":"Beb Vuykstraat","highway":"residential","maxspeed":"30"}},{"Shape":106,"Coordinates":[4.367129,51.83322],"Attributes":{"name":"Anke Servaesstraat","highway":"residential","maxspeed":"30"}},{"Shape":108,"Coordinates":[4.368437,51.83317],"Attributes":{"name":"Beb Vuykstraat","highway":"residential","maxspeed":"30"}},{"Shape":111,"Coordinates":[4.366681,51.83285],"Attributes":{"name":"Anke Servaesstraat","highway":"residential","maxspeed":"30"}},{"Shape":112,"Coordinates":[4.365999,51.83372],"Attributes":{"name":"Marie van Zeggelenstraat","highway":"residential","maxspeed":"30"}},{"Shape":112,"Coordinates":[4.367658,51.83384],"Attributes":{"name":"Madelon Lulofsstraat","highway":"residential","maxspeed":"30"}},{"Shape":114,"Coordinates":[4.366941,51.83331],"Attributes":{"name":"Anke Servaesstraat","highway":"residential","maxspeed":"30"}},{"Shape":115,"Coordinates":[4.365298,51.83384],"Attributes":{"name":"Marie van Zeggelenstraat","highway":"residential","maxspeed":"30"}},{"Shape":115,"Coordinates":[4.365887,51.8331],"Attributes":{"name":"Marie van Zeggelenstraat","highway":"residential","maxspeed":"30"}},{"Shape":118,"Coordinates":[4.365505,51.83278],"Attributes":{"name":"Marie van Zeggelenstraat","highway":"residential","maxspeed":"30"}},{"Shape":118,"Coordinates":[4.366334,51.83255],"Attributes":{"name":"Lucretia van Merkenstraat","highway":"residential","maxspeed":"30"}},{"Shape":119,"Coordinates":[4.36504,51.8335],"Attributes":{"name":"Marie van Zeggelenstraat","highway":"residential","maxspeed":"30"}},{"Shape":120,"Coordinates":[4.36375,51.83378],"Attributes":{"name":"Henriëtte van der Meijstraat","highway":"residential","maxspeed":"30"}},{"Shape":120,"Coordinates":[4.364484,51.83419],"Attributes":{"name":"Nan Holdert-Zuikerbergstraat","highway":"residential","maxspeed":"30"}},{"Shape":125,"Coordinates":[4.363351,51.83562],"Attributes":{"name":"Sientje Mesdag-van Houtenstraat","highway":"residential","maxspeed":"30"}},{"Shape":125,"Coordinates":[4.364598,51.83564],"Attributes":{"name":"Sientje Mesdag-van Houtenstraat","highway":"residential","maxspeed":"30"}},{"Shape":127,"Coordinates":[4.362383,51.8356],"Attributes":{"name":"Sientje Mesdag-van Houtenstraat","highway":"residential","maxspeed":"30"}},{"Shape":128,"Coordinates":[4.362867,51.83527],"Attributes":{"name":"Lizzy Ansinghstraat","highway":"unclassified","maxspeed":"30"}},{"Shape":129,"Coordinates":[4.362886,51.83512],"Attributes":{"name":"Lizzy Ansinghstraat","highway":"unclassified","maxspeed":"30"}},{"Shape":134,"Coordinates":[4.362867,51.83527],"Attributes":{"name":"Lizzy Ansinghstraat","highway":"unclassified","maxspeed":"30"}},{"Shape":135,"Coordinates":[4.363756,51.83563],"Attributes":{"name":"Sientje Mesdag-van Houtenstraat","highway":"residential","maxspeed":"30"}},{"Shape":136,"Coordinates":[4.362482,51.83507],"Attributes":{"name":"Lizzy Ansinghstraat","highway":"residential","maxspeed":"30"}},{"Shape":136,"Coordinates":[4.362459,51.83624],"Attributes":{"name":"Lizzy Ansinghstraat","highway":"residential","maxspeed":"30"}},{"Shape":137,"Coordinates":[4.362,51.83559],"Attributes":{"name":"Marie van Regteren Altenastraat","highway":"residential","maxspeed":"30"}},{"Shape":137,"Coordinates":[4.362269,51.83624],"Attributes":{"name":"Annie Romein-Verschoorlaan","maxspeed":"50","highway":"tertiary"}},{"Shape":140,"Coordinates":[4.362263,51.83449],"Attributes":{"name":"Joke Smitlaan","maxspeed":"50","highway":"tertiary"}},{"Shape":143,"Coordinates":[4.363766,51.83361],"Attributes":{"name":"Annie Romein-Verschoorlaan","maxspeed":"50","highway":"tertiary"}},{"Shape":145,"Coordinates":[4.362726,51.83382],"Attributes":{"name":"Ida Gerhardtplein","highway":"service"}},{"Shape":145,"Coordinates":[4.363036,51.83369],"Attributes":{"name":"Ida Gerhardtplein","highway":"service"}},{"Shape":147,"Coordinates":[4.363036,51.83369],"Attributes":{"name":"Ida Gerhardtplein","highway":"service"}},{"Shape":149,"Coordinates":[4.363766,51.83361],"Attributes":{"name":"Annie Romein-Verschoorlaan","maxspeed":"50","highway":"tertiary"}},{"Shape":152,"Coordinates":[4.362295,51.83504],"Attributes":{"name":"Annie Romein-Verschoorlaan","maxspeed":"50","highway":"tertiary"}},{"Shape":156,"Coordinates":[4.361445,51.8344],"Attributes":{"name":"Margaretha Roosenboomstraat","highway":"residential"}},{"Shape":157,"Coordinates":[4.361255,51.83418],"Attributes":{"name":"Hadewychplaats","highway":"service"}},{"Shape":159,"Coordinates":[4.36026,51.83197],"Attributes":{"name":"Drogendijk","highway":"unclassified","maxspeed":"30"}},{"Shape":159,"Coordinates":[4.360504,51.83558],"Attributes":{"name":"Drogendijk","highway":"unclassified","maxspeed":"30"}},{"Shape":160,"Coordinates":[4.359956,51.83451],"Attributes":{"name":"Clara Visserstraat","highway":"residential","maxspeed":"30"}},{"Shape":160,"Coordinates":[4.359355,51.83421],"Attributes":{"name":"Joke Smitlaan","maxspeed":"50","highway":"tertiary"}},{"Shape":167,"Coordinates":[4.359009,51.83457],"Attributes":{"name":"Annie Mankes-Zernikestraat","highway":"residential","maxspeed":"30"}},{"Shape":168,"Coordinates":[4.358304,51.83594],"Attributes":{"name":"Wilhelmina Bladergroenstraat","highway":"residential","maxspeed":"30"}},{"Shape":168,"Coordinates":[4.358029,51.83479],"Attributes":{"name":"Anna Storm-van der Chijsstraat","highway":"residential","maxspeed":"30"}},{"Shape":171,"Coordinates":[4.356453,51.83565],"Attributes":{"name":"Johanna Westerdijkstraat","highway":"residential","maxspeed":"30"}},{"Shape":172,"Coordinates":[4.356021,51.83622],"Attributes":{"name":"Lau Mazirelstraat","highway":"residential","maxspeed":"30"}},{"Shape":174,"Coordinates":[4.357479,51.83744],"Attributes":{"name":"Wilhelmina Bladergroenstraat","highway":"residential","maxspeed":"30"}},{"Shape":174,"Coordinates":[4.358421,51.83695],"Attributes":{"name":"Maria Rutgers-Hoitsemastraat","highway":"residential","maxspeed":"30"}},{"Shape":176,"Coordinates":[4.358305,51.83854],"Attributes":{"name":"Mary Zeldenrust-Noordanusstraat","highway":"residential","maxspeed":"30"}},{"Shape":176,"Coordinates":[4.358706,51.83696],"Attributes":{"name":"Maria Rutgers-Hoitsemastraat","highway":"residential","maxspeed":"30"}},{"Shape":180,"Coordinates":[4.360314,51.83701],"Attributes":{"name":"Maria Rutgers-Hoitsemastraat","highway":"residential","maxspeed":"30"}},{"Shape":181,"Coordinates":[4.360465,51.83755],"Attributes":{"name":"Liesbeth Tilanusstraat","highway":"residential","maxspeed":"30"}},{"Shape":182,"Coordinates":[4.36062,51.83812],"Attributes":{"name":"Cornelia de Langestraat","highway":"residential","maxspeed":"30"}},{"Shape":183,"Coordinates":[4.358305,51.83854],"Attributes":{"name":"Aletta Jacobsstraat","highway":"residential","maxspeed":"30"}},{"Shape":183,"Coordinates":[4.359298,51.83863],"Attributes":{"name":"Aletta Jacobsstraat","highway":"residential","maxspeed":"30"}},{"Shape":187,"Coordinates":[4.359249,51.83808],"Attributes":{"name":"Hélène Mercierstraat","highway":"residential","maxspeed":"30"}},{"Shape":188,"Coordinates":[4.358421,51.83695],"Attributes":{"name":"Mary Zeldenrust-Noordanusstraat","highway":"residential","maxspeed":"30"}},{"Shape":189,"Coordinates":[4.356521,51.83856],"Attributes":{"name":"Aletta Jacobsstraat","highway":"residential","maxspeed":"30"}},{"Shape":190,"Coordinates":[4.357479,51.83744],"Attributes":{"name":"Wilhelmina Bladergroenstraat","highway":"residential","maxspeed":"30"}},{"Shape":190,"Coordinates":[4.356625,51.83799],"Attributes":{"name":"Catharina van Tussenbroekstraat","highway":"residential","maxspeed":"30"}},{"Shape":192,"Coordinates":[4.357479,51.83744],"Attributes":{"name":"Wilhelmina Bladergroenstraat","highway":"residential","maxspeed":"30"}},{"Shape":193,"Coordinates":[4.358305,51.83854],"Attributes":{"name":"Aletta Jacobsstraat","highway":"residential","maxspeed":"30"}},{"Shape":197,"Coordinates":[4.355865,51.83872],"Attributes":{"name":"Marga Klompéstraat","highway":"residential","maxspeed":"30"}},{"Shape":197,"Coordinates":[4.355722,51.83817],"Attributes":{"name":"Joke Smitlaan","maxspeed":"50","highway":"tertiary"}},{"Shape":198,"Coordinates":[4.356528,51.83948],"Attributes":{"name":"Joke Smitlaan","maxspeed":"50","highway":"tertiary","oneway":"yes"}},{"Shape":201,"Coordinates":[4.356627,51.8395],"Attributes":{"name":"Maaswijkweg","maxspeed":"50","highway":"tertiary","junction":"roundabout"}},{"Shape":203,"Coordinates":[4.356906,51.83957],"Attributes":{"name":"Maaswijkweg","maxspeed":"50","highway":"tertiary","junction":"roundabout"}},{"Shape":208,"Coordinates":[4.358794,51.83924],"Attributes":{"name":"Maaswijkweg","maxspeed":"50","highway":"tertiary","oneway":"yes"}},{"Shape":209,"Coordinates":[4.359805,51.83934],"Attributes":{"name":"Maaswijkweg","highway":"unclassified"}},{"Shape":210,"Coordinates":[4.362639,51.83916],"Attributes":{"name":"Annie Romein-Verschoorlaan","maxspeed":"50","highway":"tertiary","oneway":"yes"}},{"Shape":211,"Coordinates":[4.362792,51.83877],"Attributes":{"name":"Annie Romein-Verschoorlaan","maxspeed":"50","highway":"tertiary","oneway":"yes"}},{"Shape":212,"Coordinates":[4.363065,51.84006],"Attributes":{"name":"Papendijk","highway":"unclassified"}},{"Shape":214,"Coordinates":[4.369828,51.83957],"Attributes":{"name":"Maaswijkweg","maxspeed":"50","highway":"tertiary"}},{"Shape":217,"Coordinates":[4.369873,51.83919],"Attributes":{"name":"Geertruida Bosboom-Toussaintlaan","maxspeed":"50","highway":"tertiary","oneway":"yes"}},{"Shape":218,"Coordinates":[4.370094,51.83818],"Attributes":{"name":"Geertruida Bosboom-Toussaintlaan","maxspeed":"50","highway":"tertiary"}},{"Shape":218,"Coordinates":[4.369776,51.83852],"Attributes":{"name":"Maria Kleine-Gartmanstraat","highway":"residential","maxspeed":"30"}},{"Shape":220,"Coordinates":[4.37021,51.83849],"Attributes":{"name":"Henriëtte Roland Holststraat","highway":"residential","maxspeed":"30"}},{"Shape":226,"Coordinates":[4.372942,51.83545],"Attributes":{"name":"Lange Groeneweg","highway":"residential","maxspeed":"30"}},{"Shape":230,"Coordinates":[4.370436,51.83859],"Attributes":{"name":"Henriëtte Roland Holststraat","highway":"residential","maxspeed":"30"}},{"Shape":237,"Coordinates":[4.37021,51.83849],"Attributes":{"name":"Henriëtte Roland Holststraat","highway":"residential","maxspeed":"30"}},{"Shape":239,"Coordinates":[4.370094,51.83818],"Attributes":{"name":"Geertruida Bosboom-Toussaintlaan","maxspeed":"50","highway":"tertiary"}},{"Shape":239,"Coordinates":[4.369776,51.83852],"Attributes":{"name":"Maria Kleine-Gartmanstraat","highway":"residential","maxspeed":"30"}},{"Shape":240,"Coordinates":[4.369735,51.83941],"Attributes":{"name":"Geertruida Bosboom-Toussaintlaan","maxspeed":"50","highway":"tertiary","oneway":"yes"}},{"Shape":243,"Coordinates":[4.371362,51.83951],"Attributes":{"name":"Maaswijkweg","highway":"unclassified","maxspeed":"50"}},{"Shape":244,"Coordinates":[4.369735,51.83941],"Attributes":{"name":"Geertruida Bosboom-Toussaintlaan","maxspeed":"50","highway":"tertiary","oneway":"yes"}},{"Shape":246,"Coordinates":[4.363065,51.84006],"Attributes":{"name":"Papendijk","highway":"unclassified"}},{"Shape":247,"Coordinates":[4.362792,51.83877],"Attributes":{"name":"Annie Romein-Verschoorlaan","maxspeed":"50","highway":"tertiary","oneway":"yes"}},{"Shape":248,"Coordinates":[4.362639,51.83916],"Attributes":{"name":"Annie Romein-Verschoorlaan","maxspeed":"50","highway":"tertiary","oneway":"yes"}},{"Shape":249,"Coordinates":[4.359805,51.83934],"Attributes":{"name":"Maaswijkweg","highway":"unclassified"}},{"Shape":250,"Coordinates":[4.35768,51.83932],"Attributes":{"name":"Maaswijkweg","maxspeed":"50","highway":"tertiary","oneway":"yes"}},{"Shape":254,"Coordinates":[4.356906,51.83957],"Attributes":{"name":"Maaswijkweg","maxspeed":"50","highway":"tertiary","junction":"roundabout"}},{"Shape":260,"Coordinates":[4.356156,51.83985],"Attributes":{"name":"Maaswijkweg","maxspeed":"50","highway":"tertiary","oneway":"yes"}},{"Shape":263,"Coordinates":[4.350151,51.84123],"Attributes":{"name":"Maaswijkweg","maxspeed":"50","highway":"tertiary","oneway":"yes"}},{"Shape":266,"Coordinates":[4.356627,51.8395],"Attributes":{"name":"Maaswijkweg","maxspeed":"50","highway":"tertiary","junction":"roundabout"}},{"Shape":269,"Coordinates":[4.356225,51.83888],"Attributes":{"name":"Joke Smitlaan","maxspeed":"50","highway":"tertiary","oneway":"yes"}},{"Shape":270,"Coordinates":[4.356521,51.83856],"Attributes":{"name":"Aletta Jacobsstraat","highway":"residential","maxspeed":"30"}},{"Shape":270,"Coordinates":[4.355722,51.83817],"Attributes":{"name":"Joke Smitlaan","maxspeed":"50","highway":"tertiary"}},{"Shape":271,"Coordinates":[4.355413,51.83882],"Attributes":{"name":"Marga Klompéstraat","highway":"residential","maxspeed":"30"}},{"Shape":271,"Coordinates":[4.355442,51.83807],"Attributes":{"name":"Suze Groenewegstraat","highway":"residential","maxspeed":"30"}},{"Shape":273,"Coordinates":[4.355262,51.83775],"Attributes":{"name":"Suze Groenewegstraat","highway":"residential","maxspeed":"30"}},{"Shape":273,"Coordinates":[4.354567,51.83827],"Attributes":{"name":"Johanna Engwirda-Agricolastraat","highway":"residential","maxspeed":"30"}},{"Shape":277,"Coordinates":[4.355865,51.83872],"Attributes":{"name":"Suze Groenewegstraat","highway":"residential","maxspeed":"30"}},{"Shape":278,"Coordinates":[4.354358,51.83789],"Attributes":{"name":"Johanna Engwirda-Agricolastraat","highway":"residential","maxspeed":"30"}},{"Shape":278,"Coordinates":[4.354502,51.83861],"Attributes":{"name":"Johanna Engwirda-Agricolastraat","highway":"residential","maxspeed":"30"}},{"Shape":290,"Coordinates":[4.355442,51.83807],"Attributes":{"name":"Johanna Engwirda-Agricolastraat","highway":"residential","maxspeed":"30"}},{"Shape":293,"Coordinates":[4.354056,51.83848],"Attributes":{"name":"Liesbeth Ribbius Peletierpad","highway":"residential","maxspeed":"30"}},{"Shape":294,"Coordinates":[4.353249,51.83786],"Attributes":{"name":"Johanna Engwirda-Agricolastraat","highway":"residential","maxspeed":"30"}},{"Shape":294,"Coordinates":[4.353606,51.83847],"Attributes":{"name":"Anna de Waalpad","highway":"residential","maxspeed":"30"}},{"Shape":297,"Coordinates":[4.353225,51.83834],"Attributes":{"name":"Carry Pothuis-Smitstraat","highway":"residential","maxspeed":"30"}},{"Shape":297,"Coordinates":[4.352627,51.83785],"Attributes":{"name":"Truus Smulders-Beliënstraat","highway":"residential","maxspeed":"30"}},{"Shape":298,"Coordinates":[4.354631,51.83735],"Attributes":{"name":"Wilhelmina Hofman-Pootstraat","highway":"residential","maxspeed":"30"}},{"Shape":302,"Coordinates":[4.353416,51.83625],"Attributes":{"name":"Wilhelmina Druckerstraat","highway":"residential","maxspeed":"30"}},{"Shape":302,"Coordinates":[4.352559,51.83601],"Attributes":{"name":"Annette Versluys-Poelmanstraat","highway":"residential","maxspeed":"30"}},{"Shape":305,"Coordinates":[4.354723,51.8363],"Attributes":{"name":"Wilhelmina Druckerstraat","highway":"residential","maxspeed":"30"}},{"Shape":306,"Coordinates":[4.3546,51.8357],"Attributes":{"name":"Roosje Vosstraat","highway":"residential","maxspeed":"30"}},{"Shape":306,"Coordinates":[4.353442,51.83566],"Attributes":{"name":"Clara Wichmannstraat","highway":"residential","maxspeed":"30"}},{"Shape":306,"Coordinates":[4.3546,51.83545],"Attributes":{"name":"Roosje Vosstraat","highway":"residential","maxspeed":"30"}},{"Shape":308,"Coordinates":[4.3546,51.8357],"Attributes":{"name":"Roosje Vosstraat","highway":"residential","maxspeed":"30"}},{"Shape":308,"Coordinates":[4.353442,51.83566],"Attributes":{"name":"Clara Wichmannstraat","highway":"residential","maxspeed":"30"}},{"Shape":309,"Coordinates":[4.353416,51.83625],"Attributes":{"name":"Wilhelmina Druckerstraat","highway":"residential","maxspeed":"30"}},{"Shape":310,"Coordinates":[4.35471,51.83656],"Attributes":{"highway":"residential","maxspeed":"30"}},{"Shape":311,"Coordinates":[4.355383,51.83632],"Attributes":{"name":"Wilhelmina Druckerstraat","highway":"residential","maxspeed":"30"}},{"Shape":311,"Coordinates":[4.355661,51.83566],"Attributes":{"name":"Mina Krusemanstraat","highway":"residential","maxspeed":"30"}},{"Shape":315,"Coordinates":[4.355773,51.83496],"Attributes":{"name":"Maria Doorman-Kielstrastraat","highway":"residential","maxspeed":"30"}},{"Shape":316,"Coordinates":[4.356272,51.83529],"Attributes":{"name":"Maria Doorman-Kielstrastraat","highway":"residential","maxspeed":"30"}},{"Shape":316,"Coordinates":[4.355559,51.83603],"Attributes":{"name":"Joke Smitlaan","maxspeed":"50","highway":"tertiary","oneway":"yes"}},{"Shape":320,"Coordinates":[4.357344,51.83449],"Attributes":{"name":"Etty Hillesumstraat","highway":"residential","maxspeed":"30"}},{"Shape":320,"Coordinates":[4.357471,51.83462],"Attributes":{"name":"Etty Hillesumstraat","highway":"residential","maxspeed":"30"}},{"Shape":322,"Coordinates":[4.358017,51.83445],"Attributes":{"name":"Joke Smitlaan","maxspeed":"50","highway":"tertiary","oneway":"yes"}},{"Shape":325,"Coordinates":[4.359355,51.83421],"Attributes":{"name":"Joke Smitlaan","maxspeed":"50","highway":"tertiary"}},{"Shape":326,"Coordinates":[4.3593,51.8334],"Attributes":{"name":"Anne Frankstraat","highway":"residential","maxspeed":"30"}},{"Shape":326,"Coordinates":[4.358588,51.83418],"Attributes":{"name":"Mies van Oort-Laustraat","highway":"residential","maxspeed":"30"}},{"Shape":329,"Coordinates":[4.359152,51.83241],"Attributes":{"name":"Anne Frankstraat","highway":"residential","maxspeed":"30"}},{"Shape":330,"Coordinates":[4.357482,51.83284],"Attributes":{"name":"Hannie Schaftstraat","highway":"residential","maxspeed":"30"}},{"Shape":330,"Coordinates":[4.358418,51.83335],"Attributes":{"name":"Trix Terwindtstraat","highway":"residential","maxspeed":"30"}},{"Shape":333,"Coordinates":[4.35606,51.83361],"Attributes":{"name":"Hannie Schaftstraat","highway":"residential","maxspeed":"30"}},{"Shape":333,"Coordinates":[4.35724,51.83361],"Attributes":{"name":"Trix Terwindtstraat","highway":"residential","maxspeed":"30"}},{"Shape":334,"Coordinates":[4.355162,51.83287],"Attributes":{"name":"Mien Sneevliet-Draaijerstraat","highway":"residential","maxspeed":"30","oneway":"yes"}},{"Shape":334,"Coordinates":[4.356112,51.83237],"Attributes":{"name":"Mien Sneevliet-Draaijerstraat","highway":"residential","maxspeed":"30","oneway":"yes"}},{"Shape":335,"Coordinates":[4.355034,51.83205],"Attributes":{"name":"Mia van der Wall-Duyvendakstraat","highway":"residential","maxspeed":"30"}},{"Shape":335,"Coordinates":[4.355093,51.83282],"Attributes":{"name":"Mien Sneevliet-Draaijerstraat","highway":"residential","maxspeed":"30","oneway":"yes"}},{"Shape":337,"Coordinates":[4.358144,51.83232],"Attributes":{"name":"Petronella Brugsmastraat","highway":"residential","maxspeed":"30"}},{"Shape":337,"Coordinates":[4.356006,51.83215],"Attributes":{"name":"Petronella Brugsmastraat","highway":"residential","maxspeed":"30"}},{"Shape":337,"Coordinates":[4.356112,51.83237],"Attributes":{"name":"Mien Sneevliet-Draaijerstraat","highway":"residential","maxspeed":"30","oneway":"yes"}},{"Shape":354,"Coordinates":[4.356006,51.83215],"Attributes":{"name":"Petronella Brugsmastraat","highway":"residential","maxspeed":"30"}},{"Shape":354,"Coordinates":[4.35604,51.83231],"Attributes":{"name":"Mien Sneevliet-Draaijerstraat","highway":"residential","maxspeed":"30","oneway":"yes"}},{"Shape":356,"Coordinates":[4.355672,51.83251],"Attributes":{"name":"Mia van der Wall-Duyvendakstraat","highway":"residential","maxspeed":"30"}},{"Shape":356,"Coordinates":[4.35673,51.83325],"Attributes":{"name":"Jacoba Pulskensstraat","highway":"residential","maxspeed":"30"}},{"Shape":358,"Coordinates":[4.355329,51.8331],"Attributes":{"name":"Etty Hillesumstraat","highway":"residential","maxspeed":"30"}},{"Shape":358,"Coordinates":[4.355093,51.83282],"Attributes":{"name":"Mien Sneevliet-Draaijerstraat","highway":"residential","maxspeed":"30","oneway":"yes"}},{"Shape":359,"Coordinates":[4.354129,51.83141],"Attributes":{"name":"Etty Hillesumstraat","highway":"residential","maxspeed":"30"}},{"Shape":359,"Coordinates":[4.354767,51.83298],"Attributes":{"name":"Mien Sneevliet-Draaijerstraat","highway":"residential","maxspeed":"30"}},{"Shape":367,"Coordinates":[4.355031,51.83289],"Attributes":{"name":"Etty Hillesumstraat","highway":"residential","maxspeed":"30"}},{"Shape":372,"Coordinates":[4.354132,51.83377],"Attributes":{"name":"Maria Doorman-Kielstrastraat","highway":"residential","maxspeed":"30"}},{"Shape":372,"Coordinates":[4.353489,51.83369],"Attributes":{"name":"Johanna Naberstraat","highway":"residential","maxspeed":"30"}},{"Shape":372,"Coordinates":[4.353667,51.83348],"Attributes":{"name":"Willemijn Posthumusstraat","highway":"residential","maxspeed":"30"}},{"Shape":376,"Coordinates":[4.353489,51.83369],"Attributes":{"name":"Johanna Naberstraat","highway":"residential","maxspeed":"30"}},{"Shape":376,"Coordinates":[4.354767,51.83298],"Attributes":{"name":"Mien Sneevliet-Draaijerstraat","highway":"residential","maxspeed":"30"}},{"Shape":377,"Coordinates":[4.355028,51.83327],"Attributes":{"highway":"residential","maxspeed":"30"}},{"Shape":379,"Coordinates":[4.353589,51.83436],"Attributes":{"name":"Annette Versluys-Poelmanstraat","highway":"residential","maxspeed":"30"}},{"Shape":379,"Coordinates":[4.35489,51.83435],"Attributes":{"name":"Maria Doorman-Kielstrastraat","highway":"residential","maxspeed":"30"}},{"Shape":382,"Coordinates":[4.354878,51.83525],"Attributes":{"name":"Roosje Vosstraat","highway":"residential","maxspeed":"30"}},{"Shape":383,"Coordinates":[4.356078,51.83521],"Attributes":{"name":"Maria Doorman-Kielstrastraat","highway":"residential","maxspeed":"30"}},{"Shape":383,"Coordinates":[4.356722,51.83442],"Attributes":{"highway":"residential","maxspeed":"30"}},{"Shape":389,"Coordinates":[4.356118,51.83365],"Attributes":{"name":"Etty Hillesumstraat","highway":"residential","maxspeed":"30"}},{"Shape":390,"Coordinates":[4.358588,51.83418],"Attributes":{"name":"Mies van Oort-Laustraat","highway":"residential","maxspeed":"30"}},{"Shape":391,"Coordinates":[4.357471,51.83462],"Attributes":{"name":"Etty Hillesumstraat","highway":"residential","maxspeed":"30"}},{"Shape":391,"Coordinates":[4.356462,51.83506],"Attributes":{"name":"Joke Smitlaan","maxspeed":"50","highway":"tertiary","oneway":"yes"}},{"Shape":393,"Coordinates":[4.358017,51.83445],"Attributes":{"name":"Joke Smitlaan","maxspeed":"50","highway":"tertiary","oneway":"yes"}},{"Shape":396,"Coordinates":[4.359233,51.8341],"Attributes":{"name":"Anne Frankstraat","highway":"residential","maxspeed":"30"}},{"Shape":398,"Coordinates":[4.359956,51.83451],"Attributes":{"name":"Clara Visserstraat","highway":"residential","maxspeed":"30"}},{"Shape":399,"Coordinates":[4.36026,51.83197],"Attributes":{"name":"Drogendijk","highway":"unclassified","maxspeed":"30"}},{"Shape":399,"Coordinates":[4.360504,51.83558],"Attributes":{"name":"Drogendijk","highway":"unclassified","maxspeed":"30"}},{"Shape":401,"Coordinates":[4.361255,51.83418],"Attributes":{"name":"Hadewychplaats","highway":"service"}},{"Shape":402,"Coordinates":[4.361663,51.83434],"Attributes":{"name":"Joke Smitlaan","maxspeed":"50","highway":"tertiary"}},{"Shape":403,"Coordinates":[4.361462,51.83443],"Attributes":{"name":"Margaretha Roosenboomstraat","highway":"residential","maxspeed":"30"}},{"Shape":407,"Coordinates":[4.361384,51.83525],"Attributes":{"name":"Margaretha Roosenboomstraat","highway":"residential"}},{"Shape":408,"Coordinates":[4.361636,51.83525],"Attributes":{"name":"Margaretha Roosenboomstraat","highway":"residential"}},{"Shape":411,"Coordinates":[4.361384,51.83525],"Attributes":{"name":"Margaretha Roosenboomstraat","highway":"residential"}},{"Shape":415,"Coordinates":[4.361462,51.83443],"Attributes":{"name":"Margaretha Roosenboomstraat","highway":"residential","maxspeed":"30"}},{"Shape":416,"Coordinates":[4.361216,51.83426],"Attributes":{"name":"Joke Smitlaan","maxspeed":"50","highway":"tertiary"}},{"Shape":420,"Coordinates":[4.362716,51.8344],"Attributes":{"name":"Annie Romein-Verschoorlaan","maxspeed":"50","highway":"tertiary"}},{"Shape":423,"Coordinates":[4.362383,51.8356],"Attributes":{"name":"Sientje Mesdag-van Houtenstraat","highway":"residential","maxspeed":"30"}},{"Shape":423,"Coordinates":[4.362,51.83559],"Attributes":{"name":"Marie van Regteren Altenastraat","highway":"residential","maxspeed":"30"}},{"Shape":423,"Coordinates":[4.362269,51.83624],"Attributes":{"name":"Annie Romein-Verschoorlaan","maxspeed":"50","highway":"tertiary"}}]}