{"Shape":[[4.334468,51.84206],[4.334466,51.84208],[4.3344,51.8426],[4.334,51.8427],[4.3335,51.8428],[4.333413,51.84282],[4.3335,51.8428],[4.334,51.8427],[4.3344,51.8426],[4.334466,51.84208],[4.334474,51.84201],[4.33377,51.84198],[4.333394,51.84196],[4.333108,51.84195],[4.332995,51.84194],[4.332633,51.84191],[4.332249,51.84189],[4.33204,51.84188],[4.331857,51.84188],[4.331058,51.84188],[4.330894,51.8419],[4.330861,51.84192],[4.330818,51.84194],[4.330823,51.84206],[4.330942,51.84253],[4.330947,51.84267],[4.330758,51.84332],[4.330816,51.84343],[4.330852,51.84346],[4.330919,51.84349],[4.331181,51.84353],[4.331366,51.84357],[4.331577,51.84363],[4.331679,51.84367],[4.331871,51.8438],[4.331987,51.8439],[4.332088,51.84401],[4.33244,51.84436],[4.332537,51.84447],[4.332789,51.84468],[4.333066,51.84492],[4.33327,51.84508],[4.333418,51.84504],[4.333456,51.84501],[4.3331,51.8447],[4.332345,51.84402],[4.332991,51.84376],[4.332345,51.84402],[4.3331,51.8447],[4.333456,51.84501],[4.33348,51.845],[4.33357,51.84496],[4.334485,51.84576],[4.334764,51.84564],[4.334864,51.84559],[4.335527,51.8453],[4.335715,51.84522],[4.336032,51.84509],[4.336197,51.84502],[4.33693,51.84472],[4.336959,51.8447],[4.337123,51.84464],[4.33736,51.84454],[4.33733,51.84451],[4.33736,51.84454],[4.337123,51.84464],[4.336959,51.8447],[4.33693,51.84472],[4.336197,51.84502],[4.335715,51.84522],[4.335527,51.8453],[4.335109,51.84489],[4.334772,51.84456],[4.334689,51.84449],[4.33406,51.84476],[4.333834,51.84485],[4.33357,51.84496],[4.333456,51.84501],[4.333418,51.84504],[4.33327,51.84508],[4.333194,51.84512],[4.332952,51.84493],[4.332513,51.84455],[4.332411,51.84447],[4.332081,51.84415],[4.331894,51.84393],[4.331727,51.84383],[4.331326,51.84372],[4.33113,51.84368],[4.330874,51.84364],[4.330713,51.84357],[4.330662,51.84353],[4.330634,51.84348],[4.33064,51.84335],[4.33064,51.84331],[4.330807,51.8426],[4.330707,51.84206],[4.330666,51.84195],[4.330618,51.84194],[4.330579,51.84192],[4.330551,51.84188],[4.330535,51.84185],[4.33054,51.84181],[4.330564,51.84178],[4.330614,51.84174],[4.33068,51.84172],[4.330733,51.84172],[4.330785,51.84172],[4.330832,51.84174],[4.330878,51.84177],[4.330908,51.8418],[4.331061,51.84181],[4.331402,51.84182],[4.331864,51.84186],[4.33204,51.84188],[4.332249,51.84189],[4.332633,51.84191],[4.332995,51.84194],[4.333108,51.84195],[4.333394,51.84196],[4.33346,51.84143],[4.333495,51.84114],[4.333225,51.84113],[4.332782,51.84111],[4.33277,51.84121],[4.332782,51.84111],[4.333225,51.84113],[4.333495,51.84114],[4.3336,51.8401],[4.334604,51.84016],[4.334864,51.84017],[4.334604,51.84016],[4.3346,51.8398],[4.3347,51.8398],[4.334751,51.8394],[4.333807,51.83936],[4.333582,51.83935],[4.333807,51.83936],[4.334751,51.8394],[4.335732,51.83942],[4.336594,51.83946],[4.3365,51.84026],[4.336461,51.84077],[4.336423,51.84115],[4.336461,51.84077],[4.3365,51.84026],[4.3374,51.8403],[4.337417,51.84014],[4.337436,51.83996],[4.337487,51.83948],[4.337546,51.8393],[4.337562,51.83916],[4.337589,51.83892],[4.337539,51.83852],[4.337474,51.83849],[4.337389,51.83842],[4.337382,51.83839],[4.337375,51.83837],[4.337385,51.83832],[4.337407,51.83829],[4.337417,51.83828],[4.337511,51.83822],[4.337559,51.83821],[4.337609,51.83812],[4.337694,51.83784],[4.33786,51.83638],[4.339484,51.83644],[4.341186,51.83651],[4.341148,51.83683],[4.341219,51.83686],[4.341984,51.8369],[4.34205,51.83694],[4.342,51.8374],[4.341963,51.83809],[4.340995,51.83805],[4.340831,51.83805],[4.340995,51.83805],[4.341963,51.83809],[4.342,51.8374],[4.34205,51.83694],[4.341984,51.8369],[4.341219,51.83686],[4.341148,51.83683],[4.341186,51.83651],[4.341315,51.83652],[4.342222,51.83656],[4.342509,51.83654],[4.343539,51.83638],[4.343637,51.83637],[4.343964,51.83632],[4.344011,51.83632],[4.344693,51.83624],[4.344921,51.83622],[4.345411,51.83616],[4.345559,51.83615],[4.345837,51.8361],[4.346293,51.83607],[4.346705,51.83607],[4.347106,51.83609],[4.347182,51.8361],[4.348073,51.83619],[4.348073,51.83586],[4.348121,51.83586],[4.348073,51.83586],[4.348073,51.83619],[4.347182,51.8361],[4.347106,51.83609],[4.347059,51.8367],[4.347042,51.83683],[4.346541,51.83682],[4.346549,51.83651],[4.34587,51.83649],[4.345718,51.83652],[4.345713,51.83664],[4.345718,51.83652],[4.34587,51.83649],[4.346549,51.83651],[4.346541,51.83682],[4.347042,51.83683],[4.347059,51.8367],[4.347507,51.83672],[4.347641,51.83677],[4.347602,51.83712],[4.347749,51.83713],[4.347701,51.83753],[4.347504,51.83752],[4.347449,51.83807],[4.347294,51.83807],[4.346594,51.83804],[4.346175,51.83799],[4.346594,51.83804],[4.347294,51.83807],[4.347449,51.83807],[4.347504,51.83752],[4.347701,51.83753],[4.347749,51.83713],[4.3484,51.83716],[4.348485,51.83678],[4.348907,51.83681],[4.349072,51.83671],[4.349553,51.8367],[4.349653,51.83682],[4.350178,51.83722],[4.34981,51.83739],[4.3498,51.8374],[4.349785,51.83751],[4.349142,51.83776],[4.348413,51.83779],[4.349142,51.83776],[4.349785,51.83751],[4.3498,51.8374],[4.350178,51.83722],[4.349653,51.83682],[4.349606,51.83677],[4.349553,51.8367],[4.349072,51.83671],[4.348907,51.83681],[4.348485,51.83678],[4.348508,51.83667],[4.348534,51.83654],[4.347543,51.83648],[4.347507,51.83672],[4.347059,51.8367],[4.347106,51.83609],[4.346705,51.83607],[4.346293,51.83607],[4.345837,51.8361],[4.345559,51.83615],[4.345411,51.83616],[4.344921,51.83622],[4.344693,51.83624],[4.344671,51.83625],[4.344693,51.83624],[4.344921,51.83622],[4.34493,51.83625],[4.345014,51.83635],[4.345134,51.8369],[4.345144,51.83719],[4.345103,51.83748],[4.345008,51.83847],[4.344985,51.83865],[4.344918,51.8387],[4.344853,51.8387],[4.344879,51.83862],[4.344913,51.83823],[4.344919,51.83818],[4.344946,51.83795],[4.344953,51.83789],[4.344977,51.83763],[4.34499,51.83749],[4.345046,51.83723],[4.345054,51.83699],[4.344923,51.83636],[4.34493,51.83625],[4.344921,51.83622],[4.344803,51.83581],[4.344739,51.83556],[4.344803,51.83581],[4.344921,51.83622],[4.344693,51.83624],[4.344011,51.83632],[4.343964,51.83632],[4.343637,51.83637],[4.343539,51.83638],[4.342509,51.83654],[4.342222,51.83656],[4.341315,51.83652],[4.341186,51.83651],[4.341172,51.83663],[4.341186,51.83651],[4.339484,51.83644],[4.339431,51.83679],[4.338592,51.83676],[4.338504,51.83745],[4.338809,51.83746],[4.339479,51.83748],[4.33961,51.83749],[4.339479,51.83748],[4.338809,51.83746],[4.338504,51.83745],[4.338592,51.83676],[4.339431,51.83679],[4.339484,51.83644],[4.339491,51.83639],[4.339542,51.83587],[4.339551,51.83581],[4.339772,51.83569],[4.339551,51.83581],[4.339197,51.83577],[4.339065,51.83565],[4.338899,51.83554],[4.338775,51.83544],[4.338763,51.83543],[4.338775,51.83544],[4.338899,51.83554],[4.339065,51.83565],[4.339197,51.83577],[4.339551,51.83581],[4.339542,51.83587],[4.339491,51.83639],[4.339484,51.83644],[4.33786,51.83638],[4.33763,51.83636],[4.336397,51.83626],[4.336342,51.83686],[4.336166,51.83697],[4.335967,51.83701],[4.335168,51.83696],[4.334412,51.83688],[4.3342,51.83692],[4.334102,51.83704],[4.334082,51.83704],[4.334102,51.83704],[4.3342,51.83692],[4.334412,51.83688],[4.335168,51.83696],[4.335967,51.83701],[4.336166,51.83697],[4.336342,51.83686],[4.336829,51.83689],[4.336818,51.83698],[4.336829,51.83689],[4.336342,51.83686],[4.336397,51.83626],[4.336403,51.83621],[4.336479,51.83564],[4.336488,51.83555],[4.336479,51.83564],[4.336403,51.83621],[4.336397,51.83626],[4.33763,51.83636],[4.33786,51.83638],[4.337694,51.83784],[4.337731,51.83812],[4.337773,51.83822],[4.33783,51.83825],[4.337874,51.83828],[4.337902,51.83833],[4.33791,51.83837],[4.337901,51.83841],[4.337874,51.83845],[4.337829,51.83849],[4.337768,51.83851],[4.337698,51.83853],[4.337621,51.83881],[4.337589,51.83892],[4.337562,51.83916],[4.337546,51.8393],[4.337754,51.83931],[4.337546,51.8393],[4.337487,51.83948],[4.337436,51.83996],[4.337417,51.84014],[4.3374,51.8403],[4.337399,51.84031],[4.337197,51.84212],[4.337291,51.84212],[4.337842,51.84216],[4.338156,51.84217],[4.339045,51.84222],[4.339289,51.84223],[4.339945,51.84225],[4.340382,51.84227],[4.340587,51.84228],[4.340659,51.84235],[4.3408,51.8425],[4.341088,51.84246],[4.341383,51.84253],[4.341501,51.84252],[4.341383,51.84253],[4.341088,51.84246],[4.3408,51.8425],[4.340659,51.84235],[4.340587,51.84228],[4.340803,51.84229],[4.341797,51.84233],[4.3431,51.84237],[4.343092,51.84245],[4.343,51.8427],[4.343132,51.84274],[4.343118,51.84284],[4.343132,51.84274],[4.343,51.8427],[4.343092,51.84245],[4.3431,51.84237],[4.343118,51.84227],[4.343182,51.84167],[4.343195,51.84157],[4.343297,51.84085],[4.343392,51.83969],[4.3434,51.8396],[4.342182,51.83953],[4.341702,51.8395],[4.341717,51.84002],[4.341721,51.84012],[4.341725,51.84043],[4.340582,51.84039],[4.341725,51.84043],[4.341721,51.84012],[4.341717,51.84002],[4.341702,51.8395],[4.341178,51.83948],[4.340808,51.83946],[4.341178,51.83948],[4.341702,51.8395],[4.341717,51.84002],[4.341721,51.84012],[4.341725,51.84043],[4.341745,51.84101],[4.341752,51.8411],[4.341779,51.84149],[4.341781,51.84156],[4.341779,51.84149],[4.340888,51.84145],[4.340297,51.84142],[4.339771,51.84141],[4.339031,51.84139],[4.339032,51.8414],[4.339045,51.84222],[4.338156,51.84217],[4.337842,51.84216],[4.337291,51.84212],[4.337197,51.84212],[4.335827,51.84207],[4.33588,51.84212],[4.336011,51.84226],[4.336048,51.84233],[4.336172,51.8423],[4.336263,51.84229],[4.336473,51.84229],[4.336263,51.84229],[4.336172,51.8423],[4.336048,51.84233],[4.336011,51.84226],[4.33588,51.84212],[4.335827,51.84207],[4.334474,51.84201],[4.334468,51.84206]],"ShapeMeta":[{"Shape":0,"Attributes":{"profile":"car"}},{"Shape":5,"Attributes":{"name":"Goudenregenplein","highway":"living_street","profile":"car","distance":"132.9641","time":"127.6455"}},{"Shape":10,"Attributes":{"name":"Goudenregenplein","highway":"living_street","profile":"car","distance":"271.4527","time":"440.5945"}},{"Shape":12,"Attributes":{"name":"Eikenlaan","highway":"unclassified","maxspeed":"50","profile":"car","distance":"345.8527","time":"447.7369"}},{"Shape":14,"Attributes":{"name":"Eikenlaan","highway":"unclassified","maxspeed":"50","profile":"car","distance":"373.2527","time":"450.3673"}},{"Shape":16,"Attributes":{"name":"Eikenlaan","highway":"unclassified","maxspeed":"50","profile":"car","distance":"424.8527","time":"455.3209"}},{"Shape":17,"Attributes":{"name":"Eikenlaan","highway":"unclassified","maxspeed":"50","profile":"car","distance":"439.2527","time":"456.7033"}},{"Shape":20,"Attributes":{"name":"Eikenlaan","highway":"unclassified","oneway":"yes","profile":"car","distance":"518.0527","time":"464.2681"}},{"Shape":22,"Attributes":{"name":"Planetenplein","maxspeed":"50","highway":"tertiary","oneway":"yes","junction":"roundabout","profile":"car","distance":"525.3527","time":"464.9689"}},{"Shape":23,"Attributes":{"name":"Hekelingseweg","maxspeed":"50","highway":"tertiary","oneway":"yes","profile":"car","distance":"538.4527","time":"466.2265"}},{"Shape":24,"Attributes":{"name":"Hekelingseweg","maxspeed":"50","highway":"tertiary","oneway":"yes","profile":"car","distance":"591.6527","time":"471.3337"}},{"Shape":26,"Attributes":{"name":"Hekelingseweg","maxspeed":"50","highway":"tertiary","oneway":"yes","profile":"car","distance":"680.1527","time":"479.8297"}},{"Shape":27,"Attributes":{"maxspeed":"50","oneway":"yes","highway":"tertiary_link","profile":"car","distance":"692.6527","time":"481.0297"}},{"Shape":29,"Attributes":{"maxspeed":"50","oneway":"yes","highway":"tertiary_link","profile":"car","distance":"702.5527","time":"481.9801"}},{"Shape":36,"Attributes":{"name":"Ruwaard van Puttenweg","maxspeed":"50","highway":"tertiary","oneway":"yes","profile":"car","distance":"805.9527","time":"491.9065"}},{"Shape":38,"Attributes":{"name":"Ruwaard van Puttenweg","maxspeed":"50","highway":"tertiary","oneway":"yes","profile":"car","distance":"865.7527","time":"497.6473"}},{"Shape":41,"Attributes":{"name":"Ruwaard van Puttenweg","maxspeed":"50","highway":"tertiary","oneway":"yes","profile":"car","distance":"950.2527","time":"505.7593"}},{"Shape":43,"Attributes":{"name":"Barbier","highway":"residential","profile":"car","distance":"965.2527","time":"507.1993"}},{"Shape":46,"Attributes":{"name":"Schrijnwerker","highway":"residential","profile":"car","distance":"1152.435","time":"525.1689"}},{"Shape":49,"Attributes":{"name":"Schrijnwerker","highway":"residential","profile":"car","distance":"1339.618","time":"723.1384"}},{"Shape":50,"Attributes":{"name":"Barbier","highway":"residential","profile":"car","distance":"1341.646","time":"723.3331"}},{"Shape":51,"Attributes":{"name":"Barbier","highway":"residential","profile":"car","distance":"1349.118","time":"904.0504"}},{"Shape":52,"Attributes":{"name":"Wolwever","maxspeed":"30","highway":"living_street","profile":"car","distance":"1457.718","time":"921.4265"}},{"Shape":53,"Attributes":{"name":"Veerman","highway":"residential","maxspeed":"30","profile":"car","distance":"1481.33","time":"925.2043"}},{"Shape":55,"Attributes":{"name":"Veerman","highway":"residential","maxspeed":"30","profile":"car","distance":"1545.718","time":"1115.506"}},{"Shape":56,"Attributes":{"name":"Veerman","highway":"residential","maxspeed":"30","profile":"car","distance":"1561.118","time":"1117.97"}},{"Shape":57,"Attributes":{"name":"Veerman","highway":"residential","maxspeed":"30","profile":"car","distance":"1587.602","time":"1122.208"}},{"Shape":59,"Attributes":{"name":"Veerman","highway":"residential","maxspeed":"30","profile":"car","distance":"1661.618","time":"1314.051"}},{"Shape":60,"Attributes":{"name":"Veerman","highway":"residential","maxspeed":"30","profile":"car","distance":"1664.118","time":"1314.451"}},{"Shape":61,"Attributes":{"name":"Veerman","highway":"residential","maxspeed":"30","profile":"car","distance":"1677.418","time":"1316.579"}},{"Shape":62,"Attributes":{"name":"Veerman","highway":"residential","maxspeed":"30","profile":"car","distance":"1697.318","time":"1319.763"}},{"Shape":63,"Attributes":{"name":"Kleermaker","highway":"residential","profile":"car","distance":"1701.066","time":"1320.122"}},{"Shape":64,"Attributes":{"name":"Kleermaker","highway":"residential","profile":"car","distance":"1704.814","time":"1500.482"}},{"Shape":65,"Attributes":{"name":"Veerman","highway":"residential","maxspeed":"30","profile":"car","distance":"1724.714","time":"1503.666"}},{"Shape":66,"Attributes":{"name":"Veerman","highway":"residential","maxspeed":"30","profile":"car","distance":"1738.014","time":"1505.794"}},{"Shape":67,"Attributes":{"name":"Veerman","highway":"residential","maxspeed":"30","profile":"car","distance":"1740.514","time":"1506.194"}},{"Shape":69,"Attributes":{"name":"Veerman","highway":"residential","maxspeed":"30","profile":"car","distance":"1841.014","time":"1522.274"}},{"Shape":70,"Attributes":{"name":"Veerman","highway":"residential","maxspeed":"30","profile":"car","distance":"1856.414","time":"1524.738"}},{"Shape":72,"Attributes":{"name":"Wagenmaker","highway":"residential","profile":"car","distance":"1953.314","time":"1534.04"}},{"Shape":73,"Attributes":{"name":"Wagenmaker","highway":"residential","profile":"car","distance":"1963.514","time":"1535.019"}},{"Shape":74,"Attributes":{"name":"Barbier","highway":"residential","profile":"car","distance":"2016.114","time":"1720.069"}},{"Shape":75,"Attributes":{"name":"Barbier","highway":"residential","profile":"car","distance":"2034.914","time":"1721.873"}},{"Shape":76,"Attributes":{"name":"Barbier","highway":"residential","profile":"car","distance":"2056.814","time":"1723.976"}},{"Shape":77,"Attributes":{"name":"Barbier","highway":"residential","profile":"car","distance":"2066.314","time":"1724.888"}},{"Shape":79,"Attributes":{"name":"Barbier","highway":"residential","profile":"car","distance":"2081.314","time":"1726.328"}},{"Shape":80,"Attributes":{"name":"Barbier","highway":"residential","profile":"car","distance":"2087.714","time":"1726.942"}},{"Shape":83,"Attributes":{"name":"Ruwaard van Puttenweg","maxspeed":"50","highway":"tertiary","oneway":"yes","profile":"car","distance":"2177.614","time":"1735.573"}},{"Shape":89,"Attributes":{"name":"Ruwaard van Puttenweg","maxspeed":"50","highway":"tertiary","oneway":"yes","profile":"car","distance":"2325.614","time":"1749.781"}},{"Shape":91,"Attributes":{"name":"Ruwaard van Puttenweg","maxspeed":"50","highway":"tertiary","oneway":"yes","profile":"car","distance":"2344.614","time":"1751.605"}},{"Shape":92,"Attributes":{"name":"Ruwaard van Puttenweg","maxspeed":"50","highway":"tertiary","oneway":"yes","profile":"car","distance":"2350.414","time":"1752.161"}},{"Shape":93,"Attributes":{"name":"Hekelingseweg","maxspeed":"50","highway":"tertiary","oneway":"yes","profile":"car","distance":"2365.214","time":"1753.582"}},{"Shape":94,"Attributes":{"name":"Hekelingseweg","maxspeed":"50","highway":"tertiary","oneway":"yes","profile":"car","distance":"2369.014","time":"1753.947"}},{"Shape":97,"Attributes":{"name":"Hekelingseweg","maxspeed":"50","highway":"tertiary","oneway":"yes","profile":"car","distance":"2521.914","time":"1768.625"}},{"Shape":100,"Attributes":{"name":"Planetenplein","maxspeed":"50","highway":"tertiary","oneway":"yes","junction":"roundabout","profile":"car","distance":"2532.914","time":"1769.681"}},{"Shape":103,"Attributes":{"name":"Planetenplein","maxspeed":"50","highway":"tertiary","oneway":"yes","junction":"roundabout","profile":"car","distance":"2545.214","time":"1770.862"}},{"Shape":105,"Attributes":{"name":"Planetenplein","maxspeed":"50","highway":"tertiary","oneway":"yes","junction":"roundabout","profile":"car","distance":"2555.314","time":"1771.832"}},{"Shape":108,"Attributes":{"name":"Planetenplein","maxspeed":"50","highway":"tertiary","oneway":"yes","junction":"roundabout","profile":"car","distance":"2566.214","time":"1772.878"}},{"Shape":110,"Attributes":{"name":"Planetenplein","maxspeed":"50","highway":"tertiary","oneway":"yes","junction":"roundabout","profile":"car","distance":"2574.814","time":"1773.704"}},{"Shape":114,"Attributes":{"name":"Eikenlaan","highway":"unclassified","maxspeed":"50","oneway":"yes","profile":"car","distance":"2653.214","time":"1781.23"}},{"Shape":115,"Attributes":{"name":"Eikenlaan","highway":"unclassified","maxspeed":"50","profile":"car","distance":"2667.614","time":"1782.613"}},{"Shape":117,"Attributes":{"name":"Eikenlaan","highway":"unclassified","maxspeed":"50","profile":"car","distance":"2719.214","time":"1787.566"}},{"Shape":119,"Attributes":{"name":"Eikenlaan","highway":"unclassified","maxspeed":"50","profile":"car","distance":"2746.614","time":"1790.197"}},{"Shape":120,"Attributes":{"name":"De Olmen","highway":"unclassified","profile":"car","distance":"2804.814","time":"1795.784"}},{"Shape":121,"Attributes":{"name":"De Olmen","highway":"unclassified","profile":"car","distance":"2837.514","time":"1798.923"}},{"Shape":122,"Attributes":{"name":"Esdoornstraat","highway":"unclassified","profile":"car","distance":"2856.014","time":"1800.699"}},{"Shape":123,"Attributes":{"name":"Esdoornstraat","highway":"unclassified","profile":"car","distance":"2886.514","time":"1803.627"}},{"Shape":124,"Attributes":{"name":"De Wingerd","highway":"unclassified","profile":"car","distance":"2898.411","time":"1804.769"}},{"Shape":125,"Attributes":{"name":"De Wingerd","highway":"unclassified","profile":"car","distance":"2910.307","time":"1985.911"}},{"Shape":126,"Attributes":{"name":"Esdoornstraat","highway":"unclassified","profile":"car","distance":"2940.807","time":"1988.839"}},{"Shape":127,"Attributes":{"name":"Esdoornstraat","highway":"unclassified","profile":"car","distance":"2959.307","time":"1990.615"}},{"Shape":128,"Attributes":{"name":"De Olmen","highway":"unclassified","profile":"car","distance":"3075.308","time":"2001.751"}},{"Shape":129,"Attributes":{"name":"Kastanjestraat","highway":"unclassified","profile":"car","distance":"3144.508","time":"2008.394"}},{"Shape":130,"Attributes":{"name":"Kastanjestraat","highway":"unclassified","profile":"car","distance":"3162.382","time":"2010.11"}},{"Shape":131,"Attributes":{"name":"Kastanjestraat","highway":"unclassified","profile":"car","distance":"3180.257","time":"2191.826"}},{"Shape":134,"Attributes":{"name":"Sleedoornpad","highway":"unclassified","profile":"car","distance":"3271.657","time":"2200.601"}},{"Shape":135,"Attributes":{"name":"Abelenstraat","highway":"unclassified","profile":"car","distance":"3336.557","time":"2206.831"}},{"Shape":136,"Attributes":{"name":"Abelenstraat","highway":"unclassified","profile":"car","distance":"3352.024","time":"2208.316"}},{"Shape":137,"Attributes":{"name":"Abelenstraat","highway":"unclassified","profile":"car","distance":"3367.491","time":"2389.801"}},{"Shape":138,"Attributes":{"name":"Abelenstraat","highway":"unclassified","profile":"car","distance":"3432.391","time":"2396.031"}},{"Shape":139,"Attributes":{"name":"Abelenstraat","highway":"unclassified","profile":"car","distance":"3499.791","time":"2402.501"}},{"Shape":140,"Attributes":{"name":"Abelenstraat","highway":"unclassified","profile":"car","distance":"3559.091","time":"2408.194"}},{"Shape":141,"Attributes":{"name":"Essenstraat","highway":"unclassified","profile":"car","distance":"3647.891","time":"2416.719"}},{"Shape":142,"Attributes":{"name":"Essenstraat","highway":"unclassified","profile":"car","distance":"3705.191","time":"2422.22"}},{"Shape":143,"Attributes":{"name":"Essenstraat","highway":"unclassified","profile":"car","distance":"3747.639","time":"2426.295"}},{"Shape":144,"Attributes":{"name":"Essenstraat","highway":"unclassified","profile":"car","distance":"3790.086","time":"2610.37"}},{"Shape":145,"Attributes":{"name":"Essenstraat","highway":"unclassified","profile":"car","distance":"3847.386","time":"2615.871"}},{"Shape":146,"Attributes":{"name":"Kastanjestraat","highway":"unclassified","profile":"car","distance":"3909.386","time":"2621.823"}},{"Shape":147,"Attributes":{"name":"Beukenlaan","highway":"unclassified","profile":"car","distance":"3927.586","time":"2623.57"}},{"Shape":148,"Attributes":{"name":"Beukenlaan","highway":"unclassified","profile":"car","distance":"3947.487","time":"2625.48"}},{"Shape":150,"Attributes":{"name":"Beukenlaan","highway":"unclassified","profile":"car","distance":"4020.886","time":"2632.527"}},{"Shape":151,"Attributes":{"name":"Beukenlaan","highway":"unclassified","profile":"car","distance":"4036.187","time":"2633.996"}},{"Shape":152,"Attributes":{"name":"Beukenlaan","highway":"unclassified","profile":"car","distance":"4062.886","time":"2636.559"}},{"Shape":153,"Attributes":{"highway":"unclassified","oneway":"yes","profile":"car","distance":"4107.887","time":"2640.879"}},{"Shape":156,"Attributes":{"name":"Heemraadlaan","junction":"roundabout","highway":"secondary","profile":"car","distance":"4126.187","time":"2642.134"}},{"Shape":159,"Attributes":{"name":"Heemraadlaan","junction":"roundabout","highway":"secondary","profile":"car","distance":"4137.986","time":"2642.943"}},{"Shape":162,"Attributes":{"name":"Heemraadlaan","junction":"roundabout","highway":"secondary","profile":"car","distance":"4152.086","time":"2643.91"}},{"Shape":164,"Attributes":{"highway":"residential","oneway":"yes","profile":"car","distance":"4194.687","time":"2647.999"}},{"Shape":165,"Attributes":{"name":"De Waarsman","highway":"residential","profile":"car","distance":"4357.086","time":"2663.59"}},{"Shape":166,"Attributes":{"name":"De Landmeter","highway":"unclassified","maxspeed":"30","profile":"car","distance":"4468.787","time":"2681.462"}},{"Shape":167,"Attributes":{"name":"De Landmeter","highway":"unclassified","maxspeed":"30","profile":"car","distance":"4585.887","time":"2700.198"}},{"Shape":168,"Attributes":{"name":"Ottersveen","highway":"unclassified","profile":"car","distance":"4621.086","time":"2703.577"}},{"Shape":174,"Attributes":{"name":"Ottersveen","highway":"unclassified","profile":"car","distance":"4880.687","time":"2728.498"}},{"Shape":175,"Attributes":{"name":"Ottersveen","highway":"unclassified","profile":"car","distance":"4892.015","time":"2729.586"}},{"Shape":176,"Attributes":{"name":"Ottersveen","highway":"unclassified","profile":"car","distance":"4903.343","time":"2910.673"}},{"Shape":182,"Attributes":{"name":"Ottersveen","highway":"unclassified","profile":"car","distance":"5162.943","time":"2935.595"}},{"Shape":183,"Attributes":{"name":"Ottersveen","highway":"unclassified","profile":"car","distance":"5198.143","time":"2938.974"}},{"Shape":188,"Attributes":{"name":"De Landmeter","highway":"unclassified","maxspeed":"30","profile":"car","distance":"5369.043","time":"2966.318"}},{"Shape":190,"Attributes":{"name":"De Landmeter","highway":"unclassified","maxspeed":"30","profile":"car","distance":"5395.443","time":"2970.542"}},{"Shape":192,"Attributes":{"name":"De Landmeter","highway":"unclassified","maxspeed":"30","profile":"car","distance":"5458.943","time":"2980.702"}},{"Shape":194,"Attributes":{"name":"De Landmeter","highway":"unclassified","maxspeed":"30","profile":"car","distance":"5503.443","time":"2987.822"}},{"Shape":196,"Attributes":{"name":"De Landmeter","highway":"unclassified","maxspeed":"30","profile":"car","distance":"5554.843","time":"2996.046"}},{"Shape":198,"Attributes":{"name":"De Landmeter","highway":"unclassified","maxspeed":"30","profile":"car","distance":"5610.743","time":"3004.99"}},{"Shape":200,"Attributes":{"name":"De Landmeter","highway":"unclassified","maxspeed":"30","profile":"car","distance":"5677.843","time":"3015.726"}},{"Shape":201,"Attributes":{"name":"Snoekenveen","highway":"living_street","profile":"car","distance":"5714.243","time":"3050.67"}},{"Shape":202,"Attributes":{"name":"Snoekenveen","highway":"living_street","profile":"car","distance":"5717.513","time":"3053.81"}},{"Shape":203,"Attributes":{"name":"Snoekenveen","highway":"living_street","profile":"car","distance":"5720.783","time":"3236.949"}},{"Shape":204,"Attributes":{"name":"Snoekenveen","highway":"living_street","profile":"car","distance":"5757.183","time":"3271.893"}},{"Shape":206,"Attributes":{"name":"De Landmeter","highway":"unclassified","maxspeed":"30","profile":"car","distance":"5824.283","time":"3282.629"}},{"Shape":207,"Attributes":{"name":"Baarsveen","highway":"unclassified","profile":"car","distance":"5891.783","time":"3289.109"}},{"Shape":209,"Attributes":{"name":"Baarsveen","highway":"unclassified","profile":"car","distance":"5940.583","time":"3293.794"}},{"Shape":210,"Attributes":{"name":"Baarsveen","highway":"unclassified","profile":"car","distance":"5975.783","time":"3297.173"}},{"Shape":213,"Attributes":{"name":"Baarsveen","highway":"residential","profile":"car","distance":"6046.419","time":"3303.954"}},{"Shape":216,"Attributes":{"name":"Baarsveen","highway":"residential","profile":"car","distance":"6117.055","time":"3490.735"}},{"Shape":217,"Attributes":{"name":"Baarsveen","highway":"unclassified","profile":"car","distance":"6152.254","time":"3494.114"}},{"Shape":219,"Attributes":{"name":"Baarsveen","highway":"unclassified","profile":"car","distance":"6201.055","time":"3498.799"}},{"Shape":220,"Attributes":{"name":"Baarsveen","highway":"unclassified","profile":"car","distance":"6231.854","time":"3501.756"}},{"Shape":223,"Attributes":{"name":"Baarsveen","highway":"unclassified","profile":"car","distance":"6291.354","time":"3507.468"}},{"Shape":227,"Attributes":{"name":"Baarsveen","highway":"unclassified","profile":"car","distance":"6420.955","time":"3519.909"}},{"Shape":229,"Attributes":{"name":"Baarsveen","highway":"unclassified","profile":"car","distance":"6498.555","time":"3527.359"}},{"Shape":231,"Attributes":{"name":"Baarsveen","highway":"unclassified","profile":"car","distance":"6576.155","time":"3714.809"}},{"Shape":235,"Attributes":{"name":"Baarsveen","highway":"unclassified","profile":"car","distance":"6705.755","time":"3727.25"}},{"Shape":236,"Attributes":{"name":"Baarsveen","highway":"unclassified","profile":"car","distance":"6750.555","time":"3731.551"}},{"Shape":237,"Attributes":{"name":"Baarsveen","highway":"unclassified","profile":"car","distance":"6792.455","time":"3735.573"}},{"Shape":240,"Attributes":{"name":"Baarsveen","highway":"unclassified","profile":"car","distance":"6870.455","time":"3743.061"}},{"Shape":241,"Attributes":{"name":"Baarsveen","highway":"unclassified","profile":"car","distance":"6885.655","time":"3744.521"}},{"Shape":242,"Attributes":{"name":"Baarsveen","highway":"unclassified","profile":"car","distance":"6942.255","time":"3749.954"}},{"Shape":243,"Attributes":{"name":"Baarsveen","highway":"unclassified","profile":"car","distance":"6974.399","time":"3753.04"}},{"Shape":247,"Attributes":{"name":"Baarsveen","highway":"unclassified","profile":"car","distance":"7090.003","time":"3944.138"}},{"Shape":251,"Attributes":{"name":"Baarsveen","highway":"unclassified","profile":"car","distance":"7237.751","time":"4138.322"}},{"Shape":252,"Attributes":{"name":"Baarsveen","highway":"unclassified","profile":"car","distance":"7294.352","time":"4143.756"}},{"Shape":253,"Attributes":{"name":"Baarsveen","highway":"unclassified","profile":"car","distance":"7301.5","time":"4144.442"}},{"Shape":254,"Attributes":{"name":"Baarsveen","highway":"unclassified","profile":"car","distance":"7309.552","time":"4325.215"}},{"Shape":257,"Attributes":{"name":"Baarsveen","highway":"unclassified","profile":"car","distance":"7387.552","time":"4332.703"}},{"Shape":258,"Attributes":{"name":"Baarsveen","highway":"unclassified","profile":"car","distance":"7400.303","time":"4333.927"}},{"Shape":261,"Attributes":{"name":"Baarsveen","highway":"unclassified","profile":"car","distance":"7510.552","time":"4524.511"}},{"Shape":262,"Attributes":{"name":"Baarsveen","highway":"unclassified","profile":"car","distance":"7541.352","time":"4527.467"}},{"Shape":263,"Attributes":{"name":"Baarsveen","highway":"unclassified","profile":"car","distance":"7608.852","time":"4533.947"}},{"Shape":265,"Attributes":{"name":"De Landmeter","highway":"unclassified","maxspeed":"30","profile":"car","distance":"7664.752","time":"4542.892"}},{"Shape":267,"Attributes":{"name":"De Landmeter","highway":"unclassified","maxspeed":"30","profile":"car","distance":"7716.152","time":"4551.115"}},{"Shape":269,"Attributes":{"name":"De Landmeter","highway":"unclassified","maxspeed":"30","profile":"car","distance":"7760.652","time":"4558.235"}},{"Shape":271,"Attributes":{"name":"De Landmeter","highway":"unclassified","maxspeed":"30","profile":"car","distance":"7778.042","time":"4561.018"}},{"Shape":273,"Attributes":{"name":"De Landmeter","highway":"unclassified","maxspeed":"30","profile":"car","distance":"7795.432","time":"4743.8"}},{"Shape":274,"Attributes":{"name":"De Dijkgraaf","highway":"unclassified","profile":"car","distance":"7798.832","time":"4744.127"}},{"Shape":277,"Attributes":{"name":"De Dijkgraaf","highway":"tertiary","oneway":"yes","profile":"car","distance":"7905.132","time":"4751.416"}},{"Shape":280,"Attributes":{"name":"De Dijkgraaf","highway":"tertiary","oneway":"yes","profile":"car","distance":"8068.332","time":"4762.607"}},{"Shape":281,"Attributes":{"highway":"tertiary","oneway":"yes","profile":"car","distance":"8075.132","time":"4763.073"}},{"Shape":282,"Attributes":{"name":"Heemraadlaan","maxspeed":"50","highway":"secondary","profile":"car","distance":"8079.532","time":"4763.496"}},{"Shape":285,"Attributes":{"name":"De Dijkgraaf","maxspeed":"50","highway":"tertiary","oneway":"yes","profile":"car","distance":"8137.832","time":"4769.092"}},{"Shape":286,"Attributes":{"name":"De Dijkgraaf","highway":"tertiary","oneway":"yes","profile":"car","distance":"8162.918","time":"4770.813"}},{"Shape":289,"Attributes":{"name":"De Dijkgraaf","highway":"tertiary","oneway":"yes","profile":"car","distance":"8214.331","time":"4954.338"}},{"Shape":293,"Attributes":{"name":"De Dijkgraaf","highway":"tertiary","oneway":"yes","profile":"car","distance":"8353.031","time":"4963.849"}},{"Shape":294,"Attributes":{"name":"De Dijkgraaf","highway":"unclassified","profile":"car","distance":"8356.432","time":"4964.176"}},{"Shape":296,"Attributes":{"name":"De Dijkgraaf","highway":"tertiary","profile":"car","distance":"8431.291","time":"4969.309"}},{"Shape":298,"Attributes":{"name":"De Dijkgraaf","highway":"tertiary","profile":"car","distance":"8506.151","time":"5154.442"}},{"Shape":300,"Attributes":{"name":"De Landmeter","highway":"unclassified","maxspeed":"30","profile":"car","distance":"8569.651","time":"5164.603"}},{"Shape":302,"Attributes":{"name":"De Landmeter","highway":"unclassified","maxspeed":"30","profile":"car","distance":"8596.051","time":"5168.826"}},{"Shape":307,"Attributes":{"name":"De Landmeter","highway":"unclassified","maxspeed":"30","profile":"car","distance":"8766.951","time":"5196.17"}},{"Shape":308,"Attributes":{"name":"Ottersveen","highway":"unclassified","profile":"car","distance":"8780.098","time":"5197.433"}},{"Shape":309,"Attributes":{"name":"Ottersveen","highway":"unclassified","profile":"car","distance":"8793.244","time":"5378.695"}},{"Shape":310,"Attributes":{"name":"De Landmeter","highway":"unclassified","maxspeed":"30","profile":"car","distance":"8910.344","time":"5397.431"}},{"Shape":311,"Attributes":{"name":"Ottersveen","highway":"unclassified","profile":"car","distance":"8949.044","time":"5401.146"}},{"Shape":314,"Attributes":{"name":"Ottersveen","highway":"unclassified","profile":"car","distance":"9104.844","time":"5416.103"}},{"Shape":315,"Attributes":{"name":"Ottersveen","highway":"unclassified","profile":"car","distance":"9150.844","time":"5420.519"}},{"Shape":316,"Attributes":{"name":"Ottersveen","highway":"unclassified","profile":"car","distance":"9159.945","time":"5421.393"}},{"Shape":317,"Attributes":{"name":"Ottersveen","highway":"unclassified","profile":"car","distance":"9169.047","time":"5602.267"}},{"Shape":318,"Attributes":{"name":"Ottersveen","highway":"unclassified","profile":"car","distance":"9215.047","time":"5606.683"}},{"Shape":321,"Attributes":{"name":"Ottersveen","highway":"unclassified","profile":"car","distance":"9370.847","time":"5621.64"}},{"Shape":322,"Attributes":{"name":"Ottersveen","highway":"unclassified","profile":"car","distance":"9409.547","time":"5625.355"}},{"Shape":325,"Attributes":{"name":"Kikkerveen","highway":"unclassified","profile":"car","distance":"9480.047","time":"5632.123"}},{"Shape":326,"Attributes":{"name":"Kikkerveen","highway":"unclassified","profile":"car","distance":"9500.281","time":"5634.065"}},{"Shape":327,"Attributes":{"name":"Kikkerveen","highway":"unclassified","profile":"car","distance":"9520.516","time":"5816.007"}},{"Shape":330,"Attributes":{"name":"Kikkerveen","highway":"unclassified","profile":"car","distance":"9577.716","time":"5821.499"}},{"Shape":331,"Attributes":{"name":"Kikkerveen","highway":"unclassified","profile":"car","distance":"9591.915","time":"5822.862"}},{"Shape":332,"Attributes":{"name":"Kikkerveen","highway":"unclassified","profile":"car","distance":"9593.278","time":"5822.993"}},{"Shape":333,"Attributes":{"name":"Kikkerveen","highway":"unclassified","profile":"car","distance":"9594.642","time":"6003.124"}},{"Shape":334,"Attributes":{"name":"Kikkerveen","highway":"unclassified","profile":"car","distance":"9608.842","time":"6004.487"}},{"Shape":337,"Attributes":{"name":"Kikkerveen","highway":"unclassified","profile":"car","distance":"9666.041","time":"6009.979"}},{"Shape":340,"Attributes":{"name":"Kikkerveen","highway":"unclassified","profile":"car","distance":"9736.541","time":"6016.747"}},{"Shape":341,"Attributes":{"name":"De Landmeter","highway":"unclassified","maxspeed":"30","profile":"car","distance":"9848.241","time":"6034.619"}},{"Shape":343,"Attributes":{"name":"De Landmeter","highway":"unclassified","maxspeed":"30","profile":"car","distance":"9949.642","time":"6050.842"}},{"Shape":344,"Attributes":{"name":"Beverveen","highway":"unclassified","profile":"car","distance":"10015.84","time":"6057.198"}},{"Shape":347,"Attributes":{"name":"Beverveen","highway":"unclassified","profile":"car","distance":"10102.84","time":"6065.55"}},{"Shape":349,"Attributes":{"name":"Beverveen","highway":"unclassified","profile":"car","distance":"10170.44","time":"6072.039"}},{"Shape":350,"Attributes":{"name":"Beverveen","highway":"unclassified","profile":"car","distance":"10185.94","time":"6073.527"}},{"Shape":351,"Attributes":{"highway":"residential","profile":"car","distance":"10187.54","time":"6073.681"}},{"Shape":352,"Attributes":{"highway":"residential","profile":"car","distance":"10189.14","time":"6253.834"}},{"Shape":353,"Attributes":{"name":"Beverveen","highway":"unclassified","profile":"car","distance":"10204.64","time":"6255.323"}},{"Shape":355,"Attributes":{"name":"Beverveen","highway":"unclassified","profile":"car","distance":"10272.24","time":"6261.812"}},{"Shape":358,"Attributes":{"name":"Beverveen","highway":"unclassified","profile":"car","distance":"10359.24","time":"6270.164"}},{"Shape":360,"Attributes":{"name":"Beverveen","highway":"unclassified","profile":"car","distance":"10402.75","time":"6274.341"}},{"Shape":362,"Attributes":{"name":"Beverveen","highway":"unclassified","profile":"car","distance":"10446.26","time":"6458.518"}},{"Shape":363,"Attributes":{"name":"Beverveen","highway":"unclassified","profile":"car","distance":"10512.46","time":"6464.873"}},{"Shape":366,"Attributes":{"name":"Kikkerveen","highway":"residential","profile":"car","distance":"10591.99","time":"6472.508"}},{"Shape":369,"Attributes":{"name":"Kikkerveen","highway":"residential","profile":"car","distance":"10671.52","time":"6660.143"}},{"Shape":371,"Attributes":{"name":"De Landmeter","highway":"unclassified","maxspeed":"30","profile":"car","distance":"10772.92","time":"6676.367"}},{"Shape":372,"Attributes":{"name":"De Waarsman","highway":"residential","profile":"car","distance":"10935.32","time":"6691.957"}},{"Shape":374,"Attributes":{"highway":"residential","oneway":"yes","profile":"car","distance":"10978.52","time":"6696.104"}},{"Shape":377,"Attributes":{"name":"Heemraadlaan","junction":"roundabout","highway":"secondary","profile":"car","distance":"10993.32","time":"6697.119"}},{"Shape":380,"Attributes":{"name":"Heemraadlaan","junction":"roundabout","highway":"secondary","profile":"car","distance":"11007.32","time":"6698.079"}},{"Shape":383,"Attributes":{"name":"Heemraadlaan","junction":"roundabout","highway":"secondary","profile":"car","distance":"11022.72","time":"6699.135"}},{"Shape":384,"Attributes":{"highway":"unclassified","oneway":"yes","profile":"car","distance":"11054.52","time":"6702.188"}},{"Shape":385,"Attributes":{"highway":"unclassified","oneway":"yes","profile":"car","distance":"11067.42","time":"6703.426"}},{"Shape":386,"Attributes":{"name":"Beukenlaan","highway":"unclassified","profile":"car","distance":"11094.12","time":"6705.99"}},{"Shape":387,"Attributes":{"name":"Beukenlaan","highway":"unclassified","profile":"car","distance":"11109.42","time":"6707.458"}},{"Shape":388,"Attributes":{"name":"Hazelaarstraat","highway":"unclassified","profile":"car","distance":"11123.67","time":"6708.826"}},{"Shape":389,"Attributes":{"name":"Hazelaarstraat","highway":"unclassified","profile":"car","distance":"11137.92","time":"6890.194"}},{"Shape":391,"Attributes":{"name":"Beukenlaan","highway":"unclassified","profile":"car","distance":"11211.32","time":"6897.24"}},{"Shape":392,"Attributes":{"name":"Beukenlaan","highway":"unclassified","profile":"car","distance":"11231.22","time":"6899.15"}},{"Shape":393,"Attributes":{"name":"Beukenlaan","highway":"unclassified","profile":"car","distance":"11249.42","time":"6900.898"}},{"Shape":394,"Attributes":{"name":"Beukenlaan","highway":"unclassified","profile":"car","distance":"11250.69","time":"6901.02"}},{"Shape":395,"Attributes":{"name":"Beukenlaan","highway":"unclassified","profile":"car","distance":"11451.72","time":"7100.319"}},{"Shape":396,"Attributes":{"name":"Eikenlaan","highway":"unclassified","maxspeed":"50","profile":"car","distance":"11458.22","time":"7100.943"}},{"Shape":397,"Attributes":{"name":"Eikenlaan","highway":"service","maxspeed":"50","profile":"car","distance":"11496.22","time":"7104.591"}},{"Shape":398,"Attributes":{"name":"Eikenlaan","highway":"unclassified","maxspeed":"50","profile":"car","distance":"11517.82","time":"7106.665"}},{"Shape":399,"Attributes":{"name":"Eikenlaan","highway":"unclassified","maxspeed":"50","profile":"car","distance":"11579.02","time":"7112.54"}},{"Shape":400,"Attributes":{"name":"Eikenlaan","highway":"unclassified","maxspeed":"50","profile":"car","distance":"11595.76","time":"7114.147"}},{"Shape":403,"Attributes":{"name":"Eikenlaan","highway":"unclassified","maxspeed":"50","profile":"car","distance":"11685.11","time":"7302.725"}},{"Shape":405,"Attributes":{"name":"Cederstraat","highway":"unclassified","profile":"car","distance":"11713.31","time":"7305.432"}},{"Shape":408,"Attributes":{"name":"Cederstraat","highway":"unclassified","profile":"car","distance":"11762.94","time":"7310.197"}},{"Shape":411,"Attributes":{"name":"Cederstraat","highway":"unclassified","profile":"car","distance":"11812.57","time":"7494.961"}},{"Shape":413,"Attributes":{"name":"Cederstraat","highway":"unclassified","profile":"car","distance":"11840.77","time":"7497.668"}},{"Shape":414,"Attributes":{"name":"Eikenlaan","highway":"unclassified","maxspeed":"50","profile":"car","distance":"11855.57","time":"7499.089"}},{"Shape":415,"Attributes":{"name":"Eikenlaan","highway":"unclassified","maxspeed":"50","profile":"car","distance":"11923.97","time":"7505.655"}},{"Shape":416,"Attributes":{"name":"Eikenlaan","highway":"unclassified","maxspeed":"50","profile":"car","distance":"12013.57","time":"7514.257"}},{"Shape":418,"Attributes":{"name":"Iepenlaan","highway":"unclassified","profile":"car","distance":"12050.77","time":"7517.828"}},{"Shape":420,"Attributes":{"name":"Iepenlaan","highway":"service","profile":"car","distance":"12072.06","time":"7521.235"}},{"Shape":422,"Attributes":{"name":"Iepenlaan","highway":"service","profile":"car","distance":"12093.35","time":"7704.642"}},{"Shape":424,"Attributes":{"name":"Iepenlaan","highway":"unclassified","profile":"car","distance":"12130.55","time":"7708.213"}},{"Shape":426,"Attributes":{"name":"Iepenlaan","highway":"unclassified","profile":"car","distance":"12208.75","time":"7715.72"}},{"Shape":427,"Attributes":{"name":"Iepenlaan","highway":"unclassified","profile":"car","distance":"12219.82","time":"7716.782"}},{"Shape":428,"Attributes":{"name":"Iepenlaan","highway":"unclassified","profile":"car","distance":"12300.66","time":"7904.542"}},{"Shape":429,"Attributes":{"name":"Iepenlaan","highway":"unclassified","profile":"car","distance":"12429.27","time":"7916.89"}},{"Shape":430,"Attributes":{"name":"Iepenlaan","highway":"unclassified","profile":"car","distance":"12439.46","time":"8097.868"}},{"Shape":431,"Attributes":{"name":"Hazelaarstraat","highway":"unclassified","profile":"car","distance":"12523.46","time":"8105.932"}},{"Shape":432,"Attributes":{"name":"Hazelaarstraat","highway":"unclassified","profile":"car","distance":"12556.55","time":"8109.109"}},{"Shape":435,"Attributes":{"name":"Populierenstraat","highway":"unclassified","profile":"car","distance":"12659.15","time":"8118.959"}},{"Shape":436,"Attributes":{"name":"Wilgenstraat","highway":"unclassified","profile":"car","distance":"12737.79","time":"8126.508"}},{"Shape":437,"Attributes":{"name":"Wilgenstraat","highway":"unclassified","profile":"car","distance":"12816.42","time":"8314.057"}},{"Shape":440,"Attributes":{"name":"Populierenstraat","highway":"unclassified","profile":"car","distance":"12919.02","time":"8323.906"}},{"Shape":441,"Attributes":{"name":"Hazelaarstraat","highway":"unclassified","profile":"car","distance":"12955.02","time":"8327.362"}},{"Shape":442,"Attributes":{"name":"Hazelaarstraat","highway":"unclassified","profile":"car","distance":"12980.5","time":"8329.808"}},{"Shape":443,"Attributes":{"name":"Hazelaarstraat","highway":"unclassified","profile":"car","distance":"13005.98","time":"8512.253"}},{"Shape":444,"Attributes":{"name":"Hazelaarstraat","highway":"unclassified","profile":"car","distance":"13041.98","time":"8515.709"}},{"Shape":447,"Attributes":{"name":"Populierenstraat","highway":"unclassified","profile":"car","distance":"13144.58","time":"8525.559"}},{"Shape":450,"Attributes":{"name":"Populierenstraat","highway":"unclassified","profile":"car","distance":"13262.48","time":"8536.877"}},{"Shape":451,"Attributes":{"name":"Populierenstraat","highway":"unclassified","profile":"car","distance":"13270.1","time":"8537.609"}},{"Shape":452,"Attributes":{"name":"Populierenstraat","highway":"unclassified","profile":"car","distance":"13277.72","time":"8718.342"}},{"Shape":453,"Attributes":{"name":"Berkenstraat","highway":"unclassified","profile":"car","distance":"13339.13","time":"8724.235"}},{"Shape":454,"Attributes":{"name":"Berkenstraat","highway":"unclassified","profile":"car","distance":"13379.72","time":"8728.134"}},{"Shape":455,"Attributes":{"name":"Berkenstraat","highway":"unclassified","profile":"car","distance":"13415.92","time":"8731.608"}},{"Shape":456,"Attributes":{"name":"Berkenstraat","highway":"unclassified","profile":"car","distance":"13466.72","time":"8736.485"}},{"Shape":457,"Attributes":{"name":"Lindenstraat","highway":"unclassified","profile":"car","distance":"13468.42","time":"8736.648"}},{"Shape":458,"Attributes":{"name":"Lindenstraat","highway":"unclassified","profile":"car","distance":"13559.13","time":"8925.356"}},{"Shape":459,"Attributes":{"name":"Eikenlaan","highway":"unclassified","maxspeed":"50","profile":"car","distance":"13620.33","time":"8931.231"}},{"Shape":460,"Attributes":{"name":"Eikenlaan","highway":"unclassified","maxspeed":"50","profile":"car","distance":"13641.92","time":"8933.305"}},{"Shape":461,"Attributes":{"name":"Eikenlaan","highway":"service","maxspeed":"50","profile":"car","distance":"13679.92","time":"8936.953"}},{"Shape":462,"Attributes":{"name":"Eikenlaan","highway":"unclassified","maxspeed":"50","profile":"car","distance":"13686.42","time":"8937.577"}},{"Shape":463,"Attributes":{"name":"Eikenlaan","highway":"unclassified","maxspeed":"50","profile":"car","distance":"13780.63","time":"8946.62"}},{"Shape":466,"Attributes":{"name":"Larixstraat","highway":"living_street","profile":"car","distance":"13814.03","time":"8978.685"}},{"Shape":469,"Attributes":{"name":"Larixstraat","highway":"living_street","profile":"car","distance":"13844.07","time":"9007.527"}},{"Shape":472,"Attributes":{"name":"Larixstraat","highway":"living_street","profile":"car","distance":"13874.12","time":"9216.37"}},{"Shape":475,"Attributes":{"name":"Larixstraat","highway":"living_street","profile":"car","distance":"13907.51","time":"9248.435"}},{"Shape":476,"Attributes":{"name":"Eikenlaan","highway":"unclassified","maxspeed":"50","profile":"car","distance":"14000.71","time":"9257.381"}},{"Shape":477,"Attributes":{"name":"Goudenregenplein","highway":"living_street","profile":"car","distance":"14006.24","time":"9262.685"}}],"Stops":[{"Shape":0,"Coordinates":[4.334539,51.84207],"Attributes":{"index":"50","distance":"0","time":"0","cost_time":"180"}},{"Shape":5,"Coordinates":[4.333399,51.84276],"Attributes":{"index":"51","distance":"132.9641","time":"127.6455","cost_time":"180"}},{"Shape":46,"Coordinates":[4.333,51.84378],"Attributes":{"index":"180","distance":"1152.435","time":"525.1689","cost_time":"180"}},{"Shape":50,"Coordinates":[4.3335,51.84505],"Attributes":{"index":"179","distance":"1341.646","time":"723.3331","cost_time":"180"}},{"Shape":53,"Coordinates":[4.334778,51.84566],"Attributes":{"index":"177","distance":"1481.33","time":"925.2043","cost_time":"180"}},{"Shape":57,"Coordinates":[4.336056,51.84514],"Attributes":{"index":"176","distance":"1587.602","time":"1122.208","cost_time":"180"}},{"Shape":63,"Coordinates":[4.33736,51.84447],"Attributes":{"index":"175","distance":"1701.066","time":"1320.122","cost_time":"180"}},{"Shape":73,"Coordinates":[4.33475,51.84447],"Attributes":{"index":"178","distance":"1963.514","time":"1535.019","cost_time":"180"}},{"Shape":124,"Coordinates":[4.332833,51.84122],"Attributes":{"index":"181","distance":"2898.411","time":"1804.769","cost_time":"180"}},{"Shape":130,"Coordinates":[4.334861,51.84025],"Attributes":{"index":"53","distance":"3162.382","time":"2010.11","cost_time":"180"}},{"Shape":136,"Coordinates":[4.333583,51.83933],"Attributes":{"index":"52","distance":"3352.024","time":"2208.316","cost_time":"180"}},{"Shape":143,"Coordinates":[4.336333,51.84114],"Attributes":{"index":"54","distance":"3747.639","time":"2426.295","cost_time":"180"}},{"Shape":175,"Coordinates":[4.34083,51.83808],"Attributes":{"index":"188","distance":"4892.015","time":"2729.586","cost_time":"180"}},{"Shape":202,"Coordinates":[4.34812,51.8359],"Attributes":{"index":"191","distance":"5717.513","time":"3053.81","cost_time":"180"}},{"Shape":213,"Coordinates":[4.345778,51.83664],"Attributes":{"index":"196","distance":"6046.419","time":"3303.954","cost_time":"180"}},{"Shape":229,"Coordinates":[4.346139,51.83786],"Attributes":{"index":"86","distance":"6498.555","time":"3527.359","cost_time":"180"}},{"Shape":243,"Coordinates":[4.349903,51.83759],"Attributes":{"index":"194","distance":"6974.399","time":"3753.04","cost_time":"180"}},{"Shape":247,"Coordinates":[4.348336,51.83776],"Attributes":{"index":"193","distance":"7090.003","time":"3944.138","cost_time":"180"}},{"Shape":253,"Coordinates":[4.349556,51.83681],"Attributes":{"index":"195","distance":"7301.5","time":"4144.442","cost_time":"180"}},{"Shape":258,"Coordinates":[4.34747,51.83646],"Attributes":{"index":"85","distance":"7400.303","time":"4333.927","cost_time":"180"}},{"Shape":271,"Coordinates":[4.344687,51.83638],"Attributes":{"index":"84","distance":"7778.042","time":"4561.018","cost_time":"180"}},{"Shape":286,"Coordinates":[4.344913,51.83796],"Attributes":{"index":"87","distance":"8162.918","time":"4770.813","cost_time":"180"}},{"Shape":296,"Coordinates":[4.3446,51.83559],"Attributes":{"index":"67","distance":"8431.291","time":"4969.309","cost_time":"180"}},{"Shape":308,"Coordinates":[4.341222,51.83664],"Attributes":{"index":"66","distance":"8780.098","time":"5197.433","cost_time":"180"}},{"Shape":316,"Coordinates":[4.339611,51.83747],"Attributes":{"index":"187","distance":"9159.945","time":"5421.393","cost_time":"180"}},{"Shape":326,"Coordinates":[4.339806,51.83575],"Attributes":{"index":"185","distance":"9500.281","time":"5634.065","cost_time":"180"}},{"Shape":332,"Coordinates":[4.338806,51.83539],"Attributes":{"index":"186","distance":"9593.278","time":"5822.993","cost_time":"180"}},{"Shape":351,"Coordinates":[4.334083,51.83703],"Attributes":{"index":"210","distance":"10187.54","time":"6073.681","cost_time":"180"}},{"Shape":360,"Coordinates":[4.33672,51.83697],"Attributes":{"index":"184","distance":"10402.75","time":"6274.341","cost_time":"180"}},{"Shape":366,"Coordinates":[4.336583,51.83556],"Attributes":{"index":"183","distance":"10591.99","time":"6472.508","cost_time":"180"}},{"Shape":388,"Coordinates":[4.33775,51.83939],"Attributes":{"index":"65","distance":"11123.67","time":"6708.826","cost_time":"180"}},{"Shape":394,"Coordinates":[4.337517,51.84032],"Attributes":{"index":"55","distance":"11250.69","time":"6901.02","cost_time":"180"}},{"Shape":400,"Coordinates":[4.339284,51.84232],"Attributes":{"index":"57","distance":"11595.76","time":"7114.147","cost_time":"180"}},{"Shape":408,"Coordinates":[4.3415,51.8425],"Attributes":{"index":"56","distance":"11762.94","time":"7310.197","cost_time":"180"}},{"Shape":420,"Coordinates":[4.343056,51.84283],"Attributes":{"index":"61","distance":"12072.06","time":"7521.235","cost_time":"180"}},{"Shape":427,"Coordinates":[4.343278,51.84158],"Attributes":{"index":"62","distance":"12219.82","time":"7716.782","cost_time":"180"}},{"Shape":429,"Coordinates":[4.3435,51.83969],"Attributes":{"index":"63","distance":"12429.27","time":"7916.89","cost_time":"180"}},{"Shape":436,"Coordinates":[4.340583,51.84036],"Attributes":{"index":"59","distance":"12737.79","time":"8126.508","cost_time":"180"}},{"Shape":442,"Coordinates":[4.340806,51.8395],"Attributes":{"index":"64","distance":"12980.5","time":"8329.808","cost_time":"180"}},{"Shape":451,"Coordinates":[4.341639,51.84156],"Attributes":{"index":"60","distance":"13270.1","time":"8537.609","cost_time":"180"}},{"Shape":457,"Coordinates":[4.338827,51.84141],"Attributes":{"index":"58","distance":"13468.42","time":"8736.648","cost_time":"180"}},{"Shape":469,"Coordinates":[4.336473,51.84226],"Attributes":{"index":"182","distance":"13844.07","time":"9007.527","cost_time":"180"}},{"Shape":477,"Coordinates":[4.334539,51.84207],"Attributes":{"index":"50","distance":"14006.24","time":"9262.685","cost_time":"180"}}],"Branches":[{"Shape":10,"Coordinates":[4.335827,51.84207],"Attributes":{"name":"Eikenlaan","highway":"unclassified","maxspeed":"50"}},{"Shape":12,"Coordinates":[4.33346,51.84143],"Attributes":{"name":"De Olmen","highway":"unclassified"}},{"Shape":14,"Coordinates":[4.332985,51.84203],"Attributes":{"name":"Goudenregenplein","highway":"unclassified"}},{"Shape":16,"Coordinates":[4.332034,51.84192],"Attributes":{"highway":"service","motorcar":"no","maxspeed":"50","oneway":"yes"}},{"Shape":17,"Coordinates":[4.331061,51.84181],"Attributes":{"name":"Eikenlaan","highway":"unclassified","maxspeed":"50","oneway":"yes"}},{"Shape":20,"Coordinates":[4.330918,51.84183],"Attributes":{"name":"Planetenplein","maxspeed":"50","highway":"tertiary","oneway":"yes","junction":"roundabout"}},{"Shape":22,"Coordinates":[4.330769,51.84195],"Attributes":{"name":"Planetenplein","maxspeed":"50","highway":"tertiary","oneway":"yes","junction":"roundabout"}},{"Shape":23,"Coordinates":[4.330907,51.84216],"Attributes":{"highway":"service","motorcar":"no","maxspeed":"50","oneway":"yes"}},{"Shape":26,"Coordinates":[4.330706,51.84348],"Attributes":{"name":"Hekelingseweg","maxspeed":"50","highway":"tertiary","oneway":"yes"}},{"Shape":27,"Coordinates":[4.331022,51.84259],"Attributes":{"highway":"service","motorcar":"no","maxspeed":"50","oneway":"yes"}},{"Shape":29,"Coordinates":[4.330706,51.84348],"Attributes":{"name":"Hekelingseweg","maxspeed":"50","highway":"tertiary","oneway":"yes"}},{"Shape":36,"Coordinates":[4.332374,51.84434],"Attributes":{"maxspeed":"50","oneway":"yes","highway":"tertiary_link"}},{"Shape":38,"Coordinates":[4.332467,51.84446],"Attributes":{"name":"Schoutstraat","highway":"unclassified","maxspeed":"50","oneway":"yes"}},{"Shape":41,"Coordinates":[4.333194,51.84512],"Attributes":{"name":"Barbier","highway":"residential"}},{"Shape":41,"Coordinates":[4.333675,51.84537],"Attributes":{"name":"Ruwaard van Puttenweg","maxspeed":"50","highway":"tertiary","oneway":"yes"}},{"Shape":43,"Coordinates":[4.33357,51.84496],"Attributes":{"name":"Barbier","highway":"residential"}},{"Shape":43,"Coordinates":[4.332345,51.84402],"Attributes":{"name":"Schrijnwerker","highway":"residential"}},{"Shape":49,"Coordinates":[4.33357,51.84496],"Attributes":{"name":"Barbier","highway":"residential"}},{"Shape":49,"Coordinates":[4.333418,51.84504],"Attributes":{"name":"Barbier","highway":"residential"}},{"Shape":51,"Coordinates":[4.333834,51.84485],"Attributes":{"name":"Barbier","highway":"residential"}},{"Shape":52,"Coordinates":[4.334864,51.84559],"Attributes":{"name":"Veerman","highway":"residential","maxspeed":"30"}},{"Shape":55,"Coordinates":[4.335109,51.84489],"Attributes":{"name":"Wagenmaker","highway":"residential"}},{"Shape":56,"Coordinates":[4.336197,51.84502],"Attributes":{"name":"Veerman","highway":"residential","maxspeed":"30"}},{"Shape":56,"Coordinates":[4.335997,51.84548],"Attributes":{"name":"Sluiswachter","highway":"residential"}},{"Shape":59,"Coordinates":[4.336847,51.84505],"Attributes":{"name":"Rietsnijder","highway":"residential"}},{"Shape":60,"Coordinates":[4.336691,51.84447],"Attributes":{"highway":"residential"}},{"Shape":61,"Coordinates":[4.336798,51.84434],"Attributes":{"highway":"service"}},{"Shape":62,"Coordinates":[4.337861,51.84433],"Attributes":{"name":"Veerman","highway":"residential","maxspeed":"30"}},{"Shape":62,"Coordinates":[4.33704,51.84424],"Attributes":{"name":"Kleermaker","highway":"residential"}},{"Shape":64,"Coordinates":[4.337861,51.84433],"Attributes":{"name":"Veerman","highway":"residential","maxspeed":"30"}},{"Shape":65,"Coordinates":[4.336798,51.84434],"Attributes":{"highway":"service"}},{"Shape":66,"Coordinates":[4.336691,51.84447],"Attributes":{"highway":"residential"}},{"Shape":67,"Coordinates":[4.336847,51.84505],"Attributes":{"name":"Rietsnijder","highway":"residential"}},{"Shape":69,"Coordinates":[4.335997,51.84548],"Attributes":{"name":"Sluiswachter","highway":"residential"}},{"Shape":70,"Coordinates":[4.334864,51.84559],"Attributes":{"name":"Veerman","highway":"residential","maxspeed":"30"}},{"Shape":72,"Coordinates":[4.335389,51.8443],"Attributes":{"name":"Schoenmaker","highway":"residential"}},{"Shape":73,"Coordinates":[4.33406,51.84476],"Attributes":{"name":"Barbier","highway":"residential"}},{"Shape":73,"Coordinates":[4.334604,51.8444],"Attributes":{"name":"Wagenmaker","highway":"residential"}},{"Shape":74,"Coordinates":[4.334484,51.84515],"Attributes":{"highway":"residential"}},{"Shape":75,"Coordinates":[4.333607,51.84463],"Attributes":{"name":"Hoefsmid","highway":"residential"}},{"Shape":76,"Coordinates":[4.334485,51.84576],"Attributes":{"name":"Wolwever","maxspeed":"30","highway":"living_street"}},{"Shape":77,"Coordinates":[4.332345,51.84402],"Attributes":{"name":"Schrijnwerker","highway":"residential"}},{"Shape":79,"Coordinates":[4.332789,51.84468],"Attributes":{"name":"Ruwaard van Puttenweg","maxspeed":"50","highway":"tertiary","oneway":"yes"}},{"Shape":79,"Coordinates":[4.333675,51.84537],"Attributes":{"name":"Ruwaard van Puttenweg","maxspeed":"50","highway":"tertiary","oneway":"yes"}},{"Shape":80,"Coordinates":[4.333552,51.84538],"Attributes":{"name":"Ruwaard van Puttenweg","maxspeed":"50","highway":"tertiary","oneway":"yes"}},{"Shape":83,"Coordinates":[4.332467,51.84446],"Attributes":{"name":"Schoutstraat","highway":"unclassified","maxspeed":"50","oneway":"yes"}},{"Shape":83,"Coordinates":[4.332078,51.84461],"Attributes":{"name":"Schoutstraat","highway":"residential"}},{"Shape":83,"Coordinates":[4.332374,51.84434],"Attributes":{"maxspeed":"50","oneway":"yes","highway":"tertiary_link"}},{"Shape":89,"Coordinates":[4.330633,51.84362],"Attributes":{"name":"Ruwaard van Puttenweg","maxspeed":"50","highway":"tertiary","oneway":"yes"}},{"Shape":91,"Coordinates":[4.330706,51.84348],"Attributes":{"name":"Hekelingseweg","maxspeed":"50","highway":"tertiary","oneway":"yes"}},{"Shape":91,"Coordinates":[4.330574,51.84356],"Attributes":{"name":"Hekelingseweg","maxspeed":"50","highway":"tertiary","oneway":"yes"}},{"Shape":92,"Coordinates":[4.330203,51.84349],"Attributes":{"name":"Hekelingseweg","maxspeed":"50","highway":"tertiary","oneway":"yes"}},{"Shape":92,"Coordinates":[4.330706,51.84348],"Attributes":{"name":"Hekelingseweg","maxspeed":"50","highway":"tertiary","oneway":"yes"}},{"Shape":93,"Coordinates":[4.330423,51.84345],"Attributes":{"maxspeed":"50","oneway":"yes","highway":"tertiary_link"}},{"Shape":97,"Coordinates":[4.330769,51.84195],"Attributes":{"name":"Planetenplein","maxspeed":"50","highway":"tertiary","oneway":"yes","junction":"roundabout"}},{"Shape":100,"Coordinates":[4.33041,51.84187],"Attributes":{"name":"Planetenlaan","highway":"unclassified","oneway":"yes"}},{"Shape":103,"Coordinates":[4.330069,51.84179],"Attributes":{"name":"Planetenlaan","highway":"unclassified","oneway":"yes"}},{"Shape":105,"Coordinates":[4.330757,51.84163],"Attributes":{"name":"Hekelingseweg","maxspeed":"50","highway":"tertiary","oneway":"yes"}},{"Shape":108,"Coordinates":[4.330967,51.84144],"Attributes":{"name":"Hekelingseweg","maxspeed":"50","highway":"tertiary","oneway":"yes"}},{"Shape":110,"Coordinates":[4.330918,51.84183],"Attributes":{"name":"Planetenplein","maxspeed":"50","highway":"tertiary","oneway":"yes","junction":"roundabout"}},{"Shape":114,"Coordinates":[4.331857,51.84188],"Attributes":{"name":"Eikenlaan","highway":"unclassified","oneway":"yes"}},{"Shape":115,"Coordinates":[4.332034,51.84192],"Attributes":{"highway":"service","motorcar":"no","maxspeed":"50","oneway":"yes"}},{"Shape":117,"Coordinates":[4.332985,51.84203],"Attributes":{"name":"Goudenregenplein","highway":"unclassified"}},{"Shape":119,"Coordinates":[4.33377,51.84198],"Attributes":{"name":"Eikenlaan","highway":"unclassified","maxspeed":"50"}},{"Shape":120,"Coordinates":[4.334425,51.84148],"Attributes":{"name":"Lijsterbesstraat","highway":"unclassified"}},{"Shape":121,"Coordinates":[4.3336,51.8401],"Attributes":{"name":"De Olmen","highway":"unclassified"}},{"Shape":123,"Coordinates":[4.332734,51.84156],"Attributes":{"name":"De Wingerd","highway":"unclassified"}},{"Shape":123,"Coordinates":[4.332518,51.84109],"Attributes":{"name":"De Wingerd","highway":"unclassified"}},{"Shape":125,"Coordinates":[4.332518,51.84109],"Attributes":{"name":"De Wingerd","highway":"unclassified"}},{"Shape":127,"Coordinates":[4.33346,51.84143],"Attributes":{"name":"De Olmen","highway":"unclassified"}},{"Shape":128,"Coordinates":[4.333503,51.83999],"Attributes":{"name":"De Olmen","highway":"unclassified"}},{"Shape":129,"Coordinates":[4.3347,51.8398],"Attributes":{"name":"Sleedoornpad","highway":"unclassified"}},{"Shape":129,"Coordinates":[4.3356,51.8402],"Attributes":{"name":"Kastanjestraat","highway":"unclassified"}},{"Shape":131,"Coordinates":[4.3336,51.8401],"Attributes":{"name":"Kastanjestraat","highway":"unclassified"}},{"Shape":134,"Coordinates":[4.335732,51.83942],"Attributes":{"name":"Abelenstraat","highway":"unclassified"}},{"Shape":135,"Coordinates":[4.333442,51.83934],"Attributes":{"name":"Abelenstraat","highway":"unclassified"}},{"Shape":135,"Coordinates":[4.333503,51.83999],"Attributes":{"name":"De Olmen","highway":"unclassified"}},{"Shape":137,"Coordinates":[4.333503,51.83999],"Attributes":{"name":"De Olmen","highway":"unclassified"}},{"Shape":138,"Coordinates":[4.3347,51.8398],"Attributes":{"name":"Sleedoornpad","highway":"unclassified"}},{"Shape":139,"Coordinates":[4.3357,51.8398],"Attributes":{"name":"Duindoornpad","highway":"unclassified"}},{"Shape":141,"Coordinates":[4.3356,51.8402],"Attributes":{"name":"Kastanjestraat","highway":"unclassified"}},{"Shape":141,"Coordinates":[4.3374,51.8403],"Attributes":{"name":"Kastanjestraat","highway":"unclassified"}},{"Shape":142,"Coordinates":[4.3345,51.8407],"Attributes":{"name":"Elzenstraat","highway":"unclassified"}},{"Shape":142,"Coordinates":[4.336382,51.84156],"Attributes":{"name":"Essenstraat","highway":"unclassified"}},{"Shape":144,"Coordinates":[4.3345,51.8407],"Attributes":{"name":"Elzenstraat","highway":"unclassified"}},{"Shape":145,"Coordinates":[4.336594,51.83946],"Attributes":{"name":"Essenstraat","highway":"unclassified"}},{"Shape":145,"Coordinates":[4.3356,51.8402],"Attributes":{"name":"Kastanjestraat","highway":"unclassified"}},{"Shape":146,"Coordinates":[4.337197,51.84212],"Attributes":{"name":"Beukenlaan","highway":"unclassified"}},{"Shape":147,"Coordinates":[4.337654,51.84015],"Attributes":{"highway":"unclassified"}},{"Shape":148,"Coordinates":[4.337678,51.83997],"Attributes":{"highway":"unclassified"}},{"Shape":150,"Coordinates":[4.33777,51.83931],"Attributes":{"name":"Hazelaarstraat","highway":"unclassified"}},{"Shape":151,"Coordinates":[4.337781,51.83917],"Attributes":{"highway":"service"}},{"Shape":152,"Coordinates":[4.337621,51.83881],"Attributes":{"highway":"unclassified","oneway":"yes"}},{"Shape":153,"Coordinates":[4.337617,51.83853],"Attributes":{"name":"Heemraadlaan","junction":"roundabout","highway":"secondary"}},{"Shape":156,"Coordinates":[4.337263,51.83838],"Attributes":{"name":"Heemraadlaan","oneway":"yes","highway":"secondary"}},{"Shape":159,"Coordinates":[4.337266,51.8383],"Attributes":{"name":"Heemraadlaan","maxspeed":"50","oneway":"yes","highway":"secondary"}},{"Shape":162,"Coordinates":[4.337631,51.8382],"Attributes":{"name":"Heemraadlaan","junction":"roundabout","highway":"secondary"}},{"Shape":164,"Coordinates":[4.337731,51.83812],"Attributes":{"highway":"residential","oneway":"yes"}},{"Shape":165,"Coordinates":[4.33763,51.83636],"Attributes":{"name":"De Landmeter","highway":"unclassified","maxspeed":"30"}},{"Shape":166,"Coordinates":[4.339431,51.83679],"Attributes":{"name":"Ottersveen","highway":"unclassified"}},{"Shape":166,"Coordinates":[4.339542,51.83587],"Attributes":{"name":"Kikkerveen","highway":"unclassified"}},{"Shape":167,"Coordinates":[4.341315,51.83652],"Attributes":{"name":"De Landmeter","highway":"unclassified","maxspeed":"30"}},{"Shape":168,"Coordinates":[4.341059,51.83691],"Attributes":{"name":"Ottersveen","highway":"unclassified"}},{"Shape":174,"Coordinates":[4.340202,51.83803],"Attributes":{"name":"Ottersveen","highway":"unclassified"}},{"Shape":174,"Coordinates":[4.341008,51.83789],"Attributes":{"name":"Ottersveen","highway":"unclassified"}},{"Shape":176,"Coordinates":[4.341008,51.83789],"Attributes":{"name":"Ottersveen","highway":"unclassified"}},{"Shape":182,"Coordinates":[4.341059,51.83691],"Attributes":{"name":"Ottersveen","highway":"unclassified"}},{"Shape":183,"Coordinates":[4.339484,51.83644],"Attributes":{"name":"De Landmeter","highway":"unclassified","maxspeed":"30"}},{"Shape":188,"Coordinates":[4.34376,51.8366],"Attributes":{"name":"Wezelveen","highway":"unclassified"}},{"Shape":190,"Coordinates":[4.343804,51.83553],"Attributes":{"name":"Vlinderveen","highway":"residential"}},{"Shape":192,"Coordinates":[4.3446,51.835],"Attributes":{"name":"De Dijkgraaf","highway":"tertiary"}},{"Shape":192,"Coordinates":[4.34493,51.83625],"Attributes":{"name":"De Dijkgraaf","highway":"unclassified"}},{"Shape":194,"Coordinates":[4.345562,51.8363],"Attributes":{"highway":"service"}},{"Shape":196,"Coordinates":[4.346341,51.83546],"Attributes":{"name":"Snoekenveen","highway":"living_street"}},{"Shape":198,"Coordinates":[4.347059,51.8367],"Attributes":{"name":"Baarsveen","highway":"unclassified"}},{"Shape":200,"Coordinates":[4.348951,51.83627],"Attributes":{"name":"De Landmeter","highway":"unclassified","maxspeed":"30"}},{"Shape":201,"Coordinates":[4.34768,51.8357],"Attributes":{"name":"Snoekenveen","highway":"living_street"}},{"Shape":201,"Coordinates":[4.348238,51.83586],"Attributes":{"name":"Snoekenveen","highway":"living_street"}},{"Shape":203,"Coordinates":[4.34768,51.8357],"Attributes":{"name":"Snoekenveen","highway":"living_street"}},{"Shape":204,"Coordinates":[4.348951,51.83627],"Attributes":{"name":"De Landmeter","highway":"unclassified","maxspeed":"30"}},{"Shape":206,"Coordinates":[4.346705,51.83607],"Attributes":{"name":"De Landmeter","highway":"unclassified","maxspeed":"30"}},{"Shape":207,"Coordinates":[4.347507,51.83672],"Attributes":{"name":"Baarsveen","highway":"unclassified"}},{"Shape":209,"Coordinates":[4.346519,51.83699],"Attributes":{"name":"Baarsveen","highway":"unclassified"}},{"Shape":210,"Coordinates":[4.346567,51.83616],"Attributes":{"name":"Baarsveen","highway":"unclassified"}},{"Shape":210,"Coordinates":[4.34587,51.83649],"Attributes":{"name":"Baarsveen","highway":"residential"}},{"Shape":216,"Coordinates":[4.346567,51.83616],"Attributes":{"name":"Baarsveen","highway":"unclassified"}},{"Shape":217,"Coordinates":[4.346519,51.83699],"Attributes":{"name":"Baarsveen","highway":"unclassified"}},{"Shape":219,"Coordinates":[4.347106,51.83609],"Attributes":{"name":"Baarsveen","highway":"unclassified"}},{"Shape":220,"Coordinates":[4.347543,51.83648],"Attributes":{"name":"Baarsveen","highway":"unclassified"}},{"Shape":223,"Coordinates":[4.3484,51.83716],"Attributes":{"name":"Baarsveen","highway":"unclassified"}},{"Shape":227,"Coordinates":[4.3473,51.8383],"Attributes":{"name":"Baarsveen","highway":"unclassified"}},{"Shape":231,"Coordinates":[4.3473,51.8383],"Attributes":{"name":"Baarsveen","highway":"unclassified"}},{"Shape":235,"Coordinates":[4.347641,51.83677],"Attributes":{"name":"Baarsveen","highway":"unclassified"}},{"Shape":236,"Coordinates":[4.348423,51.83719],"Attributes":{"name":"Baarsveen","highway":"unclassified"}},{"Shape":237,"Coordinates":[4.347543,51.83648],"Attributes":{"name":"Baarsveen","highway":"unclassified"}},{"Shape":240,"Coordinates":[4.349616,51.83646],"Attributes":{"name":"Baarsveen","highway":"unclassified"}},{"Shape":241,"Coordinates":[4.350094,51.83665],"Attributes":{"name":"Baarsveen","highway":"unclassified"}},{"Shape":242,"Coordinates":[4.3498,51.8374],"Attributes":{"name":"Baarsveen","highway":"unclassified"}},{"Shape":242,"Coordinates":[4.350549,51.83707],"Attributes":{"name":"Baarsveen","highway":"unclassified"}},{"Shape":242,"Coordinates":[4.350449,51.83746],"Attributes":{"name":"Baarsveen","highway":"unclassified"}},{"Shape":251,"Coordinates":[4.350549,51.83707],"Attributes":{"name":"Baarsveen","highway":"unclassified"}},{"Shape":251,"Coordinates":[4.350449,51.83746],"Attributes":{"name":"Baarsveen","highway":"unclassified"}},{"Shape":252,"Coordinates":[4.349553,51.8367],"Attributes":{"name":"Baarsveen","highway":"unclassified"}},{"Shape":252,"Coordinates":[4.350094,51.83665],"Attributes":{"name":"Baarsveen","highway":"unclassified"}},{"Shape":254,"Coordinates":[4.349616,51.83646],"Attributes":{"name":"Baarsveen","highway":"unclassified"}},{"Shape":257,"Coordinates":[4.347543,51.83648],"Attributes":{"name":"Baarsveen","highway":"unclassified"}},{"Shape":257,"Coordinates":[4.3484,51.83716],"Attributes":{"name":"Baarsveen","highway":"unclassified"}},{"Shape":261,"Coordinates":[4.347641,51.83677],"Attributes":{"name":"Baarsveen","highway":"unclassified"}},{"Shape":262,"Coordinates":[4.347042,51.83683],"Attributes":{"name":"Baarsveen","highway":"unclassified"}},{"Shape":263,"Coordinates":[4.347182,51.8361],"Attributes":{"name":"De Landmeter","highway":"unclassified","maxspeed":"30"}},{"Shape":265,"Coordinates":[4.346341,51.83546],"Attributes":{"name":"Snoekenveen","highway":"living_street"}},{"Shape":267,"Coordinates":[4.345562,51.8363],"Attributes":{"highway":"service"}},{"Shape":269,"Coordinates":[4.344693,51.83624],"Attributes":{"name":"De Landmeter","highway":"unclassified","maxspeed":"30"}},{"Shape":269,"Coordinates":[4.3446,51.835],"Attributes":{"name":"De Dijkgraaf","highway":"tertiary"}},{"Shape":269,"Coordinates":[4.34493,51.83625],"Attributes":{"name":"De Dijkgraaf","highway":"unclassified"}},{"Shape":273,"Coordinates":[4.3446,51.835],"Attributes":{"name":"De Dijkgraaf","highway":"tertiary"}},{"Shape":273,"Coordinates":[4.345411,51.83616],"Attributes":{"name":"De Landmeter","highway":"unclassified","maxspeed":"30"}},{"Shape":274,"Coordinates":[4.345046,51.83723],"Attributes":{"name":"De Dijkgraaf","highway":"tertiary","oneway":"yes"}},{"Shape":280,"Coordinates":[4.344984,51.83874],"Attributes":{"name":"Schenkelweg","maxspeed":"50","highway":"tertiary","oneway":"yes"}},{"Shape":281,"Coordinates":[4.344984,51.83874],"Attributes":{"name":"Heemraadlaan","maxspeed":"50","oneway":"yes","highway":"secondary"}},{"Shape":282,"Coordinates":[4.343559,51.83862],"Attributes":{"name":"Heemraadlaan","maxspeed":"50","highway":"secondary"}},{"Shape":282,"Coordinates":[4.344432,51.84135],"Attributes":{"name":"Schenkelweg","maxspeed":"50","oneway":"yes","highway":"secondary"}},{"Shape":285,"Coordinates":[4.344953,51.83789],"Attributes":{"name":"De Dijkgraaf","highway":"tertiary","oneway":"yes"}},{"Shape":289,"Coordinates":[4.344841,51.83751],"Attributes":{"name":"Wezelveen","highway":"unclassified"}},{"Shape":293,"Coordinates":[4.345014,51.83635],"Attributes":{"name":"De Dijkgraaf","highway":"tertiary","oneway":"yes"}},{"Shape":294,"Coordinates":[4.344693,51.83624],"Attributes":{"name":"De Landmeter","highway":"unclassified","maxspeed":"30"}},{"Shape":294,"Coordinates":[4.3446,51.835],"Attributes":{"name":"De Dijkgraaf","highway":"tertiary"}},{"Shape":294,"Coordinates":[4.345411,51.83616],"Attributes":{"name":"De Landmeter","highway":"unclassified","maxspeed":"30"}},{"Shape":298,"Coordinates":[4.34493,51.83625],"Attributes":{"name":"De Dijkgraaf","highway":"unclassified"}},{"Shape":298,"Coordinates":[4.345411,51.83616],"Attributes":{"name":"De Landmeter","highway":"unclassified","maxspeed":"30"}},{"Shape":300,"Coordinates":[4.343804,51.83553],"Attributes":{"name":"Vlinderveen","highway":"residential"}},{"Shape":302,"Coordinates":[4.34376,51.8366],"Attributes":{"name":"Wezelveen","highway":"unclassified"}},{"Shape":307,"Coordinates":[4.339484,51.83644],"Attributes":{"name":"De Landmeter","highway":"unclassified","maxspeed":"30"}},{"Shape":307,"Coordinates":[4.341148,51.83683],"Attributes":{"name":"Ottersveen","highway":"unclassified"}},{"Shape":309,"Coordinates":[4.341315,51.83652],"Attributes":{"name":"De Landmeter","highway":"unclassified","maxspeed":"30"}},{"Shape":310,"Coordinates":[4.339542,51.83587],"Attributes":{"name":"Kikkerveen","highway":"unclassified"}},{"Shape":310,"Coordinates":[4.33786,51.83638],"Attributes":{"name":"De Landmeter","highway":"unclassified","maxspeed":"30"}},{"Shape":311,"Coordinates":[4.34001,51.83681],"Attributes":{"name":"Ottersveen","highway":"unclassified"}},{"Shape":311,"Coordinates":[4.33941,51.83691],"Attributes":{"name":"Ottersveen","highway":"unclassified"}},{"Shape":314,"Coordinates":[4.338794,51.83761],"Attributes":{"name":"Ottersveen","highway":"unclassified"}},{"Shape":315,"Coordinates":[4.3397,51.8375],"Attributes":{"name":"Ottersveen","highway":"unclassified"}},{"Shape":315,"Coordinates":[4.339489,51.83737],"Attributes":{"name":"Ottersveen","highway":"unclassified"}},{"Shape":317,"Coordinates":[4.339489,51.83737],"Attributes":{"name":"Ottersveen","highway":"unclassified"}},{"Shape":318,"Coordinates":[4.338794,51.83761],"Attributes":{"name":"Ottersveen","highway":"unclassified"}},{"Shape":321,"Coordinates":[4.34001,51.83681],"Attributes":{"name":"Ottersveen","highway":"unclassified"}},{"Shape":321,"Coordinates":[4.33941,51.83691],"Attributes":{"name":"Ottersveen","highway":"unclassified"}},{"Shape":322,"Coordinates":[4.33786,51.83638],"Attributes":{"name":"De Landmeter","highway":"unclassified","maxspeed":"30"}},{"Shape":322,"Coordinates":[4.341186,51.83651],"Attributes":{"name":"De Landmeter","highway":"unclassified","maxspeed":"30"}},{"Shape":325,"Coordinates":[4.339065,51.83565],"Attributes":{"name":"Kikkerveen","highway":"unclassified"}},{"Shape":325,"Coordinates":[4.339928,51.8356],"Attributes":{"name":"Kikkerveen","highway":"unclassified"}},{"Shape":327,"Coordinates":[4.339542,51.83587],"Attributes":{"name":"Kikkerveen","highway":"unclassified"}},{"Shape":330,"Coordinates":[4.338566,51.83571],"Attributes":{"name":"Kikkerveen","highway":"unclassified"}},{"Shape":331,"Coordinates":[4.338705,51.83538],"Attributes":{"name":"Kikkerveen","highway":"unclassified"}},{"Shape":334,"Coordinates":[4.338566,51.83571],"Attributes":{"name":"Kikkerveen","highway":"unclassified"}},{"Shape":337,"Coordinates":[4.339928,51.8356],"Attributes":{"name":"Kikkerveen","highway":"unclassified"}},{"Shape":340,"Coordinates":[4.339431,51.83679],"Attributes":{"name":"Ottersveen","highway":"unclassified"}},{"Shape":340,"Coordinates":[4.341186,51.83651],"Attributes":{"name":"De Landmeter","highway":"unclassified","maxspeed":"30"}},{"Shape":341,"Coordinates":[4.337694,51.83784],"Attributes":{"name":"De Waarsman","highway":"residential"}},{"Shape":343,"Coordinates":[4.335287,51.83616],"Attributes":{"name":"De Landmeter","highway":"unclassified","maxspeed":"30"}},{"Shape":343,"Coordinates":[4.336479,51.83564],"Attributes":{"name":"Kikkerveen","highway":"residential"}},{"Shape":344,"Coordinates":[4.336829,51.83689],"Attributes":{"name":"Beverveen","highway":"unclassified"}},{"Shape":347,"Coordinates":[4.335125,51.83722],"Attributes":{"name":"Beverveen","highway":"residential"}},{"Shape":349,"Coordinates":[4.333993,51.83689],"Attributes":{"highway":"residential"}},{"Shape":350,"Coordinates":[4.333991,51.83757],"Attributes":{"name":"Beverveen","highway":"unclassified"}},{"Shape":350,"Coordinates":[4.334,51.837],"Attributes":{"highway":"residential"}},{"Shape":352,"Coordinates":[4.333991,51.83757],"Attributes":{"name":"Beverveen","highway":"unclassified"}},{"Shape":353,"Coordinates":[4.333993,51.83689],"Attributes":{"highway":"residential"}},{"Shape":355,"Coordinates":[4.335125,51.83722],"Attributes":{"name":"Beverveen","highway":"residential"}},{"Shape":358,"Coordinates":[4.336397,51.83626],"Attributes":{"name":"Beverveen","highway":"unclassified"}},{"Shape":358,"Coordinates":[4.336829,51.83689],"Attributes":{"name":"Beverveen","highway":"unclassified"}},{"Shape":362,"Coordinates":[4.336166,51.83697],"Attributes":{"name":"Beverveen","highway":"unclassified"}},{"Shape":363,"Coordinates":[4.335287,51.83616],"Attributes":{"name":"De Landmeter","highway":"unclassified","maxspeed":"30"}},{"Shape":363,"Coordinates":[4.33763,51.83636],"Attributes":{"name":"De Landmeter","highway":"unclassified","maxspeed":"30"}},{"Shape":363,"Coordinates":[4.336479,51.83564],"Attributes":{"name":"Kikkerveen","highway":"residential"}},{"Shape":369,"Coordinates":[4.335287,51.83616],"Attributes":{"name":"De Landmeter","highway":"unclassified","maxspeed":"30"}},{"Shape":369,"Coordinates":[4.336342,51.83686],"Attributes":{"name":"Beverveen","highway":"unclassified"}},{"Shape":371,"Coordinates":[4.339484,51.83644],"Attributes":{"name":"De Landmeter","highway":"unclassified","maxspeed":"30"}},{"Shape":372,"Coordinates":[4.337609,51.83812],"Attributes":{"highway":"residential","oneway":"yes"}},{"Shape":374,"Coordinates":[4.337631,51.8382],"Attributes":{"name":"Heemraadlaan","junction":"roundabout","highway":"secondary"}},{"Shape":377,"Coordinates":[4.337992,51.83835],"Attributes":{"name":"Heemraadlaan","oneway":"yes","highway":"secondary"}},{"Shape":380,"Coordinates":[4.338009,51.83842],"Attributes":{"name":"Heemraadlaan","oneway":"yes","highway":"secondary"}},{"Shape":383,"Coordinates":[4.337617,51.83853],"Attributes":{"name":"Heemraadlaan","junction":"roundabout","highway":"secondary"}},{"Shape":384,"Coordinates":[4.337659,51.83881],"Attributes":{"highway":"service"}},{"Shape":385,"Coordinates":[4.337539,51.83852],"Attributes":{"highway":"unclassified","oneway":"yes"}},{"Shape":386,"Coordinates":[4.337781,51.83917],"Attributes":{"highway":"service"}},{"Shape":387,"Coordinates":[4.33777,51.83931],"Attributes":{"name":"Hazelaarstraat","highway":"unclassified"}},{"Shape":387,"Coordinates":[4.337487,51.83948],"Attributes":{"name":"Beukenlaan","highway":"unclassified"}},{"Shape":389,"Coordinates":[4.337562,51.83916],"Attributes":{"name":"Beukenlaan","highway":"unclassified"}},{"Shape":391,"Coordinates":[4.337678,51.83997],"Attributes":{"highway":"unclassified"}},{"Shape":392,"Coordinates":[4.337654,51.84015],"Attributes":{"highway":"unclassified"}},{"Shape":393,"Coordinates":[4.337197,51.84212],"Attributes":{"name":"Beukenlaan","highway":"unclassified"}},{"Shape":393,"Coordinates":[4.3365,51.84026],"Attributes":{"name":"Kastanjestraat","highway":"unclassified"}},{"Shape":395,"Coordinates":[4.335827,51.84207],"Attributes":{"name":"Eikenlaan","highway":"unclassified","maxspeed":"50"}},{"Shape":398,"Coordinates":[4.33815,51.84224],"Attributes":{"name":"Cypressenstraat","highway":"unclassified"}},{"Shape":399,"Coordinates":[4.339945,51.84225],"Attributes":{"name":"Eikenlaan","highway":"unclassified","maxspeed":"50"}},{"Shape":399,"Coordinates":[4.339031,51.84139],"Attributes":{"name":"Lindenstraat","highway":"unclassified"}},{"Shape":403,"Coordinates":[4.340803,51.84229],"Attributes":{"name":"Eikenlaan","highway":"unclassified","maxspeed":"50"}},{"Shape":405,"Coordinates":[4.340371,51.84262],"Attributes":{"name":"Cederstraat","highway":"unclassified"}},{"Shape":405,"Coordinates":[4.341088,51.84246],"Attributes":{"name":"Cederstraat","highway":"unclassified"}},{"Shape":405,"Coordinates":[4.340906,51.8427],"Attributes":{"name":"Cederstraat","highway":"unclassified"}},{"Shape":411,"Coordinates":[4.340371,51.84262],"Attributes":{"name":"Cederstraat","highway":"unclassified"}},{"Shape":411,"Coordinates":[4.340906,51.8427],"Attributes":{"name":"Cederstraat","highway":"unclassified"}},{"Shape":413,"Coordinates":[4.339945,51.84225],"Attributes":{"name":"Eikenlaan","highway":"unclassified","maxspeed":"50"}},{"Shape":414,"Coordinates":[4.340888,51.84145],"Attributes":{"name":"Ahornstraat","highway":"unclassified"}},{"Shape":415,"Coordinates":[4.341792,51.84205],"Attributes":{"name":"Populierenstraat","highway":"unclassified"}},{"Shape":416,"Coordinates":[4.343118,51.84227],"Attributes":{"name":"Iepenlaan","highway":"unclassified"}},{"Shape":416,"Coordinates":[4.344196,51.84242],"Attributes":{"name":"Eikenlaan","highway":"unclassified","maxspeed":"50"}},{"Shape":418,"Coordinates":[4.342926,51.8427],"Attributes":{"name":"Iepenlaan","highway":"unclassified"}},{"Shape":418,"Coordinates":[4.343062,51.84327],"Attributes":{"name":"Iepenlaan","highway":"service"}},{"Shape":422,"Coordinates":[4.342926,51.8427],"Attributes":{"name":"Iepenlaan","highway":"unclassified"}},{"Shape":424,"Coordinates":[4.341797,51.84233],"Attributes":{"name":"Eikenlaan","highway":"unclassified","maxspeed":"50"}},{"Shape":424,"Coordinates":[4.344196,51.84242],"Attributes":{"name":"Eikenlaan","highway":"unclassified","maxspeed":"50"}},{"Shape":426,"Coordinates":[4.343297,51.84085],"Attributes":{"name":"Iepenlaan","highway":"unclassified"}},{"Shape":426,"Coordinates":[4.342354,51.84164],"Attributes":{"name":"Sparrenstraat","highway":"unclassified"}},{"Shape":428,"Coordinates":[4.3434,51.8396],"Attributes":{"name":"Iepenlaan","highway":"unclassified"}},{"Shape":428,"Coordinates":[4.3423,51.8408],"Attributes":{"name":"Moerbeistraat","highway":"unclassified"}},{"Shape":430,"Coordinates":[4.343476,51.83908],"Attributes":{"name":"Iepenlaan","highway":"unclassified"}},{"Shape":431,"Coordinates":[4.342202,51.83932],"Attributes":{"name":"Pijnboomstraat","highway":"unclassified"}},{"Shape":432,"Coordinates":[4.341178,51.83948],"Attributes":{"name":"Hazelaarstraat","highway":"unclassified"}},{"Shape":435,"Coordinates":[4.341745,51.84101],"Attributes":{"name":"Populierenstraat","highway":"unclassified"}},{"Shape":435,"Coordinates":[4.340415,51.84038],"Attributes":{"name":"Wilgenstraat","highway":"unclassified"}},{"Shape":437,"Coordinates":[4.341745,51.84101],"Attributes":{"name":"Populierenstraat","highway":"unclassified"}},{"Shape":440,"Coordinates":[4.342182,51.83953],"Attributes":{"name":"Hazelaarstraat","highway":"unclassified"}},{"Shape":441,"Coordinates":[4.340692,51.83946],"Attributes":{"name":"Hazelaarstraat","highway":"unclassified"}},{"Shape":441,"Coordinates":[4.3412,51.8392],"Attributes":{"name":"Ribesstraat","highway":"unclassified"}},{"Shape":443,"Coordinates":[4.3412,51.8392],"Attributes":{"name":"Ribesstraat","highway":"unclassified"}},{"Shape":444,"Coordinates":[4.342182,51.83953],"Attributes":{"name":"Hazelaarstraat","highway":"unclassified"}},{"Shape":447,"Coordinates":[4.340415,51.84038],"Attributes":{"name":"Wilgenstraat","highway":"unclassified"}},{"Shape":450,"Coordinates":[4.341792,51.84205],"Attributes":{"name":"Populierenstraat","highway":"unclassified"}},{"Shape":450,"Coordinates":[4.340888,51.84145],"Attributes":{"name":"Berkenstraat","highway":"unclassified"}},{"Shape":452,"Coordinates":[4.341745,51.84101],"Attributes":{"name":"Populierenstraat","highway":"unclassified"}},{"Shape":453,"Coordinates":[4.340803,51.84229],"Attributes":{"name":"Ahornstraat","highway":"unclassified"}},{"Shape":454,"Coordinates":[4.340415,51.84038],"Attributes":{"name":"Prunusstraat","highway":"unclassified"}},{"Shape":455,"Coordinates":[4.339737,51.84169],"Attributes":{"name":"Berkenplein","highway":"unclassified"}},{"Shape":456,"Coordinates":[4.338984,51.84032],"Attributes":{"name":"Lindenstraat","highway":"unclassified"}},{"Shape":456,"Coordinates":[4.339045,51.84222],"Attributes":{"name":"Lindenstraat","highway":"unclassified"}},{"Shape":458,"Coordinates":[4.339945,51.84225],"Attributes":{"name":"Eikenlaan","highway":"unclassified","maxspeed":"50"}},{"Shape":459,"Coordinates":[4.33815,51.84224],"Attributes":{"name":"Cypressenstraat","highway":"unclassified"}},{"Shape":462,"Coordinates":[4.3374,51.8403],"Attributes":{"name":"Beukenlaan","highway":"unclassified"}},{"Shape":463,"Coordinates":[4.334474,51.84201],"Attributes":{"name":"Eikenlaan","highway":"unclassified","maxspeed":"50"}},{"Shape":466,"Coordinates":[4.336135,51.84249],"Attributes":{"name":"Larixstraat","highway":"living_street"}},{"Shape":466,"Coordinates":[4.335534,51.84246],"Attributes":{"name":"Larixstraat","highway":"living_street"}},{"Shape":466,"Coordinates":[4.336172,51.8423],"Attributes":{"name":"Larixstraat","highway":"living_street"}},{"Shape":472,"Coordinates":[4.336135,51.84249],"Attributes":{"name":"Larixstraat","highway":"living_street"}},{"Shape":472,"Coordinates":[4.335534,51.84246],"Attributes":{"name":"Larixstraat","highway":"living_street"}},{"Shape":475,"Coordinates":[4.337197,51.84212],"Attributes":{"name":"Eikenlaan","highway":"unclassified","maxspeed":"50"}},{"Shape":476,"Coordinates":[4.332794,51.84292],"Attributes":{"name":"Goudenregenplein","highway":"living_street"}},{"Shape":476,"Coordinates":[4.33377,51.84198],"Attributes":{"name":"Eikenlaan","highway":"unclassified","maxspeed":"50"}}]}