{"Shape":[[4.346719,51.82622],[4.346753,51.8257],[4.347044,51.82518],[4.347862,51.82531],[4.347973,51.82533],[4.348367,51.82538],[4.347973,51.82533],[4.347862,51.82531],[4.347044,51.82518],[4.346587,51.82507],[4.3461,51.8249],[4.345696,51.82476],[4.345376,51.82465],[4.344509,51.82603],[4.344432,51.8264],[4.344509,51.82603],[4.345376,51.82465],[4.344522,51.82442],[4.34341,51.8242],[4.343371,51.8242],[4.342718,51.8241],[4.342631,51.82408],[4.342718,51.8241],[4.343371,51.8242],[4.34341,51.8242],[4.344522,51.82442],[4.344595,51.82444],[4.345376,51.82465],[4.345696,51.82476],[4.3461,51.8249],[4.346175,51.82483],[4.3461,51.8249],[4.345696,51.82476],[4.345376,51.82465],[4.344522,51.82442],[4.34341,51.8242],[4.343371,51.8242],[4.342718,51.8241],[4.342392,51.82404],[4.342094,51.82398],[4.341346,51.82405],[4.340723,51.82417],[4.340543,51.82424],[4.340341,51.82455],[4.340148,51.82472],[4.339321,51.82494],[4.339457,51.82515],[4.339618,51.8252],[4.340388,51.82536],[4.340495,51.82538],[4.340618,51.82541],[4.340495,51.82538],[4.340388,51.82536],[4.339618,51.8252],[4.339457,51.82515],[4.339321,51.82494],[4.339011,51.82504],[4.338372,51.8252],[4.338127,51.82525],[4.337956,51.8252],[4.337746,51.82512],[4.337099,51.82479],[4.336991,51.8247],[4.336892,51.82459],[4.336846,51.82446],[4.33679,51.82429],[4.33668,51.82414],[4.336499,51.82405],[4.336381,51.82402],[4.336336,51.82405],[4.336199,51.82409],[4.336126,51.82407],[4.336066,51.82405],[4.336001,51.82398],[4.336003,51.82393],[4.336028,51.82389],[4.335911,51.82384],[4.334841,51.82349],[4.334756,51.82359],[4.334716,51.82365],[4.334577,51.82385],[4.3334,51.8235],[4.332743,51.82334],[4.332283,51.82323],[4.332163,51.82327],[4.331876,51.82364],[4.331853,51.82368],[4.331876,51.82364],[4.332163,51.82327],[4.332283,51.82323],[4.332743,51.82334],[4.3334,51.8235],[4.334577,51.82385],[4.334716,51.82365],[4.334756,51.82359],[4.334841,51.82349],[4.335911,51.82384],[4.336028,51.82389],[4.33609,51.82385],[4.336174,51.82383],[4.336262,51.82384],[4.336315,51.82386],[4.336358,51.82388],[4.336389,51.82391],[4.336401,51.82398],[4.336381,51.82402],[4.336336,51.82405],[4.336199,51.82409],[4.336126,51.82407],[4.336068,51.82415],[4.335522,51.82494],[4.335342,51.82512],[4.334378,51.82594],[4.33405,51.82627],[4.333961,51.8264],[4.33385,51.82658],[4.333744,51.8268],[4.333664,51.82705],[4.333645,51.82717],[4.333635,51.82729],[4.333636,51.82741],[4.333639,51.8275],[4.3337,51.8277],[4.33395,51.82809],[4.334713,51.82919],[4.334875,51.82943],[4.334988,51.8297],[4.335028,51.82985],[4.335047,51.83001],[4.335035,51.83016],[4.335034,51.83027],[4.33502,51.83052],[4.334882,51.83102],[4.334789,51.83123],[4.334695,51.83144],[4.33434,51.83228],[4.334135,51.83279],[4.333984,51.83319],[4.333944,51.83329],[4.33392,51.83337],[4.333879,51.83347],[4.333866,51.8335],[4.333449,51.83439],[4.332847,51.83581],[4.332666,51.83623],[4.332587,51.83643],[4.332341,51.83696],[4.332278,51.83705],[4.33235,51.83712],[4.332238,51.83795],[4.332231,51.83809],[4.33221,51.8382],[4.332188,51.8383],[4.332137,51.83849],[4.332017,51.83862],[4.331906,51.8387],[4.331593,51.83882],[4.331412,51.83893],[4.331363,51.83906],[4.331328,51.83917],[4.33132,51.83929],[4.331257,51.83949],[4.331182,51.84015],[4.331144,51.84051],[4.331061,51.84118],[4.330976,51.84137],[4.330967,51.84144],[4.330879,51.84165],[4.330832,51.84174],[4.330878,51.84177],[4.330908,51.8418],[4.331061,51.84181],[4.331402,51.84182],[4.331864,51.84186],[4.33204,51.84188],[4.332249,51.84189],[4.332633,51.84191],[4.332995,51.84194],[4.333108,51.84195],[4.333394,51.84196],[4.33346,51.84143],[4.333495,51.84114],[4.3336,51.8401],[4.333503,51.83999],[4.333807,51.83936],[4.333582,51.83935],[4.333807,51.83936],[4.333503,51.83999],[4.3336,51.8401],[4.333495,51.84114],[4.333225,51.84113],[4.332782,51.84111],[4.33277,51.84121],[4.332782,51.84111],[4.333225,51.84113],[4.333495,51.84114],[4.3336,51.8401],[4.334604,51.84016],[4.334864,51.84017],[4.3356,51.8402],[4.3365,51.84026],[4.336461,51.84077],[4.336423,51.84115],[4.336461,51.84077],[4.3365,51.84026],[4.3374,51.8403],[4.337399,51.84031],[4.337197,51.84212],[4.335827,51.84207],[4.33588,51.84212],[4.336011,51.84226],[4.336048,51.84233],[4.336172,51.8423],[4.336263,51.84229],[4.336473,51.84229],[4.336263,51.84229],[4.336172,51.8423],[4.336048,51.84233],[4.336011,51.84226],[4.33588,51.84212],[4.335827,51.84207],[4.334474,51.84201],[4.334468,51.84206],[4.334466,51.84208],[4.3344,51.8426],[4.334,51.8427],[4.3335,51.8428],[4.333413,51.84282],[4.3335,51.8428],[4.334,51.8427],[4.3344,51.8426],[4.334466,51.84208],[4.334474,51.84201],[4.335827,51.84207],[4.337197,51.84212],[4.337291,51.84212],[4.337842,51.84216],[4.338156,51.84217],[4.339045,51.84222],[4.339945,51.84225],[4.340382,51.84227],[4.340587,51.84228],[4.340659,51.84235],[4.3408,51.8425],[4.341088,51.84246],[4.341383,51.84253],[4.341501,51.84252],[4.341383,51.84253],[4.341088,51.84246],[4.3408,51.8425],[4.340659,51.84235],[4.340587,51.84228],[4.340382,51.84227],[4.339945,51.84225],[4.339045,51.84222],[4.339032,51.8414],[4.339045,51.84222],[4.339289,51.84223],[4.339945,51.84225],[4.340382,51.84227],[4.340587,51.84228],[4.340803,51.84229],[4.340888,51.84145],[4.340297,51.84142],[4.340415,51.84038],[4.340582,51.84039],[4.341725,51.84043],[4.341745,51.84101],[4.341752,51.8411],[4.341779,51.84149],[4.341781,51.84156],[4.341792,51.84205],[4.341797,51.84233],[4.3431,51.84237],[4.343092,51.84245],[4.343,51.8427],[4.343132,51.84274],[4.343118,51.84284],[4.343132,51.84274],[4.343,51.8427],[4.343092,51.84245],[4.3431,51.84237],[4.344196,51.84242],[4.344324,51.84243],[4.344388,51.84169],[4.344414,51.84153],[4.344689,51.84147],[4.344956,51.84146],[4.345497,51.84148],[4.346251,51.84152],[4.347239,51.84156],[4.348428,51.8416],[4.348705,51.84158],[4.349051,51.84153],[4.349454,51.84143],[4.349549,51.8414],[4.349648,51.84134],[4.349666,51.84131],[4.349733,51.84125],[4.349779,51.84123],[4.349773,51.84107],[4.349725,51.84097],[4.349637,51.84082],[4.349562,51.84072],[4.349473,51.84055],[4.349343,51.84038],[4.349247,51.84026],[4.349227,51.84022],[4.349242,51.84018],[4.349291,51.84015],[4.349341,51.84015],[4.349291,51.84015],[4.349242,51.84018],[4.349227,51.84022],[4.349247,51.84026],[4.349343,51.84038],[4.349473,51.84055],[4.349562,51.84072],[4.349637,51.84082],[4.349725,51.84097],[4.349773,51.84107],[4.349949,51.8412],[4.350004,51.84121],[4.350057,51.84122],[4.350117,51.84124],[4.350166,51.84128],[4.350214,51.84137],[4.35021,51.84141],[4.350195,51.84144],[4.350135,51.8415],[4.350092,51.84152],[4.35,51.84155],[4.349898,51.84155],[4.349844,51.84155],[4.349792,51.84153],[4.349615,51.84154],[4.349001,51.84167],[4.348555,51.84173],[4.348441,51.84174],[4.348005,51.84174],[4.347584,51.84173],[4.347215,51.84171],[4.346981,51.8417],[4.34621,51.84166],[4.345485,51.84163],[4.345028,51.84161],[4.344929,51.8416],[4.344674,51.8416],[4.344577,51.84244],[4.344324,51.84243],[4.344196,51.84242],[4.3431,51.84237],[4.343118,51.84227],[4.343182,51.84167],[4.343195,51.84157],[4.343297,51.84085],[4.343392,51.83969],[4.3434,51.8396],[4.342182,51.83953],[4.341702,51.8395],[4.341178,51.83948],[4.340808,51.83946],[4.340692,51.83946],[4.340141,51.83944],[4.339907,51.83942],[4.33916,51.83938],[4.339021,51.83937],[4.3389,51.83937],[4.33777,51.83931],[4.337754,51.83931],[4.337546,51.8393],[4.337562,51.83916],[4.337589,51.83892],[4.337539,51.83852],[4.337474,51.83849],[4.337389,51.83842],[4.337382,51.83839],[4.337375,51.83837],[4.337385,51.83832],[4.337407,51.83829],[4.337417,51.83828],[4.337511,51.83822],[4.337559,51.83821],[4.337609,51.83812],[4.337694,51.83784],[4.33786,51.83638],[4.33763,51.83636],[4.336397,51.83626],[4.336403,51.83621],[4.336479,51.83564],[4.336488,51.83555],[4.336479,51.83564],[4.336403,51.83621],[4.336397,51.83626],[4.336342,51.83686],[4.336829,51.83689],[4.336818,51.83698],[4.336829,51.83689],[4.336342,51.83686],[4.336166,51.83697],[4.335967,51.83701],[4.335168,51.83696],[4.334412,51.83688],[4.3342,51.83692],[4.334102,51.83704],[4.334082,51.83704],[4.334102,51.83704],[4.333991,51.83757],[4.333906,51.83763],[4.333788,51.83767],[4.333152,51.83767],[4.332994,51.83764],[4.332922,51.83754],[4.332922,51.83744],[4.333139,51.83637],[4.333388,51.83621],[4.333683,51.83601],[4.333858,51.83577],[4.334031,51.83526],[4.3343,51.83469],[4.33426,51.8345],[4.334218,51.83438],[4.334064,51.834],[4.334106,51.83392],[4.33427,51.83384],[4.334579,51.83381],[4.33519,51.83389],[4.335461,51.83391],[4.335491,51.83371],[4.335445,51.83354],[4.33526,51.83353],[4.334939,51.83347],[4.334557,51.83341],[4.334476,51.83343],[4.334097,51.83339],[4.33392,51.83337],[4.333775,51.83335],[4.333804,51.83327],[4.333855,51.83318],[4.334152,51.8326],[4.33434,51.83228],[4.334695,51.83144],[4.334789,51.83123],[4.334882,51.83102],[4.33502,51.83052],[4.335034,51.83027],[4.335257,51.83027],[4.335322,51.83027],[4.335623,51.83025],[4.335743,51.8302],[4.33585,51.83013],[4.335898,51.83008],[4.336523,51.82943],[4.336696,51.8293],[4.33714,51.82897],[4.337382,51.82883],[4.338922,51.82824],[4.339298,51.82812],[4.339702,51.82798],[4.340146,51.82774],[4.34095,51.82743],[4.341215,51.82733],[4.341316,51.82721],[4.341413,51.827],[4.341389,51.82682],[4.3417,51.8268],[4.3422,51.82679],[4.342414,51.82681],[4.342551,51.82685],[4.342699,51.82686],[4.342846,51.82686],[4.342914,51.82685],[4.342882,51.82694],[4.342914,51.82685],[4.342846,51.82686],[4.342699,51.82686],[4.342551,51.82685],[4.342414,51.82681],[4.3422,51.82679],[4.3417,51.8268],[4.3419,51.82639],[4.341987,51.82624],[4.34261,51.82515],[4.342735,51.82499],[4.34261,51.82515],[4.3419,51.82639],[4.3417,51.8268],[4.3422,51.82679],[4.342414,51.82681],[4.342551,51.82685],[4.342699,51.82686],[4.342846,51.82686],[4.342914,51.82685],[4.343071,51.82683],[4.343616,51.82676],[4.34544,51.82673],[4.345498,51.8264],[4.346358,51.82637],[4.346737,51.82638],[4.346717,51.82624],[4.346719,51.82622]],"ShapeMeta":[{"Shape":0,"Attributes":{"profile":"car"}},{"Shape":1,"Attributes":{"name":"L de Raatlaan","highway":"residential","maxspeed":"30","profile":"car","distance":"57.72063","time":"9.2353"}},{"Shape":2,"Attributes":{"name":"L de Raatlaan","highway":"residential","maxspeed":"30","profile":"car","distance":"118.3206","time":"18.9313"}},{"Shape":3,"Attributes":{"name":"Lede","highway":"residential","maxspeed":"30","profile":"car","distance":"176.2206","time":"28.1953"}},{"Shape":4,"Attributes":{"name":"Kors Monsterstraat","highway":"residential","profile":"car","distance":"184.2206","time":"28.9633"}},{"Shape":5,"Attributes":{"name":"Kors Monsterstraat","highway":"residential","profile":"car","distance":"211.7415","time":"31.60531"}},{"Shape":6,"Attributes":{"name":"Kors Monsterstraat","highway":"residential","profile":"car","distance":"239.2624","time":"34.24731"}},{"Shape":7,"Attributes":{"name":"Kors Monsterstraat","highway":"residential","profile":"car","distance":"247.2624","time":"35.01532"}},{"Shape":8,"Attributes":{"name":"Lede","highway":"residential","maxspeed":"30","profile":"car","distance":"305.1624","time":"44.27932"}},{"Shape":10,"Attributes":{"name":"Lede","highway":"residential","maxspeed":"30","profile":"car","distance":"377.3624","time":"55.83132"}},{"Shape":12,"Attributes":{"name":"Lede","highway":"residential","maxspeed":"30","profile":"car","distance":"434.5624","time":"64.98332"}},{"Shape":14,"Attributes":{"name":"Schoollaan","highway":"living_street","profile":"car","distance":"640.7201","time":"262.8947"}},{"Shape":16,"Attributes":{"name":"Schoollaan","highway":"living_street","profile":"car","distance":"846.8778","time":"460.8061"}},{"Shape":17,"Attributes":{"name":"Lede","highway":"residential","maxspeed":"30","profile":"car","distance":"910.8778","time":"471.0461"}},{"Shape":18,"Attributes":{"name":"Lede","highway":"residential","maxspeed":"30","profile":"car","distance":"991.0778","time":"483.8781"}},{"Shape":19,"Attributes":{"name":"Lede","highway":"residential","maxspeed":"30","profile":"car","distance":"993.6778","time":"484.2941"}},{"Shape":20,"Attributes":{"name":"Lede","highway":"residential","maxspeed":"30","profile":"car","distance":"1039.778","time":"491.6701"}},{"Shape":21,"Attributes":{"name":"Lede","highway":"residential","maxspeed":"30","profile":"car","distance":"1045.937","time":"492.6557"}},{"Shape":22,"Attributes":{"name":"Lede","highway":"residential","maxspeed":"30","profile":"car","distance":"1052.097","time":"493.6412"}},{"Shape":23,"Attributes":{"name":"Lede","highway":"residential","maxspeed":"30","profile":"car","distance":"1098.197","time":"501.0172"}},{"Shape":24,"Attributes":{"name":"Lede","highway":"residential","maxspeed":"30","profile":"car","distance":"1100.797","time":"501.4333"}},{"Shape":25,"Attributes":{"name":"Lede","highway":"residential","maxspeed":"30","profile":"car","distance":"1180.997","time":"514.2653"}},{"Shape":26,"Attributes":{"name":"Lede","highway":"residential","maxspeed":"30","profile":"car","distance":"1186.503","time":"515.1462"}},{"Shape":27,"Attributes":{"name":"Lede","highway":"residential","maxspeed":"30","profile":"car","distance":"1244.997","time":"524.5052"}},{"Shape":29,"Attributes":{"name":"Lede","highway":"residential","maxspeed":"30","profile":"car","distance":"1302.197","time":"533.6572"}},{"Shape":30,"Attributes":{"name":"Kluivertweg","maxspeed":"30","highway":"living_street","profile":"car","distance":"1312.305","time":"535.2745"}},{"Shape":31,"Attributes":{"name":"Kluivertweg","maxspeed":"30","highway":"living_street","profile":"car","distance":"1322.413","time":"536.8918"}},{"Shape":33,"Attributes":{"name":"Lede","highway":"residential","maxspeed":"30","profile":"car","distance":"1379.613","time":"546.0438"}},{"Shape":34,"Attributes":{"name":"Lede","highway":"residential","maxspeed":"30","profile":"car","distance":"1443.613","time":"556.2838"}},{"Shape":35,"Attributes":{"name":"Lede","highway":"residential","maxspeed":"30","profile":"car","distance":"1523.813","time":"569.1158"}},{"Shape":36,"Attributes":{"name":"Lede","highway":"residential","maxspeed":"30","profile":"car","distance":"1526.413","time":"569.5318"}},{"Shape":37,"Attributes":{"name":"Lede","highway":"residential","maxspeed":"30","profile":"car","distance":"1572.513","time":"576.9078"}},{"Shape":38,"Attributes":{"name":"Lede","highway":"residential","maxspeed":"30","profile":"car","distance":"1595.613","time":"580.6038"}},{"Shape":39,"Attributes":{"name":"Lede","highway":"residential","maxspeed":"30","profile":"car","distance":"1617.113","time":"584.0438"}},{"Shape":40,"Attributes":{"name":"Groede","highway":"unclassified","profile":"car","distance":"1669.013","time":"589.0262"}},{"Shape":45,"Attributes":{"name":"Groede","highway":"unclassified","maxspeed":"30","profile":"car","distance":"1850.513","time":"618.0662"}},{"Shape":49,"Attributes":{"name":"Schare","highway":"living_street","profile":"car","distance":"1951.713","time":"715.2181"}},{"Shape":50,"Attributes":{"name":"Schare","highway":"living_street","profile":"car","distance":"1960.642","time":"723.79"}},{"Shape":51,"Attributes":{"name":"Schare","highway":"living_street","profile":"car","distance":"1969.571","time":"732.3619"}},{"Shape":55,"Attributes":{"name":"Schare","highway":"living_street","profile":"car","distance":"2070.771","time":"829.5139"}},{"Shape":56,"Attributes":{"name":"Groede","highway":"unclassified","maxspeed":"30","profile":"car","distance":"2094.771","time":"833.3539"}},{"Shape":58,"Attributes":{"name":"Groede","highway":"unclassified","maxspeed":"30","profile":"car","distance":"2159.971","time":"843.7859"}},{"Shape":60,"Attributes":{"name":"Dorpsstraat","maxspeed":"30","highway":"tertiary","profile":"car","distance":"2190.171","time":"848.6179"}},{"Shape":62,"Attributes":{"name":"Dorpsstraat","maxspeed":"30","highway":"tertiary","profile":"car","distance":"2260.271","time":"859.8339"}},{"Shape":63,"Attributes":{"name":"Dorpsstraat","maxspeed":"30","highway":"tertiary","profile":"car","distance":"2273.871","time":"862.0099"}},{"Shape":67,"Attributes":{"name":"Dorpsstraat","maxspeed":"30","highway":"tertiary","profile":"car","distance":"2342.071","time":"872.9219"}},{"Shape":68,"Attributes":{"name":"Dorpsstraat","maxspeed":"30","highway":"tertiary","profile":"car","distance":"2350.971","time":"874.3459"}},{"Shape":71,"Attributes":{"name":"Hekelingseweg","junction":"roundabout","maxspeed":"80","highway":"secondary","profile":"car","distance":"2371.471","time":"875.5759"}},{"Shape":75,"Attributes":{"name":"Hekelingseweg","junction":"roundabout","maxspeed":"80","highway":"secondary","profile":"car","distance":"2395.271","time":"877.0039"}},{"Shape":77,"Attributes":{"name":"Westdijk","maxspeed":"80","highway":"secondary","profile":"car","distance":"2488.271","time":"882.5839"}},{"Shape":80,"Attributes":{"name":"Wachthoevestraat","highway":"unclassified","maxspeed":"30","profile":"car","distance":"2531.671","time":"889.5279"}},{"Shape":81,"Attributes":{"name":"Moleneind","highway":"unclassified","maxspeed":"30","profile":"car","distance":"2621.271","time":"903.8639"}},{"Shape":82,"Attributes":{"name":"Moleneind","highway":"unclassified","maxspeed":"30","profile":"car","distance":"2669.771","time":"911.6239"}},{"Shape":83,"Attributes":{"name":"Moleneind","highway":"unclassified","maxspeed":"30","profile":"car","distance":"2703.771","time":"917.0638"}},{"Shape":85,"Attributes":{"name":"Visserskreek","highway":"unclassified","maxspeed":"30","profile":"car","distance":"2759.371","time":"925.9599"}},{"Shape":86,"Attributes":{"name":"Visserskreek","highway":"unclassified","maxspeed":"30","profile":"car","distance":"2764.306","time":"926.7494"}},{"Shape":87,"Attributes":{"name":"Visserskreek","highway":"unclassified","maxspeed":"30","profile":"car","distance":"2769.24","time":"927.5389"}},{"Shape":89,"Attributes":{"name":"Visserskreek","highway":"unclassified","maxspeed":"30","profile":"car","distance":"2824.84","time":"936.4349"}},{"Shape":90,"Attributes":{"name":"Moleneind","highway":"unclassified","maxspeed":"30","profile":"car","distance":"2858.84","time":"941.8749"}},{"Shape":91,"Attributes":{"name":"Moleneind","highway":"unclassified","maxspeed":"30","profile":"car","distance":"2907.34","time":"949.6349"}},{"Shape":92,"Attributes":{"name":"Moleneind","highway":"unclassified","maxspeed":"30","profile":"car","distance":"2996.94","time":"963.9709"}},{"Shape":95,"Attributes":{"name":"Wachthoevestraat","highway":"unclassified","maxspeed":"30","profile":"car","distance":"3040.34","time":"970.9149"}},{"Shape":97,"Attributes":{"name":"Westdijk","maxspeed":"80","highway":"secondary","profile":"car","distance":"3133.34","time":"976.4949"}},{"Shape":100,"Attributes":{"name":"Hekelingseweg","junction":"roundabout","maxspeed":"80","highway":"secondary","profile":"car","distance":"3151.84","time":"977.6049"}},{"Shape":105,"Attributes":{"name":"Hekelingseweg","junction":"roundabout","maxspeed":"80","highway":"secondary","profile":"car","distance":"3176.14","time":"979.0629"}},{"Shape":108,"Attributes":{"name":"Hekelingseweg","junction":"roundabout","maxspeed":"80","highway":"secondary","profile":"car","distance":"3196.64","time":"980.2929"}},{"Shape":114,"Attributes":{"name":"Hekelingseweg","maxspeed":"50","highway":"secondary","profile":"car","distance":"3496.94","time":"1009.122"}},{"Shape":119,"Attributes":{"name":"Hekelingseweg","maxspeed":"50","highway":"secondary","profile":"car","distance":"3598.84","time":"1018.904"}},{"Shape":123,"Attributes":{"name":"Hekelingseweg","maxspeed":"50","highway":"secondary","profile":"car","distance":"3690.74","time":"1027.726"}},{"Shape":130,"Attributes":{"name":"Hekelingseweg","maxspeed":"50","highway":"secondary","profile":"car","distance":"3947.941","time":"1052.418"}},{"Shape":133,"Attributes":{"name":"Hekelingseweg","maxspeed":"50","highway":"secondary","profile":"car","distance":"4056.441","time":"1062.834"}},{"Shape":135,"Attributes":{"name":"Hekelingseweg","maxspeed":"50","highway":"secondary","profile":"car","distance":"4176.241","time":"1074.334"}},{"Shape":138,"Attributes":{"name":"Hekelingseweg","maxspeed":"50","oneway":"yes","highway":"secondary","profile":"car","distance":"4292.241","time":"1085.47"}},{"Shape":139,"Attributes":{"name":"Hekelingseweg","maxspeed":"50","oneway":"yes","highway":"secondary","profile":"car","distance":"4301.641","time":"1086.373"}},{"Shape":142,"Attributes":{"name":"Hekelingseweg","maxspeed":"50","oneway":"yes","highway":"secondary","profile":"car","distance":"4418.941","time":"1097.634"}},{"Shape":144,"Attributes":{"name":"Hekelingseweg","maxspeed":"50","highway":"secondary","profile":"car","distance":"4630.741","time":"1117.967"}},{"Shape":147,"Attributes":{"name":"Hekelingseweg","maxspeed":"50","highway":"secondary","profile":"car","distance":"4725.441","time":"1127.058"}},{"Shape":150,"Attributes":{"name":"Hekelingseweg","maxspeed":"50","oneway":"yes","highway":"secondary","profile":"car","distance":"4842.541","time":"1138.299"}},{"Shape":151,"Attributes":{"name":"Hekelingseweg","maxspeed":"50","oneway":"yes","highway":"secondary","profile":"car","distance":"4854.841","time":"1139.48"}},{"Shape":159,"Attributes":{"name":"Hekelingseweg","maxspeed":"50","highway":"tertiary","oneway":"yes","profile":"car","distance":"4986.341","time":"1152.104"}},{"Shape":161,"Attributes":{"name":"Hekelingseweg","maxspeed":"50","highway":"tertiary","oneway":"yes","profile":"car","distance":"5021.941","time":"1155.522"}},{"Shape":162,"Attributes":{"name":"Hekelingseweg","maxspeed":"50","highway":"tertiary","profile":"car","distance":"5095.841","time":"1162.616"}},{"Shape":165,"Attributes":{"name":"Hekelingseweg","maxspeed":"50","highway":"tertiary","profile":"car","distance":"5232.241","time":"1175.71"}},{"Shape":168,"Attributes":{"name":"Hekelingseweg","maxspeed":"50","highway":"tertiary","oneway":"yes","profile":"car","distance":"5274.641","time":"1179.781"}},{"Shape":170,"Attributes":{"name":"Planetenplein","maxspeed":"50","highway":"tertiary","oneway":"yes","junction":"roundabout","profile":"car","distance":"5283.241","time":"1180.606"}},{"Shape":174,"Attributes":{"name":"Eikenlaan","highway":"unclassified","maxspeed":"50","oneway":"yes","profile":"car","distance":"5361.641","time":"1188.133"}},{"Shape":175,"Attributes":{"name":"Eikenlaan","highway":"unclassified","maxspeed":"50","profile":"car","distance":"5376.041","time":"1189.515"}},{"Shape":177,"Attributes":{"name":"Eikenlaan","highway":"unclassified","maxspeed":"50","profile":"car","distance":"5427.641","time":"1194.469"}},{"Shape":179,"Attributes":{"name":"Eikenlaan","highway":"unclassified","maxspeed":"50","profile":"car","distance":"5455.041","time":"1197.099"}},{"Shape":180,"Attributes":{"name":"De Olmen","highway":"unclassified","profile":"car","distance":"5513.241","time":"1202.687"}},{"Shape":181,"Attributes":{"name":"De Olmen","highway":"unclassified","profile":"car","distance":"5545.941","time":"1205.826"}},{"Shape":182,"Attributes":{"name":"De Olmen","highway":"unclassified","profile":"car","distance":"5661.941","time":"1216.962"}},{"Shape":184,"Attributes":{"name":"De Olmen","highway":"unclassified","profile":"car","distance":"5748.541","time":"1225.275"}},{"Shape":185,"Attributes":{"name":"Abelenstraat","highway":"unclassified","profile":"car","distance":"5764.008","time":"1226.76"}},{"Shape":186,"Attributes":{"name":"Abelenstraat","highway":"unclassified","profile":"car","distance":"5779.475","time":"1228.245"}},{"Shape":188,"Attributes":{"name":"De Olmen","highway":"unclassified","profile":"car","distance":"5866.075","time":"1236.558"}},{"Shape":189,"Attributes":{"name":"De Olmen","highway":"unclassified","profile":"car","distance":"5982.075","time":"1247.694"}},{"Shape":190,"Attributes":{"name":"Esdoornstraat","highway":"unclassified","profile":"car","distance":"6000.575","time":"1249.47"}},{"Shape":191,"Attributes":{"name":"Esdoornstraat","highway":"unclassified","profile":"car","distance":"6031.075","time":"1252.398"}},{"Shape":192,"Attributes":{"name":"De Wingerd","highway":"unclassified","profile":"car","distance":"6042.972","time":"1253.541"}},{"Shape":193,"Attributes":{"name":"De Wingerd","highway":"unclassified","profile":"car","distance":"6054.869","time":"1254.683"}},{"Shape":194,"Attributes":{"name":"Esdoornstraat","highway":"unclassified","profile":"car","distance":"6085.369","time":"1257.611"}},{"Shape":195,"Attributes":{"name":"Esdoornstraat","highway":"unclassified","profile":"car","distance":"6103.869","time":"1259.387"}},{"Shape":196,"Attributes":{"name":"De Olmen","highway":"unclassified","profile":"car","distance":"6219.869","time":"1270.523"}},{"Shape":197,"Attributes":{"name":"Kastanjestraat","highway":"unclassified","profile":"car","distance":"6289.069","time":"1277.166"}},{"Shape":198,"Attributes":{"name":"Kastanjestraat","highway":"unclassified","profile":"car","distance":"6306.943","time":"1278.882"}},{"Shape":199,"Attributes":{"name":"Kastanjestraat","highway":"unclassified","profile":"car","distance":"6357.568","time":"1283.742"}},{"Shape":200,"Attributes":{"name":"Kastanjestraat","highway":"unclassified","profile":"car","distance":"6419.668","time":"1289.704"}},{"Shape":201,"Attributes":{"name":"Essenstraat","highway":"unclassified","profile":"car","distance":"6476.968","time":"1295.204"}},{"Shape":202,"Attributes":{"name":"Essenstraat","highway":"unclassified","profile":"car","distance":"6519.416","time":"1299.279"}},{"Shape":203,"Attributes":{"name":"Essenstraat","highway":"unclassified","profile":"car","distance":"6561.864","time":"1303.354"}},{"Shape":204,"Attributes":{"name":"Essenstraat","highway":"unclassified","profile":"car","distance":"6619.164","time":"1308.855"}},{"Shape":205,"Attributes":{"name":"Kastanjestraat","highway":"unclassified","profile":"car","distance":"6681.164","time":"1314.807"}},{"Shape":206,"Attributes":{"name":"Beukenlaan","highway":"unclassified","profile":"car","distance":"6682.436","time":"1314.929"}},{"Shape":207,"Attributes":{"name":"Beukenlaan","highway":"unclassified","profile":"car","distance":"6883.464","time":"1334.228"}},{"Shape":208,"Attributes":{"name":"Eikenlaan","highway":"unclassified","maxspeed":"50","profile":"car","distance":"6977.664","time":"1343.271"}},{"Shape":211,"Attributes":{"name":"Larixstraat","highway":"living_street","profile":"car","distance":"7011.064","time":"1375.335"}},{"Shape":214,"Attributes":{"name":"Larixstraat","highway":"living_street","profile":"car","distance":"7041.109","time":"1404.178"}},{"Shape":217,"Attributes":{"name":"Larixstraat","highway":"living_street","profile":"car","distance":"7071.153","time":"1433.021"}},{"Shape":220,"Attributes":{"name":"Larixstraat","highway":"living_street","profile":"car","distance":"7104.553","time":"1465.085"}},{"Shape":221,"Attributes":{"name":"Eikenlaan","highway":"unclassified","maxspeed":"50","profile":"car","distance":"7197.753","time":"1474.032"}},{"Shape":222,"Attributes":{"name":"Goudenregenplein","highway":"living_street","profile":"car","distance":"7203.278","time":"1479.335"}},{"Shape":227,"Attributes":{"name":"Goudenregenplein","highway":"living_street","profile":"car","distance":"7336.242","time":"1606.98"}},{"Shape":232,"Attributes":{"name":"Goudenregenplein","highway":"living_street","profile":"car","distance":"7474.731","time":"1739.929"}},{"Shape":233,"Attributes":{"name":"Eikenlaan","highway":"unclassified","maxspeed":"50","profile":"car","distance":"7567.931","time":"1748.876"}},{"Shape":234,"Attributes":{"name":"Eikenlaan","highway":"unclassified","maxspeed":"50","profile":"car","distance":"7662.131","time":"1757.919"}},{"Shape":235,"Attributes":{"name":"Eikenlaan","highway":"unclassified","maxspeed":"50","profile":"car","distance":"7668.631","time":"1758.543"}},{"Shape":236,"Attributes":{"name":"Eikenlaan","highway":"service","maxspeed":"50","profile":"car","distance":"7706.631","time":"1762.191"}},{"Shape":237,"Attributes":{"name":"Eikenlaan","highway":"unclassified","maxspeed":"50","profile":"car","distance":"7728.231","time":"1764.265"}},{"Shape":238,"Attributes":{"name":"Eikenlaan","highway":"unclassified","maxspeed":"50","profile":"car","distance":"7789.431","time":"1770.14"}},{"Shape":241,"Attributes":{"name":"Eikenlaan","highway":"unclassified","maxspeed":"50","profile":"car","distance":"7895.531","time":"1780.326"}},{"Shape":243,"Attributes":{"name":"Cederstraat","highway":"unclassified","profile":"car","distance":"7923.731","time":"1783.033"}},{"Shape":246,"Attributes":{"name":"Cederstraat","highway":"unclassified","profile":"car","distance":"7973.359","time":"1787.797"}},{"Shape":249,"Attributes":{"name":"Cederstraat","highway":"unclassified","profile":"car","distance":"8022.987","time":"1792.561"}},{"Shape":251,"Attributes":{"name":"Cederstraat","highway":"unclassified","profile":"car","distance":"8051.187","time":"1795.269"}},{"Shape":254,"Attributes":{"name":"Eikenlaan","highway":"unclassified","maxspeed":"50","profile":"car","distance":"8157.287","time":"1805.454"}},{"Shape":255,"Attributes":{"name":"Lindenstraat","highway":"unclassified","profile":"car","distance":"8247.992","time":"1814.162"}},{"Shape":256,"Attributes":{"name":"Lindenstraat","highway":"unclassified","profile":"car","distance":"8338.697","time":"1822.87"}},{"Shape":257,"Attributes":{"name":"Eikenlaan","highway":"unclassified","maxspeed":"50","profile":"car","distance":"8355.442","time":"1824.477"}},{"Shape":260,"Attributes":{"name":"Eikenlaan","highway":"unclassified","maxspeed":"50","profile":"car","distance":"8444.797","time":"1833.055"}},{"Shape":261,"Attributes":{"name":"Eikenlaan","highway":"unclassified","maxspeed":"50","profile":"car","distance":"8459.598","time":"1834.476"}},{"Shape":262,"Attributes":{"name":"Ahornstraat","highway":"unclassified","profile":"car","distance":"8552.997","time":"1843.442"}},{"Shape":263,"Attributes":{"name":"Berkenstraat","highway":"unclassified","profile":"car","distance":"8593.598","time":"1847.34"}},{"Shape":264,"Attributes":{"name":"Prunusstraat","highway":"unclassified","profile":"car","distance":"8710.098","time":"1858.524"}},{"Shape":265,"Attributes":{"name":"Wilgenstraat","highway":"unclassified","profile":"car","distance":"8721.563","time":"1859.625"}},{"Shape":266,"Attributes":{"name":"Wilgenstraat","highway":"unclassified","profile":"car","distance":"8800.197","time":"1867.174"}},{"Shape":269,"Attributes":{"name":"Populierenstraat","highway":"unclassified","profile":"car","distance":"8918.098","time":"1878.492"}},{"Shape":270,"Attributes":{"name":"Populierenstraat","highway":"unclassified","profile":"car","distance":"8925.723","time":"1879.224"}},{"Shape":271,"Attributes":{"name":"Populierenstraat","highway":"unclassified","profile":"car","distance":"8980.798","time":"1884.511"}},{"Shape":272,"Attributes":{"name":"Populierenstraat","highway":"unclassified","profile":"car","distance":"9011.298","time":"1887.439"}},{"Shape":273,"Attributes":{"name":"Eikenlaan","highway":"unclassified","maxspeed":"50","profile":"car","distance":"9100.897","time":"1896.041"}},{"Shape":275,"Attributes":{"name":"Iepenlaan","highway":"unclassified","profile":"car","distance":"9138.098","time":"1899.612"}},{"Shape":277,"Attributes":{"name":"Iepenlaan","highway":"service","profile":"car","distance":"9159.391","time":"1903.019"}},{"Shape":279,"Attributes":{"name":"Iepenlaan","highway":"service","profile":"car","distance":"9180.685","time":"1906.426"}},{"Shape":281,"Attributes":{"name":"Iepenlaan","highway":"unclassified","profile":"car","distance":"9217.884","time":"1909.997"}},{"Shape":283,"Attributes":{"name":"Eikenlaan","highway":"unclassified","maxspeed":"50","profile":"car","distance":"9302.084","time":"1918.08"}},{"Shape":285,"Attributes":{"name":"Schenkelweg","maxspeed":"50","oneway":"yes","highway":"secondary","profile":"car","distance":"9401.484","time":"1927.623"}},{"Shape":286,"Attributes":{"name":"Maaswijkweg","maxspeed":"50","highway":"tertiary","oneway":"yes","profile":"car","distance":"9421.685","time":"1929.562"}},{"Shape":288,"Attributes":{"name":"Maaswijkweg","maxspeed":"50","highway":"tertiary","oneway":"yes","profile":"car","distance":"9477.284","time":"1934.9"}},{"Shape":289,"Attributes":{"name":"Maaswijkweg","maxspeed":"50","highway":"tertiary","oneway":"yes","profile":"car","distance":"9529.185","time":"1939.882"}},{"Shape":290,"Attributes":{"name":"Maaswijkweg","maxspeed":"50","highway":"tertiary","oneway":"yes","profile":"car","distance":"9597.284","time":"1946.42"}},{"Shape":291,"Attributes":{"name":"Maaswijkweg","maxspeed":"50","highway":"tertiary","oneway":"yes","profile":"car","distance":"9678.984","time":"1954.263"}},{"Shape":296,"Attributes":{"name":"Maaswijkweg","maxspeed":"50","highway":"tertiary","oneway":"yes","profile":"car","distance":"9769.384","time":"1962.941"}},{"Shape":299,"Attributes":{"name":"Maaswijkweg","maxspeed":"50","highway":"tertiary","junction":"roundabout","profile":"car","distance":"9784.984","time":"1964.439"}},{"Shape":300,"Attributes":{"highway":"unclassified","oneway":"yes","profile":"car","distance":"9802.284","time":"1966.1"}},{"Shape":301,"Attributes":{"name":"Hürthstraat","highway":"living_street","profile":"car","distance":"9814.584","time":"1977.908"}},{"Shape":302,"Attributes":{"name":"Hürthstraat","highway":"living_street","profile":"car","distance":"9831.784","time":"1994.42"}},{"Shape":304,"Attributes":{"name":"Hürthstraat","highway":"living_street","profile":"car","distance":"9863.584","time":"2024.948"}},{"Shape":305,"Attributes":{"name":"Hürthstraat","highway":"living_street","profile":"car","distance":"9884.984","time":"2045.492"}},{"Shape":310,"Attributes":{"name":"Hürthstraat","highway":"living_street","profile":"car","distance":"9917.206","time":"2076.425"}},{"Shape":315,"Attributes":{"name":"Hürthstraat","highway":"living_street","profile":"car","distance":"9949.428","time":"2107.358"}},{"Shape":316,"Attributes":{"name":"Hürthstraat","highway":"living_street","profile":"car","distance":"9970.828","time":"2127.902"}},{"Shape":318,"Attributes":{"name":"Hürthstraat","highway":"living_street","profile":"car","distance":"10002.63","time":"2158.43"}},{"Shape":319,"Attributes":{"name":"Hürthstraat","highway":"living_street","profile":"car","distance":"10019.83","time":"2174.942"}},{"Shape":320,"Attributes":{"name":"Hürthstraat","highway":"living_street","profile":"car","distance":"10032.13","time":"2186.75"}},{"Shape":321,"Attributes":{"name":"Hürthstraat","highway":"unclassified","oneway":"yes","profile":"car","distance":"10050.93","time":"2188.555"}},{"Shape":323,"Attributes":{"name":"Maaswijkweg","maxspeed":"50","highway":"tertiary","junction":"roundabout","profile":"car","distance":"10058.53","time":"2189.285"}},{"Shape":327,"Attributes":{"name":"Maaswijkweg","maxspeed":"50","highway":"tertiary","junction":"roundabout","profile":"car","distance":"10083.53","time":"2191.685"}},{"Shape":330,"Attributes":{"name":"Maaswijkweg","maxspeed":"50","highway":"tertiary","junction":"roundabout","profile":"car","distance":"10098.93","time":"2193.163"}},{"Shape":332,"Attributes":{"name":"Maaswijkweg","maxspeed":"50","highway":"tertiary","junction":"roundabout","profile":"car","distance":"10112.93","time":"2194.507"}},{"Shape":334,"Attributes":{"name":"Maaswijkweg","maxspeed":"50","highway":"tertiary","junction":"roundabout","profile":"car","distance":"10120.63","time":"2195.246"}},{"Shape":338,"Attributes":{"name":"Maaswijkweg","maxspeed":"50","highway":"tertiary","oneway":"yes","profile":"car","distance":"10216.93","time":"2204.491"}},{"Shape":341,"Attributes":{"name":"Maaswijkweg","maxspeed":"50","highway":"tertiary","oneway":"yes","profile":"car","distance":"10301.23","time":"2212.584"}},{"Shape":343,"Attributes":{"name":"Maaswijkweg","maxspeed":"50","highway":"tertiary","oneway":"yes","profile":"car","distance":"10370.33","time":"2219.217"}},{"Shape":344,"Attributes":{"name":"Maaswijkweg","maxspeed":"50","highway":"tertiary","oneway":"yes","profile":"car","distance":"10420.23","time":"2224.008"}},{"Shape":347,"Attributes":{"name":"Maaswijkweg","maxspeed":"50","highway":"tertiary","oneway":"yes","profile":"car","distance":"10476.03","time":"2229.365"}},{"Shape":348,"Attributes":{"name":"Schenkelweg","maxspeed":"50","oneway":"yes","highway":"secondary","profile":"car","distance":"10569.53","time":"2238.341"}},{"Shape":349,"Attributes":{"name":"Eikenlaan","highway":"unclassified","maxspeed":"50","profile":"car","distance":"10587.03","time":"2240.021"}},{"Shape":351,"Attributes":{"name":"Eikenlaan","highway":"unclassified","maxspeed":"50","profile":"car","distance":"10671.23","time":"2248.104"}},{"Shape":353,"Attributes":{"name":"Iepenlaan","highway":"unclassified","profile":"car","distance":"10749.43","time":"2255.611"}},{"Shape":354,"Attributes":{"name":"Iepenlaan","highway":"unclassified","profile":"car","distance":"10760.49","time":"2256.673"}},{"Shape":355,"Attributes":{"name":"Iepenlaan","highway":"unclassified","profile":"car","distance":"10841.33","time":"2264.433"}},{"Shape":356,"Attributes":{"name":"Iepenlaan","highway":"unclassified","profile":"car","distance":"10969.94","time":"2276.781"}},{"Shape":357,"Attributes":{"name":"Iepenlaan","highway":"unclassified","profile":"car","distance":"10980.13","time":"2277.759"}},{"Shape":358,"Attributes":{"name":"Hazelaarstraat","highway":"unclassified","profile":"car","distance":"11064.13","time":"2285.823"}},{"Shape":359,"Attributes":{"name":"Hazelaarstraat","highway":"unclassified","profile":"car","distance":"11097.23","time":"2289"}},{"Shape":360,"Attributes":{"name":"Hazelaarstraat","highway":"unclassified","profile":"car","distance":"11133.23","time":"2292.456"}},{"Shape":361,"Attributes":{"name":"Hazelaarstraat","highway":"unclassified","profile":"car","distance":"11158.7","time":"2294.902"}},{"Shape":363,"Attributes":{"name":"Hazelaarstraat","highway":"unclassified","profile":"car","distance":"11204.62","time":"2299.311"}},{"Shape":364,"Attributes":{"name":"Hazelaarstraat","highway":"unclassified","profile":"car","distance":"11220.72","time":"2300.856"}},{"Shape":365,"Attributes":{"name":"Hazelaarstraat","highway":"unclassified","profile":"car","distance":"11272.22","time":"2305.8"}},{"Shape":366,"Attributes":{"name":"Hazelaarstraat","highway":"unclassified","profile":"car","distance":"11281.82","time":"2306.722"}},{"Shape":367,"Attributes":{"name":"Hazelaarstraat","highway":"unclassified","profile":"car","distance":"11290.12","time":"2307.519"}},{"Shape":368,"Attributes":{"name":"Hazelaarstraat","highway":"unclassified","profile":"car","distance":"11367.92","time":"2314.988"}},{"Shape":369,"Attributes":{"name":"Hazelaarstraat","highway":"unclassified","profile":"car","distance":"11369.08","time":"2315.098"}},{"Shape":370,"Attributes":{"name":"Hazelaarstraat","highway":"unclassified","profile":"car","distance":"11383.33","time":"2316.466"}},{"Shape":371,"Attributes":{"name":"Beukenlaan","highway":"unclassified","profile":"car","distance":"11398.63","time":"2317.934"}},{"Shape":372,"Attributes":{"name":"Beukenlaan","highway":"unclassified","profile":"car","distance":"11425.33","time":"2320.498"}},{"Shape":373,"Attributes":{"highway":"unclassified","oneway":"yes","profile":"car","distance":"11470.33","time":"2324.818"}},{"Shape":376,"Attributes":{"name":"Heemraadlaan","junction":"roundabout","highway":"secondary","profile":"car","distance":"11488.63","time":"2326.073"}},{"Shape":379,"Attributes":{"name":"Heemraadlaan","junction":"roundabout","highway":"secondary","profile":"car","distance":"11500.43","time":"2326.882"}},{"Shape":382,"Attributes":{"name":"Heemraadlaan","junction":"roundabout","highway":"secondary","profile":"car","distance":"11514.53","time":"2327.848"}},{"Shape":384,"Attributes":{"highway":"residential","oneway":"yes","profile":"car","distance":"11557.13","time":"2331.938"}},{"Shape":385,"Attributes":{"name":"De Waarsman","highway":"residential","profile":"car","distance":"11719.53","time":"2347.528"}},{"Shape":387,"Attributes":{"name":"De Landmeter","highway":"unclassified","maxspeed":"30","profile":"car","distance":"11820.93","time":"2363.752"}},{"Shape":390,"Attributes":{"name":"Kikkerveen","highway":"residential","profile":"car","distance":"11900.46","time":"2371.387"}},{"Shape":393,"Attributes":{"name":"Kikkerveen","highway":"residential","profile":"car","distance":"11979.99","time":"2379.022"}},{"Shape":394,"Attributes":{"name":"Beverveen","highway":"unclassified","profile":"car","distance":"12046.19","time":"2385.377"}},{"Shape":396,"Attributes":{"name":"Beverveen","highway":"unclassified","profile":"car","distance":"12089.7","time":"2389.554"}},{"Shape":398,"Attributes":{"name":"Beverveen","highway":"unclassified","profile":"car","distance":"12133.21","time":"2393.73"}},{"Shape":401,"Attributes":{"name":"Beverveen","highway":"unclassified","profile":"car","distance":"12220.21","time":"2402.083"}},{"Shape":403,"Attributes":{"name":"Beverveen","highway":"unclassified","profile":"car","distance":"12287.81","time":"2408.572"}},{"Shape":404,"Attributes":{"name":"Beverveen","highway":"unclassified","profile":"car","distance":"12303.31","time":"2410.06"}},{"Shape":405,"Attributes":{"highway":"residential","profile":"car","distance":"12304.91","time":"2410.214"}},{"Shape":406,"Attributes":{"highway":"residential","profile":"car","distance":"12306.51","time":"2410.367"}},{"Shape":407,"Attributes":{"name":"Beverveen","highway":"unclassified","profile":"car","distance":"12365.11","time":"2415.993"}},{"Shape":409,"Attributes":{"name":"Beverveen","highway":"unclassified","profile":"car","distance":"12383.71","time":"2417.779"}},{"Shape":415,"Attributes":{"name":"Beverveen","highway":"unclassified","profile":"car","distance":"12606.81","time":"2439.196"}},{"Shape":419,"Attributes":{"name":"Beverveen","highway":"unclassified","profile":"car","distance":"12790.41","time":"2456.822"}},{"Shape":421,"Attributes":{"name":"Beverveen","highway":"unclassified","profile":"car","distance":"12825.21","time":"2460.163"}},{"Shape":426,"Attributes":{"name":"Beverveen","highway":"unclassified","profile":"car","distance":"12956.91","time":"2472.806"}},{"Shape":427,"Attributes":{"name":"Beverveen","highway":"unclassified","profile":"car","distance":"12975.61","time":"2474.601"}},{"Shape":429,"Attributes":{"name":"De Schouw","highway":"unclassified","maxspeed":"30","profile":"car","distance":"13016.61","time":"2481.161"}},{"Shape":432,"Attributes":{"name":"De Schouw","highway":"tertiary","profile":"car","distance":"13079.61","time":"2485.481"}},{"Shape":435,"Attributes":{"name":"De Schouw","maxspeed":"50","highway":"tertiary","oneway":"yes","profile":"car","distance":"13124.21","time":"2489.763"}},{"Shape":436,"Attributes":{"name":"Gaard","maxspeed":"50","highway":"tertiary","oneway":"yes","profile":"car","distance":"13134.51","time":"2490.751"}},{"Shape":437,"Attributes":{"name":"Hekelingseweg","maxspeed":"50","oneway":"yes","highway":"secondary","profile":"car","distance":"13142.81","time":"2491.548"}},{"Shape":440,"Attributes":{"name":"Hekelingseweg","maxspeed":"50","oneway":"yes","highway":"secondary","profile":"car","distance":"13259.91","time":"2502.79"}},{"Shape":442,"Attributes":{"name":"Hekelingseweg","maxspeed":"50","highway":"secondary","profile":"car","distance":"13379.71","time":"2514.291"}},{"Shape":445,"Attributes":{"name":"Hekelingseweg","maxspeed":"50","highway":"secondary","profile":"car","distance":"13488.21","time":"2524.707"}},{"Shape":446,"Attributes":{"name":"Meeldijk","highway":"unclassified","maxspeed":"50","profile":"car","distance":"13503.51","time":"2526.176"}},{"Shape":448,"Attributes":{"name":"Meeldijk","highway":"unclassified","maxspeed":"50","profile":"car","distance":"13528.71","time":"2528.595"}},{"Shape":451,"Attributes":{"name":"Meeldijk","highway":"unclassified","maxspeed":"30","profile":"car","distance":"13556.21","time":"2532.995"}},{"Shape":452,"Attributes":{"name":"Meeldijk","highway":"unclassified","maxspeed":"30","profile":"car","distance":"13640.11","time":"2546.419"}},{"Shape":453,"Attributes":{"name":"Meeldijk","highway":"unclassified","maxspeed":"30","profile":"car","distance":"13659.11","time":"2549.459"}},{"Shape":457,"Attributes":{"name":"Meeldijk","highway":"unclassified","maxspeed":"30","profile":"car","distance":"13882.81","time":"2585.251"}},{"Shape":461,"Attributes":{"name":"Meeldijk","highway":"unclassified","maxspeed":"30","profile":"car","distance":"14041.61","time":"2610.659"}},{"Shape":464,"Attributes":{"name":"Meeldijk","highway":"unclassified","maxspeed":"30","profile":"car","distance":"14101.11","time":"2620.179"}},{"Shape":465,"Attributes":{"name":"Achterweg","highway":"unclassified","profile":"car","distance":"14122.61","time":"2622.243"}},{"Shape":468,"Attributes":{"name":"Achterweg","highway":"unclassified","profile":"car","distance":"14182.01","time":"2627.945"}},{"Shape":471,"Attributes":{"name":"Achterweg","highway":"unclassified","profile":"car","distance":"14207.11","time":"2630.355"}},{"Shape":472,"Attributes":{"highway":"living_street","profile":"car","distance":"14216.63","time":"2639.497"}},{"Shape":473,"Attributes":{"highway":"living_street","profile":"car","distance":"14226.15","time":"2648.64"}},{"Shape":476,"Attributes":{"name":"Achterweg","highway":"unclassified","profile":"car","distance":"14251.25","time":"2651.049"}},{"Shape":479,"Attributes":{"name":"Achterweg","highway":"unclassified","profile":"car","distance":"14310.65","time":"2656.751"}},{"Shape":480,"Attributes":{"name":"Smidsweg","highway":"unclassified","profile":"car","distance":"14358.45","time":"2661.34"}},{"Shape":481,"Attributes":{"name":"Emmalaan","highway":"living_street","profile":"car","distance":"14376.5","time":"2678.665"}},{"Shape":483,"Attributes":{"name":"Emmalaan","highway":"living_street","profile":"car","distance":"14524.34","time":"2820.591"}},{"Shape":485,"Attributes":{"name":"Emmalaan","highway":"living_street","profile":"car","distance":"14690.23","time":"2979.842"}},{"Shape":486,"Attributes":{"name":"Smidsweg","highway":"unclassified","profile":"car","distance":"14738.03","time":"2984.43"}},{"Shape":489,"Attributes":{"name":"Achterweg","highway":"unclassified","profile":"car","distance":"14797.43","time":"2990.133"}},{"Shape":492,"Attributes":{"name":"Achterweg","highway":"unclassified","profile":"car","distance":"14822.53","time":"2992.542"}},{"Shape":495,"Attributes":{"name":"Achterweg","highway":"unclassified","profile":"car","distance":"14997.23","time":"3009.313"}},{"Shape":496,"Attributes":{"name":"Achterweg","highway":"residential","profile":"car","distance":"15033.83","time":"3012.827"}},{"Shape":498,"Attributes":{"name":"Dorpsstraat","highway":"residential","maxspeed":"30","profile":"car","distance":"15119.13","time":"3026.475"}},{"Shape":500,"Attributes":{"name":"L de Raatlaan","highway":"residential","maxspeed":"30","profile":"car","distance":"15137","time":"3029.336"}}],"Stops":[{"Shape":0,"Coordinates":[4.34678,51.82622],"Attributes":{"index":"330","distance":"0","time":"0"}},{"Shape":5,"Coordinates":[4.34836,51.82544],"Attributes":{"index":"329","distance":"211.7415","time":"31.60531"}},{"Shape":14,"Coordinates":[4.344368,51.82638],"Attributes":{"index":"331","distance":"640.7201","time":"262.8947"}},{"Shape":21,"Coordinates":[4.342639,51.82403],"Attributes":{"index":"326","distance":"1045.937","time":"492.6557"}},{"Shape":26,"Coordinates":[4.344584,51.82447],"Attributes":{"index":"327","distance":"1186.503","time":"515.1462"}},{"Shape":30,"Coordinates":[4.346139,51.82478],"Attributes":{"index":"328","distance":"1312.305","time":"535.2745"}},{"Shape":50,"Coordinates":[4.340611,51.82544],"Attributes":{"index":"325","distance":"1960.642","time":"723.79"}},{"Shape":86,"Coordinates":[4.331917,51.82372],"Attributes":{"index":"324","distance":"2764.306","time":"926.7494"}},{"Shape":185,"Coordinates":[4.333583,51.83933],"Attributes":{"index":"52","distance":"5764.008","time":"1226.76"}},{"Shape":192,"Coordinates":[4.332833,51.84122],"Attributes":{"index":"181","distance":"6042.972","time":"1253.541"}},{"Shape":198,"Coordinates":[4.334861,51.84025],"Attributes":{"index":"53","distance":"6306.943","time":"1278.882"}},{"Shape":202,"Coordinates":[4.336333,51.84114],"Attributes":{"index":"54","distance":"6519.416","time":"1299.279"}},{"Shape":206,"Coordinates":[4.337517,51.84032],"Attributes":{"index":"55","distance":"6682.436","time":"1314.929"}},{"Shape":214,"Coordinates":[4.336473,51.84226],"Attributes":{"index":"182","distance":"7041.109","time":"1404.178"}},{"Shape":222,"Coordinates":[4.334539,51.84207],"Attributes":{"index":"50","distance":"7203.278","time":"1479.335"}},{"Shape":227,"Coordinates":[4.333399,51.84276],"Attributes":{"index":"51","distance":"7336.242","time":"1606.98"}},{"Shape":246,"Coordinates":[4.3415,51.8425],"Attributes":{"index":"56","distance":"7973.359","time":"1787.797"}},{"Shape":255,"Coordinates":[4.338827,51.84141],"Attributes":{"index":"58","distance":"8247.992","time":"1814.162"}},{"Shape":257,"Coordinates":[4.339284,51.84232],"Attributes":{"index":"57","distance":"8355.442","time":"1824.477"}},{"Shape":265,"Coordinates":[4.340583,51.84036],"Attributes":{"index":"59","distance":"8721.563","time":"1859.625"}},{"Shape":270,"Coordinates":[4.341639,51.84156],"Attributes":{"index":"60","distance":"8925.723","time":"1879.224"}},{"Shape":277,"Coordinates":[4.343056,51.84283],"Attributes":{"index":"61","distance":"9159.391","time":"1903.019"}},{"Shape":310,"Coordinates":[4.349341,51.84015],"Attributes":{"index":"111","distance":"9917.206","time":"2076.425"}},{"Shape":354,"Coordinates":[4.343278,51.84158],"Attributes":{"index":"62","distance":"10760.49","time":"2256.673"}},{"Shape":356,"Coordinates":[4.3435,51.83969],"Attributes":{"index":"63","distance":"10969.94","time":"2276.781"}},{"Shape":361,"Coordinates":[4.340806,51.8395],"Attributes":{"index":"64","distance":"11158.7","time":"2294.902"}},{"Shape":369,"Coordinates":[4.33775,51.83939],"Attributes":{"index":"65","distance":"11369.08","time":"2315.098"}},{"Shape":390,"Coordinates":[4.336583,51.83556],"Attributes":{"index":"183","distance":"11900.46","time":"2371.387"}},{"Shape":396,"Coordinates":[4.33672,51.83697],"Attributes":{"index":"184","distance":"12089.7","time":"2389.554"}},{"Shape":405,"Coordinates":[4.334083,51.83703],"Attributes":{"index":"210","distance":"12304.91","time":"2410.214"}},{"Shape":472,"Coordinates":[4.342834,51.82692],"Attributes":{"index":"332","distance":"14216.63","time":"2639.497"}},{"Shape":481,"Coordinates":[4.34206,51.82628],"Attributes":{"index":"333","distance":"14376.5","time":"2678.665"}},{"Shape":483,"Coordinates":[4.342778,51.82503],"Attributes":{"index":"334","distance":"14524.34","time":"2820.591"}},{"Shape":500,"Coordinates":[4.34678,51.82622],"Attributes":{"index":"330","distance":"15137","time":"3029.336"}}],"Branches":[{"Shape":1,"Coordinates":[4.345762,51.82548],"Attributes":{"name":"Voorde","maxspeed":"30","highway":"living_street"}},{"Shape":2,"Coordinates":[4.346587,51.82507],"Attributes":{"name":"Lede","highway":"residential","maxspeed":"30"}},{"Shape":3,"Coordinates":[4.347569,51.82576],"Attributes":{"name":"Zwaag","highway":"living_street"}},{"Shape":4,"Coordinates":[4.348474,51.82539],"Attributes":{"name":"Kors Monsterstraat","highway":"residential"}},{"Shape":7,"Coordinates":[4.347569,51.82576],"Attributes":{"name":"Zwaag","highway":"living_street"}},{"Shape":8,"Coordinates":[4.346753,51.8257],"Attributes":{"name":"L de Raatlaan","highway":"residential","maxspeed":"30"}},{"Shape":10,"Coordinates":[4.346221,51.82478],"Attributes":{"name":"Kluivertweg","maxspeed":"30","highway":"living_street"}},{"Shape":10,"Coordinates":[4.345762,51.82548],"Attributes":{"name":"Kluivertweg","highway":"living_street"}},{"Shape":12,"Coordinates":[4.344522,51.82442],"Attributes":{"name":"Lede","highway":"residential","maxspeed":"30"}},{"Shape":12,"Coordinates":[4.344509,51.82603],"Attributes":{"name":"Schoollaan","highway":"living_street"}},{"Shape":12,"Coordinates":[4.346452,51.82275],"Attributes":{"name":"Kaatje Mollaan","highway":"residential"}},{"Shape":16,"Coordinates":[4.345696,51.82476],"Attributes":{"name":"Lede","highway":"residential","maxspeed":"30"}},{"Shape":16,"Coordinates":[4.346452,51.82275],"Attributes":{"name":"Kaatje Mollaan","highway":"residential"}},{"Shape":17,"Coordinates":[4.344155,51.82509],"Attributes":{"name":"Tuinpad","highway":"living_street"}},{"Shape":18,"Coordinates":[4.343527,51.82401],"Attributes":{"name":"Lede","highway":"residential"}},{"Shape":19,"Coordinates":[4.34261,51.82515],"Attributes":{"name":"Emmalaan","highway":"living_street"}},{"Shape":20,"Coordinates":[4.342987,51.82362],"Attributes":{"name":"Lede","highway":"living_street"}},{"Shape":20,"Coordinates":[4.342392,51.82404],"Attributes":{"name":"Lede","highway":"residential","maxspeed":"30"}},{"Shape":22,"Coordinates":[4.342987,51.82362],"Attributes":{"name":"Lede","highway":"living_street"}},{"Shape":23,"Coordinates":[4.34261,51.82515],"Attributes":{"name":"Emmalaan","highway":"living_street"}},{"Shape":24,"Coordinates":[4.343527,51.82401],"Attributes":{"name":"Lede","highway":"residential"}},{"Shape":25,"Coordinates":[4.345376,51.82465],"Attributes":{"name":"Lede","highway":"residential","maxspeed":"30"}},{"Shape":25,"Coordinates":[4.344155,51.82509],"Attributes":{"name":"Tuinpad","highway":"living_street"}},{"Shape":27,"Coordinates":[4.344509,51.82603],"Attributes":{"name":"Schoollaan","highway":"living_street"}},{"Shape":27,"Coordinates":[4.346452,51.82275],"Attributes":{"name":"Kaatje Mollaan","highway":"residential"}},{"Shape":29,"Coordinates":[4.346587,51.82507],"Attributes":{"name":"Lede","highway":"residential","maxspeed":"30"}},{"Shape":29,"Coordinates":[4.346221,51.82478],"Attributes":{"name":"Kluivertweg","maxspeed":"30","highway":"living_street"}},{"Shape":29,"Coordinates":[4.345762,51.82548],"Attributes":{"name":"Kluivertweg","highway":"living_street"}},{"Shape":31,"Coordinates":[4.346587,51.82507],"Attributes":{"name":"Lede","highway":"residential","maxspeed":"30"}},{"Shape":31,"Coordinates":[4.345762,51.82548],"Attributes":{"name":"Kluivertweg","highway":"living_street"}},{"Shape":33,"Coordinates":[4.344509,51.82603],"Attributes":{"name":"Schoollaan","highway":"living_street"}},{"Shape":33,"Coordinates":[4.346452,51.82275],"Attributes":{"name":"Kaatje Mollaan","highway":"residential"}},{"Shape":34,"Coordinates":[4.344155,51.82509],"Attributes":{"name":"Tuinpad","highway":"living_street"}},{"Shape":35,"Coordinates":[4.343527,51.82401],"Attributes":{"name":"Lede","highway":"residential"}},{"Shape":36,"Coordinates":[4.34261,51.82515],"Attributes":{"name":"Emmalaan","highway":"living_street"}},{"Shape":37,"Coordinates":[4.342987,51.82362],"Attributes":{"name":"Lede","highway":"living_street"}},{"Shape":38,"Coordinates":[4.341794,51.82514],"Attributes":{"name":"Jan Hoogstadlaan","highway":"living_street"}},{"Shape":39,"Coordinates":[4.342379,51.82346],"Attributes":{"name":"Lede","highway":"living_street"}},{"Shape":40,"Coordinates":[4.341437,51.82423],"Attributes":{"name":"Zwette","highway":"living_street"}},{"Shape":45,"Coordinates":[4.339011,51.82504],"Attributes":{"name":"Groede","highway":"unclassified","maxspeed":"30"}},{"Shape":49,"Coordinates":[4.340766,51.82544],"Attributes":{"name":"Schare","highway":"living_street"}},{"Shape":49,"Coordinates":[4.340343,51.82568],"Attributes":{"highway":"living_street"}},{"Shape":51,"Coordinates":[4.340343,51.82568],"Attributes":{"highway":"living_street"}},{"Shape":55,"Coordinates":[4.340723,51.82417],"Attributes":{"name":"Groede","highway":"unclassified","maxspeed":"30"}},{"Shape":56,"Coordinates":[4.338839,51.82524],"Attributes":{"name":"Groede","highway":"residential"}},{"Shape":58,"Coordinates":[4.338193,51.82534],"Attributes":{"name":"Dorpsstraat","highway":"residential","maxspeed":"30"}},{"Shape":60,"Coordinates":[4.336764,51.82473],"Attributes":{"name":"Dorpsstraat","highway":"service"}},{"Shape":63,"Coordinates":[4.336764,51.82473],"Attributes":{"name":"Dorpsstraat","highway":"service"}},{"Shape":68,"Coordinates":[4.336315,51.82386],"Attributes":{"name":"Hekelingseweg","junction":"roundabout","maxspeed":"80","highway":"secondary"}},{"Shape":71,"Coordinates":[4.336068,51.82415],"Attributes":{"name":"Hekelingseweg","maxspeed":"50","highway":"secondary"}},{"Shape":75,"Coordinates":[4.33609,51.82385],"Attributes":{"name":"Hekelingseweg","junction":"roundabout","maxspeed":"80","highway":"secondary"}},{"Shape":77,"Coordinates":[4.325887,51.82326],"Attributes":{"name":"Westdijk","maxspeed":"80","highway":"secondary"}},{"Shape":80,"Coordinates":[4.333726,51.82465],"Attributes":{"name":"Wachthoevestraat","highway":"unclassified","maxspeed":"30"}},{"Shape":80,"Coordinates":[4.335528,51.82416],"Attributes":{"name":"Moleneind","highway":"unclassified","maxspeed":"30"}},{"Shape":81,"Coordinates":[4.333118,51.8239],"Attributes":{"name":"Moleneind","highway":"unclassified","maxspeed":"30"}},{"Shape":82,"Coordinates":[4.332581,51.82359],"Attributes":{"name":"Moleneind","highway":"unclassified","maxspeed":"30"}},{"Shape":85,"Coordinates":[4.331159,51.82349],"Attributes":{"name":"Visserskreek","highway":"unclassified","maxspeed":"30"}},{"Shape":85,"Coordinates":[4.33172,51.82394],"Attributes":{"name":"Visserskreek","highway":"unclassified","maxspeed":"30"}},{"Shape":87,"Coordinates":[4.331159,51.82349],"Attributes":{"name":"Visserskreek","highway":"unclassified","maxspeed":"30"}},{"Shape":90,"Coordinates":[4.332581,51.82359],"Attributes":{"name":"Moleneind","highway":"unclassified","maxspeed":"30"}},{"Shape":91,"Coordinates":[4.333118,51.8239],"Attributes":{"name":"Moleneind","highway":"unclassified","maxspeed":"30"}},{"Shape":92,"Coordinates":[4.333726,51.82465],"Attributes":{"name":"Wachthoevestraat","highway":"unclassified","maxspeed":"30"}},{"Shape":92,"Coordinates":[4.335528,51.82416],"Attributes":{"name":"Moleneind","highway":"unclassified","maxspeed":"30"}},{"Shape":95,"Coordinates":[4.325887,51.82326],"Attributes":{"name":"Westdijk","maxspeed":"80","highway":"secondary"}},{"Shape":97,"Coordinates":[4.336066,51.82405],"Attributes":{"name":"Hekelingseweg","junction":"roundabout","maxspeed":"80","highway":"secondary"}},{"Shape":100,"Coordinates":[4.336392,51.82365],"Attributes":{"name":"Hekelingseweg","maxspeed":"80","highway":"secondary"}},{"Shape":105,"Coordinates":[4.336499,51.82405],"Attributes":{"name":"Dorpsstraat","maxspeed":"30","highway":"tertiary"}},{"Shape":108,"Coordinates":[4.336066,51.82405],"Attributes":{"name":"Hekelingseweg","junction":"roundabout","maxspeed":"80","highway":"secondary"}},{"Shape":119,"Coordinates":[4.332792,51.82726],"Attributes":{"name":"Kreek","maxspeed":"50","highway":"tertiary"}},{"Shape":130,"Coordinates":[4.335257,51.83027],"Attributes":{"name":"Meeldijk","highway":"unclassified","maxspeed":"50"}},{"Shape":135,"Coordinates":[4.333855,51.83318],"Attributes":{"name":"Hekelingseweg","maxspeed":"50","oneway":"yes","highway":"secondary"}},{"Shape":138,"Coordinates":[4.334132,51.83332],"Attributes":{"name":"De Schouw","maxspeed":"50","highway":"tertiary","oneway":"yes"}},{"Shape":138,"Coordinates":[4.333804,51.83327],"Attributes":{"name":"Gaard","maxspeed":"50","highway":"tertiary","oneway":"yes"}},{"Shape":139,"Coordinates":[4.333775,51.83335],"Attributes":{"name":"Gaard","maxspeed":"50","highway":"tertiary","oneway":"yes"}},{"Shape":139,"Coordinates":[4.334476,51.83343],"Attributes":{"name":"De Schouw","maxspeed":"50","highway":"tertiary","oneway":"yes"}},{"Shape":142,"Coordinates":[4.333726,51.83347],"Attributes":{"name":"Hekelingseweg","maxspeed":"50","oneway":"yes","highway":"secondary"}},{"Shape":147,"Coordinates":[4.332054,51.83706],"Attributes":{"highway":"service"}},{"Shape":147,"Coordinates":[4.332187,51.83726],"Attributes":{"name":"Hekelingseweg","maxspeed":"50","oneway":"yes","highway":"secondary"}},{"Shape":150,"Coordinates":[4.3325,51.83808],"Attributes":{"name":"Heemraadlaan","maxspeed":"50","oneway":"yes","highway":"secondary"}},{"Shape":150,"Coordinates":[4.332065,51.83808],"Attributes":{"name":"Heemraadlaan","maxspeed":"50","oneway":"yes","highway":"secondary"}},{"Shape":151,"Coordinates":[4.33341,51.83824],"Attributes":{"name":"Heemraadlaan","maxspeed":"50","oneway":"yes","highway":"secondary"}},{"Shape":151,"Coordinates":[4.332056,51.83819],"Attributes":{"name":"Heemraadlaan","maxspeed":"50","oneway":"yes","highway":"secondary"}},{"Shape":161,"Coordinates":[4.33126,51.83929],"Attributes":{"name":"Hekelingseweg","maxspeed":"50","highway":"tertiary","oneway":"yes"}},{"Shape":162,"Coordinates":[4.331482,51.84009],"Attributes":{"highway":"service"}},{"Shape":165,"Coordinates":[4.330757,51.84163],"Attributes":{"name":"Hekelingseweg","maxspeed":"50","highway":"tertiary","oneway":"yes"}},{"Shape":168,"Coordinates":[4.330733,51.84172],"Attributes":{"name":"Planetenplein","maxspeed":"50","highway":"tertiary","oneway":"yes","junction":"roundabout"}},{"Shape":170,"Coordinates":[4.330918,51.84183],"Attributes":{"name":"Planetenplein","maxspeed":"50","highway":"tertiary","oneway":"yes","junction":"roundabout"}},{"Shape":174,"Coordinates":[4.331857,51.84188],"Attributes":{"name":"Eikenlaan","highway":"unclassified","oneway":"yes"}},{"Shape":175,"Coordinates":[4.332034,51.84192],"Attributes":{"highway":"service","motorcar":"no","maxspeed":"50","oneway":"yes"}},{"Shape":177,"Coordinates":[4.332985,51.84203],"Attributes":{"name":"Goudenregenplein","highway":"unclassified"}},{"Shape":179,"Coordinates":[4.33377,51.84198],"Attributes":{"name":"Eikenlaan","highway":"unclassified","maxspeed":"50"}},{"Shape":180,"Coordinates":[4.334425,51.84148],"Attributes":{"name":"Lijsterbesstraat","highway":"unclassified"}},{"Shape":181,"Coordinates":[4.333225,51.84113],"Attributes":{"name":"Esdoornstraat","highway":"unclassified"}},{"Shape":182,"Coordinates":[4.334604,51.84016],"Attributes":{"name":"Kastanjestraat","highway":"unclassified"}},{"Shape":184,"Coordinates":[4.333442,51.83934],"Attributes":{"name":"Abelenstraat","highway":"unclassified"}},{"Shape":184,"Coordinates":[4.334751,51.8394],"Attributes":{"name":"Abelenstraat","highway":"unclassified"}},{"Shape":186,"Coordinates":[4.334751,51.8394],"Attributes":{"name":"Abelenstraat","highway":"unclassified"}},{"Shape":188,"Coordinates":[4.334604,51.84016],"Attributes":{"name":"Kastanjestraat","highway":"unclassified"}},{"Shape":189,"Coordinates":[4.33346,51.84143],"Attributes":{"name":"De Olmen","highway":"unclassified"}},{"Shape":191,"Coordinates":[4.332734,51.84156],"Attributes":{"name":"De Wingerd","highway":"unclassified"}},{"Shape":191,"Coordinates":[4.332518,51.84109],"Attributes":{"name":"De Wingerd","highway":"unclassified"}},{"Shape":193,"Coordinates":[4.332518,51.84109],"Attributes":{"name":"De Wingerd","highway":"unclassified"}},{"Shape":195,"Coordinates":[4.33346,51.84143],"Attributes":{"name":"De Olmen","highway":"unclassified"}},{"Shape":196,"Coordinates":[4.333503,51.83999],"Attributes":{"name":"De Olmen","highway":"unclassified"}},{"Shape":197,"Coordinates":[4.3347,51.8398],"Attributes":{"name":"Sleedoornpad","highway":"unclassified"}},{"Shape":197,"Coordinates":[4.3356,51.8402],"Attributes":{"name":"Kastanjestraat","highway":"unclassified"}},{"Shape":199,"Coordinates":[4.3357,51.8398],"Attributes":{"name":"Duindoornpad","highway":"unclassified"}},{"Shape":200,"Coordinates":[4.336594,51.83946],"Attributes":{"name":"Essenstraat","highway":"unclassified"}},{"Shape":200,"Coordinates":[4.3374,51.8403],"Attributes":{"name":"Kastanjestraat","highway":"unclassified"}},{"Shape":201,"Coordinates":[4.3345,51.8407],"Attributes":{"name":"Elzenstraat","highway":"unclassified"}},{"Shape":201,"Coordinates":[4.336382,51.84156],"Attributes":{"name":"Essenstraat","highway":"unclassified"}},{"Shape":203,"Coordinates":[4.3345,51.8407],"Attributes":{"name":"Elzenstraat","highway":"unclassified"}},{"Shape":204,"Coordinates":[4.336594,51.83946],"Attributes":{"name":"Essenstraat","highway":"unclassified"}},{"Shape":204,"Coordinates":[4.3356,51.8402],"Attributes":{"name":"Kastanjestraat","highway":"unclassified"}},{"Shape":205,"Coordinates":[4.337417,51.84014],"Attributes":{"name":"Beukenlaan","highway":"unclassified"}},{"Shape":205,"Coordinates":[4.337197,51.84212],"Attributes":{"name":"Beukenlaan","highway":"unclassified"}},{"Shape":207,"Coordinates":[4.337291,51.84212],"Attributes":{"name":"Eikenlaan","highway":"unclassified","maxspeed":"50"}},{"Shape":208,"Coordinates":[4.334474,51.84201],"Attributes":{"name":"Eikenlaan","highway":"unclassified","maxspeed":"50"}},{"Shape":211,"Coordinates":[4.336135,51.84249],"Attributes":{"name":"Larixstraat","highway":"living_street"}},{"Shape":211,"Coordinates":[4.335534,51.84246],"Attributes":{"name":"Larixstraat","highway":"living_street"}},{"Shape":211,"Coordinates":[4.336172,51.8423],"Attributes":{"name":"Larixstraat","highway":"living_street"}},{"Shape":217,"Coordinates":[4.336135,51.84249],"Attributes":{"name":"Larixstraat","highway":"living_street"}},{"Shape":217,"Coordinates":[4.335534,51.84246],"Attributes":{"name":"Larixstraat","highway":"living_street"}},{"Shape":220,"Coordinates":[4.337197,51.84212],"Attributes":{"name":"Eikenlaan","highway":"unclassified","maxspeed":"50"}},{"Shape":221,"Coordinates":[4.332794,51.84292],"Attributes":{"name":"Goudenregenplein","highway":"living_street"}},{"Shape":221,"Coordinates":[4.33377,51.84198],"Attributes":{"name":"Eikenlaan","highway":"unclassified","maxspeed":"50"}},{"Shape":232,"Coordinates":[4.33377,51.84198],"Attributes":{"name":"Eikenlaan","highway":"unclassified","maxspeed":"50"}},{"Shape":233,"Coordinates":[4.33588,51.84212],"Attributes":{"name":"Larixstraat","highway":"living_street"}},{"Shape":234,"Coordinates":[4.3374,51.8403],"Attributes":{"name":"Beukenlaan","highway":"unclassified"}},{"Shape":237,"Coordinates":[4.33815,51.84224],"Attributes":{"name":"Cypressenstraat","highway":"unclassified"}},{"Shape":238,"Coordinates":[4.339031,51.84139],"Attributes":{"name":"Lindenstraat","highway":"unclassified"}},{"Shape":241,"Coordinates":[4.340803,51.84229],"Attributes":{"name":"Eikenlaan","highway":"unclassified","maxspeed":"50"}},{"Shape":243,"Coordinates":[4.340371,51.84262],"Attributes":{"name":"Cederstraat","highway":"unclassified"}},{"Shape":243,"Coordinates":[4.341088,51.84246],"Attributes":{"name":"Cederstraat","highway":"unclassified"}},{"Shape":243,"Coordinates":[4.340906,51.8427],"Attributes":{"name":"Cederstraat","highway":"unclassified"}},{"Shape":249,"Coordinates":[4.340371,51.84262],"Attributes":{"name":"Cederstraat","highway":"unclassified"}},{"Shape":249,"Coordinates":[4.340906,51.8427],"Attributes":{"name":"Cederstraat","highway":"unclassified"}},{"Shape":251,"Coordinates":[4.340803,51.84229],"Attributes":{"name":"Eikenlaan","highway":"unclassified","maxspeed":"50"}},{"Shape":254,"Coordinates":[4.338156,51.84217],"Attributes":{"name":"Eikenlaan","highway":"unclassified","maxspeed":"50"}},{"Shape":254,"Coordinates":[4.339031,51.84139],"Attributes":{"name":"Lindenstraat","highway":"unclassified"}},{"Shape":256,"Coordinates":[4.338156,51.84217],"Attributes":{"name":"Eikenlaan","highway":"unclassified","maxspeed":"50"}},{"Shape":256,"Coordinates":[4.339945,51.84225],"Attributes":{"name":"Eikenlaan","highway":"unclassified","maxspeed":"50"}},{"Shape":260,"Coordinates":[4.340659,51.84235],"Attributes":{"name":"Cederstraat","highway":"unclassified"}},{"Shape":261,"Coordinates":[4.341797,51.84233],"Attributes":{"name":"Eikenlaan","highway":"unclassified","maxspeed":"50"}},{"Shape":262,"Coordinates":[4.341779,51.84149],"Attributes":{"name":"Berkenstraat","highway":"unclassified"}},{"Shape":263,"Coordinates":[4.339771,51.84141],"Attributes":{"name":"Berkenstraat","highway":"unclassified"}},{"Shape":264,"Coordinates":[4.339814,51.84035],"Attributes":{"name":"Wilgenstraat","highway":"unclassified"}},{"Shape":264,"Coordinates":[4.341725,51.84043],"Attributes":{"name":"Wilgenstraat","highway":"unclassified"}},{"Shape":266,"Coordinates":[4.341717,51.84002],"Attributes":{"name":"Populierenstraat","highway":"unclassified"}},{"Shape":269,"Coordinates":[4.341792,51.84205],"Attributes":{"name":"Populierenstraat","highway":"unclassified"}},{"Shape":269,"Coordinates":[4.340888,51.84145],"Attributes":{"name":"Berkenstraat","highway":"unclassified"}},{"Shape":271,"Coordinates":[4.342253,51.84202],"Attributes":{"name":"Populierenhof","highway":"residential"}},{"Shape":272,"Coordinates":[4.340803,51.84229],"Attributes":{"name":"Eikenlaan","highway":"unclassified","maxspeed":"50"}},{"Shape":273,"Coordinates":[4.343118,51.84227],"Attributes":{"name":"Iepenlaan","highway":"unclassified"}},{"Shape":273,"Coordinates":[4.344196,51.84242],"Attributes":{"name":"Eikenlaan","highway":"unclassified","maxspeed":"50"}},{"Shape":275,"Coordinates":[4.342926,51.8427],"Attributes":{"name":"Iepenlaan","highway":"unclassified"}},{"Shape":275,"Coordinates":[4.343062,51.84327],"Attributes":{"name":"Iepenlaan","highway":"service"}},{"Shape":279,"Coordinates":[4.342926,51.8427],"Attributes":{"name":"Iepenlaan","highway":"unclassified"}},{"Shape":281,"Coordinates":[4.343118,51.84227],"Attributes":{"name":"Iepenlaan","highway":"unclassified"}},{"Shape":281,"Coordinates":[4.341797,51.84233],"Attributes":{"name":"Eikenlaan","highway":"unclassified","maxspeed":"50"}},{"Shape":283,"Coordinates":[4.344577,51.84244],"Attributes":{"name":"Eikenlaan","highway":"unclassified","maxspeed":"50"}},{"Shape":283,"Coordinates":[4.338558,51.84791],"Attributes":{"name":"Schenkelweg","maxspeed":"50","oneway":"yes","highway":"secondary"}},{"Shape":285,"Coordinates":[4.344432,51.84135],"Attributes":{"name":"Schenkelweg","maxspeed":"50","oneway":"yes","highway":"secondary"}},{"Shape":285,"Coordinates":[4.344674,51.8416],"Attributes":{"name":"Maaswijkweg","maxspeed":"50","highway":"tertiary","oneway":"yes"}},{"Shape":286,"Coordinates":[4.34469,51.84135],"Attributes":{"name":"Schenkelweg","maxspeed":"50","oneway":"yes","highway":"secondary"}},{"Shape":286,"Coordinates":[4.344674,51.8416],"Attributes":{"name":"Schenkelweg","maxspeed":"50","oneway":"yes","highway":"secondary"}},{"Shape":288,"Coordinates":[4.345485,51.84163],"Attributes":{"name":"Florianusstraat","highway":"service"}},{"Shape":289,"Coordinates":[4.346291,51.84145],"Attributes":{"highway":"unclassified"}},{"Shape":289,"Coordinates":[4.34621,51.84166],"Attributes":{"highway":"unclassified"}},{"Shape":290,"Coordinates":[4.347215,51.84171],"Attributes":{"highway":"service"}},{"Shape":291,"Coordinates":[4.348441,51.84174],"Attributes":{"highway":"unclassified"}},{"Shape":296,"Coordinates":[4.349741,51.84151],"Attributes":{"name":"Maaswijkweg","maxspeed":"50","highway":"tertiary","junction":"roundabout"}},{"Shape":299,"Coordinates":[4.349833,51.84121],"Attributes":{"name":"Maaswijkweg","maxspeed":"50","highway":"tertiary","junction":"roundabout"}},{"Shape":300,"Coordinates":[4.349949,51.8412],"Attributes":{"name":"Hürthstraat","highway":"unclassified","oneway":"yes"}},{"Shape":301,"Coordinates":[4.349835,51.84094],"Attributes":{"name":"Hürthstraat","highway":"living_street"}},{"Shape":302,"Coordinates":[4.349546,51.84083],"Attributes":{"name":"Thetfordstraat","highway":"living_street"}},{"Shape":304,"Coordinates":[4.349468,51.84029],"Attributes":{"name":"Hürthstraat","highway":"living_street"}},{"Shape":305,"Coordinates":[4.349247,51.84026],"Attributes":{"name":"Hürthstraat","highway":"living_street"}},{"Shape":316,"Coordinates":[4.349468,51.84029],"Attributes":{"name":"Hürthstraat","highway":"living_street"}},{"Shape":318,"Coordinates":[4.349546,51.84083],"Attributes":{"name":"Thetfordstraat","highway":"living_street"}},{"Shape":319,"Coordinates":[4.349835,51.84094],"Attributes":{"name":"Hürthstraat","highway":"living_street"}},{"Shape":320,"Coordinates":[4.349779,51.84123],"Attributes":{"highway":"unclassified","oneway":"yes"}},{"Shape":321,"Coordinates":[4.349833,51.84121],"Attributes":{"name":"Maaswijkweg","maxspeed":"50","highway":"tertiary","junction":"roundabout"}},{"Shape":323,"Coordinates":[4.350151,51.84123],"Attributes":{"name":"Maaswijkweg","maxspeed":"50","highway":"tertiary","oneway":"yes"}},{"Shape":327,"Coordinates":[4.354842,51.84018],"Attributes":{"name":"Maaswijkweg","maxspeed":"50","highway":"tertiary","oneway":"yes"}},{"Shape":330,"Coordinates":[4.350068,51.8416],"Attributes":{"highway":"unclassified","maxspeed":"50","oneway":"yes"}},{"Shape":332,"Coordinates":[4.350018,51.84171],"Attributes":{"name":"Rivierlaan","highway":"unclassified","maxspeed":"50","oneway":"yes"}},{"Shape":334,"Coordinates":[4.349741,51.84151],"Attributes":{"name":"Maaswijkweg","maxspeed":"50","highway":"tertiary","junction":"roundabout"}},{"Shape":338,"Coordinates":[4.348428,51.8416],"Attributes":{"highway":"unclassified"}},{"Shape":338,"Coordinates":[4.34844,51.84183],"Attributes":{"highway":"unclassified"}},{"Shape":341,"Coordinates":[4.347239,51.84156],"Attributes":{"highway":"service"}},{"Shape":341,"Coordinates":[4.347233,51.84179],"Attributes":{"highway":"service"}},{"Shape":343,"Coordinates":[4.346251,51.84152],"Attributes":{"highway":"unclassified"}},{"Shape":343,"Coordinates":[4.346198,51.84174],"Attributes":{"highway":"unclassified"}},{"Shape":344,"Coordinates":[4.345497,51.84148],"Attributes":{"name":"Florianusstraat","highway":"service"}},{"Shape":344,"Coordinates":[4.345477,51.8417],"Attributes":{"name":"Florianusstraat","highway":"service"}},{"Shape":347,"Coordinates":[4.344689,51.84147],"Attributes":{"name":"Schenkelweg","maxspeed":"50","oneway":"yes","highway":"secondary"}},{"Shape":347,"Coordinates":[4.344414,51.84153],"Attributes":{"name":"Maaswijkweg","maxspeed":"50","highway":"tertiary","oneway":"yes"}},{"Shape":348,"Coordinates":[4.344788,51.84246],"Attributes":{"name":"Florianusstraat","highway":"unclassified"}},{"Shape":348,"Coordinates":[4.344548,51.84262],"Attributes":{"name":"Schenkelweg","maxspeed":"50","oneway":"yes","highway":"secondary"}},{"Shape":349,"Coordinates":[4.338558,51.84791],"Attributes":{"name":"Schenkelweg","maxspeed":"50","oneway":"yes","highway":"secondary"}},{"Shape":349,"Coordinates":[4.344388,51.84169],"Attributes":{"name":"Schenkelweg","maxspeed":"50","oneway":"yes","highway":"secondary"}},{"Shape":351,"Coordinates":[4.341797,51.84233],"Attributes":{"name":"Eikenlaan","highway":"unclassified","maxspeed":"50"}},{"Shape":351,"Coordinates":[4.343092,51.84245],"Attributes":{"name":"Iepenlaan","highway":"unclassified"}},{"Shape":353,"Coordinates":[4.343297,51.84085],"Attributes":{"name":"Iepenlaan","highway":"unclassified"}},{"Shape":353,"Coordinates":[4.342354,51.84164],"Attributes":{"name":"Sparrenstraat","highway":"unclassified"}},{"Shape":355,"Coordinates":[4.3434,51.8396],"Attributes":{"name":"Iepenlaan","highway":"unclassified"}},{"Shape":355,"Coordinates":[4.3423,51.8408],"Attributes":{"name":"Moerbeistraat","highway":"unclassified"}},{"Shape":357,"Coordinates":[4.343476,51.83908],"Attributes":{"name":"Iepenlaan","highway":"unclassified"}},{"Shape":358,"Coordinates":[4.342202,51.83932],"Attributes":{"name":"Pijnboomstraat","highway":"unclassified"}},{"Shape":359,"Coordinates":[4.341717,51.84002],"Attributes":{"name":"Populierenstraat","highway":"unclassified"}},{"Shape":360,"Coordinates":[4.340692,51.83946],"Attributes":{"name":"Hazelaarstraat","highway":"unclassified"}},{"Shape":360,"Coordinates":[4.3412,51.8392],"Attributes":{"name":"Ribesstraat","highway":"unclassified"}},{"Shape":363,"Coordinates":[4.340167,51.83923],"Attributes":{"name":"Peppelstraat","highway":"unclassified"}},{"Shape":364,"Coordinates":[4.339814,51.84035],"Attributes":{"name":"Ligusterstraat","highway":"unclassified"}},{"Shape":365,"Coordinates":[4.339184,51.83907],"Attributes":{"highway":"service"}},{"Shape":367,"Coordinates":[4.338934,51.83969],"Attributes":{"name":"Lindenstraat","highway":"unclassified"}},{"Shape":368,"Coordinates":[4.337546,51.8393],"Attributes":{"name":"Hazelaarstraat","highway":"unclassified"}},{"Shape":368,"Coordinates":[4.337781,51.83917],"Attributes":{"highway":"service"}},{"Shape":370,"Coordinates":[4.337487,51.83948],"Attributes":{"name":"Beukenlaan","highway":"unclassified"}},{"Shape":371,"Coordinates":[4.337781,51.83917],"Attributes":{"highway":"service"}},{"Shape":372,"Coordinates":[4.337621,51.83881],"Attributes":{"highway":"unclassified","oneway":"yes"}},{"Shape":373,"Coordinates":[4.337617,51.83853],"Attributes":{"name":"Heemraadlaan","junction":"roundabout","highway":"secondary"}},{"Shape":376,"Coordinates":[4.337263,51.83838],"Attributes":{"name":"Heemraadlaan","oneway":"yes","highway":"secondary"}},{"Shape":379,"Coordinates":[4.337266,51.8383],"Attributes":{"name":"Heemraadlaan","maxspeed":"50","oneway":"yes","highway":"secondary"}},{"Shape":382,"Coordinates":[4.337631,51.8382],"Attributes":{"name":"Heemraadlaan","junction":"roundabout","highway":"secondary"}},{"Shape":384,"Coordinates":[4.337731,51.83812],"Attributes":{"highway":"residential","oneway":"yes"}},{"Shape":385,"Coordinates":[4.339484,51.83644],"Attributes":{"name":"De Landmeter","highway":"unclassified","maxspeed":"30"}},{"Shape":387,"Coordinates":[4.335287,51.83616],"Attributes":{"name":"De Landmeter","highway":"unclassified","maxspeed":"30"}},{"Shape":387,"Coordinates":[4.336342,51.83686],"Attributes":{"name":"Beverveen","highway":"unclassified"}},{"Shape":387,"Coordinates":[4.336479,51.83564],"Attributes":{"name":"Kikkerveen","highway":"residential"}},{"Shape":393,"Coordinates":[4.335287,51.83616],"Attributes":{"name":"De Landmeter","highway":"unclassified","maxspeed":"30"}},{"Shape":393,"Coordinates":[4.33763,51.83636],"Attributes":{"name":"De Landmeter","highway":"unclassified","maxspeed":"30"}},{"Shape":394,"Coordinates":[4.336166,51.83697],"Attributes":{"name":"Beverveen","highway":"unclassified"}},{"Shape":394,"Coordinates":[4.336829,51.83689],"Attributes":{"name":"Beverveen","highway":"unclassified"}},{"Shape":398,"Coordinates":[4.336397,51.83626],"Attributes":{"name":"Beverveen","highway":"unclassified"}},{"Shape":401,"Coordinates":[4.335125,51.83722],"Attributes":{"name":"Beverveen","highway":"residential"}},{"Shape":403,"Coordinates":[4.333993,51.83689],"Attributes":{"highway":"residential"}},{"Shape":404,"Coordinates":[4.333991,51.83757],"Attributes":{"name":"Beverveen","highway":"unclassified"}},{"Shape":404,"Coordinates":[4.334,51.837],"Attributes":{"highway":"residential"}},{"Shape":406,"Coordinates":[4.3342,51.83692],"Attributes":{"name":"Beverveen","highway":"unclassified"}},{"Shape":407,"Coordinates":[4.334013,51.83768],"Attributes":{"name":"Beverveen","highway":"residential"}},{"Shape":409,"Coordinates":[4.333955,51.8377],"Attributes":{"name":"Beverveen","highway":"residential"}},{"Shape":415,"Coordinates":[4.33362,51.83623],"Attributes":{"name":"Beverveen","highway":"residential"}},{"Shape":419,"Coordinates":[4.333956,51.8345],"Attributes":{"highway":"residential"}},{"Shape":421,"Coordinates":[4.333999,51.83444],"Attributes":{"highway":"residential"}},{"Shape":426,"Coordinates":[4.335221,51.83417],"Attributes":{"name":"Beverveen","highway":"residential"}},{"Shape":427,"Coordinates":[4.335306,51.83533],"Attributes":{"name":"De Schouw","highway":"unclassified","maxspeed":"30"}},{"Shape":429,"Coordinates":[4.335537,51.83351],"Attributes":{"name":"De Schouw","highway":"tertiary"}},{"Shape":432,"Coordinates":[4.334132,51.83332],"Attributes":{"name":"De Schouw","maxspeed":"50","highway":"tertiary","oneway":"yes"}},{"Shape":435,"Coordinates":[4.333944,51.83329],"Attributes":{"name":"Hekelingseweg","maxspeed":"50","oneway":"yes","highway":"secondary"}},{"Shape":435,"Coordinates":[4.333879,51.83347],"Attributes":{"name":"Hekelingseweg","maxspeed":"50","oneway":"yes","highway":"secondary"}},{"Shape":436,"Coordinates":[4.333726,51.83347],"Attributes":{"name":"Hekelingseweg","maxspeed":"50","oneway":"yes","highway":"secondary"}},{"Shape":436,"Coordinates":[4.332844,51.83318],"Attributes":{"name":"Gaard","maxspeed":"50","highway":"tertiary","oneway":"yes"}},{"Shape":437,"Coordinates":[4.333944,51.83329],"Attributes":{"name":"Gaard","maxspeed":"50","highway":"tertiary","oneway":"yes"}},{"Shape":437,"Coordinates":[4.333331,51.83319],"Attributes":{"name":"Gaard","maxspeed":"50","highway":"tertiary","oneway":"yes"}},{"Shape":440,"Coordinates":[4.334135,51.83279],"Attributes":{"name":"Hekelingseweg","maxspeed":"50","oneway":"yes","highway":"secondary"}},{"Shape":445,"Coordinates":[4.334713,51.82919],"Attributes":{"name":"Hekelingseweg","maxspeed":"50","highway":"secondary"}},{"Shape":448,"Coordinates":[4.335781,51.83038],"Attributes":{"name":"Krekelveen","highway":"service"}},{"Shape":451,"Coordinates":[4.335832,51.83005],"Attributes":{"highway":"service"}},{"Shape":461,"Coordinates":[4.341437,51.82747],"Attributes":{"highway":"track"}},{"Shape":464,"Coordinates":[4.341273,51.82649],"Attributes":{"name":"Kerkstraat","highway":"unclassified","maxspeed":"30"}},{"Shape":465,"Coordinates":[4.3419,51.82639],"Attributes":{"name":"Smidsweg","highway":"unclassified"}},{"Shape":468,"Coordinates":[4.3423,51.8271],"Attributes":{"name":"Grote Watering","highway":"living_street"}},{"Shape":471,"Coordinates":[4.343616,51.82676],"Attributes":{"name":"Achterweg","highway":"unclassified"}},{"Shape":471,"Coordinates":[4.342711,51.82738],"Attributes":{"highway":"living_street"}},{"Shape":473,"Coordinates":[4.343616,51.82676],"Attributes":{"name":"Achterweg","highway":"unclassified"}},{"Shape":476,"Coordinates":[4.3423,51.8271],"Attributes":{"name":"Grote Watering","highway":"living_street"}},{"Shape":479,"Coordinates":[4.341389,51.82682],"Attributes":{"name":"Achterweg","highway":"unclassified"}},{"Shape":480,"Coordinates":[4.34261,51.82515],"Attributes":{"name":"Emmalaan","highway":"living_street"}},{"Shape":480,"Coordinates":[4.341535,51.82636],"Attributes":{"name":"Dorpsstraat","highway":"residential","maxspeed":"30"}},{"Shape":480,"Coordinates":[4.342137,51.82642],"Attributes":{"name":"Dorpsstraat","highway":"residential","maxspeed":"30"}},{"Shape":485,"Coordinates":[4.341535,51.82636],"Attributes":{"name":"Dorpsstraat","highway":"residential","maxspeed":"30"}},{"Shape":485,"Coordinates":[4.342137,51.82642],"Attributes":{"name":"Dorpsstraat","highway":"residential","maxspeed":"30"}},{"Shape":486,"Coordinates":[4.341389,51.82682],"Attributes":{"name":"Achterweg","highway":"unclassified"}},{"Shape":489,"Coordinates":[4.3423,51.8271],"Attributes":{"name":"Grote Watering","highway":"living_street"}},{"Shape":492,"Coordinates":[4.342711,51.82738],"Attributes":{"highway":"living_street"}},{"Shape":495,"Coordinates":[4.34537,51.82695],"Attributes":{"name":"Middelweg","highway":"unclassified"}},{"Shape":496,"Coordinates":[4.345333,51.82642],"Attributes":{"name":"Dorpsstraat","highway":"residential","maxspeed":"30"}},{"Shape":498,"Coordinates":[4.346717,51.82624],"Attributes":{"name":"L de Raatlaan","highway":"residential","maxspeed":"30"}},{"Shape":498,"Coordinates":[4.348071,51.8264],"Attributes":{"name":"Dorpsstraat","highway":"residential","maxspeed":"30"}}]}