{"Shape":[[4.323625,51.82804],[4.3238,51.8281],[4.323964,51.82794],[4.323978,51.82785],[4.323929,51.82782],[4.324032,51.8278],[4.324051,51.82774],[4.324228,51.82755],[4.32445,51.82742],[4.324635,51.82752],[4.325648,51.82758],[4.326152,51.82763],[4.326246,51.82762],[4.326326,51.82755],[4.326459,51.82742],[4.326637,51.8275],[4.326809,51.82758],[4.326997,51.82766],[4.327178,51.82774],[4.327241,51.82776],[4.327317,51.8278],[4.327443,51.82785],[4.327597,51.82792],[4.327819,51.82801],[4.32796,51.82801],[4.328144,51.82802],[4.328304,51.82808],[4.32841,51.82811],[4.32871,51.82812],[4.328984,51.82809],[4.329197,51.82819],[4.330064,51.82854],[4.330356,51.82829],[4.330429,51.82832],[4.331422,51.82874],[4.331116,51.82903],[4.330764,51.82922],[4.330435,51.82941],[4.330293,51.8293],[4.330207,51.82924],[4.329662,51.829],[4.329456,51.82892],[4.329662,51.829],[4.329209,51.82944],[4.32914,51.82949],[4.328822,51.82944],[4.328731,51.82948],[4.328013,51.82923],[4.327933,51.8292],[4.327495,51.82905],[4.327393,51.82896],[4.327425,51.82891],[4.32754,51.8288],[4.328159,51.82821],[4.328304,51.82808],[4.328144,51.82802],[4.32796,51.82801],[4.327819,51.82801],[4.327597,51.82792],[4.327443,51.82785],[4.327317,51.8278],[4.327241,51.82776],[4.327178,51.82774],[4.326997,51.82766],[4.326809,51.82758],[4.326637,51.8275],[4.326459,51.82742],[4.326574,51.82732],[4.326578,51.82731],[4.327075,51.82685],[4.327601,51.82707],[4.327955,51.82675],[4.3283,51.82676],[4.328506,51.82678],[4.3285,51.8269],[4.32848,51.82714],[4.3287,51.8275],[4.329133,51.82769],[4.329199,51.82771],[4.329133,51.82769],[4.3287,51.8275],[4.32848,51.82714],[4.3285,51.8269],[4.328506,51.82678],[4.32921,51.82681],[4.329642,51.8264],[4.329827,51.82649],[4.33096,51.82693],[4.331447,51.82714],[4.331657,51.82722],[4.33187,51.82724],[4.332062,51.82724],[4.33187,51.82724],[4.331889,51.82714],[4.332015,51.82701],[4.33219,51.82686],[4.332633,51.82648],[4.33267,51.82645],[4.332827,51.8263],[4.333327,51.82583],[4.333529,51.82565],[4.3326,51.82527],[4.332518,51.82497],[4.332428,51.82493],[4.332235,51.82495],[4.332095,51.82497],[4.331566,51.82503],[4.331062,51.82549],[4.330714,51.82558],[4.330599,51.82568],[4.330424,51.82561],[4.330135,51.82549],[4.330122,51.82536],[4.330196,51.82535],[4.330313,51.82524],[4.330194,51.82519],[4.330144,51.82495],[4.330244,51.82487],[4.330024,51.82478],[4.329967,51.8244],[4.329338,51.82444],[4.329267,51.82452],[4.328756,51.82455],[4.329267,51.82452],[4.329338,51.82444],[4.329967,51.8244],[4.330024,51.82478],[4.330244,51.82487],[4.330144,51.82495],[4.330194,51.82519],[4.330313,51.82524],[4.330196,51.82535],[4.330122,51.82536],[4.330135,51.82549],[4.330424,51.82561],[4.330363,51.82567],[4.330359,51.82567],[4.330073,51.82594],[4.330017,51.82604],[4.329928,51.82612],[4.329642,51.8264],[4.329519,51.82633],[4.329319,51.82624],[4.329207,51.82624],[4.329189,51.82618],[4.329207,51.82624],[4.329098,51.82625],[4.328909,51.82643],[4.328842,51.82646],[4.328746,51.82647],[4.328321,51.82647],[4.327702,51.82644],[4.327579,51.82644],[4.327452,51.82648],[4.327274,51.82667],[4.327075,51.82685],[4.326947,51.8268],[4.327075,51.82685],[4.326459,51.82742],[4.326326,51.82755],[4.326246,51.82762],[4.326152,51.82763],[4.325648,51.82758],[4.324635,51.82752],[4.32445,51.82742],[4.324352,51.82729],[4.324353,51.82724],[4.324549,51.82706],[4.324645,51.82698],[4.324591,51.82695],[4.324645,51.82698],[4.324769,51.82686],[4.324896,51.82674],[4.32495,51.82668],[4.3249,51.8266],[4.324084,51.82627],[4.324549,51.82586],[4.325205,51.82614],[4.32558,51.8258],[4.325654,51.82572],[4.325709,51.82571],[4.32597,51.82549],[4.325709,51.82571],[4.325654,51.82572],[4.324994,51.82545],[4.324544,51.82525],[4.324535,51.82526],[4.324481,51.82527],[4.323082,51.82571],[4.322707,51.82604],[4.322643,51.8261],[4.322271,51.82625],[4.322172,51.82629],[4.32182,51.82644],[4.32108,51.82668],[4.320981,51.82671],[4.32095,51.82671],[4.320851,51.82719],[4.320894,51.82724],[4.320767,51.82735],[4.320676,51.82753],[4.320607,51.82765],[4.32025,51.82798],[4.320175,51.8282],[4.319719,51.82866],[4.319564,51.82862],[4.319398,51.82874],[4.319112,51.82903],[4.3196,51.8292],[4.319678,51.82932],[4.3197,51.8294],[4.320009,51.82952],[4.320292,51.82962],[4.320328,51.82964],[4.320348,51.82964],[4.3205,51.8297],[4.320771,51.82981],[4.321562,51.83012],[4.322044,51.82968],[4.322126,51.82971],[4.322044,51.82968],[4.321562,51.83012],[4.320771,51.82981],[4.320288,51.83024],[4.320295,51.83033],[4.320365,51.83053],[4.320485,51.83075],[4.320511,51.83083],[4.320485,51.83075],[4.320365,51.83053],[4.320295,51.83033],[4.320288,51.83024],[4.319713,51.83031],[4.3192,51.8304],[4.318602,51.83013],[4.318447,51.83006],[4.317927,51.82984],[4.31764,51.83009],[4.317563,51.83021],[4.31764,51.83009],[4.317927,51.82984],[4.3179,51.8297],[4.317315,51.82947],[4.317045,51.82946],[4.316325,51.82922],[4.316325,51.82922],[4.316508,51.82901],[4.316429,51.82885],[4.316552,51.82873],[4.316682,51.82869],[4.316874,51.82851],[4.316949,51.82843],[4.317934,51.82849],[4.31817,51.82857],[4.318342,51.8285],[4.319132,51.82821],[4.3194,51.828],[4.319579,51.82809],[4.320042,51.82767],[4.320178,51.82741],[4.320266,51.82742],[4.320676,51.82753],[4.320607,51.82765],[4.320794,51.82771],[4.321002,51.82779],[4.3214,51.82795],[4.321916,51.82817],[4.322241,51.82782],[4.322273,51.82777],[4.322984,51.82807],[4.323168,51.82816],[4.323351,51.82816],[4.3235,51.828],[4.323625,51.82804]],"ShapeMeta":[{"Shape":0,"Attributes":{"profile":"car"}},{"Shape":2,"Attributes":{"name":"Vlotgras","highway":"unclassified","profile":"car","distance":"34.35809","time":"3.298377"}},{"Shape":4,"Attributes":{"name":"Vlotgras","highway":"unclassified","profile":"car","distance":"48.85809","time":"4.690377"}},{"Shape":8,"Attributes":{"name":"Borstelgras","highway":"unclassified","profile":"car","distance":"108.2581","time":"10.39278"}},{"Shape":9,"Attributes":{"name":"Fakkelgras","maxspeed":"30","highway":"tertiary","profile":"car","distance":"125.0581","time":"13.08078"}},{"Shape":14,"Attributes":{"name":"Kreek","maxspeed":"30","highway":"tertiary","profile":"car","distance":"263.0581","time":"35.16078"}},{"Shape":15,"Attributes":{"name":"Klokbekerkreek","highway":"unclassified","maxspeed":"30","profile":"car","distance":"278.1581","time":"37.57678"}},{"Shape":16,"Attributes":{"name":"Klokbekerkreek","highway":"unclassified","maxspeed":"30","profile":"car","distance":"292.4581","time":"39.86478"}},{"Shape":17,"Attributes":{"name":"Klokbekerkreek","highway":"unclassified","maxspeed":"30","profile":"car","distance":"308.3581","time":"42.40878"}},{"Shape":18,"Attributes":{"name":"Klokbekerkreek","highway":"unclassified","maxspeed":"30","profile":"car","distance":"323.3581","time":"44.80878"}},{"Shape":19,"Attributes":{"name":"Klokbekerkreek","highway":"unclassified","maxspeed":"30","profile":"car","distance":"328.5581","time":"45.64078"}},{"Shape":21,"Attributes":{"name":"Klokbekerkreek","highway":"unclassified","maxspeed":"30","profile":"car","distance":"345.4581","time":"48.34478"}},{"Shape":24,"Attributes":{"name":"Klokbekerkreek","highway":"unclassified","maxspeed":"30","profile":"car","distance":"386.3581","time":"54.88878"}},{"Shape":26,"Attributes":{"name":"Klokbekerkreek","highway":"unclassified","maxspeed":"30","profile":"car","distance":"411.6581","time":"58.93678"}},{"Shape":27,"Attributes":{"name":"Bardolinogaard","highway":"unclassified","maxspeed":"30","profile":"car","distance":"419.7581","time":"60.23278"}},{"Shape":30,"Attributes":{"name":"Bardolinogaard","highway":"unclassified","maxspeed":"30","profile":"car","distance":"477.5581","time":"69.48078"}},{"Shape":31,"Attributes":{"name":"Bardolinogaard","highway":"unclassified","maxspeed":"30","profile":"car","distance":"548.7581","time":"80.87278"}},{"Shape":32,"Attributes":{"name":"Wijngaard","maxspeed":"30","highway":"tertiary","profile":"car","distance":"583.4581","time":"86.42478"}},{"Shape":33,"Attributes":{"name":"Medocgaard","highway":"unclassified","profile":"car","distance":"589.534","time":"87.00806"}},{"Shape":34,"Attributes":{"name":"Medocgaard","highway":"unclassified","profile":"car","distance":"672.3581","time":"274.9592"}},{"Shape":37,"Attributes":{"name":"Egergaard","highway":"unclassified","profile":"car","distance":"774.2581","time":"284.7416"}},{"Shape":38,"Attributes":{"name":"Muskadetgaard","highway":"unclassified","profile":"car","distance":"790.0105","time":"286.2538"}},{"Shape":40,"Attributes":{"name":"Muskadetgaard","highway":"unclassified","profile":"car","distance":"845.0581","time":"471.5384"}},{"Shape":41,"Attributes":{"name":"Falernogaard","highway":"unclassified","profile":"car","distance":"861.8677","time":"473.1521"}},{"Shape":42,"Attributes":{"name":"Falernogaard","highway":"unclassified","profile":"car","distance":"878.6773","time":"654.7658"}},{"Shape":44,"Attributes":{"name":"Wijngaard","maxspeed":"30","highway":"tertiary","profile":"car","distance":"943.7773","time":"665.1818"}},{"Shape":46,"Attributes":{"name":"Wijngaard","maxspeed":"30","highway":"tertiary","profile":"car","distance":"974.0773","time":"670.0298"}},{"Shape":47,"Attributes":{"name":"Sylvanergaard","highway":"tertiary","profile":"car","distance":"1030.877","time":"673.9247"}},{"Shape":48,"Attributes":{"name":"Rozemarijndonk","highway":"tertiary","profile":"car","distance":"1037.183","time":"674.3571"}},{"Shape":50,"Attributes":{"name":"Rozemarijndonk","highway":"tertiary","profile":"car","distance":"1083.978","time":"857.5659"}},{"Shape":52,"Attributes":{"name":"Heemstdonk","highway":"residential","profile":"car","distance":"1104.078","time":"859.4955"}},{"Shape":54,"Attributes":{"name":"Heemstdonk","highway":"residential","profile":"car","distance":"1200.178","time":"868.7211"}},{"Shape":56,"Attributes":{"name":"Klokbekerkreek","highway":"unclassified","maxspeed":"30","profile":"car","distance":"1225.478","time":"872.7691"}},{"Shape":59,"Attributes":{"name":"Klokbekerkreek","highway":"unclassified","maxspeed":"30","profile":"car","distance":"1266.378","time":"879.3131"}},{"Shape":61,"Attributes":{"name":"Klokbekerkreek","highway":"unclassified","maxspeed":"30","profile":"car","distance":"1283.278","time":"882.0171"}},{"Shape":62,"Attributes":{"name":"Klokbekerkreek","highway":"unclassified","maxspeed":"30","profile":"car","distance":"1288.478","time":"882.8491"}},{"Shape":63,"Attributes":{"name":"Klokbekerkreek","highway":"unclassified","maxspeed":"30","profile":"car","distance":"1303.478","time":"885.2491"}},{"Shape":64,"Attributes":{"name":"Klokbekerkreek","highway":"unclassified","maxspeed":"30","profile":"car","distance":"1319.378","time":"887.7931"}},{"Shape":65,"Attributes":{"name":"Klokbekerkreek","highway":"unclassified","maxspeed":"30","profile":"car","distance":"1333.678","time":"890.0811"}},{"Shape":66,"Attributes":{"name":"Klokbekerkreek","highway":"unclassified","maxspeed":"30","profile":"car","distance":"1348.778","time":"892.4971"}},{"Shape":67,"Attributes":{"name":"Kreek","maxspeed":"30","highway":"tertiary","profile":"car","distance":"1363.031","time":"894.7776"}},{"Shape":68,"Attributes":{"name":"Kreek","maxspeed":"30","highway":"tertiary","profile":"car","distance":"1363.437","time":"1074.843"}},{"Shape":69,"Attributes":{"name":"Kreek","maxspeed":"30","highway":"tertiary","profile":"car","distance":"1424.777","time":"1264.657"}},{"Shape":71,"Attributes":{"name":"Nomadenkreek","highway":"unclassified","maxspeed":"30","profile":"car","distance":"1511.177","time":"1278.481"}},{"Shape":73,"Attributes":{"name":"Kreek","highway":"unclassified","maxspeed":"30","profile":"car","distance":"1549.177","time":"1284.562"}},{"Shape":78,"Attributes":{"name":"Erosiekreek","highway":"unclassified","maxspeed":"30","profile":"car","distance":"1673.803","time":"1304.502"}},{"Shape":83,"Attributes":{"name":"Erosiekreek","highway":"unclassified","maxspeed":"30","profile":"car","distance":"1798.429","time":"1504.442"}},{"Shape":85,"Attributes":{"name":"IJzertijdkreek","highway":"unclassified","maxspeed":"30","profile":"car","distance":"1901.129","time":"1520.874"}},{"Shape":88,"Attributes":{"name":"Kreek","maxspeed":"50","highway":"tertiary","profile":"car","distance":"2050.029","time":"1535.168"}},{"Shape":90,"Attributes":{"name":"Kreek","maxspeed":"50","highway":"tertiary","profile":"car","distance":"2081.929","time":"1538.231"}},{"Shape":91,"Attributes":{"name":"Kreek","maxspeed":"50","highway":"tertiary","profile":"car","distance":"2095.1","time":"1539.495"}},{"Shape":92,"Attributes":{"name":"Kreek","maxspeed":"50","highway":"tertiary","profile":"car","distance":"2108.271","time":"1720.759"}},{"Shape":96,"Attributes":{"name":"Vuursteenkreek","highway":"unclassified","maxspeed":"30","profile":"car","distance":"2207.971","time":"1736.711"}},{"Shape":97,"Attributes":{"name":"Vuursteenkreek","highway":"unclassified","maxspeed":"30","profile":"car","distance":"2212.685","time":"1737.466"}},{"Shape":100,"Attributes":{"name":"Vuursteenkreek","highway":"unclassified","maxspeed":"30","profile":"car","distance":"2319.071","time":"1934.488"}},{"Shape":101,"Attributes":{"name":"Steurkreek","highway":"unclassified","maxspeed":"30","profile":"car","distance":"2395.97","time":"1946.792"}},{"Shape":104,"Attributes":{"name":"Steurkreek","highway":"unclassified","maxspeed":"30","profile":"car","distance":"2450.578","time":"1955.529"}},{"Shape":105,"Attributes":{"name":"Steurkreek","highway":"unclassified","maxspeed":"30","profile":"car","distance":"2460.37","time":"2137.096"}},{"Shape":109,"Attributes":{"name":"Woonkreek","highway":"unclassified","maxspeed":"30","profile":"car","distance":"2598.47","time":"2159.192"}},{"Shape":110,"Attributes":{"name":"Woonkreek","highway":"unclassified","maxspeed":"30","profile":"car","distance":"2612.87","time":"2161.496"}},{"Shape":111,"Attributes":{"name":"Woonkreek","highway":"unclassified","maxspeed":"30","profile":"car","distance":"2636.87","time":"2165.336"}},{"Shape":112,"Attributes":{"name":"Berenkreek","highway":"residential","maxspeed":"30","profile":"car","distance":"2650.87","time":"2167.576"}},{"Shape":122,"Attributes":{"name":"Berenkreek","highway":"residential","maxspeed":"30","profile":"car","distance":"2867.458","time":"2202.23"}},{"Shape":132,"Attributes":{"name":"Berenkreek","highway":"residential","maxspeed":"30","profile":"car","distance":"3084.046","time":"2416.884"}},{"Shape":133,"Attributes":{"name":"Berenkreek","highway":"residential","maxspeed":"30","profile":"car","distance":"3098.046","time":"2419.124"}},{"Shape":134,"Attributes":{"name":"Woonkreek","highway":"unclassified","maxspeed":"30","profile":"car","distance":"3122.046","time":"2422.964"}},{"Shape":135,"Attributes":{"name":"Woonkreek","highway":"unclassified","maxspeed":"30","profile":"car","distance":"3129.936","time":"2424.227"}},{"Shape":136,"Attributes":{"name":"Woonkreek","highway":"unclassified","maxspeed":"30","profile":"car","distance":"3130.446","time":"2604.309"}},{"Shape":137,"Attributes":{"name":"Woonkreek","highway":"unclassified","maxspeed":"30","profile":"car","distance":"3165.946","time":"2609.989"}},{"Shape":140,"Attributes":{"name":"Woonkreek","highway":"unclassified","maxspeed":"30","profile":"car","distance":"3225.046","time":"2619.445"}},{"Shape":143,"Attributes":{"name":"Pijlpuntkreek","maxspeed":"50","highway":"tertiary","profile":"car","distance":"3260.746","time":"2622.872"}},{"Shape":144,"Attributes":{"name":"Pijlpuntkreek","highway":"unclassified","maxspeed":"30","profile":"car","distance":"3267.595","time":"2623.968"}},{"Shape":145,"Attributes":{"name":"Pijlpuntkreek","highway":"unclassified","maxspeed":"30","profile":"car","distance":"3274.444","time":"2805.064"}},{"Shape":151,"Attributes":{"name":"Pijlpuntkreek","maxspeed":"50","highway":"tertiary","profile":"car","distance":"3390.244","time":"2816.181"}},{"Shape":155,"Attributes":{"name":"Kreek","maxspeed":"50","highway":"tertiary","profile":"car","distance":"3457.744","time":"2822.661"}},{"Shape":156,"Attributes":{"name":"Jagerskreek","highway":"unclassified","maxspeed":"30","profile":"car","distance":"3468.272","time":"2824.345"}},{"Shape":157,"Attributes":{"name":"Jagerskreek","highway":"unclassified","maxspeed":"30","profile":"car","distance":"3478.8","time":"3006.03"}},{"Shape":158,"Attributes":{"name":"Kreek","maxspeed":"30","highway":"tertiary","profile":"car","distance":"3554.8","time":"3018.189"}},{"Shape":163,"Attributes":{"name":"Kreek","maxspeed":"30","highway":"tertiary","profile":"car","distance":"3692.8","time":"3040.27"}},{"Shape":164,"Attributes":{"name":"Fakkelgras","maxspeed":"30","highway":"tertiary","profile":"car","distance":"3709.6","time":"3042.958"}},{"Shape":166,"Attributes":{"name":"Fakkelgras","maxspeed":"30","highway":"tertiary","profile":"car","distance":"3731.4","time":"3046.446"}},{"Shape":168,"Attributes":{"name":"Schaduwgras","maxspeed":"30","highway":"tertiary","profile":"car","distance":"3766.8","time":"3052.11"}},{"Shape":169,"Attributes":{"highway":"service","profile":"car","distance":"3771.232","time":"3052.819"}},{"Shape":170,"Attributes":{"highway":"service","profile":"car","distance":"3775.664","time":"3233.528"}},{"Shape":171,"Attributes":{"name":"Schaduwgras","maxspeed":"30","highway":"tertiary","profile":"car","distance":"3791.264","time":"3236.024"}},{"Shape":172,"Attributes":{"name":"Schaduwgras","maxspeed":"30","highway":"tertiary","profile":"car","distance":"3807.364","time":"3238.6"}},{"Shape":175,"Attributes":{"name":"Schaduwgras","maxspeed":"30","highway":"tertiary","profile":"car","distance":"3891.064","time":"3251.992"}},{"Shape":176,"Attributes":{"name":"Duinrietgras","highway":"unclassified","maxspeed":"30","profile":"car","distance":"3946.564","time":"3260.872"}},{"Shape":177,"Attributes":{"name":"Smelegras","highway":"unclassified","maxspeed":"30","profile":"car","distance":"4001.264","time":"3269.624"}},{"Shape":178,"Attributes":{"highway":"residential","maxspeed":"30","profile":"car","distance":"4046.864","time":"3276.92"}},{"Shape":179,"Attributes":{"name":"Smelegras","highway":"unclassified","maxspeed":"30","profile":"car","distance":"4057.064","time":"3278.552"}},{"Shape":181,"Attributes":{"name":"Vedergras","highway":"unclassified","maxspeed":"30","profile":"car","distance":"4091.799","time":"3284.11"}},{"Shape":183,"Attributes":{"name":"Vedergras","highway":"unclassified","maxspeed":"30","profile":"car","distance":"4126.535","time":"3469.668"}},{"Shape":184,"Attributes":{"name":"Raaigras","highway":"unclassified","maxspeed":"30","profile":"car","distance":"4181.235","time":"3478.42"}},{"Shape":186,"Attributes":{"name":"Raaigras","highway":"unclassified","maxspeed":"30","profile":"car","distance":"4219.564","time":"3484.552"}},{"Shape":187,"Attributes":{"name":"Raaigras","highway":"unclassified","maxspeed":"30","profile":"car","distance":"4223.534","time":"3665.188"}},{"Shape":189,"Attributes":{"name":"Raaigras","highway":"unclassified","maxspeed":"30","profile":"car","distance":"4376.634","time":"3689.684"}},{"Shape":191,"Attributes":{"name":"Raaigras","highway":"unclassified","maxspeed":"30","profile":"car","distance":"4415.134","time":"3695.844"}},{"Shape":192,"Attributes":{"name":"Raaigras","highway":"unclassified","maxspeed":"30","profile":"car","distance":"4423.403","time":"3697.167"}},{"Shape":194,"Attributes":{"name":"Raaigras","highway":"unclassified","maxspeed":"30","profile":"car","distance":"4509.934","time":"3891.012"}},{"Shape":195,"Attributes":{"name":"Raaigras","highway":"unclassified","maxspeed":"30","profile":"car","distance":"4517.354","time":"3892.199"}},{"Shape":197,"Attributes":{"name":"Raaigras","highway":"unclassified","maxspeed":"30","profile":"car","distance":"4573.434","time":"4081.172"}},{"Shape":198,"Attributes":{"name":"Baardgras","highway":"unclassified","maxspeed":"30","profile":"car","distance":"4579.234","time":"4082.1"}},{"Shape":199,"Attributes":{"name":"Schaduwgras","maxspeed":"30","highway":"tertiary","profile":"car","distance":"4593.934","time":"4084.452"}},{"Shape":200,"Attributes":{"name":"Buntgras","maxspeed":"30","highway":"tertiary","profile":"car","distance":"4615.534","time":"4087.908"}},{"Shape":201,"Attributes":{"name":"Buntgras","maxspeed":"30","highway":"tertiary","profile":"car","distance":"4629.034","time":"4090.068"}},{"Shape":204,"Attributes":{"name":"Buntgras","maxspeed":"30","highway":"tertiary","profile":"car","distance":"4757.734","time":"4110.66"}},{"Shape":207,"Attributes":{"name":"Brongras","highway":"unclassified","profile":"car","distance":"4824.034","time":"4117.024"}},{"Shape":209,"Attributes":{"name":"Pampasgras","highway":"unclassified","profile":"car","distance":"4876.134","time":"4122.026"}},{"Shape":210,"Attributes":{"name":"Pampasgras","highway":"unclassified","profile":"car","distance":"4885.534","time":"4122.929"}},{"Shape":212,"Attributes":{"name":"Pampasgras","highway":"unclassified","profile":"car","distance":"4933.034","time":"4127.489"}},{"Shape":213,"Attributes":{"name":"Pampasgras","highway":"unclassified","profile":"car","distance":"4935.96","time":"4127.77"}},{"Shape":216,"Attributes":{"name":"Pampasgras","highway":"unclassified","profile":"car","distance":"4972.334","time":"4491.262"}},{"Shape":217,"Attributes":{"name":"Parelgras","highway":"unclassified","profile":"car","distance":"5036.634","time":"4497.435"}},{"Shape":218,"Attributes":{"name":"Borstelgras","highway":"unclassified","profile":"car","distance":"5095.934","time":"4503.127"}},{"Shape":219,"Attributes":{"name":"Borstelgras","highway":"unclassified","profile":"car","distance":"5102.403","time":"4503.749"}},{"Shape":220,"Attributes":{"name":"Borstelgras","highway":"unclassified","profile":"car","distance":"5108.872","time":"4684.37"}},{"Shape":221,"Attributes":{"name":"Borstelgras","highway":"unclassified","profile":"car","distance":"5168.171","time":"4690.063"}},{"Shape":222,"Attributes":{"name":"Parelgras","highway":"unclassified","profile":"car","distance":"5232.472","time":"4696.236"}},{"Shape":223,"Attributes":{"name":"Buntgras","maxspeed":"30","highway":"tertiary","profile":"car","distance":"5290.071","time":"4705.452"}},{"Shape":224,"Attributes":{"highway":"residential","profile":"car","distance":"5299.771","time":"4706.383"}},{"Shape":225,"Attributes":{"bridge":"yes","highway":"residential","profile":"car","distance":"5323.171","time":"4708.629"}},{"Shape":226,"Attributes":{"highway":"residential","maxspeed":"30","profile":"car","distance":"5348.671","time":"4712.709"}},{"Shape":227,"Attributes":{"highway":"residential","maxspeed":"30","profile":"car","distance":"5357.367","time":"4714.101"}},{"Shape":228,"Attributes":{"highway":"residential","maxspeed":"30","profile":"car","distance":"5366.063","time":"4895.492"}},{"Shape":229,"Attributes":{"highway":"residential","maxspeed":"30","profile":"car","distance":"5391.563","time":"4899.572"}},{"Shape":230,"Attributes":{"bridge":"yes","highway":"residential","profile":"car","distance":"5414.963","time":"4901.819"}},{"Shape":231,"Attributes":{"highway":"residential","profile":"car","distance":"5424.663","time":"4902.75"}},{"Shape":233,"Attributes":{"name":"Buntgras","maxspeed":"30","highway":"tertiary","profile":"car","distance":"5501.563","time":"4915.054"}},{"Shape":234,"Attributes":{"name":"Parelgras","highway":"unclassified","profile":"car","distance":"5552.463","time":"4919.94"}},{"Shape":235,"Attributes":{"name":"Kamgras","highway":"unclassified","profile":"car","distance":"5565.463","time":"4921.188"}},{"Shape":236,"Attributes":{"name":"Pluimgras","highway":"unclassified","profile":"car","distance":"5608.563","time":"4925.326"}},{"Shape":238,"Attributes":{"name":"Pluimgras","highway":"unclassified","profile":"car","distance":"5657.055","time":"4929.981"}},{"Shape":240,"Attributes":{"name":"Pluimgras","highway":"unclassified","profile":"car","distance":"5705.548","time":"5114.636"}},{"Shape":242,"Attributes":{"name":"Pluimgras","highway":"unclassified","profile":"car","distance":"5768.848","time":"5120.713"}},{"Shape":245,"Attributes":{"name":"Parelgras","highway":"unclassified","profile":"car","distance":"5843.739","time":"5127.903"}},{"Shape":250,"Attributes":{"name":"Parelgras","highway":"unclassified","profile":"car","distance":"5938.347","time":"5316.985"}},{"Shape":253,"Attributes":{"name":"Parelgras","highway":"unclassified","profile":"car","distance":"6035.847","time":"5326.345"}},{"Shape":254,"Attributes":{"name":"Parelgras","highway":"unclassified","profile":"car","distance":"6049.619","time":"5327.667"}},{"Shape":261,"Attributes":{"name":"Parelgras","highway":"unclassified","profile":"car","distance":"6282.447","time":"5530.019"}},{"Shape":262,"Attributes":{"name":"Buntgras","maxspeed":"30","highway":"tertiary","profile":"car","distance":"6295.947","time":"5532.179"}},{"Shape":264,"Attributes":{"name":"Doddegras","highway":"unclassified","profile":"car","distance":"6327.469","time":"5535.205"}},{"Shape":265,"Attributes":{"name":"Doddegras","highway":"unclassified","profile":"car","distance":"6359.647","time":"5718.294"}},{"Shape":266,"Attributes":{"name":"Doddegras","highway":"unclassified","profile":"car","distance":"6402.947","time":"5722.451"}},{"Shape":268,"Attributes":{"name":"Vlotgras","highway":"unclassified","profile":"car","distance":"6454.147","time":"5727.366"}},{"Shape":269,"Attributes":{"name":"Vlotgras","highway":"unclassified","profile":"car","distance":"6513.547","time":"5733.068"}},{"Shape":270,"Attributes":{"name":"Vlotgras","highway":"unclassified","profile":"car","distance":"6529.248","time":"5734.576"}},{"Shape":272,"Attributes":{"name":"Vlotgras","highway":"unclassified","profile":"car","distance":"6561.947","time":"5737.715"}},{"Shape":273,"Attributes":{"name":"Vlotgras","highway":"unclassified","profile":"car","distance":"6571.689","time":"5738.65"}}],"Stops":[{"Shape":0,"Coordinates":[4.323639,51.828],"Attributes":{"index":"308","distance":"0","time":"0","cost_time":"180","cost_weight":"100"}},{"Shape":33,"Coordinates":[4.330416,51.82835],"Attributes":{"index":"227","distance":"589.534","time":"87.00806","cost_time":"180","cost_weight":"100"}},{"Shape":38,"Coordinates":[4.330333,51.82925],"Attributes":{"index":"225","distance":"790.0105","time":"286.2538","cost_time":"180","cost_weight":"100"}},{"Shape":41,"Coordinates":[4.329472,51.82889],"Attributes":{"index":"226","distance":"861.8677","time":"473.1521","cost_time":"180","cost_weight":"100"}},{"Shape":48,"Coordinates":[4.327917,51.82925],"Attributes":{"index":"228","distance":"1037.183","time":"674.3571","cost_time":"180","cost_weight":"100"}},{"Shape":67,"Coordinates":[4.326629,51.82738],"Attributes":{"index":"314","distance":"1363.031","time":"894.7776","cost_time":"180","cost_weight":"100"}},{"Shape":68,"Coordinates":[4.326634,51.82738],"Attributes":{"index":"315","distance":"1363.437","time":"1074.843","cost_time":"180","cost_weight":"100"}},{"Shape":78,"Coordinates":[4.329222,51.82767],"Attributes":{"index":"317","distance":"1673.803","time":"1304.502","cost_time":"180","cost_weight":"100"}},{"Shape":91,"Coordinates":[4.33206,51.82731],"Attributes":{"index":"323","distance":"2095.1","time":"1539.495","cost_time":"180","cost_weight":"100"}},{"Shape":97,"Coordinates":[4.332701,51.82648],"Attributes":{"index":"322","distance":"2212.685","time":"1737.466","cost_time":"180","cost_weight":"100"}},{"Shape":104,"Coordinates":[4.332229,51.82491],"Attributes":{"index":"321","distance":"2450.578","time":"1955.529","cost_time":"180","cost_weight":"100"}},{"Shape":122,"Coordinates":[4.328758,51.82459],"Attributes":{"index":"319","distance":"2867.458","time":"2202.23","cost_time":"180","cost_weight":"100"}},{"Shape":135,"Coordinates":[4.330333,51.82564],"Attributes":{"index":"320","distance":"3129.936","time":"2424.227","cost_time":"180","cost_weight":"100"}},{"Shape":144,"Coordinates":[4.329236,51.82616],"Attributes":{"index":"318","distance":"3267.595","time":"2623.968","cost_time":"180","cost_weight":"100"}},{"Shape":156,"Coordinates":[4.326929,51.82686],"Attributes":{"index":"316","distance":"3468.272","time":"2824.345","cost_time":"180","cost_weight":"100"}},{"Shape":169,"Coordinates":[4.324611,51.82692],"Attributes":{"index":"313","distance":"3771.232","time":"3052.819","cost_time":"180","cost_weight":"100"}},{"Shape":181,"Coordinates":[4.326,51.82553],"Attributes":{"index":"312","distance":"4091.799","time":"3284.11","cost_time":"180","cost_weight":"100"}},{"Shape":186,"Coordinates":[4.324528,51.82522],"Attributes":{"index":"311","distance":"4219.564","time":"3484.552","cost_time":"180","cost_weight":"100"}},{"Shape":192,"Coordinates":[4.32217,51.82628],"Attributes":{"index":"310","distance":"4423.403","time":"3697.167","cost_time":"180","cost_weight":"100"}},{"Shape":195,"Coordinates":[4.32097,51.82667],"Attributes":{"index":"309","distance":"4517.354","time":"3892.199","cost_time":"180","cost_weight":"100"}},{"Shape":213,"Coordinates":[4.320306,51.82969],"Attributes":{"index":"303","distance":"4935.96","time":"4127.77","cost_time":"180","cost_weight":"100"}},{"Shape":213,"Coordinates":[4.320306,51.82969],"Attributes":{"index":"302","distance":"4935.96","time":"4307.77","cost_time":"180","cost_weight":"100"}},{"Shape":219,"Coordinates":[4.322111,51.82975],"Attributes":{"index":"301","distance":"5102.403","time":"4503.749","cost_time":"180","cost_weight":"100"}},{"Shape":227,"Coordinates":[4.320583,51.83081],"Attributes":{"index":"300","distance":"5357.367","time":"4714.101","cost_time":"180","cost_weight":"100"}},{"Shape":238,"Coordinates":[4.317528,51.83019],"Attributes":{"index":"304","distance":"5657.055","time":"4929.981","cost_time":"180","cost_weight":"100"}},{"Shape":245,"Coordinates":[4.31625,51.82925],"Attributes":{"index":"305","distance":"5843.739","time":"5127.903","cost_time":"180","cost_weight":"100"}},{"Shape":254,"Coordinates":[4.318361,51.82856],"Attributes":{"index":"306","distance":"6049.619","time":"5327.667","cost_time":"180","cost_weight":"100"}},{"Shape":264,"Coordinates":[4.320972,51.82786],"Attributes":{"index":"307","distance":"6327.469","time":"5535.205","cost_time":"180","cost_weight":"100"}},{"Shape":273,"Coordinates":[4.323639,51.828],"Attributes":{"index":"308","distance":"6571.689","time":"5738.65","cost_time":"180","cost_weight":"100"}}],"Branches":[{"Shape":4,"Coordinates":[4.323675,51.82786],"Attributes":{"name":"Vlotgras","highway":"unclassified"}},{"Shape":8,"Coordinates":[4.324352,51.82729],"Attributes":{"name":"Fakkelgras","maxspeed":"30","highway":"tertiary"}},{"Shape":14,"Coordinates":[4.327075,51.82685],"Attributes":{"name":"Kreek","maxspeed":"30","highway":"tertiary"}},{"Shape":15,"Coordinates":[4.326445,51.82768],"Attributes":{"name":"Klokbekerkreek","highway":"service"}},{"Shape":16,"Coordinates":[4.32662,51.82775],"Attributes":{"name":"Klokbekerkreek","highway":"service"}},{"Shape":17,"Coordinates":[4.326819,51.82782],"Attributes":{"name":"Klokbekerkreek","highway":"service"}},{"Shape":18,"Coordinates":[4.327003,51.8279],"Attributes":{"name":"Klokbekerkreek","highway":"service"}},{"Shape":19,"Coordinates":[4.327484,51.82754],"Attributes":{"highway":"service"}},{"Shape":21,"Coordinates":[4.327683,51.82763],"Attributes":{"highway":"service"}},{"Shape":24,"Coordinates":[4.328342,51.82772],"Attributes":{"highway":"service"}},{"Shape":26,"Coordinates":[4.328159,51.82821],"Attributes":{"name":"Heemstdonk","highway":"residential"}},{"Shape":27,"Coordinates":[4.328342,51.82772],"Attributes":{"highway":"service"}},{"Shape":31,"Coordinates":[4.329662,51.829],"Attributes":{"name":"Wijngaard","maxspeed":"30","highway":"tertiary"}},{"Shape":32,"Coordinates":[4.331422,51.82874],"Attributes":{"name":"Medocgaard","highway":"unclassified"}},{"Shape":32,"Coordinates":[4.330682,51.82795],"Attributes":{"name":"Wijngaard","maxspeed":"30","highway":"tertiary"}},{"Shape":34,"Coordinates":[4.331706,51.82888],"Attributes":{"name":"Pomerolgaard","highway":"unclassified"}},{"Shape":37,"Coordinates":[4.330207,51.82924],"Attributes":{"name":"Muskadetgaard","highway":"unclassified"}},{"Shape":37,"Coordinates":[4.329777,51.82982],"Attributes":{"name":"Egergaard","highway":"unclassified"}},{"Shape":40,"Coordinates":[4.328728,51.82864],"Attributes":{"name":"Falernogaard","highway":"unclassified"}},{"Shape":40,"Coordinates":[4.329209,51.82944],"Attributes":{"name":"Wijngaard","maxspeed":"30","highway":"tertiary"}},{"Shape":40,"Coordinates":[4.330064,51.82854],"Attributes":{"name":"Wijngaard","maxspeed":"30","highway":"tertiary"}},{"Shape":42,"Coordinates":[4.330207,51.82924],"Attributes":{"name":"Muskadetgaard","highway":"unclassified"}},{"Shape":42,"Coordinates":[4.330064,51.82854],"Attributes":{"name":"Wijngaard","maxspeed":"30","highway":"tertiary"}},{"Shape":44,"Coordinates":[4.329187,51.82955],"Attributes":{"name":"Anjougaard","highway":"unclassified"}},{"Shape":46,"Coordinates":[4.328522,51.82971],"Attributes":{"name":"Wijngaard","maxspeed":"30","highway":"tertiary"}},{"Shape":47,"Coordinates":[4.327495,51.82905],"Attributes":{"name":"Rozemarijndonk","highway":"tertiary"}},{"Shape":50,"Coordinates":[4.326984,51.82881],"Attributes":{"name":"Rozemarijndonk","highway":"tertiary"}},{"Shape":52,"Coordinates":[4.327141,51.82866],"Attributes":{"highway":"service"}},{"Shape":54,"Coordinates":[4.32841,51.82811],"Attributes":{"name":"Bardolinogaard","highway":"unclassified","maxspeed":"30"}},{"Shape":56,"Coordinates":[4.328342,51.82772],"Attributes":{"highway":"service"}},{"Shape":59,"Coordinates":[4.327683,51.82763],"Attributes":{"highway":"service"}},{"Shape":61,"Coordinates":[4.327484,51.82754],"Attributes":{"highway":"service"}},{"Shape":62,"Coordinates":[4.327003,51.8279],"Attributes":{"name":"Klokbekerkreek","highway":"service"}},{"Shape":63,"Coordinates":[4.326819,51.82782],"Attributes":{"name":"Klokbekerkreek","highway":"service"}},{"Shape":64,"Coordinates":[4.32662,51.82775],"Attributes":{"name":"Klokbekerkreek","highway":"service"}},{"Shape":65,"Coordinates":[4.326445,51.82768],"Attributes":{"name":"Klokbekerkreek","highway":"service"}},{"Shape":66,"Coordinates":[4.327075,51.82685],"Attributes":{"name":"Kreek","maxspeed":"30","highway":"tertiary"}},{"Shape":66,"Coordinates":[4.326326,51.82755],"Attributes":{"name":"Kreek","maxspeed":"30","highway":"tertiary"}},{"Shape":69,"Coordinates":[4.326376,51.82656],"Attributes":{"name":"Jagerskreek","highway":"unclassified","maxspeed":"30"}},{"Shape":69,"Coordinates":[4.327579,51.82644],"Attributes":{"name":"Kreek","maxspeed":"50","highway":"tertiary"}},{"Shape":73,"Coordinates":[4.3285,51.8269],"Attributes":{"name":"Erosiekreek","highway":"unclassified","maxspeed":"30"}},{"Shape":73,"Coordinates":[4.32921,51.82681],"Attributes":{"name":"IJzertijdkreek","highway":"unclassified","maxspeed":"30"}},{"Shape":83,"Coordinates":[4.3283,51.82676],"Attributes":{"name":"Kreek","highway":"unclassified","maxspeed":"30"}},{"Shape":85,"Coordinates":[4.329519,51.82633],"Attributes":{"name":"Pijlpuntkreek","maxspeed":"50","highway":"tertiary"}},{"Shape":85,"Coordinates":[4.330017,51.82604],"Attributes":{"name":"Woonkreek","highway":"unclassified","maxspeed":"30"}},{"Shape":88,"Coordinates":[4.331119,51.82741],"Attributes":{"name":"Ebkreek","maxspeed":"30","highway":"tertiary"}},{"Shape":90,"Coordinates":[4.33219,51.82686],"Attributes":{"name":"Vuursteenkreek","highway":"unclassified","maxspeed":"30"}},{"Shape":90,"Coordinates":[4.332664,51.82726],"Attributes":{"name":"Kreek","maxspeed":"50","highway":"tertiary"}},{"Shape":90,"Coordinates":[4.33185,51.82735],"Attributes":{"name":"Getijdenkreek","highway":"unclassified","maxspeed":"30"}},{"Shape":92,"Coordinates":[4.331657,51.82722],"Attributes":{"name":"Kreek","maxspeed":"50","highway":"tertiary"}},{"Shape":92,"Coordinates":[4.33185,51.82735],"Attributes":{"name":"Getijdenkreek","highway":"unclassified","maxspeed":"30"}},{"Shape":96,"Coordinates":[4.333327,51.82583],"Attributes":{"name":"Vuursteenkreek","highway":"unclassified","maxspeed":"30"}},{"Shape":96,"Coordinates":[4.332315,51.82635],"Attributes":{"name":"Moeraskreek","highway":"unclassified","maxspeed":"30"}},{"Shape":101,"Coordinates":[4.332394,51.82546],"Attributes":{"name":"Biezenkreek","highway":"unclassified","maxspeed":"30"}},{"Shape":101,"Coordinates":[4.332428,51.82493],"Attributes":{"name":"Steurkreek","highway":"unclassified","maxspeed":"30"}},{"Shape":109,"Coordinates":[4.330917,51.82581],"Attributes":{"name":"Rietkreek","highway":"unclassified","maxspeed":"30"}},{"Shape":110,"Coordinates":[4.330359,51.82567],"Attributes":{"name":"Woonkreek","highway":"unclassified","maxspeed":"30"}},{"Shape":112,"Coordinates":[4.329816,51.82538],"Attributes":{"name":"Speerpuntkreek","highway":"unclassified","maxspeed":"30"}},{"Shape":112,"Coordinates":[4.329267,51.82452],"Attributes":{"name":"Berenkreek","highway":"residential","maxspeed":"30"}},{"Shape":132,"Coordinates":[4.329816,51.82538],"Attributes":{"name":"Speerpuntkreek","highway":"unclassified","maxspeed":"30"}},{"Shape":134,"Coordinates":[4.330599,51.82568],"Attributes":{"name":"Woonkreek","highway":"unclassified","maxspeed":"30"}},{"Shape":134,"Coordinates":[4.330359,51.82567],"Attributes":{"name":"Woonkreek","highway":"unclassified","maxspeed":"30"}},{"Shape":136,"Coordinates":[4.330034,51.8257],"Attributes":{"name":"Woonkreek","highway":"unclassified","maxspeed":"30"}},{"Shape":137,"Coordinates":[4.330034,51.8257],"Attributes":{"name":"Woonkreek","highway":"unclassified","maxspeed":"30"}},{"Shape":140,"Coordinates":[4.329827,51.82649],"Attributes":{"name":"Kreek","maxspeed":"50","highway":"tertiary"}},{"Shape":140,"Coordinates":[4.32921,51.82681],"Attributes":{"name":"IJzertijdkreek","highway":"unclassified","maxspeed":"30"}},{"Shape":143,"Coordinates":[4.329098,51.82625],"Attributes":{"name":"Pijlpuntkreek","maxspeed":"50","highway":"tertiary"}},{"Shape":143,"Coordinates":[4.32916,51.82608],"Attributes":{"name":"Pijlpuntkreek","highway":"unclassified","maxspeed":"30"}},{"Shape":145,"Coordinates":[4.329519,51.82633],"Attributes":{"name":"Pijlpuntkreek","maxspeed":"50","highway":"tertiary"}},{"Shape":151,"Coordinates":[4.32723,51.82602],"Attributes":{"name":"Jagerskreek","highway":"unclassified","maxspeed":"30"}},{"Shape":155,"Coordinates":[4.326459,51.82742],"Attributes":{"name":"Kreek","maxspeed":"30","highway":"tertiary"}},{"Shape":155,"Coordinates":[4.326376,51.82656],"Attributes":{"name":"Jagerskreek","highway":"unclassified","maxspeed":"30"}},{"Shape":155,"Coordinates":[4.327601,51.82707],"Attributes":{"name":"Nomadenkreek","highway":"unclassified","maxspeed":"30"}},{"Shape":157,"Coordinates":[4.327601,51.82707],"Attributes":{"name":"Nomadenkreek","highway":"unclassified","maxspeed":"30"}},{"Shape":157,"Coordinates":[4.327579,51.82644],"Attributes":{"name":"Kreek","maxspeed":"50","highway":"tertiary"}},{"Shape":158,"Coordinates":[4.326637,51.8275],"Attributes":{"name":"Klokbekerkreek","highway":"unclassified","maxspeed":"30"}},{"Shape":164,"Coordinates":[4.324032,51.8278],"Attributes":{"name":"Borstelgras","highway":"unclassified"}},{"Shape":168,"Coordinates":[4.324769,51.82686],"Attributes":{"name":"Schaduwgras","maxspeed":"30","highway":"tertiary"}},{"Shape":168,"Coordinates":[4.324249,51.82681],"Attributes":{"highway":"service"}},{"Shape":170,"Coordinates":[4.324549,51.82706],"Attributes":{"name":"Schaduwgras","maxspeed":"30","highway":"tertiary"}},{"Shape":171,"Coordinates":[4.324406,51.82671],"Attributes":{"highway":"service"}},{"Shape":172,"Coordinates":[4.324551,51.82659],"Attributes":{"highway":"service"}},{"Shape":175,"Coordinates":[4.323804,51.82615],"Attributes":{"name":"Schaduwgras","maxspeed":"30","highway":"tertiary"}},{"Shape":176,"Coordinates":[4.324994,51.82545],"Attributes":{"name":"Duinrietgras","highway":"unclassified","maxspeed":"30"}},{"Shape":177,"Coordinates":[4.325416,51.82623],"Attributes":{"name":"Smelegras","highway":"unclassified","maxspeed":"30"}},{"Shape":178,"Coordinates":[4.325787,51.82589],"Attributes":{"name":"Smelegras","highway":"unclassified","maxspeed":"30"}},{"Shape":179,"Coordinates":[4.326018,51.82545],"Attributes":{"name":"Vedergras","highway":"unclassified","maxspeed":"30"}},{"Shape":179,"Coordinates":[4.324994,51.82545],"Attributes":{"name":"Raaigras","highway":"unclassified","maxspeed":"30"}},{"Shape":183,"Coordinates":[4.32558,51.8258],"Attributes":{"name":"Smelegras","highway":"unclassified","maxspeed":"30"}},{"Shape":184,"Coordinates":[4.325323,51.82516],"Attributes":{"name":"Duinrietgras","highway":"unclassified","maxspeed":"30"}},{"Shape":184,"Coordinates":[4.324549,51.82586],"Attributes":{"name":"Duinrietgras","highway":"unclassified","maxspeed":"30"}},{"Shape":184,"Coordinates":[4.324544,51.82525],"Attributes":{"name":"Raaigras","highway":"unclassified","maxspeed":"30"}},{"Shape":187,"Coordinates":[4.3243,51.825],"Attributes":{"name":"Raaigras","highway":"service"}},{"Shape":189,"Coordinates":[4.322537,51.82583],"Attributes":{"name":"Zoutgras","highway":"unclassified"}},{"Shape":191,"Coordinates":[4.32182,51.82644],"Attributes":{"name":"Raaigras","highway":"unclassified","maxspeed":"30"}},{"Shape":191,"Coordinates":[4.322437,51.82642],"Attributes":{"name":"Wollegras","highway":"residential","maxspeed":"30"}},{"Shape":194,"Coordinates":[4.32097,51.82654],"Attributes":{"name":"Blauwgras","highway":"unclassified"}},{"Shape":194,"Coordinates":[4.32095,51.82671],"Attributes":{"name":"Raaigras","highway":"unclassified","maxspeed":"30"}},{"Shape":197,"Coordinates":[4.319942,51.82715],"Attributes":{"name":"Baardgras","highway":"unclassified","maxspeed":"30"}},{"Shape":198,"Coordinates":[4.322455,51.82724],"Attributes":{"name":"Schaduwgras","maxspeed":"30","highway":"tertiary"}},{"Shape":199,"Coordinates":[4.321013,51.82742],"Attributes":{"name":"Baardgras","highway":"unclassified"}},{"Shape":200,"Coordinates":[4.320266,51.82742],"Attributes":{"name":"Parelgras","highway":"unclassified"}},{"Shape":201,"Coordinates":[4.320794,51.82771],"Attributes":{"name":"Doddegras","highway":"unclassified"}},{"Shape":204,"Coordinates":[4.319798,51.82873],"Attributes":{"name":"Buntgras","maxspeed":"30","highway":"tertiary"}},{"Shape":207,"Coordinates":[4.3186,51.8288],"Attributes":{"name":"Pampasgras","highway":"unclassified"}},{"Shape":212,"Coordinates":[4.320348,51.82964],"Attributes":{"name":"Pampasgras","highway":"unclassified"}},{"Shape":212,"Coordinates":[4.31984,51.82999],"Attributes":{"name":"Pampasgras","highway":"unclassified"}},{"Shape":216,"Coordinates":[4.321227,51.82941],"Attributes":{"name":"Buntgras","maxspeed":"30","highway":"tertiary"}},{"Shape":216,"Coordinates":[4.320288,51.83024],"Attributes":{"name":"Buntgras","maxspeed":"30","highway":"tertiary"}},{"Shape":217,"Coordinates":[4.322,51.8303],"Attributes":{"name":"Borstelgras","highway":"unclassified"}},{"Shape":218,"Coordinates":[4.322065,51.82959],"Attributes":{"name":"Borstelgras","highway":"unclassified"}},{"Shape":218,"Coordinates":[4.322231,51.82975],"Attributes":{"name":"Borstelgras","highway":"unclassified"}},{"Shape":220,"Coordinates":[4.322065,51.82959],"Attributes":{"name":"Borstelgras","highway":"unclassified"}},{"Shape":221,"Coordinates":[4.322,51.8303],"Attributes":{"name":"Borstelgras","highway":"unclassified"}},{"Shape":222,"Coordinates":[4.321227,51.82941],"Attributes":{"name":"Buntgras","maxspeed":"30","highway":"tertiary"}},{"Shape":222,"Coordinates":[4.320348,51.82964],"Attributes":{"name":"Pampasgras","highway":"unclassified"}},{"Shape":223,"Coordinates":[4.319713,51.83031],"Attributes":{"name":"Buntgras","maxspeed":"30","highway":"tertiary"}},{"Shape":226,"Coordinates":[4.320588,51.83104],"Attributes":{"highway":"residential","maxspeed":"30"}},{"Shape":226,"Coordinates":[4.321059,51.8307],"Attributes":{"name":"Scherpgras","highway":"unclassified"}},{"Shape":226,"Coordinates":[4.3193,51.8309],"Attributes":{"name":"Scherpgras","highway":"unclassified"}},{"Shape":228,"Coordinates":[4.321059,51.8307],"Attributes":{"name":"Scherpgras","highway":"unclassified"}},{"Shape":228,"Coordinates":[4.3193,51.8309],"Attributes":{"name":"Scherpgras","highway":"unclassified"}},{"Shape":231,"Coordinates":[4.320771,51.82981],"Attributes":{"name":"Buntgras","maxspeed":"30","highway":"tertiary"}},{"Shape":233,"Coordinates":[4.318905,51.83068],"Attributes":{"name":"Buntgras","maxspeed":"30","highway":"tertiary"}},{"Shape":234,"Coordinates":[4.318117,51.83054],"Attributes":{"name":"Meeldijk","highway":"unclassified"}},{"Shape":236,"Coordinates":[4.3179,51.8297],"Attributes":{"name":"Pluimgras","highway":"unclassified"}},{"Shape":236,"Coordinates":[4.31764,51.83009],"Attributes":{"name":"Pluimgras","highway":"unclassified"}},{"Shape":240,"Coordinates":[4.318447,51.83006],"Attributes":{"name":"Pluimgras","highway":"unclassified"}},{"Shape":242,"Coordinates":[4.316682,51.82869],"Attributes":{"name":"Parelgras","highway":"unclassified"}},{"Shape":242,"Coordinates":[4.317723,51.82914],"Attributes":{"name":"Pampasgras","highway":"unclassified"}},{"Shape":253,"Coordinates":[4.320266,51.82742],"Attributes":{"name":"Parelgras","highway":"unclassified"}},{"Shape":253,"Coordinates":[4.318277,51.82871],"Attributes":{"name":"Parelgras","highway":"unclassified"}},{"Shape":261,"Coordinates":[4.320767,51.82735],"Attributes":{"name":"Buntgras","maxspeed":"30","highway":"tertiary"}},{"Shape":262,"Coordinates":[4.32025,51.82798],"Attributes":{"name":"Buntgras","maxspeed":"30","highway":"tertiary"}},{"Shape":262,"Coordinates":[4.320794,51.82771],"Attributes":{"name":"Doddegras","highway":"unclassified"}},{"Shape":266,"Coordinates":[4.321912,51.82826],"Attributes":{"name":"Vlotgras","highway":"unclassified"}},{"Shape":268,"Coordinates":[4.322208,51.82758],"Attributes":{"name":"Vlotgras","highway":"unclassified"}},{"Shape":269,"Coordinates":[4.322736,51.82833],"Attributes":{"name":"Vlotgras","highway":"unclassified"}},{"Shape":270,"Coordinates":[4.323107,51.82822],"Attributes":{"name":"Vlotgras","highway":"unclassified"}},{"Shape":272,"Coordinates":[4.323675,51.82786],"Attributes":{"name":"Vlotgras","highway":"unclassified"}},{"Shape":272,"Coordinates":[4.3238,51.8281],"Attributes":{"name":"Vlotgras","highway":"unclassified"}}]}