{"Shape":[[4.322248,51.8313],[4.322103,51.83131],[4.322012,51.83139],[4.321939,51.83159],[4.321972,51.83165],[4.322507,51.83187],[4.322317,51.83205],[4.322,51.8323],[4.322073,51.83233],[4.322592,51.83251],[4.322659,51.83258],[4.323225,51.83257],[4.323278,51.83284],[4.323969,51.83312],[4.324482,51.83307],[4.324805,51.83279],[4.324854,51.83281],[4.325701,51.83314],[4.326167,51.83316],[4.325701,51.83314],[4.324854,51.83281],[4.324805,51.83279],[4.325042,51.83259],[4.325006,51.83256],[4.324796,51.83243],[4.324687,51.83236],[4.324648,51.8323],[4.3244,51.8322],[4.3243,51.8322],[4.324001,51.83208],[4.324447,51.83162],[4.324834,51.83126],[4.32534,51.83147],[4.325368,51.83148],[4.325386,51.83146],[4.325368,51.83148],[4.324834,51.83126],[4.325021,51.83107],[4.324973,51.83069],[4.324948,51.83055],[4.3249,51.8303],[4.32502,51.83009],[4.324825,51.83001],[4.324748,51.82998],[4.32467,51.82994],[4.323964,51.82967],[4.323812,51.82985],[4.323987,51.82991],[4.323964,51.82994],[4.323682,51.83023],[4.323578,51.83035],[4.323689,51.83038],[4.323714,51.83048],[4.323689,51.83038],[4.323578,51.83035],[4.323682,51.83023],[4.323964,51.82994],[4.323987,51.82991],[4.323812,51.82985],[4.323964,51.82967],[4.32467,51.82994],[4.324748,51.82998],[4.324825,51.83001],[4.32502,51.83009],[4.325346,51.82975],[4.325407,51.82972],[4.325478,51.82972],[4.32579,51.82985],[4.326373,51.82924],[4.326747,51.82883],[4.326859,51.82877],[4.326984,51.82881],[4.327393,51.82896],[4.327495,51.82905],[4.328013,51.82923],[4.328731,51.82948],[4.328522,51.82971],[4.3284,51.8299],[4.328394,51.83027],[4.327511,51.83031],[4.327499,51.83029],[4.327511,51.83031],[4.328394,51.83027],[4.328411,51.83041],[4.328413,51.83059],[4.328416,51.8307],[4.328415,51.83091],[4.3285,51.83105],[4.329037,51.83162],[4.329659,51.8314],[4.329551,51.83128],[4.329659,51.8314],[4.3302,51.832],[4.330325,51.83191],[4.330521,51.83184],[4.330766,51.83175],[4.33112,51.83216],[4.331113,51.83216],[4.33112,51.83216],[4.330766,51.83175],[4.331029,51.83165],[4.331104,51.83163],[4.332265,51.8318],[4.333242,51.83197],[4.3333,51.832],[4.333368,51.83207],[4.33347,51.83219],[4.333301,51.83263],[4.333081,51.83269],[4.332894,51.83266],[4.333081,51.83269],[4.332867,51.83306],[4.33286,51.8331],[4.332828,51.83313],[4.333331,51.83319],[4.333804,51.83327],[4.333944,51.83329],[4.334132,51.83332],[4.334222,51.83334],[4.334557,51.83341],[4.334939,51.83347],[4.33526,51.83353],[4.335445,51.83354],[4.335491,51.83371],[4.335461,51.83391],[4.33519,51.83389],[4.334579,51.83381],[4.33427,51.83384],[4.334106,51.83392],[4.334064,51.834],[4.334218,51.83438],[4.33426,51.8345],[4.3343,51.83469],[4.334031,51.83526],[4.333858,51.83577],[4.333683,51.83601],[4.333409,51.83619],[4.333683,51.83601],[4.333858,51.83577],[4.334031,51.83526],[4.3343,51.83469],[4.33426,51.8345],[4.334218,51.83438],[4.334131,51.8344],[4.334218,51.83438],[4.334064,51.834],[4.334106,51.83392],[4.33427,51.83384],[4.334579,51.83381],[4.33519,51.83389],[4.335461,51.83391],[4.335491,51.83371],[4.335445,51.83354],[4.335537,51.83351],[4.335601,51.83341],[4.335699,51.83327],[4.335924,51.83292],[4.336067,51.83267],[4.33653,51.83193],[4.336393,51.83191],[4.33653,51.83193],[4.336067,51.83267],[4.336157,51.83268],[4.3368,51.8328],[4.3373,51.8332],[4.3377,51.833],[4.337743,51.83298],[4.3377,51.833],[4.3373,51.8332],[4.33692,51.83342],[4.336526,51.83363],[4.336365,51.83371],[4.336218,51.83369],[4.336365,51.83371],[4.336526,51.83363],[4.33692,51.83342],[4.3373,51.8332],[4.3368,51.8328],[4.336157,51.83268],[4.336067,51.83267],[4.335924,51.83292],[4.335856,51.8329],[4.335924,51.83292],[4.335699,51.83327],[4.335601,51.83341],[4.335537,51.83351],[4.335445,51.83354],[4.33526,51.83353],[4.334939,51.83347],[4.334557,51.83341],[4.334476,51.83343],[4.334097,51.83339],[4.33392,51.83337],[4.333879,51.83347],[4.333866,51.8335],[4.333449,51.83439],[4.332847,51.83581],[4.332666,51.83623],[4.332587,51.83643],[4.332341,51.83696],[4.332278,51.83705],[4.33235,51.83712],[4.332238,51.83795],[4.332231,51.83809],[4.33221,51.8382],[4.332056,51.83819],[4.331774,51.83817],[4.331349,51.83815],[4.331211,51.83814],[4.331118,51.83813],[4.330693,51.83812],[4.329668,51.83803],[4.32765,51.83794],[4.327381,51.83793],[4.326336,51.83789],[4.326162,51.83789],[4.326175,51.83778],[4.326186,51.83767],[4.326251,51.83755],[4.326331,51.83745],[4.326394,51.83726],[4.326241,51.83723],[4.325818,51.83716],[4.325584,51.83712],[4.325526,51.83725],[4.325584,51.83712],[4.325818,51.83716],[4.326241,51.83723],[4.326597,51.83638],[4.326475,51.83636],[4.326353,51.83634],[4.32623,51.83632],[4.326353,51.83634],[4.326475,51.83636],[4.326597,51.83638],[4.326745,51.8364],[4.326588,51.83678],[4.326417,51.8372],[4.326588,51.83678],[4.326739,51.8368],[4.328314,51.83704],[4.328379,51.837],[4.32847,51.83677],[4.328522,51.83678],[4.329022,51.83686],[4.33012,51.83704],[4.330459,51.83707],[4.330574,51.83716],[4.330566,51.83743],[4.330523,51.83779],[4.330799,51.83778],[4.331307,51.8378],[4.331345,51.83745],[4.331396,51.83687],[4.331397,51.83683],[4.331396,51.83687],[4.331345,51.83745],[4.331307,51.8378],[4.330799,51.83778],[4.330523,51.83779],[4.330221,51.83778],[4.330194,51.83776],[4.330157,51.83773],[4.329397,51.8377],[4.329316,51.83773],[4.3286,51.8377],[4.328279,51.83768],[4.328504,51.83712],[4.328314,51.83704],[4.326739,51.8368],[4.326588,51.83678],[4.326745,51.8364],[4.326767,51.83636],[4.326893,51.83607],[4.32696,51.83594],[4.326961,51.83594],[4.3274,51.8357],[4.32751,51.83545],[4.32756,51.83532],[4.328589,51.83551],[4.328964,51.83559],[4.32972,51.83571],[4.329755,51.83578],[4.329678,51.836],[4.330442,51.83611],[4.330559,51.83583],[4.330678,51.83554],[4.330559,51.83583],[4.330442,51.83611],[4.329678,51.836],[4.329755,51.83578],[4.32972,51.83571],[4.328964,51.83559],[4.328982,51.83554],[4.328964,51.83559],[4.328589,51.83551],[4.32756,51.83532],[4.327743,51.8349],[4.327331,51.83482],[4.326956,51.83477],[4.326783,51.83474],[4.3265,51.8347],[4.326176,51.83464],[4.32593,51.83462],[4.325469,51.83461],[4.325402,51.83452],[4.325396,51.83439],[4.325441,51.83404],[4.325564,51.83403],[4.325441,51.83404],[4.325396,51.83439],[4.325402,51.83452],[4.325469,51.83461],[4.325269,51.83468],[4.324122,51.83464],[4.323874,51.83462],[4.323824,51.8346],[4.323663,51.8345],[4.323604,51.83447],[4.32289,51.83445],[4.322536,51.83478],[4.322464,51.83532],[4.322364,51.83539],[4.322053,51.83555],[4.321996,51.83558],[4.321552,51.83556],[4.321412,51.83556],[4.321316,51.83555],[4.320782,51.83551],[4.320514,51.83545],[4.3203,51.8354],[4.320455,51.83524],[4.320612,51.83496],[4.320601,51.83475],[4.320488,51.83455],[4.320395,51.83455],[4.320316,51.83453],[4.32025,51.83447],[4.320248,51.83442],[4.320262,51.83439],[4.320288,51.83437],[4.320323,51.83435],[4.320383,51.83433],[4.320459,51.83433],[4.320525,51.83434],[4.320647,51.83427],[4.32091,51.83412],[4.321105,51.834],[4.321221,51.83389],[4.3219,51.8333],[4.322198,51.833],[4.322659,51.83258],[4.322592,51.83251],[4.322073,51.83233],[4.322,51.8323],[4.322317,51.83205],[4.322507,51.83187],[4.321972,51.83165],[4.321939,51.83159],[4.322012,51.83139],[4.322103,51.83131],[4.322248,51.8313]],"ShapeMeta":[{"Shape":0,"Attributes":{"profile":"car"}},{"Shape":5,"Attributes":{"name":"Majoraandonk","highway":"unclassified","profile":"car","distance":"94.62856","time":"9.084342"}},{"Shape":7,"Attributes":{"name":"Saffraandonk","highway":"unclassified","profile":"car","distance":"153.8286","time":"14.76754"}},{"Shape":10,"Attributes":{"name":"Saffraandonk","highway":"unclassified","profile":"car","distance":"209.8286","time":"20.14354"}},{"Shape":11,"Attributes":{"name":"Donk","highway":"tertiary","profile":"car","distance":"248.7286","time":"22.81097"}},{"Shape":12,"Attributes":{"name":"Foeliedonk","highway":"unclassified","profile":"car","distance":"278.6286","time":"25.68137"}},{"Shape":14,"Attributes":{"name":"Foeliedonk","highway":"unclassified","profile":"car","distance":"371.2286","time":"34.57097"}},{"Shape":15,"Attributes":{"name":"Dilledonk-Noord","highway":"unclassified","profile":"car","distance":"408.6286","time":"38.16137"}},{"Shape":17,"Attributes":{"name":"Laurierdonk","highway":"unclassified","profile":"car","distance":"481.2286","time":"45.13097"}},{"Shape":18,"Attributes":{"name":"Laurierdonk","highway":"unclassified","profile":"car","distance":"513.2817","time":"48.20806"}},{"Shape":19,"Attributes":{"name":"Laurierdonk","highway":"unclassified","profile":"car","distance":"545.3347","time":"231.2852"}},{"Shape":21,"Attributes":{"name":"Laurierdonk","highway":"unclassified","profile":"car","distance":"617.9347","time":"238.2548"}},{"Shape":22,"Attributes":{"name":"Dilledonk-Noord","highway":"unclassified","profile":"car","distance":"646.0347","time":"240.9524"}},{"Shape":24,"Attributes":{"name":"Malrovedonk","highway":"unclassified","profile":"car","distance":"670.5347","time":"243.3044"}},{"Shape":25,"Attributes":{"name":"Malrovedonk","highway":"unclassified","profile":"car","distance":"681.4347","time":"244.3508"}},{"Shape":29,"Attributes":{"name":"Malrovedonk","highway":"unclassified","profile":"car","distance":"740.0347","time":"249.9764"}},{"Shape":30,"Attributes":{"name":"Donk","highway":"tertiary","profile":"car","distance":"799.7347","time":"254.0701"}},{"Shape":31,"Attributes":{"name":"Donk","highway":"tertiary","profile":"car","distance":"847.2347","time":"257.3272"}},{"Shape":32,"Attributes":{"name":"Lavasdonk","highway":"unclassified","profile":"car","distance":"888.8237","time":"261.3198"}},{"Shape":33,"Attributes":{"name":"Lavasdonk","highway":"unclassified","profile":"car","distance":"891.1348","time":"441.5417"}},{"Shape":34,"Attributes":{"name":"Lavasdonk","highway":"unclassified","profile":"car","distance":"893.1631","time":"441.7364"}},{"Shape":35,"Attributes":{"name":"Lavasdonk","highway":"unclassified","profile":"car","distance":"895.1915","time":"621.9311"}},{"Shape":36,"Attributes":{"name":"Lavasdonk","highway":"unclassified","profile":"car","distance":"939.0915","time":"626.1455"}},{"Shape":38,"Attributes":{"name":"Donk","highway":"tertiary","profile":"car","distance":"1006.292","time":"630.7535"}},{"Shape":41,"Attributes":{"name":"Donk","highway":"tertiary","profile":"car","distance":"1074.991","time":"635.4644"}},{"Shape":42,"Attributes":{"name":"Kerveldonk","highway":"unclassified","profile":"car","distance":"1090.592","time":"636.962"}},{"Shape":45,"Attributes":{"name":"Kerveldonk","highway":"unclassified","profile":"car","distance":"1160.991","time":"643.7204"}},{"Shape":46,"Attributes":{"name":"Tijmdonk","highway":"unclassified","profile":"car","distance":"1183.092","time":"645.842"}},{"Shape":49,"Attributes":{"name":"Tijmdonk","highway":"unclassified","profile":"car","distance":"1238.792","time":"651.1891"}},{"Shape":50,"Attributes":{"name":"Tijmdonk","highway":"unclassified","profile":"car","distance":"1252.991","time":"652.5524"}},{"Shape":52,"Attributes":{"name":"Tijmdonk","highway":"unclassified","profile":"car","distance":"1272.38","time":"654.4137"}},{"Shape":54,"Attributes":{"name":"Tijmdonk","highway":"unclassified","profile":"car","distance":"1291.769","time":"836.275"}},{"Shape":55,"Attributes":{"name":"Tijmdonk","highway":"unclassified","profile":"car","distance":"1305.969","time":"837.6382"}},{"Shape":58,"Attributes":{"name":"Tijmdonk","highway":"unclassified","profile":"car","distance":"1361.669","time":"842.9854"}},{"Shape":59,"Attributes":{"name":"Tijmdonk","highway":"unclassified","profile":"car","distance":"1383.769","time":"845.107"}},{"Shape":62,"Attributes":{"name":"Kerveldonk","highway":"unclassified","profile":"car","distance":"1454.169","time":"851.8654"}},{"Shape":63,"Attributes":{"name":"Kerveldonk","highway":"unclassified","profile":"car","distance":"1469.769","time":"853.363"}},{"Shape":67,"Attributes":{"name":"Donk","highway":"tertiary","profile":"car","distance":"1549.569","time":"858.835"}},{"Shape":68,"Attributes":{"name":"Donk","highway":"tertiary","profile":"car","distance":"1628.669","time":"864.259"}},{"Shape":70,"Attributes":{"name":"Donk","highway":"tertiary","profile":"car","distance":"1691.269","time":"868.5516"}},{"Shape":71,"Attributes":{"name":"Rozemarijndonk","highway":"tertiary","profile":"car","distance":"1701.269","time":"869.2373"}},{"Shape":72,"Attributes":{"name":"Rozemarijndonk","highway":"tertiary","profile":"car","distance":"1733.569","time":"871.4521"}},{"Shape":74,"Attributes":{"name":"Rozemarijndonk","highway":"tertiary","profile":"car","distance":"1786.669","time":"875.0933"}},{"Shape":75,"Attributes":{"name":"Sylvanergaard","highway":"tertiary","profile":"car","distance":"1843.469","time":"878.9882"}},{"Shape":76,"Attributes":{"name":"Wijngaard","maxspeed":"30","highway":"tertiary","profile":"car","distance":"1872.669","time":"883.6602"}},{"Shape":78,"Attributes":{"name":"Wijngaard","maxspeed":"30","highway":"tertiary","profile":"car","distance":"1935.769","time":"893.7562"}},{"Shape":80,"Attributes":{"name":"Rieslinggaard","highway":"unclassified","profile":"car","distance":"1998.417","time":"899.7704"}},{"Shape":82,"Attributes":{"name":"Rieslinggaard","highway":"unclassified","profile":"car","distance":"2061.065","time":"1085.784"}},{"Shape":83,"Attributes":{"name":"Wijngaard","maxspeed":"30","highway":"tertiary","profile":"car","distance":"2077.565","time":"1088.424"}},{"Shape":84,"Attributes":{"bridge":"yes","name":"Gaard","highway":"tertiary","profile":"car","distance":"2096.565","time":"1089.727"}},{"Shape":88,"Attributes":{"name":"Gaard","highway":"tertiary","profile":"car","distance":"2222.865","time":"1098.388"}},{"Shape":89,"Attributes":{"name":"Druivengaard","highway":"unclassified","profile":"car","distance":"2272.166","time":"1103.12"}},{"Shape":90,"Attributes":{"highway":"unclassified","profile":"car","distance":"2287.652","time":"1104.607"}},{"Shape":91,"Attributes":{"highway":"unclassified","profile":"car","distance":"2303.139","time":"1286.094"}},{"Shape":92,"Attributes":{"name":"Druivengaard","highway":"unclassified","profile":"car","distance":"2379.339","time":"1293.409"}},{"Shape":95,"Attributes":{"name":"Olijfgaard","highway":"unclassified","profile":"car","distance":"2427.639","time":"1298.046"}},{"Shape":97,"Attributes":{"name":"Pruimengaard","highway":"unclassified","profile":"car","distance":"2479.66","time":"1303.04"}},{"Shape":99,"Attributes":{"name":"Pruimengaard","highway":"unclassified","profile":"car","distance":"2531.681","time":"1488.034"}},{"Shape":100,"Attributes":{"name":"Olijfgaard","highway":"unclassified","profile":"car","distance":"2553.081","time":"1490.089"}},{"Shape":102,"Attributes":{"name":"Olijfgaard","highway":"unclassified","profile":"car","distance":"2640.881","time":"1498.517"}},{"Shape":104,"Attributes":{"name":"Olijfgaard","highway":"unclassified","profile":"car","distance":"2715.781","time":"1505.708"}},{"Shape":105,"Attributes":{"name":"Kersengaard","highway":"unclassified","profile":"car","distance":"2725.264","time":"1506.618"}},{"Shape":108,"Attributes":{"name":"Kersengaard","highway":"unclassified","profile":"car","distance":"2806.481","time":"1694.415"}},{"Shape":109,"Attributes":{"name":"Sinaasappelgaard","highway":"unclassified","profile":"car","distance":"2819.733","time":"1695.687"}},{"Shape":110,"Attributes":{"name":"Sinaasappelgaard","highway":"unclassified","profile":"car","distance":"2832.985","time":"1876.959"}},{"Shape":111,"Attributes":{"name":"Kersengaard","highway":"unclassified","profile":"car","distance":"2876.186","time":"1881.106"}},{"Shape":113,"Attributes":{"highway":"unclassified","profile":"car","distance":"2884.885","time":"1881.942"}},{"Shape":115,"Attributes":{"name":"Gaard","maxspeed":"50","highway":"tertiary","oneway":"yes","profile":"car","distance":"2953.885","time":"1888.566"}},{"Shape":116,"Attributes":{"name":"Gaard","maxspeed":"50","highway":"tertiary","oneway":"yes","profile":"car","distance":"2963.585","time":"1889.497"}},{"Shape":119,"Attributes":{"name":"De Schouw","maxspeed":"50","highway":"tertiary","oneway":"yes","profile":"car","distance":"3007.685","time":"1893.73"}},{"Shape":122,"Attributes":{"name":"De Schouw","highway":"tertiary","profile":"car","distance":"3070.685","time":"1898.05"}},{"Shape":124,"Attributes":{"name":"De Schouw","highway":"unclassified","maxspeed":"30","profile":"car","distance":"3111.686","time":"1904.61"}},{"Shape":125,"Attributes":{"name":"Beverveen","highway":"unclassified","profile":"car","distance":"3130.385","time":"1906.406"}},{"Shape":130,"Attributes":{"name":"Beverveen","highway":"unclassified","profile":"car","distance":"3262.085","time":"1919.049"}},{"Shape":132,"Attributes":{"name":"Beverveen","highway":"unclassified","profile":"car","distance":"3296.885","time":"1922.39"}},{"Shape":136,"Attributes":{"name":"Beverveen","highway":"unclassified","profile":"car","distance":"3478.401","time":"1939.815"}},{"Shape":140,"Attributes":{"name":"Beverveen","highway":"unclassified","profile":"car","distance":"3659.917","time":"2137.24"}},{"Shape":142,"Attributes":{"name":"Beverveen","highway":"unclassified","profile":"car","distance":"3694.717","time":"2140.581"}},{"Shape":143,"Attributes":{"highway":"residential","profile":"car","distance":"3701.221","time":"2141.206"}},{"Shape":144,"Attributes":{"highway":"residential","profile":"car","distance":"3707.725","time":"2321.831"}},{"Shape":149,"Attributes":{"name":"Beverveen","highway":"unclassified","profile":"car","distance":"3839.425","time":"2334.474"}},{"Shape":150,"Attributes":{"name":"Beverveen","highway":"unclassified","profile":"car","distance":"3858.125","time":"2336.269"}},{"Shape":152,"Attributes":{"name":"De Schouw","highway":"unclassified","maxspeed":"30","profile":"car","distance":"3899.125","time":"2342.829"}},{"Shape":154,"Attributes":{"name":"De Schouw","highway":"tertiary","profile":"car","distance":"3917.925","time":"2344.118"}},{"Shape":156,"Attributes":{"name":"De Schouw","highway":"tertiary","profile":"car","distance":"3977.325","time":"2348.191"}},{"Shape":157,"Attributes":{"name":"De Schouw","highway":"tertiary","profile":"car","distance":"4006.525","time":"2350.193"}},{"Shape":158,"Attributes":{"name":"De Schouw","highway":"tertiary","profile":"car","distance":"4094.325","time":"2356.214"}},{"Shape":159,"Attributes":{"name":"Egelveen","highway":"unclassified","profile":"car","distance":"4104.025","time":"2357.145"}},{"Shape":160,"Attributes":{"name":"Egelveen","highway":"unclassified","profile":"car","distance":"4113.725","time":"2538.076"}},{"Shape":161,"Attributes":{"name":"De Schouw","highway":"tertiary","profile":"car","distance":"4201.525","time":"2544.097"}},{"Shape":164,"Attributes":{"name":"Salamanderveen","highway":"residential","profile":"car","distance":"4309.925","time":"2554.503"}},{"Shape":165,"Attributes":{"name":"Salamanderveen","highway":"residential","profile":"car","distance":"4345.125","time":"2557.882"}},{"Shape":166,"Attributes":{"name":"Salamanderveen","highway":"residential","profile":"car","distance":"4349.037","time":"2558.258"}},{"Shape":167,"Attributes":{"name":"Salamanderveen","highway":"residential","profile":"car","distance":"4352.948","time":"2738.634"}},{"Shape":168,"Attributes":{"name":"Salamanderveen","highway":"residential","profile":"car","distance":"4388.148","time":"2742.013"}},{"Shape":170,"Attributes":{"name":"Salamanderveen","highway":"residential","profile":"car","distance":"4459.348","time":"2748.848"}},{"Shape":171,"Attributes":{"name":"Salamanderveen","highway":"residential","profile":"car","distance":"4473.548","time":"2750.211"}},{"Shape":172,"Attributes":{"name":"Salamanderveen","highway":"residential","profile":"car","distance":"4483.695","time":"2751.185"}},{"Shape":173,"Attributes":{"name":"Salamanderveen","highway":"residential","profile":"car","distance":"4493.841","time":"2932.159"}},{"Shape":174,"Attributes":{"name":"Salamanderveen","highway":"residential","profile":"car","distance":"4508.042","time":"2933.522"}},{"Shape":176,"Attributes":{"name":"Salamanderveen","highway":"residential","profile":"car","distance":"4579.241","time":"2940.357"}},{"Shape":179,"Attributes":{"name":"Salamanderveen","highway":"residential","profile":"car","distance":"4687.641","time":"2950.764"}},{"Shape":180,"Attributes":{"name":"De Schouw","highway":"tertiary","profile":"car","distance":"4716.841","time":"2952.766"}},{"Shape":181,"Attributes":{"name":"Egelveen","highway":"residential","profile":"car","distance":"4721.637","time":"2953.227"}},{"Shape":182,"Attributes":{"name":"Egelveen","highway":"residential","profile":"car","distance":"4726.433","time":"3133.688"}},{"Shape":184,"Attributes":{"name":"De Schouw","highway":"tertiary","profile":"car","distance":"4785.833","time":"3137.76"}},{"Shape":186,"Attributes":{"name":"De Schouw","highway":"tertiary","profile":"car","distance":"4804.633","time":"3139.05"}},{"Shape":189,"Attributes":{"name":"De Schouw","highway":"tertiary","profile":"car","distance":"4867.633","time":"3143.37"}},{"Shape":192,"Attributes":{"name":"De Schouw","maxspeed":"50","highway":"tertiary","oneway":"yes","profile":"car","distance":"4912.233","time":"3147.651"}},{"Shape":195,"Attributes":{"name":"Hekelingseweg","maxspeed":"50","oneway":"yes","highway":"secondary","profile":"car","distance":"5029.533","time":"3158.912"}},{"Shape":197,"Attributes":{"name":"Hekelingseweg","maxspeed":"50","highway":"secondary","profile":"car","distance":"5241.333","time":"3179.245"}},{"Shape":200,"Attributes":{"name":"Hekelingseweg","maxspeed":"50","highway":"secondary","profile":"car","distance":"5336.033","time":"3188.336"}},{"Shape":203,"Attributes":{"name":"Hekelingseweg","maxspeed":"50","oneway":"yes","highway":"secondary","profile":"car","distance":"5453.133","time":"3199.578"}},{"Shape":204,"Attributes":{"name":"Hekelingseweg","maxspeed":"50","oneway":"yes","highway":"secondary","profile":"car","distance":"5465.433","time":"3200.759"}},{"Shape":205,"Attributes":{"name":"Heemraadlaan","maxspeed":"50","oneway":"yes","highway":"secondary","profile":"car","distance":"5475.933","time":"3201.767"}},{"Shape":207,"Attributes":{"name":"Heemraadlaan","maxspeed":"50","oneway":"yes","highway":"secondary","profile":"car","distance":"5524.633","time":"3206.442"}},{"Shape":208,"Attributes":{"name":"Heemraadlaan","maxspeed":"50","oneway":"yes","highway":"secondary","profile":"car","distance":"5534.133","time":"3207.354"}},{"Shape":211,"Attributes":{"name":"Heemraadlaan","maxspeed":"50","oneway":"yes","highway":"secondary","profile":"car","distance":"5640.933","time":"3217.606"}},{"Shape":212,"Attributes":{"name":"Heemraadlaan","maxspeed":"50","highway":"secondary","profile":"car","distance":"5779.833","time":"3230.941"}},{"Shape":214,"Attributes":{"name":"Heemraadlaan","maxspeed":"50","oneway":"yes","highway":"secondary","profile":"car","distance":"5870.233","time":"3239.619"}},{"Shape":215,"Attributes":{"name":"Heemraadlaan","maxspeed":"50","oneway":"yes","highway":"secondary","profile":"car","distance":"5882.133","time":"3240.762"}},{"Shape":216,"Attributes":{"name":"Dreef","highway":"unclassified","oneway":"yes","profile":"car","distance":"5894.033","time":"3241.904"}},{"Shape":219,"Attributes":{"name":"Dreef","highway":"unclassified","oneway":"yes","profile":"car","distance":"5933.333","time":"3245.677"}},{"Shape":220,"Attributes":{"name":"Dreef","highway":"unclassified","profile":"car","distance":"5954.933","time":"3247.75"}},{"Shape":221,"Attributes":{"name":"Kromme Dreef","highway":"unclassified","profile":"car","distance":"5965.733","time":"3248.787"}},{"Shape":222,"Attributes":{"name":"Kromme Dreef","highway":"unclassified","profile":"car","distance":"5995.733","time":"3251.667"}},{"Shape":223,"Attributes":{"name":"Kromme Dreef","highway":"unclassified","profile":"car","distance":"6012.333","time":"3253.261"}},{"Shape":224,"Attributes":{"highway":"service","profile":"car","distance":"6027.241","time":"3255.646"}},{"Shape":225,"Attributes":{"highway":"service","profile":"car","distance":"6042.149","time":"3438.031"}},{"Shape":226,"Attributes":{"name":"Kromme Dreef","highway":"unclassified","profile":"car","distance":"6058.749","time":"3439.625"}},{"Shape":227,"Attributes":{"name":"Kromme Dreef","highway":"unclassified","profile":"car","distance":"6088.749","time":"3442.505"}},{"Shape":228,"Attributes":{"highway":"residential","profile":"car","distance":"6186.849","time":"3451.922"}},{"Shape":229,"Attributes":{"name":"Haverdreef","highway":"unclassified","profile":"car","distance":"6195.449","time":"3452.748"}},{"Shape":230,"Attributes":{"name":"Haverdreef","highway":"unclassified","profile":"car","distance":"6204.049","time":"3453.574"}},{"Shape":231,"Attributes":{"name":"Haverdreef","highway":"unclassified","profile":"car","distance":"6212.836","time":"3454.417"}},{"Shape":232,"Attributes":{"name":"Haverdreef","highway":"unclassified","profile":"car","distance":"6221.623","time":"3635.26"}},{"Shape":233,"Attributes":{"name":"Haverdreef","highway":"unclassified","profile":"car","distance":"6230.223","time":"3636.086"}},{"Shape":234,"Attributes":{"name":"Haverdreef","highway":"unclassified","profile":"car","distance":"6238.823","time":"3636.912"}},{"Shape":235,"Attributes":{"name":"Haverdreef","highway":"unclassified","profile":"car","distance":"6249.323","time":"3637.92"}},{"Shape":236,"Attributes":{"name":"Dreef","highway":"unclassified","profile":"car","distance":"6293.023","time":"3642.115"}},{"Shape":237,"Attributes":{"name":"Dreef","highway":"unclassified","profile":"car","distance":"6340.676","time":"3646.69"}},{"Shape":238,"Attributes":{"name":"Dreef","highway":"unclassified","profile":"car","distance":"6388.329","time":"3831.265"}},{"Shape":239,"Attributes":{"name":"Mosterdzaaddreef","highway":"unclassified","profile":"car","distance":"6398.929","time":"3832.282"}},{"Shape":240,"Attributes":{"name":"Mosterdzaaddreef","highway":"unclassified","profile":"car","distance":"6510.329","time":"3842.977"}},{"Shape":242,"Attributes":{"name":"Maisdreef","highway":"unclassified","profile":"car","distance":"6542.929","time":"3846.106"}},{"Shape":243,"Attributes":{"name":"Wikkedreef","highway":"unclassified","profile":"car","distance":"6546.631","time":"3846.462"}},{"Shape":245,"Attributes":{"name":"Wikkedreef","highway":"unclassified","profile":"car","distance":"6660.129","time":"4037.358"}},{"Shape":249,"Attributes":{"name":"Posteleindreef","highway":"unclassified","profile":"car","distance":"6766.829","time":"4047.601"}},{"Shape":251,"Attributes":{"name":"Tarwedreef","highway":"unclassified","profile":"car","distance":"6820.829","time":"4052.785"}},{"Shape":254,"Attributes":{"name":"Aspergedreef","highway":"unclassified","profile":"car","distance":"6928.304","time":"4063.103"}},{"Shape":257,"Attributes":{"name":"Aspergedreef","highway":"unclassified","profile":"car","distance":"7035.779","time":"4253.42"}},{"Shape":259,"Attributes":{"name":"Tarwedreef","highway":"unclassified","profile":"car","distance":"7089.779","time":"4258.604"}},{"Shape":261,"Attributes":{"name":"Tarwedreef","highway":"unclassified","profile":"car","distance":"7113.492","time":"4260.881"}},{"Shape":266,"Attributes":{"name":"Tarwedreef","highway":"unclassified","profile":"car","distance":"7247.18","time":"4453.715"}},{"Shape":268,"Attributes":{"name":"Maanzaaddreef","highway":"unclassified","profile":"car","distance":"7326.68","time":"4461.347"}},{"Shape":269,"Attributes":{"name":"Mosterdzaaddreef","highway":"unclassified","profile":"car","distance":"7438.08","time":"4472.041"}},{"Shape":270,"Attributes":{"name":"Mosterdzaaddreef","highway":"unclassified","profile":"car","distance":"7448.68","time":"4473.059"}},{"Shape":271,"Attributes":{"name":"Dreef","highway":"unclassified","profile":"car","distance":"7492.379","time":"4477.254"}},{"Shape":272,"Attributes":{"name":"Dreef","highway":"unclassified","profile":"car","distance":"7497.68","time":"4477.763"}},{"Shape":273,"Attributes":{"name":"Dreef","highway":"unclassified","profile":"car","distance":"7530.979","time":"4480.959"}},{"Shape":274,"Attributes":{"bridge":"yes","name":"Dreef","highway":"unclassified","profile":"car","distance":"7546.08","time":"4482.409"}},{"Shape":275,"Attributes":{"name":"Dreef","highway":"unclassified","profile":"car","distance":"7546.154","time":"4482.417"}},{"Shape":277,"Attributes":{"name":"Dreef","highway":"unclassified","profile":"car","distance":"7615.479","time":"4669.072"}},{"Shape":278,"Attributes":{"name":"Dreef","highway":"unclassified","profile":"car","distance":"7629.38","time":"4670.407"}},{"Shape":280,"Attributes":{"name":"Vlasdreef","highway":"unclassified","profile":"car","distance":"7730.38","time":"4680.103"}},{"Shape":281,"Attributes":{"name":"Vlasdreef","highway":"unclassified","profile":"car","distance":"7783.979","time":"4685.248"}},{"Shape":283,"Attributes":{"name":"Lijnzaaddreef","highway":"residential","profile":"car","distance":"7817.08","time":"4688.426"}},{"Shape":285,"Attributes":{"name":"Lijnzaaddreef","highway":"unclassified","profile":"car","distance":"7903.38","time":"4696.71"}},{"Shape":286,"Attributes":{"name":"Lijnzaaddreef","highway":"unclassified","profile":"car","distance":"7936.626","time":"4699.902"}},{"Shape":287,"Attributes":{"name":"Lijnzaaddreef","highway":"unclassified","profile":"car","distance":"7969.873","time":"4883.094"}},{"Shape":289,"Attributes":{"name":"Lijnzaaddreef","highway":"unclassified","profile":"car","distance":"8056.173","time":"4891.378"}},{"Shape":291,"Attributes":{"name":"Lijnzaaddreef","highway":"residential","profile":"car","distance":"8089.273","time":"4894.556"}},{"Shape":292,"Attributes":{"name":"Vlasdreef","highway":"unclassified","profile":"car","distance":"8142.873","time":"4899.702"}},{"Shape":293,"Attributes":{"name":"Koolzaaddreef","highway":"unclassified","profile":"car","distance":"8148.554","time":"4900.247"}},{"Shape":294,"Attributes":{"name":"Koolzaaddreef","highway":"unclassified","profile":"car","distance":"8154.235","time":"5080.792"}},{"Shape":296,"Attributes":{"name":"Vlasdreef","highway":"unclassified","profile":"car","distance":"8255.234","time":"5090.488"}},{"Shape":298,"Attributes":{"name":"Gerstdreef","highway":"unclassified","profile":"car","distance":"8333.835","time":"5098.034"}},{"Shape":299,"Attributes":{"name":"Kalmoesdreef","highway":"unclassified","profile":"car","distance":"8360.21","time":"5100.566"}},{"Shape":302,"Attributes":{"name":"Kalmoesdreef","highway":"unclassified","profile":"car","distance":"8415.635","time":"5285.887"}},{"Shape":303,"Attributes":{"bridge":"yes","name":"Akkersvoorde","highway":"unclassified","profile":"car","distance":"8432.635","time":"5287.519"}},{"Shape":304,"Attributes":{"name":"Akkersvoorde","highway":"unclassified","profile":"car","distance":"8464.234","time":"5290.552"}},{"Shape":307,"Attributes":{"name":"Riekvoorde","highway":"unclassified","profile":"car","distance":"8529.335","time":"5296.802"}},{"Shape":308,"Attributes":{"name":"Riekvoorde","highway":"unclassified","profile":"car","distance":"8537.822","time":"5297.617"}},{"Shape":309,"Attributes":{"name":"Riekvoorde","highway":"unclassified","profile":"car","distance":"8546.311","time":"5478.432"}},{"Shape":312,"Attributes":{"name":"Riekvoorde","highway":"unclassified","profile":"car","distance":"8611.41","time":"5484.682"}},{"Shape":317,"Attributes":{"name":"Akkersvoorde","highway":"unclassified","profile":"car","distance":"8743.01","time":"5497.315"}},{"Shape":319,"Attributes":{"name":"Akkersvoorde","highway":"unclassified","profile":"car","distance":"8796.91","time":"5502.49"}},{"Shape":320,"Attributes":{"name":"Akkersvoorde","highway":"unclassified","profile":"car","distance":"8840.71","time":"5506.694"}},{"Shape":322,"Attributes":{"name":"Akkersvoorde","highway":"unclassified","profile":"car","distance":"8911.41","time":"5513.481"}},{"Shape":326,"Attributes":{"name":"Akkersvoorde","highway":"unclassified","profile":"car","distance":"8984.91","time":"5520.538"}},{"Shape":330,"Attributes":{"name":"Akkersvoorde","highway":"unclassified","profile":"car","distance":"9063.91","time":"5528.122"}},{"Shape":334,"Attributes":{"name":"Akkersweg","highway":"tertiary","profile":"car","distance":"9164.61","time":"5535.027"}},{"Shape":339,"Attributes":{"highway":"tertiary","junction":"roundabout","profile":"car","distance":"9193.811","time":"5537.029"}},{"Shape":344,"Attributes":{"highway":"tertiary","junction":"roundabout","profile":"car","distance":"9214.91","time":"5538.476"}},{"Shape":347,"Attributes":{"name":"Akkerdonk","highway":"tertiary","oneway":"yes","profile":"car","distance":"9270.11","time":"5542.261"}},{"Shape":348,"Attributes":{"name":"Akkerdonk","highway":"tertiary","profile":"car","distance":"9284.01","time":"5543.214"}},{"Shape":351,"Attributes":{"name":"Akkerdonk","highway":"tertiary","profile":"car","distance":"9460.21","time":"5555.296"}},{"Shape":354,"Attributes":{"name":"Saffraandonk","highway":"unclassified","profile":"car","distance":"9516.21","time":"5560.672"}},{"Shape":356,"Attributes":{"name":"Saffraandonk","highway":"unclassified","profile":"car","distance":"9575.41","time":"5566.355"}},{"Shape":361,"Attributes":{"name":"Majoraandonk","highway":"unclassified","profile":"car","distance":"9670.039","time":"5575.44"}}],"Stops":[{"Shape":0,"Coordinates":[4.32225,51.83133],"Attributes":{"index":"237","distance":"0","time":"0","cost_time":"180","cost_weight":"100"}},{"Shape":18,"Coordinates":[4.326167,51.83314],"Attributes":{"index":"235","distance":"513.2817","time":"48.20806","cost_time":"180","cost_weight":"100"}},{"Shape":32,"Coordinates":[4.325347,51.83145],"Attributes":{"index":"233","distance":"888.8237","time":"261.3198","cost_time":"180","cost_weight":"100"}},{"Shape":34,"Coordinates":[4.325358,51.83143],"Attributes":{"index":"234","distance":"893.1631","time":"441.7364","cost_time":"180","cost_weight":"100"}},{"Shape":52,"Coordinates":[4.323683,51.83049],"Attributes":{"index":"232","distance":"1272.38","time":"654.4137","cost_time":"180","cost_weight":"100"}},{"Shape":80,"Coordinates":[4.327444,51.83033],"Attributes":{"index":"224","distance":"1998.417","time":"899.7704","cost_time":"180","cost_weight":"100"}},{"Shape":90,"Coordinates":[4.329583,51.83125],"Attributes":{"index":"215","distance":"2287.652","time":"1104.607","cost_time":"180","cost_weight":"100"}},{"Shape":97,"Coordinates":[4.331139,51.83225],"Attributes":{"index":"214","distance":"2479.66","time":"1303.04","cost_time":"180","cost_weight":"100"}},{"Shape":105,"Coordinates":[4.33342,51.83203],"Attributes":{"index":"213","distance":"2725.264","time":"1506.618","cost_time":"180","cost_weight":"100"}},{"Shape":109,"Coordinates":[4.3329,51.83263],"Attributes":{"index":"212","distance":"2819.733","time":"1695.687","cost_time":"180","cost_weight":"100"}},{"Shape":136,"Coordinates":[4.33339,51.83617],"Attributes":{"index":"209","distance":"3478.401","time":"1939.815","cost_time":"180","cost_weight":"100"}},{"Shape":143,"Coordinates":[4.33414,51.83444],"Attributes":{"index":"211","distance":"3701.221","time":"2141.206","cost_time":"180","cost_weight":"100"}},{"Shape":159,"Coordinates":[4.336389,51.83194],"Attributes":{"index":"205","distance":"4104.025","time":"2357.145","cost_time":"180","cost_weight":"100"}},{"Shape":166,"Coordinates":[4.337722,51.83294],"Attributes":{"index":"207","distance":"4349.037","time":"2558.258","cost_time":"180","cost_weight":"100"}},{"Shape":172,"Coordinates":[4.336222,51.83364],"Attributes":{"index":"206","distance":"4483.695","time":"2751.185","cost_time":"180","cost_weight":"100"}},{"Shape":181,"Coordinates":[4.335861,51.83286],"Attributes":{"index":"208","distance":"4721.637","time":"2953.227","cost_time":"180","cost_weight":"100"}},{"Shape":224,"Coordinates":[4.325462,51.83723],"Attributes":{"index":"253","distance":"6027.241","time":"3255.646","cost_time":"180","cost_weight":"100"}},{"Shape":231,"Coordinates":[4.326227,51.83634],"Attributes":{"index":"249","distance":"6212.836","time":"3454.417","cost_time":"180","cost_weight":"100"}},{"Shape":237,"Coordinates":[4.326472,51.83722],"Attributes":{"index":"254","distance":"6340.676","time":"3646.69","cost_time":"180","cost_weight":"100"}},{"Shape":243,"Coordinates":[4.328528,51.83675],"Attributes":{"index":"250","distance":"6546.631","time":"3846.462","cost_time":"180","cost_weight":"100"}},{"Shape":254,"Coordinates":[4.331278,51.83683],"Attributes":{"index":"251","distance":"6928.304","time":"4063.103","cost_time":"180","cost_weight":"100"}},{"Shape":261,"Coordinates":[4.330185,51.83777],"Attributes":{"index":"252","distance":"7113.492","time":"4260.881","cost_time":"180","cost_weight":"100"}},{"Shape":275,"Coordinates":[4.326951,51.83591],"Attributes":{"index":"248","distance":"7546.154","time":"4482.417","cost_time":"180","cost_weight":"100"}},{"Shape":286,"Coordinates":[4.330652,51.83553],"Attributes":{"index":"256","distance":"7936.626","time":"4699.902","cost_time":"180","cost_weight":"100"}},{"Shape":293,"Coordinates":[4.329028,51.83556],"Attributes":{"index":"255","distance":"8148.554","time":"4900.247","cost_time":"180","cost_weight":"100"}},{"Shape":299,"Coordinates":[4.326948,51.83482],"Attributes":{"index":"257","distance":"8360.21","time":"5100.566","cost_time":"180","cost_weight":"100"}},{"Shape":308,"Coordinates":[4.325567,51.83407],"Attributes":{"index":"258","distance":"8537.822","time":"5297.617","cost_time":"180","cost_weight":"100"}},{"Shape":361,"Coordinates":[4.32225,51.83133],"Attributes":{"index":"237","distance":"9670.039","time":"5575.44","cost_time":"180","cost_weight":"100"}}],"Branches":[{"Shape":5,"Coordinates":[4.322572,51.83181],"Attributes":{"name":"Saffraandonk","highway":"unclassified"}},{"Shape":7,"Coordinates":[4.321706,51.83215],"Attributes":{"name":"Saffraandonk","highway":"unclassified"}},{"Shape":10,"Coordinates":[4.322198,51.833],"Attributes":{"name":"Akkerdonk","highway":"tertiary"}},{"Shape":11,"Coordinates":[4.323496,51.83253],"Attributes":{"name":"Donk","highway":"tertiary"}},{"Shape":12,"Coordinates":[4.322999,51.83311],"Attributes":{"name":"Anijsdonk","highway":"unclassified"}},{"Shape":15,"Coordinates":[4.325042,51.83259],"Attributes":{"name":"Dilledonk-Noord","highway":"unclassified"}},{"Shape":17,"Coordinates":[4.326209,51.83316],"Attributes":{"name":"Laurierdonk","highway":"unclassified"}},{"Shape":17,"Coordinates":[4.325675,51.83366],"Attributes":{"name":"Laurierdonk","highway":"unclassified"}},{"Shape":19,"Coordinates":[4.325675,51.83366],"Attributes":{"name":"Laurierdonk","highway":"unclassified"}},{"Shape":21,"Coordinates":[4.324482,51.83307],"Attributes":{"name":"Dilledonk-Noord","highway":"unclassified"}},{"Shape":24,"Coordinates":[4.325033,51.83221],"Attributes":{"name":"Tamusdonk","highway":"unclassified"}},{"Shape":25,"Coordinates":[4.324221,51.83276],"Attributes":{"name":"Scharleidonk","highway":"unclassified"}},{"Shape":29,"Coordinates":[4.323496,51.83253],"Attributes":{"name":"Donk","highway":"tertiary"}},{"Shape":30,"Coordinates":[4.3242,51.8315],"Attributes":{"name":"Meldedonk","highway":"unclassified"}},{"Shape":31,"Coordinates":[4.325021,51.83107],"Attributes":{"name":"Donk","highway":"tertiary"}},{"Shape":31,"Coordinates":[4.325368,51.83148],"Attributes":{"name":"Lavasdonk","highway":"unclassified"}},{"Shape":33,"Coordinates":[4.3265,51.8311],"Attributes":{"name":"Lavasdonk","highway":"unclassified"}},{"Shape":33,"Coordinates":[4.325202,51.83165],"Attributes":{"name":"Lavasdonk","highway":"unclassified"}},{"Shape":35,"Coordinates":[4.325202,51.83165],"Attributes":{"name":"Lavasdonk","highway":"unclassified"}},{"Shape":36,"Coordinates":[4.324447,51.83162],"Attributes":{"name":"Donk","highway":"tertiary"}},{"Shape":41,"Coordinates":[4.325478,51.82972],"Attributes":{"name":"Donk","highway":"tertiary"}},{"Shape":42,"Coordinates":[4.324648,51.83018],"Attributes":{"name":"Pimperneldonk","highway":"unclassified"}},{"Shape":45,"Coordinates":[4.324398,51.82949],"Attributes":{"name":"Tijmdonk","highway":"unclassified"}},{"Shape":49,"Coordinates":[4.323304,51.83033],"Attributes":{"name":"Tijmdonk","highway":"unclassified"}},{"Shape":50,"Coordinates":[4.323753,51.83062],"Attributes":{"name":"Tijmdonk","highway":"unclassified"}},{"Shape":50,"Coordinates":[4.32352,51.83041],"Attributes":{"name":"Tijmdonk","highway":"unclassified"}},{"Shape":54,"Coordinates":[4.32352,51.83041],"Attributes":{"name":"Tijmdonk","highway":"unclassified"}},{"Shape":55,"Coordinates":[4.323304,51.83033],"Attributes":{"name":"Tijmdonk","highway":"unclassified"}},{"Shape":59,"Coordinates":[4.324398,51.82949],"Attributes":{"name":"Tijmdonk","highway":"unclassified"}},{"Shape":62,"Coordinates":[4.324648,51.83018],"Attributes":{"name":"Pimperneldonk","highway":"unclassified"}},{"Shape":63,"Coordinates":[4.3249,51.8303],"Attributes":{"name":"Donk","highway":"tertiary"}},{"Shape":67,"Coordinates":[4.326089,51.82996],"Attributes":{"name":"Venkeldonk","highway":"unclassified"}},{"Shape":68,"Coordinates":[4.326516,51.82932],"Attributes":{"name":"Valeriaandonk","highway":"unclassified"}},{"Shape":70,"Coordinates":[4.326986,51.82861],"Attributes":{"name":"Rozemarijndonk","highway":"residential"}},{"Shape":71,"Coordinates":[4.327141,51.82866],"Attributes":{"highway":"service"}},{"Shape":72,"Coordinates":[4.327425,51.82891],"Attributes":{"name":"Heemstdonk","highway":"residential"}},{"Shape":75,"Coordinates":[4.328822,51.82944],"Attributes":{"name":"Wijngaard","maxspeed":"30","highway":"tertiary"}},{"Shape":76,"Coordinates":[4.327871,51.82945],"Attributes":{"name":"Sylvanergaard","highway":"unclassified"}},{"Shape":78,"Coordinates":[4.328411,51.83041],"Attributes":{"name":"Wijngaard","maxspeed":"30","highway":"tertiary"}},{"Shape":78,"Coordinates":[4.327422,51.83019],"Attributes":{"name":"Rieslinggaard","highway":"unclassified"}},{"Shape":82,"Coordinates":[4.3284,51.8299],"Attributes":{"name":"Wijngaard","maxspeed":"30","highway":"tertiary"}},{"Shape":88,"Coordinates":[4.3291,51.8317],"Attributes":{"name":"Gaard","highway":"tertiary"}},{"Shape":89,"Coordinates":[4.3302,51.832],"Attributes":{"name":"Druivengaard","highway":"unclassified"}},{"Shape":89,"Coordinates":[4.329504,51.83123],"Attributes":{"highway":"unclassified"}},{"Shape":91,"Coordinates":[4.329037,51.83162],"Attributes":{"name":"Druivengaard","highway":"unclassified"}},{"Shape":92,"Coordinates":[4.329892,51.83223],"Attributes":{"name":"Olijfgaard","highway":"unclassified"}},{"Shape":95,"Coordinates":[4.331029,51.83165],"Attributes":{"name":"Olijfgaard","highway":"unclassified"}},{"Shape":95,"Coordinates":[4.33112,51.83216],"Attributes":{"name":"Pruimengaard","highway":"unclassified"}},{"Shape":99,"Coordinates":[4.330521,51.83184],"Attributes":{"name":"Olijfgaard","highway":"unclassified"}},{"Shape":100,"Coordinates":[4.33073,51.83136],"Attributes":{"name":"Rozebottelgaard","highway":"unclassified"}},{"Shape":102,"Coordinates":[4.332158,51.83204],"Attributes":{"name":"Ananasgaard","highway":"unclassified"}},{"Shape":104,"Coordinates":[4.33347,51.83219],"Attributes":{"name":"Kersengaard","highway":"unclassified"}},{"Shape":104,"Coordinates":[4.334117,51.83096],"Attributes":{"name":"Kersengaard","highway":"unclassified"}},{"Shape":108,"Coordinates":[4.332867,51.83306],"Attributes":{"name":"Kersengaard","highway":"unclassified"}},{"Shape":108,"Coordinates":[4.332611,51.83261],"Attributes":{"name":"Sinaasappelgaard","highway":"unclassified"}},{"Shape":110,"Coordinates":[4.33347,51.83219],"Attributes":{"name":"Kersengaard","highway":"unclassified"}},{"Shape":111,"Coordinates":[4.3325,51.833],"Attributes":{"name":"Meloengaard","highway":"unclassified"}},{"Shape":113,"Coordinates":[4.332844,51.83318],"Attributes":{"highway":"unclassified"}},{"Shape":113,"Coordinates":[4.332612,51.83319],"Attributes":{"name":"Gaard","highway":"tertiary","oneway":"yes"}},{"Shape":115,"Coordinates":[4.333775,51.83335],"Attributes":{"name":"Hekelingseweg","maxspeed":"50","oneway":"yes","highway":"secondary"}},{"Shape":115,"Coordinates":[4.333855,51.83318],"Attributes":{"name":"Hekelingseweg","maxspeed":"50","oneway":"yes","highway":"secondary"}},{"Shape":116,"Coordinates":[4.334135,51.83279],"Attributes":{"name":"Hekelingseweg","maxspeed":"50","oneway":"yes","highway":"secondary"}},{"Shape":116,"Coordinates":[4.33392,51.83337],"Attributes":{"name":"Hekelingseweg","maxspeed":"50","oneway":"yes","highway":"secondary"}},{"Shape":119,"Coordinates":[4.334476,51.83343],"Attributes":{"name":"De Schouw","maxspeed":"50","highway":"tertiary","oneway":"yes"}},{"Shape":122,"Coordinates":[4.335537,51.83351],"Attributes":{"name":"De Schouw","highway":"tertiary"}},{"Shape":124,"Coordinates":[4.335306,51.83533],"Attributes":{"name":"De Schouw","highway":"unclassified","maxspeed":"30"}},{"Shape":125,"Coordinates":[4.335221,51.83417],"Attributes":{"name":"Beverveen","highway":"residential"}},{"Shape":130,"Coordinates":[4.333999,51.83444],"Attributes":{"highway":"residential"}},{"Shape":132,"Coordinates":[4.333683,51.83601],"Attributes":{"name":"Beverveen","highway":"unclassified"}},{"Shape":132,"Coordinates":[4.333956,51.8345],"Attributes":{"highway":"residential"}},{"Shape":140,"Coordinates":[4.333956,51.8345],"Attributes":{"highway":"residential"}},{"Shape":142,"Coordinates":[4.334064,51.834],"Attributes":{"name":"Beverveen","highway":"unclassified"}},{"Shape":142,"Coordinates":[4.333999,51.83444],"Attributes":{"highway":"residential"}},{"Shape":144,"Coordinates":[4.33426,51.8345],"Attributes":{"name":"Beverveen","highway":"unclassified"}},{"Shape":149,"Coordinates":[4.335221,51.83417],"Attributes":{"name":"Beverveen","highway":"residential"}},{"Shape":150,"Coordinates":[4.335306,51.83533],"Attributes":{"name":"De Schouw","highway":"unclassified","maxspeed":"30"}},{"Shape":152,"Coordinates":[4.334939,51.83347],"Attributes":{"name":"De Schouw","highway":"tertiary"}},{"Shape":156,"Coordinates":[4.335757,51.83289],"Attributes":{"name":"Egelveen","highway":"residential"}},{"Shape":157,"Coordinates":[4.336157,51.83268],"Attributes":{"name":"Salamanderveen","highway":"residential"}},{"Shape":158,"Coordinates":[4.336281,51.83189],"Attributes":{"name":"Egelveen","highway":"unclassified"}},{"Shape":158,"Coordinates":[4.336637,51.83176],"Attributes":{"name":"De Schouw","highway":"tertiary"}},{"Shape":160,"Coordinates":[4.336637,51.83176],"Attributes":{"name":"De Schouw","highway":"tertiary"}},{"Shape":161,"Coordinates":[4.335924,51.83292],"Attributes":{"name":"De Schouw","highway":"tertiary"}},{"Shape":164,"Coordinates":[4.33692,51.83342],"Attributes":{"name":"Salamanderveen","highway":"residential"}},{"Shape":165,"Coordinates":[4.337951,51.83286],"Attributes":{"name":"Salamanderveen","highway":"residential"}},{"Shape":165,"Coordinates":[4.337975,51.83323],"Attributes":{"name":"Salamanderveen","highway":"residential"}},{"Shape":165,"Coordinates":[4.337576,51.8329],"Attributes":{"name":"Salamanderveen","highway":"residential"}},{"Shape":167,"Coordinates":[4.337975,51.83323],"Attributes":{"name":"Salamanderveen","highway":"residential"}},{"Shape":167,"Coordinates":[4.337576,51.8329],"Attributes":{"name":"Salamanderveen","highway":"residential"}},{"Shape":168,"Coordinates":[4.336157,51.83268],"Attributes":{"name":"Salamanderveen","highway":"residential"}},{"Shape":170,"Coordinates":[4.336102,51.83356],"Attributes":{"name":"Salamanderveen","highway":"residential"}},{"Shape":171,"Coordinates":[4.336394,51.83376],"Attributes":{"highway":"residential"}},{"Shape":171,"Coordinates":[4.336147,51.83369],"Attributes":{"name":"Salamanderveen","highway":"residential"}},{"Shape":173,"Coordinates":[4.336394,51.83376],"Attributes":{"highway":"residential"}},{"Shape":174,"Coordinates":[4.336102,51.83356],"Attributes":{"name":"Salamanderveen","highway":"residential"}},{"Shape":176,"Coordinates":[4.3377,51.833],"Attributes":{"name":"Salamanderveen","highway":"residential"}},{"Shape":179,"Coordinates":[4.33653,51.83193],"Attributes":{"name":"De Schouw","highway":"tertiary"}},{"Shape":180,"Coordinates":[4.335757,51.83289],"Attributes":{"name":"Egelveen","highway":"residential"}},{"Shape":180,"Coordinates":[4.335699,51.83327],"Attributes":{"name":"De Schouw","highway":"tertiary"}},{"Shape":182,"Coordinates":[4.336067,51.83267],"Attributes":{"name":"De Schouw","highway":"tertiary"}},{"Shape":186,"Coordinates":[4.335491,51.83371],"Attributes":{"name":"De Schouw","highway":"unclassified","maxspeed":"30"}},{"Shape":189,"Coordinates":[4.334132,51.83332],"Attributes":{"name":"De Schouw","maxspeed":"50","highway":"tertiary","oneway":"yes"}},{"Shape":192,"Coordinates":[4.333775,51.83335],"Attributes":{"name":"Gaard","maxspeed":"50","highway":"tertiary","oneway":"yes"}},{"Shape":192,"Coordinates":[4.333944,51.83329],"Attributes":{"name":"Hekelingseweg","maxspeed":"50","oneway":"yes","highway":"secondary"}},{"Shape":195,"Coordinates":[4.333726,51.83347],"Attributes":{"name":"Hekelingseweg","maxspeed":"50","oneway":"yes","highway":"secondary"}},{"Shape":200,"Coordinates":[4.332054,51.83706],"Attributes":{"highway":"service"}},{"Shape":200,"Coordinates":[4.332187,51.83726],"Attributes":{"name":"Hekelingseweg","maxspeed":"50","oneway":"yes","highway":"secondary"}},{"Shape":203,"Coordinates":[4.3325,51.83808],"Attributes":{"name":"Heemraadlaan","maxspeed":"50","oneway":"yes","highway":"secondary"}},{"Shape":203,"Coordinates":[4.332065,51.83808],"Attributes":{"name":"Heemraadlaan","maxspeed":"50","oneway":"yes","highway":"secondary"}},{"Shape":204,"Coordinates":[4.33341,51.83824],"Attributes":{"name":"Heemraadlaan","maxspeed":"50","oneway":"yes","highway":"secondary"}},{"Shape":204,"Coordinates":[4.332188,51.8383],"Attributes":{"name":"Hekelingseweg","maxspeed":"50","highway":"tertiary","oneway":"yes"}},{"Shape":205,"Coordinates":[4.331513,51.83877],"Attributes":{"name":"Hekelingseweg","maxspeed":"50","highway":"tertiary","oneway":"yes"}},{"Shape":205,"Coordinates":[4.332065,51.83808],"Attributes":{"name":"Hekelingseweg","maxspeed":"50","oneway":"yes","highway":"secondary"}},{"Shape":208,"Coordinates":[4.331277,51.83881],"Attributes":{"maxspeed":"50","oneway":"yes","highway":"tertiary_link"}},{"Shape":211,"Coordinates":[4.330301,51.83802],"Attributes":{"name":"Heemraadlaan","maxspeed":"50","oneway":"yes","highway":"secondary"}},{"Shape":212,"Coordinates":[4.327378,51.83788],"Attributes":{"name":"Heemraadlaan","maxspeed":"50","oneway":"yes","highway":"secondary"}},{"Shape":214,"Coordinates":[4.32634,51.83779],"Attributes":{"name":"Dreef","highway":"unclassified","oneway":"yes"}},{"Shape":215,"Coordinates":[4.325245,51.83785],"Attributes":{"name":"Heemraadlaan","maxspeed":"50","oneway":"yes","highway":"secondary"}},{"Shape":216,"Coordinates":[4.32634,51.83779],"Attributes":{"name":"Heemraadlaan","maxspeed":"50","oneway":"yes","highway":"secondary"}},{"Shape":216,"Coordinates":[4.325459,51.83778],"Attributes":{"name":"Heemraadlaan","maxspeed":"50","oneway":"yes","highway":"secondary"}},{"Shape":219,"Coordinates":[4.326356,51.83756],"Attributes":{"name":"Dreef","highway":"unclassified","oneway":"yes"}},{"Shape":220,"Coordinates":[4.326547,51.83728],"Attributes":{"name":"Tarwedreef","highway":"unclassified"}},{"Shape":220,"Coordinates":[4.326588,51.83678],"Attributes":{"name":"Dreef","highway":"unclassified"}},{"Shape":221,"Coordinates":[4.326597,51.83638],"Attributes":{"highway":"residential"}},{"Shape":222,"Coordinates":[4.325781,51.83724],"Attributes":{"highway":"service"}},{"Shape":222,"Coordinates":[4.325907,51.83696],"Attributes":{"highway":"service"}},{"Shape":223,"Coordinates":[4.325335,51.83708],"Attributes":{"name":"Kromme Dreef","highway":"unclassified"}},{"Shape":223,"Coordinates":[4.325521,51.83727],"Attributes":{"highway":"service"}},{"Shape":223,"Coordinates":[4.32567,51.83693],"Attributes":{"highway":"service"}},{"Shape":225,"Coordinates":[4.325335,51.83708],"Attributes":{"name":"Kromme Dreef","highway":"unclassified"}},{"Shape":225,"Coordinates":[4.32567,51.83693],"Attributes":{"highway":"service"}},{"Shape":226,"Coordinates":[4.325781,51.83724],"Attributes":{"highway":"service"}},{"Shape":226,"Coordinates":[4.325907,51.83696],"Attributes":{"highway":"service"}},{"Shape":227,"Coordinates":[4.326394,51.83726],"Attributes":{"name":"Kromme Dreef","highway":"unclassified"}},{"Shape":228,"Coordinates":[4.326685,51.83618],"Attributes":{"highway":"residential"}},{"Shape":228,"Coordinates":[4.326745,51.8364],"Attributes":{"name":"Haverdreef","highway":"unclassified"}},{"Shape":230,"Coordinates":[4.326167,51.8363],"Attributes":{"name":"Haverdreef","highway":"unclassified"}},{"Shape":234,"Coordinates":[4.326241,51.83723],"Attributes":{"highway":"residential"}},{"Shape":234,"Coordinates":[4.326685,51.83618],"Attributes":{"highway":"residential"}},{"Shape":235,"Coordinates":[4.326767,51.83636],"Attributes":{"name":"Dreef","highway":"unclassified"}},{"Shape":236,"Coordinates":[4.326739,51.8368],"Attributes":{"name":"Mosterdzaaddreef","highway":"unclassified"}},{"Shape":236,"Coordinates":[4.326394,51.83726],"Attributes":{"name":"Dreef","highway":"unclassified"}},{"Shape":238,"Coordinates":[4.326745,51.8364],"Attributes":{"name":"Dreef","highway":"unclassified"}},{"Shape":239,"Coordinates":[4.326814,51.83666],"Attributes":{"name":"Dreef","highway":"residential"}},{"Shape":239,"Coordinates":[4.326607,51.83711],"Attributes":{"name":"Dreef","highway":"residential"}},{"Shape":240,"Coordinates":[4.328504,51.83712],"Attributes":{"name":"Maanzaaddreef","highway":"unclassified"}},{"Shape":242,"Coordinates":[4.329022,51.83686],"Attributes":{"name":"Wikkedreef","highway":"unclassified"}},{"Shape":245,"Coordinates":[4.330263,51.83668],"Attributes":{"name":"Boekweitdreef","highway":"unclassified"}},{"Shape":249,"Coordinates":[4.3286,51.8377],"Attributes":{"name":"Tarwedreef","highway":"unclassified"}},{"Shape":251,"Coordinates":[4.331396,51.83687],"Attributes":{"name":"Aspergedreef","highway":"unclassified"}},{"Shape":259,"Coordinates":[4.3286,51.8377],"Attributes":{"name":"Tarwedreef","highway":"unclassified"}},{"Shape":259,"Coordinates":[4.330459,51.83707],"Attributes":{"name":"Posteleindreef","highway":"unclassified"}},{"Shape":266,"Coordinates":[4.326597,51.83729],"Attributes":{"name":"Tarwedreef","highway":"unclassified"}},{"Shape":268,"Coordinates":[4.328379,51.837],"Attributes":{"name":"Maisdreef","highway":"unclassified"}},{"Shape":269,"Coordinates":[4.326814,51.83666],"Attributes":{"name":"Dreef","highway":"residential"}},{"Shape":269,"Coordinates":[4.326607,51.83711],"Attributes":{"name":"Dreef","highway":"residential"}},{"Shape":270,"Coordinates":[4.326394,51.83726],"Attributes":{"name":"Dreef","highway":"unclassified"}},{"Shape":271,"Coordinates":[4.326597,51.83638],"Attributes":{"name":"Haverdreef","highway":"unclassified"}},{"Shape":272,"Coordinates":[4.326937,51.83639],"Attributes":{"name":"Dreef","highway":"unclassified"}},{"Shape":274,"Coordinates":[4.3274,51.8357],"Attributes":{"name":"Dreef","highway":"unclassified"}},{"Shape":277,"Coordinates":[4.326728,51.83532],"Attributes":{"name":"Karwijdreef","highway":"unclassified"}},{"Shape":278,"Coordinates":[4.327743,51.8349],"Attributes":{"name":"Gerstdreef","highway":"unclassified"}},{"Shape":280,"Coordinates":[4.328835,51.83584],"Attributes":{"name":"Koolzaaddreef","highway":"service"}},{"Shape":280,"Coordinates":[4.32925,51.83482],"Attributes":{"name":"Koolzaaddreef","highway":"unclassified"}},{"Shape":281,"Coordinates":[4.329957,51.83524],"Attributes":{"name":"Lijnzaaddreef","highway":"unclassified"}},{"Shape":283,"Coordinates":[4.329585,51.83619],"Attributes":{"name":"Lijnzaaddreef","highway":"residential"}},{"Shape":285,"Coordinates":[4.330718,51.83545],"Attributes":{"name":"Lijnzaaddreef","highway":"unclassified"}},{"Shape":285,"Coordinates":[4.330924,51.83589],"Attributes":{"name":"Rammenasdreef","highway":"residential"}},{"Shape":287,"Coordinates":[4.330924,51.83589],"Attributes":{"name":"Rammenasdreef","highway":"residential"}},{"Shape":289,"Coordinates":[4.329585,51.83619],"Attributes":{"name":"Lijnzaaddreef","highway":"residential"}},{"Shape":291,"Coordinates":[4.329957,51.83524],"Attributes":{"name":"Lijnzaaddreef","highway":"unclassified"}},{"Shape":292,"Coordinates":[4.328835,51.83584],"Attributes":{"name":"Koolzaaddreef","highway":"service"}},{"Shape":292,"Coordinates":[4.328589,51.83551],"Attributes":{"name":"Vlasdreef","highway":"unclassified"}},{"Shape":292,"Coordinates":[4.32925,51.83482],"Attributes":{"name":"Koolzaaddreef","highway":"unclassified"}},{"Shape":294,"Coordinates":[4.328835,51.83584],"Attributes":{"name":"Koolzaaddreef","highway":"service"}},{"Shape":294,"Coordinates":[4.32972,51.83571],"Attributes":{"name":"Vlasdreef","highway":"unclassified"}},{"Shape":296,"Coordinates":[4.32751,51.83545],"Attributes":{"name":"Dreef","highway":"unclassified"}},{"Shape":298,"Coordinates":[4.3265,51.8347],"Attributes":{"name":"Kalmoesdreef","highway":"unclassified"}},{"Shape":298,"Coordinates":[4.327539,51.83426],"Attributes":{"name":"Meekrapdreef","highway":"unclassified"}},{"Shape":304,"Coordinates":[4.325418,51.835],"Attributes":{"name":"Zichtvoorde","highway":"unclassified"}},{"Shape":304,"Coordinates":[4.323824,51.8346],"Attributes":{"name":"Akkersvoorde","highway":"unclassified"}},{"Shape":307,"Coordinates":[4.325712,51.83402],"Attributes":{"name":"Riekvoorde","highway":"unclassified"}},{"Shape":307,"Coordinates":[4.325151,51.83402],"Attributes":{"name":"Riekvoorde","highway":"unclassified"}},{"Shape":309,"Coordinates":[4.325151,51.83402],"Attributes":{"name":"Riekvoorde","highway":"unclassified"}},{"Shape":312,"Coordinates":[4.325418,51.835],"Attributes":{"name":"Zichtvoorde","highway":"unclassified"}},{"Shape":312,"Coordinates":[4.32593,51.83462],"Attributes":{"name":"Akkersvoorde","highway":"unclassified"}},{"Shape":317,"Coordinates":[4.323664,51.83456],"Attributes":{"name":"Vlegelvoorde","highway":"unclassified"}},{"Shape":319,"Coordinates":[4.322979,51.83382],"Attributes":{"name":"Schoffelvoorde","highway":"unclassified"}},{"Shape":320,"Coordinates":[4.321702,51.83443],"Attributes":{"name":"Disselvoorde","highway":"unclassified"}},{"Shape":322,"Coordinates":[4.322933,51.83577],"Attributes":{"name":"Ploegvoorde","highway":"unclassified"}},{"Shape":326,"Coordinates":[4.321391,51.83568],"Attributes":{"name":"Zeisvoorde","highway":"unclassified"}},{"Shape":330,"Coordinates":[4.319815,51.83516],"Attributes":{"name":"Oberonweg","highway":"unclassified"}},{"Shape":330,"Coordinates":[4.320218,51.83548],"Attributes":{"name":"Akkersweg","highway":"tertiary"}},{"Shape":334,"Coordinates":[4.320618,51.83444],"Attributes":{"highway":"tertiary","junction":"roundabout"}},{"Shape":339,"Coordinates":[4.31984,51.83426],"Attributes":{"name":"Akkersweg","highway":"tertiary"}},{"Shape":344,"Coordinates":[4.320608,51.8344],"Attributes":{"highway":"tertiary","junction":"roundabout"}},{"Shape":347,"Coordinates":[4.320965,51.83416],"Attributes":{"name":"Akkerdonk","highway":"tertiary","oneway":"yes"}},{"Shape":348,"Coordinates":[4.32106,51.83382],"Attributes":{"name":"Herfstakker","highway":"unclassified"}},{"Shape":351,"Coordinates":[4.323225,51.83257],"Attributes":{"name":"Donk","highway":"tertiary"}},{"Shape":354,"Coordinates":[4.321706,51.83215],"Attributes":{"name":"Saffraandonk","highway":"unclassified"}},{"Shape":356,"Coordinates":[4.322103,51.83131],"Attributes":{"name":"Majoraandonk","highway":"unclassified"}},{"Shape":356,"Coordinates":[4.322572,51.83181],"Attributes":{"name":"Saffraandonk","highway":"unclassified"}}]}