{"Shape":[[4.312379,51.85535],[4.311979,51.85584],[4.311938,51.85593],[4.311883,51.85602],[4.311533,51.85647],[4.313444,51.85705],[4.311533,51.85647],[4.311137,51.85637],[4.311067,51.85646],[4.310829,51.85677],[4.310744,51.85689],[4.310449,51.85724],[4.310363,51.85734],[4.310281,51.85751],[4.31016,51.85776],[4.310399,51.85781],[4.311162,51.85796],[4.311145,51.85801],[4.31101,51.85837],[4.310989,51.85842],[4.312162,51.85865],[4.31227,51.85867],[4.312162,51.85865],[4.310989,51.85842],[4.31101,51.85837],[4.311145,51.85801],[4.311162,51.85796],[4.310399,51.85781],[4.31016,51.85776],[4.309658,51.85768],[4.308916,51.85755],[4.308895,51.85755],[4.309099,51.85712],[4.309131,51.85706],[4.308637,51.85698],[4.3082,51.8569],[4.307892,51.85684],[4.307408,51.85676],[4.306632,51.85663],[4.306559,51.85662],[4.306632,51.85663],[4.307408,51.85676],[4.307892,51.85684],[4.3081,51.8564],[4.308173,51.85632],[4.308512,51.85594],[4.308788,51.85563],[4.308835,51.85564],[4.309528,51.85586],[4.311137,51.85637],[4.311533,51.85647],[4.311883,51.85602],[4.311938,51.85593],[4.312306,51.85604],[4.312825,51.8562],[4.312864,51.85612],[4.312924,51.85599],[4.312864,51.85612],[4.312825,51.8562],[4.31376,51.8565],[4.313799,51.85641],[4.314075,51.85585],[4.314385,51.8559],[4.314075,51.85585],[4.314267,51.85545],[4.314373,51.85522],[4.31471,51.85528],[4.315067,51.85454],[4.31471,51.85528],[4.314587,51.85526],[4.31471,51.85528],[4.315199,51.85427],[4.315477,51.85431],[4.316307,51.85448],[4.316459,51.8545],[4.316722,51.8539],[4.317019,51.85323],[4.317067,51.85312],[4.317157,51.85292],[4.317192,51.85284],[4.317275,51.85261],[4.317325,51.85233],[4.317343,51.85227],[4.317437,51.85209],[4.317519,51.85193],[4.317684,51.85196],[4.317936,51.85201],[4.318954,51.85219],[4.319805,51.85235],[4.320251,51.85243],[4.321268,51.85262],[4.321321,51.85263],[4.321667,51.8527],[4.322911,51.85293],[4.323774,51.8531],[4.324452,51.85324],[4.325118,51.85337],[4.325302,51.85341],[4.325532,51.85347],[4.325717,51.85351],[4.326247,51.85362],[4.327086,51.85388],[4.327963,51.85422],[4.328825,51.85459],[4.328936,51.85463],[4.329148,51.85471],[4.329277,51.85458],[4.329472,51.85437],[4.330207,51.8536],[4.330581,51.85322],[4.330812,51.85296],[4.330915,51.85284],[4.330986,51.85272],[4.331422,51.85225],[4.332001,51.85176],[4.332529,51.85142],[4.332928,51.8512],[4.33375,51.85076],[4.33386,51.8507],[4.334012,51.85062],[4.333867,51.85051],[4.333309,51.85004],[4.333288,51.85],[4.333157,51.8499],[4.333076,51.84983],[4.332958,51.84973],[4.332677,51.84953],[4.332369,51.84938],[4.33193,51.84922],[4.331503,51.84909],[4.331293,51.84901],[4.331227,51.84903],[4.331153,51.84904],[4.33108,51.84903],[4.331021,51.84912],[4.330998,51.84916],[4.331021,51.84912],[4.33108,51.84903],[4.331018,51.849],[4.330974,51.84897],[4.330954,51.84892],[4.330959,51.84888],[4.330841,51.84883],[4.330301,51.84855],[4.330193,51.84849],[4.330126,51.84853],[4.329433,51.84902],[4.32921,51.84918],[4.329226,51.84929],[4.329252,51.84946],[4.329259,51.84946],[4.329252,51.84946],[4.32921,51.84918],[4.329433,51.84902],[4.330126,51.84853],[4.330193,51.84849],[4.329443,51.84808],[4.32872,51.84771],[4.328626,51.84762],[4.328483,51.84769],[4.327596,51.84834],[4.327425,51.84844],[4.327252,51.8485],[4.327215,51.84851],[4.326477,51.84868],[4.326209,51.84875],[4.326143,51.84877],[4.326109,51.84878],[4.326077,51.84879],[4.325401,51.84909],[4.325277,51.84913],[4.325092,51.84913],[4.324899,51.84908],[4.324858,51.84915],[4.324908,51.84934],[4.325124,51.84966],[4.325201,51.84978],[4.325124,51.84966],[4.324908,51.84934],[4.324858,51.84915],[4.324899,51.84908],[4.324706,51.84899],[4.324555,51.84892],[4.324349,51.84882],[4.324225,51.84877],[4.323937,51.8489],[4.323685,51.84901],[4.323048,51.84929],[4.323775,51.85063],[4.323934,51.8508],[4.324201,51.85075],[4.324437,51.85071],[4.324591,51.85072],[4.324603,51.85044],[4.324648,51.85028],[4.324717,51.85025],[4.324599,51.84996],[4.32446,51.84978],[4.324599,51.84996],[4.324717,51.85025],[4.324648,51.85028],[4.324603,51.85044],[4.324591,51.85072],[4.324437,51.85071],[4.324201,51.85075],[4.323934,51.8508],[4.323481,51.85092],[4.323302,51.85097],[4.323457,51.85166],[4.323463,51.85185],[4.323465,51.85203],[4.32341,51.85223],[4.323434,51.85226],[4.323496,51.8523],[4.324084,51.85237],[4.324724,51.8525],[4.324779,51.85251],[4.324816,51.85252],[4.324966,51.85254],[4.325161,51.85257],[4.325679,51.85267],[4.325869,51.8523],[4.326091,51.85199],[4.326126,51.85195],[4.326223,51.8518],[4.326246,51.85177],[4.326285,51.85162],[4.326403,51.85162],[4.326541,51.8516],[4.326632,51.85151],[4.326683,51.85146],[4.326832,51.85148],[4.327435,51.85163],[4.328104,51.85183],[4.328449,51.85148],[4.32847,51.85144],[4.328546,51.85124],[4.328696,51.85123],[4.328838,51.85121],[4.328942,51.85114],[4.329141,51.8509],[4.329322,51.85065],[4.329352,51.85061],[4.329581,51.85059],[4.33042,51.85056],[4.330701,51.85053],[4.331225,51.85048],[4.331476,51.85044],[4.331715,51.85038],[4.332108,51.85028],[4.332148,51.85034],[4.332422,51.85058],[4.332453,51.85065],[4.332321,51.85073],[4.332001,51.85083],[4.331883,51.8507],[4.331703,51.85074],[4.331474,51.8508],[4.331285,51.85085],[4.331474,51.8508],[4.331703,51.85074],[4.331883,51.8507],[4.332001,51.85083],[4.332321,51.85073],[4.332453,51.85065],[4.332422,51.85058],[4.332148,51.85034],[4.332108,51.85028],[4.332226,51.85023],[4.332183,51.8502],[4.332135,51.84998],[4.332183,51.8502],[4.332226,51.85023],[4.332641,51.8501],[4.332908,51.84991],[4.333076,51.84983],[4.33317,51.84978],[4.333248,51.84985],[4.333386,51.84996],[4.333924,51.8504],[4.333994,51.85045],[4.334143,51.85055],[4.334226,51.85064],[4.334346,51.85074],[4.334366,51.85076],[4.334819,51.85109],[4.334965,51.85118],[4.33605,51.85184],[4.336341,51.85201],[4.336764,51.85226],[4.33733,51.85252],[4.338604,51.85307],[4.338974,51.85324],[4.339354,51.85344],[4.339975,51.85371],[4.340118,51.85377],[4.340493,51.85393],[4.340727,51.85402],[4.340813,51.85405],[4.341307,51.85425],[4.341385,51.85418],[4.342306,51.85329],[4.342986,51.8528],[4.343039,51.85276],[4.342986,51.8528],[4.342385,51.85323],[4.342306,51.85329],[4.342105,51.85348],[4.341425,51.85414],[4.342306,51.85329],[4.342986,51.8528],[4.343447,51.85246],[4.343739,51.85225],[4.343954,51.8521],[4.344532,51.85169],[4.344573,51.85167],[4.34355,51.85109],[4.342261,51.85032],[4.341409,51.84985],[4.340407,51.84923],[4.339965,51.84892],[4.339923,51.84883],[4.339904,51.84874],[4.339931,51.84852],[4.339931,51.84838],[4.342422,51.84838],[4.342572,51.84838],[4.3428,51.8485],[4.343182,51.84875],[4.34341,51.84889],[4.343457,51.84892],[4.343237,51.84914],[4.34311,51.84925],[4.34225,51.84966],[4.342212,51.84968],[4.34225,51.84966],[4.34311,51.84925],[4.343237,51.84914],[4.343457,51.84892],[4.343182,51.84875],[4.3428,51.8485],[4.342572,51.84838],[4.342422,51.84838],[4.339931,51.84838],[4.339941,51.84828],[4.339942,51.84821],[4.339718,51.84821],[4.339446,51.8482],[4.338929,51.84819],[4.33885,51.84818],[4.338763,51.84817],[4.338435,51.84813],[4.338263,51.84808],[4.338108,51.84803],[4.337734,51.84794],[4.337349,51.84785],[4.337033,51.84776],[4.336783,51.84769],[4.336349,51.84756],[4.336016,51.84742],[4.335873,51.84734],[4.335759,51.84726],[4.335579,51.84713],[4.335454,51.84701],[4.335348,51.8469],[4.335173,51.84698],[4.33511,51.84701],[4.334812,51.84714],[4.334324,51.84732],[4.333602,51.84757],[4.333279,51.84769],[4.332897,51.8478],[4.332326,51.84809],[4.331856,51.84834],[4.331668,51.84846],[4.331352,51.84873],[4.33128,51.8488],[4.33132,51.84882],[4.331369,51.84888],[4.331368,51.84894],[4.331348,51.84897],[4.331888,51.84911],[4.332486,51.84933],[4.332723,51.84946],[4.332773,51.84948],[4.333046,51.84968],[4.33317,51.84978],[4.333248,51.84985],[4.333157,51.8499],[4.33298,51.84998],[4.332641,51.8501],[4.332226,51.85023],[4.332108,51.85028],[4.331715,51.85038],[4.331677,51.85033],[4.331636,51.85027],[4.33103,51.85031],[4.331636,51.85027],[4.331677,51.85033],[4.331715,51.85038],[4.331476,51.85044],[4.331225,51.85048],[4.330701,51.85053],[4.330697,51.85058],[4.33073,51.85077],[4.330822,51.8509],[4.330999,51.85117],[4.331004,51.85118],[4.330822,51.8509],[4.33073,51.85077],[4.330697,51.85058],[4.330701,51.85053],[4.33042,51.85056],[4.329352,51.85061],[4.329329,51.85047],[4.329352,51.85061],[4.329322,51.85065],[4.329141,51.8509],[4.328942,51.85114],[4.328838,51.85121],[4.328696,51.85123],[4.328696,51.85123],[4.328696,51.85123],[4.32871,51.85123],[4.328696,51.85123],[4.328546,51.85124],[4.328413,51.85122],[4.328269,51.85118],[4.328048,51.85108],[4.32791,51.85096],[4.327793,51.8508],[4.32772,51.85061],[4.327698,51.85055],[4.327627,51.85034],[4.327489,51.85014],[4.327439,51.85012],[4.327358,51.85014],[4.327279,51.85016],[4.326955,51.84972],[4.326699,51.84947],[4.3267,51.84941],[4.326747,51.84937],[4.32674,51.84935],[4.326747,51.84937],[4.3267,51.84941],[4.326699,51.84947],[4.326955,51.84972],[4.327279,51.85016],[4.327358,51.85014],[4.327439,51.85012],[4.327489,51.85014],[4.327627,51.85034],[4.327698,51.85055],[4.32772,51.85061],[4.327793,51.8508],[4.32791,51.85096],[4.328048,51.85108],[4.328269,51.85118],[4.328413,51.85122],[4.328546,51.85124],[4.32847,51.85144],[4.328449,51.85148],[4.328104,51.85183],[4.328173,51.85185],[4.328633,51.85201],[4.3291,51.8522],[4.33009,51.85262],[4.330145,51.85265],[4.330255,51.85269],[4.330449,51.85274],[4.330648,51.85275],[4.330738,51.85278],[4.330772,51.85279],[4.330915,51.85284],[4.331012,51.85288],[4.330692,51.85326],[4.33034,51.85364],[4.329596,51.85443],[4.329432,51.85459],[4.329393,51.85463],[4.329253,51.85476],[4.32914,51.85486],[4.329038,51.85482],[4.328821,51.85473],[4.328488,51.85459],[4.328043,51.8544],[4.327366,51.85414],[4.326777,51.85394],[4.326185,51.85377],[4.325708,51.85365],[4.325644,51.85363],[4.325464,51.8536],[4.325237,51.85355],[4.325044,51.8535],[4.323891,51.85326],[4.323193,51.85313],[4.321988,51.85291],[4.321598,51.85284],[4.321254,51.85278],[4.319739,51.8525],[4.318846,51.85234],[4.317945,51.85218],[4.317867,51.85217],[4.317599,51.85212],[4.317521,51.8523],[4.317275,51.85261],[4.317192,51.85284],[4.317157,51.85292],[4.317067,51.85312],[4.317019,51.85323],[4.316827,51.85366],[4.316722,51.8539],[4.316459,51.8545],[4.316312,51.85477],[4.315972,51.85545],[4.315952,51.85565],[4.315853,51.85585],[4.315795,51.85597],[4.315802,51.85608],[4.315858,51.85614],[4.316232,51.85624],[4.316476,51.85632],[4.316631,51.85635],[4.316713,51.85616],[4.316796,51.85596],[4.316669,51.85594],[4.316796,51.85596],[4.316713,51.85616],[4.316631,51.85635],[4.316476,51.85632],[4.315814,51.85624],[4.315743,51.8562],[4.315708,51.85615],[4.315665,51.85609],[4.315639,51.85601],[4.315657,51.85597],[4.315834,51.85561],[4.315972,51.85545],[4.316312,51.85477],[4.316459,51.8545],[4.316307,51.85448],[4.315477,51.85431],[4.315622,51.85399],[4.315617,51.854],[4.315956,51.85327],[4.315232,51.85314],[4.314386,51.85291],[4.314612,51.85265],[4.314917,51.85229],[4.315,51.8522],[4.314054,51.85204],[4.313651,51.85197],[4.3133,51.8519],[4.312847,51.85181],[4.312496,51.85175],[4.312308,51.85198],[4.312043,51.8523],[4.31178,51.85262],[4.31118,51.85243],[4.3105,51.8522],[4.310389,51.85228],[4.309909,51.85262],[4.310389,51.85228],[4.3105,51.8522],[4.31118,51.85243],[4.31178,51.85262],[4.312022,51.85233],[4.31178,51.85262],[4.311612,51.85281],[4.311505,51.85294],[4.311304,51.85318],[4.310989,51.85359],[4.310945,51.85366],[4.310486,51.85424],[4.310596,51.85427],[4.311101,51.85442],[4.311192,51.85436],[4.311326,51.85434],[4.311436,51.85436],[4.312037,51.85455],[4.3124,51.8541],[4.313207,51.85434],[4.313175,51.85438],[4.312773,51.85486],[4.312426,51.85529],[4.312379,51.85535]],"ShapeMeta":[{"Shape":0,"Attributes":{"profile":"car"}},{"Shape":1,"Attributes":{"name":"Vondelsingel","highway":"unclassified","maxspeed":"30","profile":"car","distance":"61.20789","time":"9.793262"}},{"Shape":2,"Attributes":{"name":"Vondelsingel","highway":"unclassified","maxspeed":"30","profile":"car","distance":"71.30789","time":"11.40926"}},{"Shape":4,"Attributes":{"name":"Vondelsingel","highway":"residential","profile":"car","distance":"138.0079","time":"17.81246"}},{"Shape":5,"Attributes":{"name":"Rembrandtstraat","highway":"unclassified","maxspeed":"30","profile":"car","distance":"284.1802","time":"41.20003"}},{"Shape":6,"Attributes":{"name":"Rembrandtstraat","highway":"unclassified","maxspeed":"30","profile":"car","distance":"430.3525","time":"244.5876"}},{"Shape":7,"Attributes":{"name":"Rembrandtstraat","highway":"unclassified","maxspeed":"30","profile":"car","distance":"459.8525","time":"249.3076"}},{"Shape":8,"Attributes":{"name":"Paulus Potterstraat","highway":"unclassified","maxspeed":"30","profile":"car","distance":"471.0974","time":"251.1068"}},{"Shape":9,"Attributes":{"name":"Paulus Potterstraat","highway":"unclassified","maxspeed":"30","profile":"car","distance":"509.1525","time":"437.1956"}},{"Shape":10,"Attributes":{"name":"Paulus Potterstraat","highway":"unclassified","maxspeed":"30","profile":"car","distance":"523.8525","time":"439.5476"}},{"Shape":11,"Attributes":{"name":"Paulus Potterstraat","highway":"unclassified","maxspeed":"30","profile":"car","distance":"567.7525","time":"446.5716"}},{"Shape":13,"Attributes":{"name":"Paulus Potterstraat","highway":"unclassified","maxspeed":"30","profile":"car","distance":"599.7565","time":"451.6923"}},{"Shape":14,"Attributes":{"name":"Paulus Potterstraat","highway":"unclassified","maxspeed":"30","profile":"car","distance":"628.9524","time":"636.3636"}},{"Shape":16,"Attributes":{"name":"Frans Halsstraat","highway":"unclassified","maxspeed":"30","profile":"car","distance":"701.0524","time":"647.8997"}},{"Shape":18,"Attributes":{"name":"Frans Halsstraat","highway":"unclassified","maxspeed":"30","profile":"car","distance":"748.4524","time":"655.4836"}},{"Shape":21,"Attributes":{"name":"Frans Halsstraat","highway":"unclassified","maxspeed":"30","profile":"car","distance":"845.9586","time":"671.0847"}},{"Shape":24,"Attributes":{"name":"Frans Halsstraat","highway":"unclassified","maxspeed":"30","profile":"car","distance":"943.4648","time":"866.6855"}},{"Shape":26,"Attributes":{"name":"Frans Halsstraat","highway":"unclassified","maxspeed":"30","profile":"car","distance":"990.8647","time":"874.2696"}},{"Shape":28,"Attributes":{"name":"Frans Halsstraat","highway":"unclassified","maxspeed":"30","profile":"car","distance":"1062.965","time":"885.8056"}},{"Shape":30,"Attributes":{"name":"Frans Halsstraat","highway":"unclassified","maxspeed":"30","profile":"car","distance":"1151.475","time":"899.9672"}},{"Shape":33,"Attributes":{"name":"Frans Halsstraat","highway":"unclassified","maxspeed":"30","profile":"car","distance":"1209.665","time":"1089.277"}},{"Shape":35,"Attributes":{"name":"Frans Halsstraat","highway":"unclassified","maxspeed":"30","profile":"car","distance":"1275.965","time":"1099.885"}},{"Shape":36,"Attributes":{"name":"Frans Halsstraat","highway":"unclassified","maxspeed":"30","profile":"car","distance":"1298.065","time":"1103.421"}},{"Shape":38,"Attributes":{"name":"Frans Halsstraat","highway":"unclassified","maxspeed":"30","profile":"car","distance":"1387.665","time":"1117.757"}},{"Shape":39,"Attributes":{"name":"Pieter de Hooghstraat","highway":"unclassified","maxspeed":"30","profile":"car","distance":"1392.862","time":"1118.589"}},{"Shape":40,"Attributes":{"name":"Pieter de Hooghstraat","highway":"unclassified","maxspeed":"30","profile":"car","distance":"1398.059","time":"1299.421"}},{"Shape":42,"Attributes":{"name":"Frans Halsstraat","highway":"unclassified","maxspeed":"30","profile":"car","distance":"1487.659","time":"1313.756"}},{"Shape":44,"Attributes":{"name":"Jan Steenstraat","highway":"residential","maxspeed":"30","profile":"car","distance":"1548.838","time":"1323.545"}},{"Shape":46,"Attributes":{"name":"Jan Steenstraat","highway":"residential","maxspeed":"30","profile":"car","distance":"1636.259","time":"1517.532"}},{"Shape":47,"Attributes":{"name":"Rembrandtstraat","highway":"unclassified","maxspeed":"30","profile":"car","distance":"1639.858","time":"1518.108"}},{"Shape":49,"Attributes":{"name":"Rembrandtstraat","highway":"unclassified","maxspeed":"30","profile":"car","distance":"1817.259","time":"1726.492"}},{"Shape":50,"Attributes":{"name":"Rembrandtstraat","highway":"unclassified","maxspeed":"30","profile":"car","distance":"1846.759","time":"1731.212"}},{"Shape":52,"Attributes":{"name":"Vondelsingel","highway":"residential","profile":"car","distance":"1913.459","time":"1737.615"}},{"Shape":54,"Attributes":{"name":"Sportlaan","maxspeed":"50","highway":"tertiary","profile":"car","distance":"1981.759","time":"1744.172"}},{"Shape":56,"Attributes":{"name":"Menno ter Braakstraat","highway":"residential","maxspeed":"30","profile":"car","distance":"2006.836","time":"1748.184"}},{"Shape":58,"Attributes":{"name":"Menno ter Braakstraat","highway":"residential","maxspeed":"30","profile":"car","distance":"2031.912","time":"1932.196"}},{"Shape":59,"Attributes":{"name":"Sportlaan","maxspeed":"50","highway":"tertiary","profile":"car","distance":"2104.112","time":"1939.127"}},{"Shape":60,"Attributes":{"name":"Heyermansstraat","highway":"unclassified","maxspeed":"30","profile":"car","distance":"2115.012","time":"1940.871"}},{"Shape":61,"Attributes":{"name":"Heyermansstraat","highway":"residential","maxspeed":"30","profile":"car","distance":"2179.712","time":"1951.223"}},{"Shape":62,"Attributes":{"highway":"service","profile":"car","distance":"2201.512","time":"1954.711"}},{"Shape":63,"Attributes":{"highway":"service","profile":"car","distance":"2223.312","time":"2138.199"}},{"Shape":64,"Attributes":{"name":"Heyermansstraat","highway":"residential","maxspeed":"30","profile":"car","distance":"2270.112","time":"2145.687"}},{"Shape":65,"Attributes":{"name":"Heyermansstraat","highway":"residential","maxspeed":"30","profile":"car","distance":"2295.712","time":"2149.783"}},{"Shape":67,"Attributes":{"name":"Slauerhoffstraat","highway":"residential","maxspeed":"30","profile":"car","distance":"2405.532","time":"2167.354"}},{"Shape":69,"Attributes":{"name":"Slauerhoffstraat","highway":"residential","maxspeed":"30","profile":"car","distance":"2500.087","time":"2362.483"}},{"Shape":71,"Attributes":{"name":"Slauerhoffstraat","highway":"residential","maxspeed":"30","profile":"car","distance":"2626.522","time":"2562.712"}},{"Shape":72,"Attributes":{"name":"A M de Jongstraat","highway":"unclassified","maxspeed":"30","profile":"car","distance":"2646.022","time":"2565.833"}},{"Shape":74,"Attributes":{"name":"A M de Jongstraat","highway":"unclassified","maxspeed":"30","profile":"car","distance":"2716.822","time":"2577.16"}},{"Shape":77,"Attributes":{"name":"Winston Churchilllaan","maxspeed":"50","highway":"tertiary","profile":"car","distance":"2875.522","time":"2592.396"}},{"Shape":80,"Attributes":{"name":"Winston Churchilllaan","maxspeed":"50","highway":"tertiary","profile":"car","distance":"2934.122","time":"2598.021"}},{"Shape":81,"Attributes":{"name":"Winston Churchilllaan","maxspeed":"50","highway":"tertiary","oneway":"yes","profile":"car","distance":"2965.622","time":"2601.045"}},{"Shape":83,"Attributes":{"name":"Winston Churchilllaan","maxspeed":"50","highway":"tertiary","oneway":"yes","profile":"car","distance":"2993.022","time":"2603.676"}},{"Shape":84,"Attributes":{"name":"Groene Kruisweg","maxspeed":"50","highway":"tertiary","oneway":"yes","profile":"car","distance":"3011.622","time":"2605.461"}},{"Shape":85,"Attributes":{"name":"Groene Kruisweg","oneway":"yes","highway":"primary","maxspeed":"80","profile":"car","distance":"3023.422","time":"2606.169"}},{"Shape":86,"Attributes":{"name":"Groene Kruisweg","oneway":"yes","highway":"primary","maxspeed":"80","profile":"car","distance":"3041.322","time":"2607.243"}},{"Shape":89,"Attributes":{"name":"Groene Kruisweg","oneway":"yes","highway":"primary","maxspeed":"80","profile":"car","distance":"3207.222","time":"2617.197"}},{"Shape":92,"Attributes":{"name":"Groene Kruisweg","oneway":"yes","highway":"primary","maxspeed":"80","profile":"car","distance":"3309.022","time":"2623.305"}},{"Shape":94,"Attributes":{"name":"Groene Kruisweg","oneway":"yes","highway":"primary","maxspeed":"80","profile":"car","distance":"3460.422","time":"2632.389"}},{"Shape":97,"Attributes":{"name":"Groene Kruisweg","oneway":"yes","highway":"primary","maxspeed":"80","profile":"car","distance":"3570.822","time":"2639.013"}},{"Shape":98,"Attributes":{"name":"Groene Kruisweg","oneway":"yes","highway":"primary","maxspeed":"80","profile":"car","distance":"3587.622","time":"2640.021"}},{"Shape":100,"Attributes":{"name":"Groene Kruisweg","oneway":"yes","highway":"primary","maxspeed":"80","profile":"car","distance":"3639.622","time":"2643.141"}},{"Shape":102,"Attributes":{"name":"Groene Kruisweg","oneway":"yes","highway":"primary","maxspeed":"80","profile":"car","distance":"3774.922","time":"2651.259"}},{"Shape":103,"Attributes":{"name":"Groene Kruisweg","oneway":"yes","highway":"primary","maxspeed":"80","profile":"car","distance":"3847.022","time":"2655.585"}},{"Shape":105,"Attributes":{"name":"Groene Kruisweg","oneway":"yes","highway":"primary","maxspeed":"80","profile":"car","distance":"3873.222","time":"2657.157"}},{"Shape":108,"Attributes":{"name":"Schenkelweg","maxspeed":"50","oneway":"yes","highway":"secondary","profile":"car","distance":"4016.822","time":"2670.943"}},{"Shape":109,"Attributes":{"name":"Schenkelweg","maxspeed":"50","oneway":"yes","highway":"secondary","profile":"car","distance":"4066.022","time":"2675.666"}},{"Shape":110,"Attributes":{"name":"Schenkelweg","maxspeed":"50","oneway":"yes","highway":"secondary","profile":"car","distance":"4099.222","time":"2678.853"}},{"Shape":111,"Attributes":{"name":"Schenkelweg","maxspeed":"50","oneway":"yes","highway":"secondary","profile":"car","distance":"4114.122","time":"2680.284"}},{"Shape":115,"Attributes":{"name":"Schenkelweg","maxspeed":"50","oneway":"yes","highway":"secondary","profile":"car","distance":"4308.322","time":"2698.927"}},{"Shape":117,"Attributes":{"name":"Schenkelweg","maxspeed":"50","oneway":"yes","highway":"secondary","profile":"car","distance":"4420.022","time":"2709.65"}},{"Shape":119,"Attributes":{"name":"Schenkelweg","maxspeed":"50","oneway":"yes","highway":"secondary","profile":"car","distance":"4443.822","time":"2711.935"}},{"Shape":120,"Attributes":{"name":"Doctor J M den Uyllaan","highway":"unclassified","maxspeed":"50","oneway":"yes","profile":"car","distance":"4459.622","time":"2713.452"}},{"Shape":121,"Attributes":{"name":"Doctor J M den Uyllaan","highway":"unclassified","maxspeed":"50","oneway":"yes","profile":"car","distance":"4524.322","time":"2719.663"}},{"Shape":123,"Attributes":{"name":"Doctor J M den Uyllaan","highway":"unclassified","maxspeed":"50","oneway":"yes","profile":"car","distance":"4543.222","time":"2721.477"}},{"Shape":124,"Attributes":{"name":"Doctor J M den Uyllaan","highway":"unclassified","maxspeed":"50","oneway":"yes","profile":"car","distance":"4552.622","time":"2722.38"}},{"Shape":130,"Attributes":{"name":"Doctor J M den Uyllaan","highway":"unclassified","maxspeed":"50","oneway":"yes","profile":"car","distance":"4706.922","time":"2737.192"}},{"Shape":133,"Attributes":{"name":"Centrumrotonde","highway":"unclassified","maxspeed":"50","oneway":"yes","junction":"roundabout","profile":"car","distance":"4722.122","time":"2738.652"}},{"Shape":135,"Attributes":{"highway":"service","profile":"car","distance":"4738.007","time":"2741.193"}},{"Shape":137,"Attributes":{"highway":"service","profile":"car","distance":"4753.892","time":"2923.735"}},{"Shape":141,"Attributes":{"name":"Centrumrotonde","highway":"unclassified","maxspeed":"50","oneway":"yes","junction":"roundabout","profile":"car","distance":"4774.292","time":"2925.693"}},{"Shape":144,"Attributes":{"name":"Raadhuislaan","highway":"unclassified","maxspeed":"50","oneway":"yes","profile":"car","distance":"4842.492","time":"2932.24"}},{"Shape":145,"Attributes":{"name":"H de Lintweg","highway":"residential","profile":"car","distance":"4848.992","time":"2932.864"}},{"Shape":147,"Attributes":{"name":"H de Lintweg","highway":"residential","profile":"car","distance":"4944.992","time":"2942.08"}},{"Shape":148,"Attributes":{"name":"H de Lintweg","highway":"unclassified","profile":"car","distance":"4956.456","time":"2943.181"}},{"Shape":149,"Attributes":{"name":"H de Lintweg","highway":"unclassified","profile":"car","distance":"4975.992","time":"3125.056"}},{"Shape":150,"Attributes":{"name":"D. Losstraat","highway":"residential","profile":"car","distance":"4976.485","time":"3125.104"}},{"Shape":151,"Attributes":{"name":"D. Losstraat","highway":"residential","profile":"car","distance":"4976.978","time":"3305.151"}},{"Shape":152,"Attributes":{"name":"H de Lintweg","highway":"unclassified","profile":"car","distance":"5007.978","time":"3308.127"}},{"Shape":154,"Attributes":{"name":"H de Lintweg","highway":"residential","profile":"car","distance":"5103.978","time":"3317.343"}},{"Shape":155,"Attributes":{"name":"H de Lintweg","highway":"residential","profile":"car","distance":"5110.478","time":"3317.967"}},{"Shape":158,"Attributes":{"name":"Raadhuislaan","highway":"unclassified","maxspeed":"50","oneway":"yes","profile":"car","distance":"5255.178","time":"3331.858"}},{"Shape":162,"Attributes":{"name":"Marrewijklaan","highway":"unclassified","maxspeed":"30","profile":"car","distance":"5391.8","time":"3353.718"}},{"Shape":166,"Attributes":{"name":"Marrewijklaan","highway":"unclassified","maxspeed":"30","profile":"car","distance":"5473.978","time":"3546.866"}},{"Shape":167,"Attributes":{"name":"Marrewijklaan","highway":"unclassified","maxspeed":"30","profile":"car","distance":"5476.378","time":"3547.25"}},{"Shape":172,"Attributes":{"name":"Marrewijklaan","highway":"unclassified","maxspeed":"30","profile":"car","distance":"5572.978","time":"3562.707"}},{"Shape":176,"Attributes":{"name":"Eerste Heulbrugstraat","highway":"unclassified","maxspeed":"30","profile":"car","distance":"5655.778","time":"3575.955"}},{"Shape":180,"Attributes":{"name":"Eerste Heulbrugstraat","highway":"unclassified","maxspeed":"30","profile":"car","distance":"5738.578","time":"3769.203"}},{"Shape":183,"Attributes":{"name":"Vredehofplein","highway":"unclassified","profile":"car","distance":"5786.078","time":"3773.763"}},{"Shape":184,"Attributes":{"name":"Vredehofplein","highway":"unclassified","profile":"car","distance":"5796.378","time":"3774.752"}},{"Shape":186,"Attributes":{"name":"Karel Doormanstraat","highway":"residential","maxspeed":"30","profile":"car","distance":"5842.09","time":"3782.066"}},{"Shape":187,"Attributes":{"name":"Karel Doormanstraat","highway":"residential","maxspeed":"30","profile":"car","distance":"5895.677","time":"3970.64"}},{"Shape":189,"Attributes":{"name":"Vierambachtenkade Zuidzijde","highway":"residential","profile":"car","distance":"6075.477","time":"3987.901"}},{"Shape":192,"Attributes":{"name":"Zijlstraat","highway":"residential","profile":"car","distance":"6122.177","time":"3992.384"}},{"Shape":195,"Attributes":{"name":"Kerkring","highway":"service","profile":"car","distance":"6176.677","time":"4001.104"}},{"Shape":196,"Attributes":{"name":"Markt","highway":"service","maxspeed":"20","profile":"car","distance":"6209.477","time":"4008.976"}},{"Shape":197,"Attributes":{"name":"Kees de Groenplein","highway":"residential","profile":"car","distance":"6231.957","time":"4011.134"}},{"Shape":198,"Attributes":{"name":"Kees de Groenplein","highway":"residential","profile":"car","distance":"6254.437","time":"4193.292"}},{"Shape":199,"Attributes":{"name":"Markt","highway":"service","maxspeed":"20","profile":"car","distance":"6287.237","time":"4201.164"}},{"Shape":202,"Attributes":{"name":"Kerkring","highway":"service","profile":"car","distance":"6341.737","time":"4209.884"}},{"Shape":205,"Attributes":{"name":"Zijlstraat","highway":"residential","profile":"car","distance":"6388.437","time":"4214.367"}},{"Shape":206,"Attributes":{"bridge":"yes","name":"Boezembocht","highway":"residential","profile":"car","distance":"6422.137","time":"4217.602"}},{"Shape":207,"Attributes":{"name":"Boezembocht","highway":"residential","profile":"car","distance":"6435.537","time":"4218.889"}},{"Shape":208,"Attributes":{"name":"Koningin Julianaplein","highway":"residential","profile":"car","distance":"6513.037","time":"4226.329"}},{"Shape":215,"Attributes":{"name":"Jan Campertlaan","highway":"residential","profile":"car","distance":"6673.637","time":"4241.746"}},{"Shape":217,"Attributes":{"name":"Jan Campertlaan","highway":"residential","profile":"car","distance":"6680.182","time":"4242.375"}},{"Shape":218,"Attributes":{"name":"Jan Campertlaan","highway":"residential","profile":"car","distance":"6690.837","time":"4423.398"}},{"Shape":219,"Attributes":{"name":"Jan Campertlaan","highway":"residential","profile":"car","distance":"6704.637","time":"4424.723"}},{"Shape":220,"Attributes":{"name":"Jan Campertlaan","highway":"residential","profile":"car","distance":"6741.737","time":"4428.284"}},{"Shape":223,"Attributes":{"name":"Stationsstraat","highway":"unclassified","profile":"car","distance":"6827.637","time":"4436.531"}},{"Shape":224,"Attributes":{"bridge":"yes","name":"Stationsstraat","highway":"unclassified","profile":"car","distance":"6845.037","time":"4438.201"}},{"Shape":225,"Attributes":{"name":"Stationsstraat","highway":"unclassified","profile":"car","distance":"6849.137","time":"4438.595"}},{"Shape":226,"Attributes":{"name":"Stationsstraat","highway":"unclassified","profile":"car","distance":"6866.237","time":"4440.236"}},{"Shape":230,"Attributes":{"name":"Noordeinde","highway":"residential","maxspeed":"30","profile":"car","distance":"6902.537","time":"4446.044"}},{"Shape":233,"Attributes":{"name":"Noordeinde","highway":"residential","maxspeed":"30","oneway":"yes","profile":"car","distance":"7008.337","time":"4462.972"}},{"Shape":234,"Attributes":{"name":"Noordkade","highway":"residential","maxspeed":"30","profile":"car","distance":"7053.237","time":"4470.156"}},{"Shape":235,"Attributes":{"name":"Noordkade","highway":"residential","maxspeed":"30","profile":"car","distance":"7058.438","time":"4470.988"}},{"Shape":236,"Attributes":{"bridge":"yes","name":"Noordkade","highway":"residential","maxspeed":"30","profile":"car","distance":"7081.037","time":"4474.604"}},{"Shape":238,"Attributes":{"name":"Noordkade","highway":"residential","maxspeed":"30","profile":"car","distance":"7101.438","time":"4477.868"}},{"Shape":239,"Attributes":{"name":"Noordkade","highway":"residential","maxspeed":"30","profile":"car","distance":"7111.537","time":"4479.484"}},{"Shape":240,"Attributes":{"name":"Noordkade","highway":"residential","maxspeed":"30","profile":"car","distance":"7141.837","time":"4484.333"}},{"Shape":242,"Attributes":{"name":"Noordkade","highway":"residential","maxspeed":"30","profile":"car","distance":"7177.537","time":"4490.044"}},{"Shape":243,"Attributes":{"name":"Gorsstraat","highway":"residential","maxspeed":"30","profile":"car","distance":"7193.342","time":"4492.573"}},{"Shape":244,"Attributes":{"name":"Gorsstraat","highway":"residential","maxspeed":"30","profile":"car","distance":"7251.137","time":"4861.82"}},{"Shape":245,"Attributes":{"name":"Gorsstraat","highway":"residential","maxspeed":"30","profile":"car","distance":"7270.537","time":"4864.924"}},{"Shape":248,"Attributes":{"name":"Gorsstraat","highway":"residential","maxspeed":"30","profile":"car","distance":"7342.337","time":"4876.413"}},{"Shape":249,"Attributes":{"name":"Gorsstraat","highway":"residential","maxspeed":"30","profile":"car","distance":"7371.737","time":"4881.117"}},{"Shape":251,"Attributes":{"name":"Kolkplein","highway":"service","profile":"car","distance":"7411.737","time":"4887.517"}},{"Shape":252,"Attributes":{"name":"Kolkplein","highway":"service","profile":"car","distance":"7420.437","time":"4888.909"}},{"Shape":255,"Attributes":{"name":"Damstraat","highway":"service","profile":"car","distance":"7473.337","time":"4897.373"}},{"Shape":256,"Attributes":{"name":"Damstraat","highway":"service","profile":"car","distance":"7486.437","time":"4899.468"}},{"Shape":257,"Attributes":{"name":"Damstraat","highway":"service","profile":"car","distance":"7503.337","time":"4902.172"}},{"Shape":258,"Attributes":{"name":"Damstraat","highway":"service","profile":"car","distance":"7517.237","time":"4904.396"}},{"Shape":259,"Attributes":{"name":"Damstraat","highway":"service","profile":"car","distance":"7531.137","time":"5086.62"}},{"Shape":260,"Attributes":{"name":"Damstraat","highway":"service","profile":"car","distance":"7548.037","time":"5089.324"}},{"Shape":261,"Attributes":{"name":"Damstraat","highway":"service","profile":"car","distance":"7561.137","time":"5091.42"}},{"Shape":264,"Attributes":{"name":"Damstraat","highway":"service","profile":"car","distance":"7614.037","time":"5099.884"}},{"Shape":265,"Attributes":{"name":"Kolkplein","highway":"service","profile":"car","distance":"7622.737","time":"5101.276"}},{"Shape":267,"Attributes":{"name":"Kolkplein","highway":"service","profile":"car","distance":"7662.737","time":"5107.676"}},{"Shape":268,"Attributes":{"name":"Gorsstraat","highway":"residential","maxspeed":"30","profile":"car","distance":"7672.037","time":"5109.164"}},{"Shape":270,"Attributes":{"name":"Gorsstraat","highway":"service","profile":"car","distance":"7701.136","time":"5113.82"}},{"Shape":272,"Attributes":{"name":"Gorsstraat","highway":"service","profile":"car","distance":"7730.235","time":"5298.476"}},{"Shape":273,"Attributes":{"name":"Gorsstraat","highway":"residential","maxspeed":"30","profile":"car","distance":"7762.335","time":"5303.612"}},{"Shape":274,"Attributes":{"name":"Gorsstraat","highway":"residential","oneway":"yes","profile":"car","distance":"7789.935","time":"5306.261"}},{"Shape":275,"Attributes":{"name":"Gorsstraat","highway":"residential","oneway":"yes","profile":"car","distance":"7805.035","time":"5307.711"}},{"Shape":276,"Attributes":{"name":"Thorbeckelaan","highway":"residential","oneway":"yes","profile":"car","distance":"7813.035","time":"5308.479"}},{"Shape":277,"Attributes":{"name":"Doctor J M den Uyllaan","highway":"unclassified","maxspeed":"50","oneway":"yes","profile":"car","distance":"7822.335","time":"5309.372"}},{"Shape":278,"Attributes":{"name":"Doctor J M den Uyllaan","highway":"unclassified","maxspeed":"50","oneway":"yes","profile":"car","distance":"7837.535","time":"5310.831"}},{"Shape":281,"Attributes":{"name":"Doctor J M den Uyllaan","highway":"unclassified","maxspeed":"50","oneway":"yes","profile":"car","distance":"7921.335","time":"5318.875"}},{"Shape":282,"Attributes":{"name":"Elementenweg","highway":"unclassified","oneway":"yes","profile":"car","distance":"7932.235","time":"5319.922"}},{"Shape":283,"Attributes":{"name":"Elementenweg","highway":"unclassified","oneway":"yes","profile":"car","distance":"7946.635","time":"5321.305"}},{"Shape":286,"Attributes":{"highway":"unclassified","oneway":"yes","profile":"car","distance":"8011.635","time":"5327.544"}},{"Shape":287,"Attributes":{"highway":"unclassified","oneway":"yes","profile":"car","distance":"8115.535","time":"5337.519"}},{"Shape":289,"Attributes":{"highway":"unclassified","oneway":"yes","profile":"car","distance":"8183.835","time":"5344.076"}},{"Shape":293,"Attributes":{"highway":"unclassified","oneway":"yes","profile":"car","distance":"8404.835","time":"5365.292"}},{"Shape":294,"Attributes":{"name":"Elementenweg","highway":"unclassified","maxspeed":"30","profile":"car","distance":"8456.735","time":"5373.596"}},{"Shape":297,"Attributes":{"name":"Elementenweg","highway":"unclassified","maxspeed":"30","profile":"car","distance":"8519.035","time":"5383.563"}},{"Shape":298,"Attributes":{"name":"Elementenweg","highway":"unclassified","maxspeed":"30","profile":"car","distance":"8525.735","time":"5384.636"}},{"Shape":299,"Attributes":{"name":"Elementenweg","highway":"unclassified","maxspeed":"30","profile":"car","distance":"8565.936","time":"5391.068"}},{"Shape":303,"Attributes":{"name":"Hongerlandsedijk","highway":"residential","maxspeed":"30","profile":"car","distance":"8770.167","time":"5423.745"}},{"Shape":305,"Attributes":{"name":"Hongerlandsedijk","highway":"residential","maxspeed":"30","profile":"car","distance":"8839.02","time":"5614.762"}},{"Shape":307,"Attributes":{"name":"Hongerlandsedijk","highway":"residential","maxspeed":"30","profile":"car","distance":"8873.087","time":"5800.213"}},{"Shape":308,"Attributes":{"name":"Hongerlandsedijk","highway":"residential","maxspeed":"30","profile":"car","distance":"8959.991","time":"5994.118"}},{"Shape":311,"Attributes":{"name":"Hongerlandsedijk","highway":"residential","maxspeed":"30","profile":"car","distance":"9193.482","time":"6211.477"}},{"Shape":313,"Attributes":{"name":"Hongerlandsedijk","highway":"residential","maxspeed":"30","profile":"car","distance":"9246.926","time":"6220.028"}},{"Shape":315,"Attributes":{"name":"Hongerlandsedijk","highway":"residential","maxspeed":"30","profile":"car","distance":"9310.883","time":"6410.261"}},{"Shape":319,"Attributes":{"name":"Oude Maasweg","highway":"unclassified","maxspeed":"30","profile":"car","distance":"9705.083","time":"6473.333"}},{"Shape":322,"Attributes":{"name":"Oude Maasweg","highway":"unclassified","maxspeed":"30","profile":"car","distance":"9771.183","time":"6483.909"}},{"Shape":323,"Attributes":{"name":"Oude Maasweg","highway":"unclassified","maxspeed":"30","profile":"car","distance":"9795.782","time":"6487.845"}},{"Shape":324,"Attributes":{"name":"Oude Maasweg","highway":"unclassified","maxspeed":"30","profile":"car","distance":"9810.982","time":"6490.277"}},{"Shape":328,"Attributes":{"name":"Theemsweg","highway":"residential","profile":"car","distance":"10051.38","time":"6513.355"}},{"Shape":329,"Attributes":{"name":"Groenoord","highway":"residential","profile":"car","distance":"10073.12","time":"6515.442"}},{"Shape":330,"Attributes":{"name":"Groenoord","highway":"residential","profile":"car","distance":"10077.58","time":"6695.87"}},{"Shape":331,"Attributes":{"name":"Groenoord","highway":"residential","profile":"car","distance":"10106.38","time":"6698.635"}},{"Shape":334,"Attributes":{"name":"Groenoord","highway":"residential","profile":"car","distance":"10199.42","time":"6707.567"}},{"Shape":337,"Attributes":{"name":"Groenoord","highway":"residential","profile":"car","distance":"10292.46","time":"6896.499"}},{"Shape":338,"Attributes":{"name":"Groenoord","highway":"residential","profile":"car","distance":"10321.26","time":"6899.264"}},{"Shape":339,"Attributes":{"name":"Groenoord","highway":"residential","profile":"car","distance":"10347.46","time":"6901.779"}},{"Shape":343,"Attributes":{"name":"Theemsweg","highway":"residential","profile":"car","distance":"10587.86","time":"6924.857"}},{"Shape":345,"Attributes":{"name":"Oude Maasweg","highway":"unclassified","profile":"car","distance":"10606.96","time":"6926.691"}},{"Shape":346,"Attributes":{"name":"Donaulaan","highway":"unclassified","maxspeed":"50","oneway":"yes","profile":"car","distance":"10622.36","time":"6928.169"}},{"Shape":348,"Attributes":{"name":"Donaulaan","highway":"unclassified","maxspeed":"50","oneway":"yes","profile":"car","distance":"10676.56","time":"6933.373"}},{"Shape":351,"Attributes":{"name":"Donaulaan","highway":"unclassified","maxspeed":"50","oneway":"yes","profile":"car","distance":"10711.16","time":"6936.694"}},{"Shape":352,"Attributes":{"maxspeed":"50","oneway":"yes","highway":"tertiary_link","profile":"car","distance":"10724.06","time":"6937.933"}},{"Shape":353,"Attributes":{"name":"Ruwaard van Puttenweg","maxspeed":"50","highway":"tertiary","oneway":"yes","profile":"car","distance":"10735.96","time":"6939.075"}},{"Shape":354,"Attributes":{"name":"Ruwaard van Puttenweg","maxspeed":"50","highway":"tertiary","oneway":"yes","profile":"car","distance":"10763.56","time":"6941.725"}},{"Shape":357,"Attributes":{"name":"Ruwaard van Puttenweg","maxspeed":"50","highway":"tertiary","oneway":"yes","profile":"car","distance":"10834.76","time":"6948.56"}},{"Shape":360,"Attributes":{"name":"Ruwaard van Puttenweg","maxspeed":"50","highway":"tertiary","oneway":"yes","profile":"car","distance":"10908.76","time":"6955.664"}},{"Shape":363,"Attributes":{"name":"Ruwaard van Puttenweg","maxspeed":"50","highway":"tertiary","oneway":"yes","profile":"car","distance":"10955.26","time":"6960.128"}},{"Shape":364,"Attributes":{"name":"Ruwaard van Puttenweg","maxspeed":"50","highway":"tertiary","oneway":"yes","profile":"car","distance":"10969.86","time":"6961.529"}},{"Shape":367,"Attributes":{"name":"Centrumlaan","highway":"residential","maxspeed":"50","oneway":"yes","profile":"car","distance":"11015.36","time":"6965.897"}},{"Shape":369,"Attributes":{"name":"Centrumlaan","highway":"residential","maxspeed":"50","oneway":"yes","profile":"car","distance":"11111.46","time":"6975.123"}},{"Shape":371,"Attributes":{"name":"Centrumlaan","highway":"residential","maxspeed":"50","oneway":"yes","profile":"car","distance":"11166.26","time":"6980.384"}},{"Shape":372,"Attributes":{"name":"Centrumlaan","highway":"residential","maxspeed":"50","profile":"car","distance":"11216.76","time":"6985.232"}},{"Shape":376,"Attributes":{"name":"Centrumlaan","highway":"residential","maxspeed":"50","profile":"car","distance":"11324.36","time":"6995.562"}},{"Shape":380,"Attributes":{"name":"Centrumrotonde","highway":"unclassified","maxspeed":"50","oneway":"yes","junction":"roundabout","profile":"car","distance":"11345.96","time":"6997.635"}},{"Shape":383,"Attributes":{"name":"Doctor J M den Uyllaan","highway":"unclassified","maxspeed":"50","oneway":"yes","profile":"car","distance":"11455.27","time":"7008.128"}},{"Shape":386,"Attributes":{"name":"Doctor J M den Uyllaan","highway":"unclassified","maxspeed":"50","oneway":"yes","profile":"car","distance":"11503.07","time":"7192.716"}},{"Shape":387,"Attributes":{"name":"Doctor J M den Uyllaan","highway":"unclassified","maxspeed":"50","oneway":"yes","profile":"car","distance":"11512.37","time":"7193.609"}},{"Shape":388,"Attributes":{"name":"Gorsstraat","highway":"residential","oneway":"yes","profile":"car","distance":"11520.17","time":"7194.358"}},{"Shape":389,"Attributes":{"name":"Gorsstraat","highway":"residential","oneway":"yes","profile":"car","distance":"11535.47","time":"7195.827"}},{"Shape":390,"Attributes":{"name":"Gorsstraat","highway":"residential","oneway":"yes","profile":"car","distance":"11562.37","time":"7198.409"}},{"Shape":391,"Attributes":{"name":"Gorsstraat","highway":"residential","maxspeed":"30","profile":"car","distance":"11594.47","time":"7203.545"}},{"Shape":392,"Attributes":{"name":"Gorsstraat","highway":"residential","maxspeed":"30","profile":"car","distance":"11603.77","time":"7205.033"}},{"Shape":393,"Attributes":{"name":"Gorsstraat","highway":"residential","maxspeed":"30","profile":"car","distance":"11633.17","time":"7209.737"}},{"Shape":396,"Attributes":{"highway":"service","profile":"car","distance":"11688.87","time":"7218.649"}},{"Shape":399,"Attributes":{"highway":"service","profile":"car","distance":"11744.57","time":"7407.561"}},{"Shape":402,"Attributes":{"name":"Gorsstraat","highway":"residential","maxspeed":"30","profile":"car","distance":"11816.37","time":"7419.049"}},{"Shape":406,"Attributes":{"name":"Gorsstraat","highway":"residential","profile":"car","distance":"11891.3","time":"7426.242"}},{"Shape":407,"Attributes":{"name":"Gorsstraat","highway":"residential","profile":"car","distance":"11892.15","time":"7606.324"}},{"Shape":411,"Attributes":{"name":"Gorsstraat","highway":"residential","profile":"car","distance":"11967.93","time":"7793.598"}},{"Shape":412,"Attributes":{"name":"Gorsstraat","highway":"residential","maxspeed":"30","profile":"car","distance":"11987.33","time":"7796.702"}},{"Shape":413,"Attributes":{"name":"Gorsstraat","highway":"residential","maxspeed":"30","profile":"car","distance":"12060.93","time":"7808.478"}},{"Shape":414,"Attributes":{"highway":"service","profile":"car","distance":"12075.83","time":"7810.863"}},{"Shape":415,"Attributes":{"highway":"service","profile":"car","distance":"12090.74","time":"7993.248"}},{"Shape":417,"Attributes":{"name":"Noordkade","highway":"residential","maxspeed":"30","profile":"car","distance":"12126.44","time":"7998.959"}},{"Shape":418,"Attributes":{"name":"Noordkade","highway":"residential","maxspeed":"30","profile":"car","distance":"12156.74","time":"8003.808"}},{"Shape":419,"Attributes":{"name":"Noordkade","highway":"residential","maxspeed":"30","profile":"car","distance":"12166.83","time":"8005.424"}},{"Shape":421,"Attributes":{"name":"Noordkade","highway":"residential","maxspeed":"30","profile":"car","distance":"12176.96","time":"8007.043"}},{"Shape":423,"Attributes":{"name":"Noordkade","highway":"residential","maxspeed":"30","profile":"car","distance":"12177.91","time":"8187.194"}},{"Shape":425,"Attributes":{"name":"Noordkade","highway":"residential","maxspeed":"30","profile":"car","distance":"12189.13","time":"8368.99"}},{"Shape":431,"Attributes":{"name":"Oostkade","highway":"residential","profile":"car","distance":"12285.93","time":"8378.283"}},{"Shape":435,"Attributes":{"name":"Oostkade","highway":"residential","profile":"car","distance":"12344.93","time":"8383.947"}},{"Shape":437,"Attributes":{"name":"Kaaistraat","highway":"residential","profile":"car","distance":"12356.93","time":"8385.099"}},{"Shape":442,"Attributes":{"name":"Rademacherstraat","highway":"service","profile":"car","distance":"12458.65","time":"8401.374"}},{"Shape":447,"Attributes":{"name":"Rademacherstraat","highway":"service","profile":"car","distance":"12560.37","time":"8597.649"}},{"Shape":449,"Attributes":{"name":"Kaaistraat","highway":"residential","profile":"car","distance":"12572.37","time":"8598.801"}},{"Shape":453,"Attributes":{"name":"Oostkade","highway":"residential","profile":"car","distance":"12631.37","time":"8604.465"}},{"Shape":459,"Attributes":{"name":"Oostkade","highway":"residential","profile":"car","distance":"12728.17","time":"8613.758"}},{"Shape":460,"Attributes":{"bridge":"yes","name":"Noordkade","highway":"residential","maxspeed":"30","profile":"car","distance":"12750.77","time":"8617.374"}},{"Shape":461,"Attributes":{"name":"Noordkade","highway":"residential","maxspeed":"30","profile":"car","distance":"12755.97","time":"8618.206"}},{"Shape":462,"Attributes":{"name":"Noordkade","highway":"residential","maxspeed":"30","profile":"car","distance":"12800.87","time":"8625.39"}},{"Shape":466,"Attributes":{"name":"Noordeinde","highway":"residential","oneway":"yes","profile":"car","distance":"12963.57","time":"8641.009"}},{"Shape":467,"Attributes":{"name":"Noordeinde","highway":"residential","profile":"car","distance":"12968.14","time":"8641.448"}},{"Shape":468,"Attributes":{"name":"Noordeinde","highway":"residential","profile":"car","distance":"12977.17","time":"8822.315"}},{"Shape":469,"Attributes":{"name":"Noordeinde","highway":"residential","profile":"car","distance":"12991.37","time":"8823.679"}},{"Shape":472,"Attributes":{"name":"Noordeinde","highway":"residential","profile":"car","distance":"13014.77","time":"8825.925"}},{"Shape":473,"Attributes":{"name":"Noordeinde","highway":"unclassified","profile":"car","distance":"13025.77","time":"8826.98"}},{"Shape":474,"Attributes":{"name":"Noordeinde","highway":"unclassified","profile":"car","distance":"13033.57","time":"8827.729"}},{"Shape":475,"Attributes":{"name":"Schenkelweg","maxspeed":"50","oneway":"yes","highway":"secondary","profile":"car","distance":"13081.27","time":"8832.309"}},{"Shape":477,"Attributes":{"name":"Schenkelweg","maxspeed":"50","oneway":"yes","highway":"secondary","profile":"car","distance":"13231.67","time":"8846.747"}},{"Shape":480,"Attributes":{"name":"Schenkelweg","maxspeed":"50","oneway":"yes","highway":"secondary","profile":"car","distance":"13275.07","time":"8850.914"}},{"Shape":481,"Attributes":{"name":"Schenkelweg","maxspeed":"50","oneway":"yes","highway":"secondary","profile":"car","distance":"13288.87","time":"8852.238"}},{"Shape":482,"Attributes":{"name":"Groene Kruisweg","oneway":"yes","highway":"primary","maxspeed":"80","profile":"car","distance":"13296.97","time":"8852.725"}},{"Shape":484,"Attributes":{"name":"Groene Kruisweg","oneway":"yes","highway":"primary","maxspeed":"80","profile":"car","distance":"13342.67","time":"8855.467"}},{"Shape":486,"Attributes":{"name":"Groene Kruisweg","oneway":"yes","highway":"primary","maxspeed":"80","profile":"car","distance":"13434.77","time":"8860.992"}},{"Shape":489,"Attributes":{"name":"Groene Kruisweg","oneway":"yes","highway":"primary","maxspeed":"80","profile":"car","distance":"13561.07","time":"8868.57"}},{"Shape":491,"Attributes":{"name":"Groene Kruisweg","oneway":"yes","highway":"primary","maxspeed":"80","profile":"car","distance":"13578.77","time":"8869.633"}},{"Shape":492,"Attributes":{"name":"Groene Kruisweg","oneway":"yes","highway":"primary","maxspeed":"80","profile":"car","distance":"13595.07","time":"8870.61"}},{"Shape":495,"Attributes":{"name":"Groene Kruisweg","oneway":"yes","highway":"primary","maxspeed":"80","profile":"car","distance":"13743.17","time":"8879.496"}},{"Shape":496,"Attributes":{"name":"Groene Kruisweg","oneway":"yes","highway":"primary","maxspeed":"80","profile":"car","distance":"13829.17","time":"8884.656"}},{"Shape":497,"Attributes":{"name":"Groene Kruisweg","oneway":"yes","highway":"primary","maxspeed":"80","profile":"car","distance":"13857.27","time":"8886.343"}},{"Shape":499,"Attributes":{"name":"Groene Kruisweg","oneway":"yes","highway":"primary","maxspeed":"80","profile":"car","distance":"13990.27","time":"8894.322"}},{"Shape":501,"Attributes":{"name":"Groene Kruisweg","oneway":"yes","highway":"primary","maxspeed":"80","profile":"car","distance":"14118.37","time":"8902.009"}},{"Shape":503,"Attributes":{"name":"Groene Kruisweg","oneway":"yes","highway":"primary","maxspeed":"80","profile":"car","distance":"14142.97","time":"8903.484"}},{"Shape":505,"Attributes":{"name":"Winston Churchilllaan","maxspeed":"50","highway":"tertiary","oneway":"yes","profile":"car","distance":"14201.87","time":"8909.139"}},{"Shape":508,"Attributes":{"name":"Winston Churchilllaan","maxspeed":"50","highway":"tertiary","profile":"car","distance":"14260.47","time":"8914.765"}},{"Shape":510,"Attributes":{"name":"Winston Churchilllaan","maxspeed":"50","highway":"tertiary","profile":"car","distance":"14322.88","time":"8920.755"}},{"Shape":512,"Attributes":{"name":"Winston Churchilllaan","maxspeed":"50","highway":"tertiary","profile":"car","distance":"14419.17","time":"9109.999"}},{"Shape":514,"Attributes":{"name":"Winston Churchilllaan","maxspeed":"50","highway":"tertiary","profile":"car","distance":"14529.88","time":"9120.626"}},{"Shape":517,"Attributes":{"name":"Winston Churchilllaan","maxspeed":"50","highway":"tertiary","oneway":"yes","profile":"car","distance":"14589.58","time":"9126.357"}},{"Shape":519,"Attributes":{"highway":"unclassified","maxspeed":"50","oneway":"yes","profile":"car","distance":"14609.17","time":"9128.239"}},{"Shape":521,"Attributes":{"highway":"unclassified","maxspeed":"50","oneway":"yes","profile":"car","distance":"14656.08","time":"9132.741"}},{"Shape":522,"Attributes":{"name":"Willemshoevelaan","highway":"unclassified","maxspeed":"50","profile":"car","distance":"14667.08","time":"9133.798"}},{"Shape":523,"Attributes":{"name":"Anjerstraat","highway":"residential","maxspeed":"30","profile":"car","distance":"14688.97","time":"9137.302"}},{"Shape":524,"Attributes":{"name":"Anjerstraat","highway":"residential","maxspeed":"30","profile":"car","distance":"14711.28","time":"9140.869"}},{"Shape":525,"Attributes":{"name":"Anjerplein","highway":"service","profile":"car","distance":"14720.38","time":"9142.325"}},{"Shape":526,"Attributes":{"name":"Anjerplein","highway":"service","profile":"car","distance":"14729.48","time":"9323.781"}},{"Shape":527,"Attributes":{"name":"Anjerstraat","highway":"residential","maxspeed":"30","profile":"car","distance":"14751.78","time":"9327.35"}},{"Shape":528,"Attributes":{"name":"Anjerstraat","highway":"residential","maxspeed":"30","profile":"car","distance":"14773.68","time":"9330.854"}},{"Shape":529,"Attributes":{"name":"Willemshoevelaan","highway":"unclassified","maxspeed":"50","profile":"car","distance":"14784.68","time":"9331.909"}},{"Shape":530,"Attributes":{"highway":"unclassified","maxspeed":"50","oneway":"yes","profile":"car","distance":"14830.88","time":"9336.345"}},{"Shape":532,"Attributes":{"highway":"unclassified","maxspeed":"50","oneway":"yes","profile":"car","distance":"14843.38","time":"9337.544"}},{"Shape":534,"Attributes":{"highway":"unclassified","maxspeed":"50","oneway":"yes","profile":"car","distance":"14859.78","time":"9339.119"}},{"Shape":537,"Attributes":{"name":"Winston Churchilllaan","maxspeed":"50","highway":"tertiary","oneway":"yes","profile":"car","distance":"14926.48","time":"9345.522"}},{"Shape":539,"Attributes":{"name":"Winston Churchilllaan","maxspeed":"50","highway":"tertiary","profile":"car","distance":"15037.18","time":"9356.149"}},{"Shape":541,"Attributes":{"name":"A M de Jongstraat","highway":"unclassified","maxspeed":"30","profile":"car","distance":"15107.98","time":"9367.478"}},{"Shape":542,"Attributes":{"name":"Herman Gorterstraat","highway":"residential","maxspeed":"30","profile":"car","distance":"15144.2","time":"9373.271"}},{"Shape":543,"Attributes":{"name":"Herman Gorterstraat","highway":"residential","maxspeed":"30","profile":"car","distance":"15145.56","time":"9553.489"}},{"Shape":544,"Attributes":{"name":"Herman Gorterstraat","highway":"residential","maxspeed":"30","profile":"car","distance":"15230.2","time":"9747.032"}},{"Shape":545,"Attributes":{"name":"P A de Genestetstraat","highway":"residential","maxspeed":"30","profile":"car","distance":"15282","time":"9755.32"}},{"Shape":546,"Attributes":{"bridge":"yes","name":"P A de Genestetstraat","highway":"residential","maxspeed":"30","profile":"car","distance":"15345.6","time":"9945.496"}},{"Shape":548,"Attributes":{"name":"Vondelsingel","highway":"unclassified","maxspeed":"30","profile":"car","distance":"15422.54","time":"9957.808"}},{"Shape":549,"Attributes":{"name":"Vondelsingel","highway":"unclassified","maxspeed":"30","profile":"car","distance":"15434.6","time":"10139.74"}},{"Shape":550,"Attributes":{"name":"Schiekampsingel","highway":"unclassified","maxspeed":"30","profile":"car","distance":"15502","time":"10150.52"}},{"Shape":552,"Attributes":{"name":"Schiekampsingel","highway":"unclassified","maxspeed":"30","profile":"car","distance":"15556","time":"10159.16"}},{"Shape":554,"Attributes":{"name":"Schiekampsingel","highway":"unclassified","maxspeed":"30","profile":"car","distance":"15613.6","time":"10168.38"}},{"Shape":555,"Attributes":{"name":"Jacob Catsstraat","highway":"unclassified","maxspeed":"30","profile":"car","distance":"15642.1","time":"10172.94"}},{"Shape":557,"Attributes":{"name":"Jacob Catsstraat","highway":"unclassified","maxspeed":"30","profile":"car","distance":"15721.6","time":"10185.66"}},{"Shape":558,"Attributes":{"name":"Westersingel","highway":"residential","maxspeed":"30","profile":"car","distance":"15767.5","time":"10193"}},{"Shape":561,"Attributes":{"name":"Westersingel","highway":"residential","maxspeed":"30","profile":"car","distance":"15882.85","time":"10211.46"}},{"Shape":564,"Attributes":{"name":"Westersingel","highway":"residential","maxspeed":"30","profile":"car","distance":"15998.2","time":"10409.92"}},{"Shape":565,"Attributes":{"name":"Westersingel","highway":"residential","maxspeed":"30","profile":"car","distance":"16044.1","time":"10417.26"}},{"Shape":566,"Attributes":{"name":"Jacob Catsstraat","highway":"unclassified","maxspeed":"30","profile":"car","distance":"16080.44","time":"10423.07"}},{"Shape":567,"Attributes":{"name":"Jacob Catsstraat","highway":"unclassified","maxspeed":"30","profile":"car","distance":"16116.78","time":"10608.88"}},{"Shape":568,"Attributes":{"name":"Jacob Catsstraat","highway":"unclassified","maxspeed":"30","profile":"car","distance":"16141.58","time":"10612.85"}},{"Shape":569,"Attributes":{"name":"Jacob Catsstraat","highway":"unclassified","maxspeed":"30","profile":"car","distance":"16156.98","time":"10615.32"}},{"Shape":570,"Attributes":{"name":"Jacob Catsstraat","highway":"unclassified","maxspeed":"30","profile":"car","distance":"16187.08","time":"10620.13"}},{"Shape":571,"Attributes":{"name":"Jacob Catsstraat","highway":"unclassified","maxspeed":"30","profile":"car","distance":"16237.68","time":"10628.23"}},{"Shape":572,"Attributes":{"name":"Jacob Catsstraat","highway":"unclassified","maxspeed":"30","profile":"car","distance":"16245.88","time":"10629.54"}},{"Shape":573,"Attributes":{"name":"Jacob Catsstraat","highway":"unclassified","maxspeed":"30","profile":"car","distance":"16317.58","time":"10641.01"}},{"Shape":574,"Attributes":{"name":"Jacob van Lennepstraat","highway":"residential","maxspeed":"30","profile":"car","distance":"16325.99","time":"10642.36"}},{"Shape":579,"Attributes":{"name":"Jacob van Lennepstraat","highway":"residential","maxspeed":"30","profile":"car","distance":"16437.28","time":"10840.17"}},{"Shape":580,"Attributes":{"name":"Bilderdijkstraat","highway":"residential","maxspeed":"30","profile":"car","distance":"16493.48","time":"10849.16"}},{"Shape":581,"Attributes":{"name":"Multatulistraat","highway":"residential","maxspeed":"30","profile":"car","distance":"16554.98","time":"10859"}},{"Shape":582,"Attributes":{"name":"Vondelsingel","highway":"unclassified","profile":"car","distance":"16559.76","time":"10859.46"}},{"Shape":583,"Attributes":{"name":"Vondelsingel","highway":"unclassified","profile":"car","distance":"16620.18","time":"11045.26"}},{"Shape":584,"Attributes":{"name":"Vondelsingel","highway":"unclassified","profile":"car","distance":"16673.28","time":"11050.36"}},{"Shape":585,"Attributes":{"name":"Vondelsingel","highway":"unclassified","maxspeed":"30","profile":"car","distance":"16680.37","time":"11051.49"}}],"Stops":[{"Shape":0,"Coordinates":[4.312361,51.85533],"Attributes":{"index":"17","distance":"0","time":"0","cost_time":"180"}},{"Shape":5,"Coordinates":[4.313437,51.85707],"Attributes":{"index":"16","distance":"284.1802","time":"41.20003","cost_time":"180"}},{"Shape":8,"Coordinates":[4.311151,51.85653],"Attributes":{"index":"9","distance":"471.0974","time":"251.1068","cost_time":"180"}},{"Shape":13,"Coordinates":[4.310231,51.85749],"Attributes":{"index":"10","distance":"599.7565","time":"451.6923","cost_time":"180"}},{"Shape":21,"Coordinates":[4.312275,51.85863],"Attributes":{"index":"15","distance":"845.9586","time":"671.0847","cost_time":"180"}},{"Shape":30,"Coordinates":[4.308912,51.85757],"Attributes":{"index":"11","distance":"1151.475","time":"899.9672","cost_time":"180"}},{"Shape":39,"Coordinates":[4.306557,51.85662],"Attributes":{"index":"13","distance":"1392.862","time":"1118.589","cost_time":"180"}},{"Shape":44,"Coordinates":[4.308197,51.85633],"Attributes":{"index":"12","distance":"1548.838","time":"1323.545","cost_time":"180"}},{"Shape":47,"Coordinates":[4.308828,51.85566],"Attributes":{"index":"14","distance":"1639.858","time":"1518.108","cost_time":"180"}},{"Shape":56,"Coordinates":[4.31295,51.856],"Attributes":{"index":"8","distance":"2006.836","time":"1748.184","cost_time":"180"}},{"Shape":62,"Coordinates":[4.314807,51.85614],"Attributes":{"index":"7","distance":"2201.512","time":"1954.711","cost_time":"180"}},{"Shape":67,"Coordinates":[4.315077,51.85455],"Attributes":{"index":"5","distance":"2405.532","time":"2167.354","cost_time":"180"}},{"Shape":69,"Coordinates":[4.314584,51.8553],"Attributes":{"index":"6","distance":"2500.087","time":"2362.483","cost_time":"180"}},{"Shape":135,"Coordinates":[4.330801,51.84913],"Attributes":{"index":"1","distance":"4738.007","time":"2741.193","cost_time":"180"}},{"Shape":148,"Coordinates":[4.329151,51.84929],"Attributes":{"index":"168","distance":"4956.456","time":"2943.181","cost_time":"180"}},{"Shape":150,"Coordinates":[4.32926,51.84949],"Attributes":{"index":"167","distance":"4976.485","time":"3125.104","cost_time":"180"}},{"Shape":162,"Coordinates":[4.327262,51.84854],"Attributes":{"index":"0","distance":"5391.8","time":"3353.718","cost_time":"180"}},{"Shape":176,"Coordinates":[4.325234,51.8498],"Attributes":{"index":"166","distance":"5655.778","time":"3575.955","cost_time":"180"}},{"Shape":186,"Coordinates":[4.323657,51.84894],"Attributes":{"index":"165","distance":"5842.09","time":"3782.066","cost_time":"180"}},{"Shape":197,"Coordinates":[4.324408,51.84981],"Attributes":{"index":"27","distance":"6231.957","time":"4011.134","cost_time":"180"}},{"Shape":217,"Coordinates":[4.32483,51.85242],"Attributes":{"index":"26","distance":"6680.182","time":"4242.375","cost_time":"180"}},{"Shape":243,"Coordinates":[4.32958,51.85055],"Attributes":{"index":"33","distance":"7193.342","time":"4492.573","cost_time":"180"}},{"Shape":243,"Coordinates":[4.32958,51.85055],"Attributes":{"index":"32","distance":"7193.342","time":"4672.573","cost_time":"180"}},{"Shape":258,"Coordinates":[4.331289,51.85082],"Attributes":{"index":"36","distance":"7517.237","time":"4904.396","cost_time":"180"}},{"Shape":270,"Coordinates":[4.33203,51.85001],"Attributes":{"index":"170","distance":"7701.136","time":"5113.82","cost_time":"180"}},{"Shape":303,"Coordinates":[4.342957,51.85265],"Attributes":{"index":"41","distance":"8770.167","time":"5423.745","cost_time":"180"}},{"Shape":305,"Coordinates":[4.342323,51.85313],"Attributes":{"index":"40","distance":"8839.02","time":"5614.762","cost_time":"180"}},{"Shape":307,"Coordinates":[4.342041,51.85342],"Attributes":{"index":"39","distance":"8873.087","time":"5800.213","cost_time":"180"}},{"Shape":308,"Coordinates":[4.341386,51.8541],"Attributes":{"index":"38","distance":"8959.991","time":"5994.118","cost_time":"180"}},{"Shape":313,"Coordinates":[4.343845,51.85194],"Attributes":{"index":"42","distance":"9246.926","time":"6220.028","cost_time":"180"}},{"Shape":329,"Coordinates":[4.343444,51.84883],"Attributes":{"index":"172","distance":"10073.12","time":"6515.442","cost_time":"180"}},{"Shape":334,"Coordinates":[4.342278,51.84978],"Attributes":{"index":"171","distance":"10199.42","time":"6707.567","cost_time":"180"}},{"Shape":383,"Coordinates":[4.332752,51.8494],"Attributes":{"index":"169","distance":"11455.27","time":"7008.128","cost_time":"180"}},{"Shape":396,"Coordinates":[4.33099,51.85031],"Attributes":{"index":"37","distance":"11688.87","time":"7218.649","cost_time":"180"}},{"Shape":406,"Coordinates":[4.330974,51.85119],"Attributes":{"index":"34","distance":"11891.3","time":"7426.242","cost_time":"180"}},{"Shape":407,"Coordinates":[4.330963,51.8512],"Attributes":{"index":"35","distance":"11892.15","time":"7606.324","cost_time":"180"}},{"Shape":414,"Coordinates":[4.329404,51.85046],"Attributes":{"index":"31","distance":"12075.83","time":"7810.863","cost_time":"180"}},{"Shape":421,"Coordinates":[4.328699,51.85125],"Attributes":{"index":"29","distance":"12176.96","time":"8007.043","cost_time":"180"}},{"Shape":423,"Coordinates":[4.32871,51.85124],"Attributes":{"index":"30","distance":"12177.91","time":"8187.194","cost_time":"180"}},{"Shape":442,"Coordinates":[4.32662,51.84939],"Attributes":{"index":"28","distance":"12458.65","time":"8401.374","cost_time":"180"}},{"Shape":467,"Coordinates":[4.33011,51.85273],"Attributes":{"index":"2","distance":"12968.14","time":"8641.448","cost_time":"180"}},{"Shape":510,"Coordinates":[4.316804,51.85365],"Attributes":{"index":"3","distance":"14322.88","time":"8920.755","cost_time":"180"}},{"Shape":525,"Coordinates":[4.316559,51.85595],"Attributes":{"index":"4","distance":"14720.38","time":"9142.325","cost_time":"180"}},{"Shape":542,"Coordinates":[4.315493,51.85392],"Attributes":{"index":"24","distance":"15144.2","time":"9373.271","cost_time":"180"}},{"Shape":543,"Coordinates":[4.315526,51.85396],"Attributes":{"index":"25","distance":"15145.56","time":"9553.489","cost_time":"180"}},{"Shape":545,"Coordinates":[4.315224,51.85316],"Attributes":{"index":"23","distance":"15282","time":"9755.32","cost_time":"180"}},{"Shape":548,"Coordinates":[4.314861,51.85225],"Attributes":{"index":"22","distance":"15422.54","time":"9957.808","cost_time":"180"}},{"Shape":561,"Coordinates":[4.309917,51.85264],"Attributes":{"index":"20","distance":"15882.85","time":"10211.46","cost_time":"180"}},{"Shape":566,"Coordinates":[4.311972,51.85228],"Attributes":{"index":"21","distance":"16080.44","time":"10423.07","cost_time":"180"}},{"Shape":574,"Coordinates":[4.310591,51.85429],"Attributes":{"index":"19","distance":"16325.99","time":"10642.36","cost_time":"180"}},{"Shape":582,"Coordinates":[4.313155,51.85436],"Attributes":{"index":"18","distance":"16559.76","time":"10859.46","cost_time":"180"}},{"Shape":585,"Coordinates":[4.312361,51.85533],"Attributes":{"index":"17","distance":"16680.37","time":"11051.49","cost_time":"180"}}],"Branches":[{"Shape":2,"Coordinates":[4.312306,51.85604],"Attributes":{"name":"Sportlaan","maxspeed":"50","highway":"tertiary"}},{"Shape":2,"Coordinates":[4.311478,51.8558],"Attributes":{"name":"Sportlaan","maxspeed":"50","highway":"tertiary"}},{"Shape":4,"Coordinates":[4.311137,51.85637],"Attributes":{"name":"Rembrandtstraat","highway":"unclassified","maxspeed":"30"}},{"Shape":4,"Coordinates":[4.313505,51.85707],"Attributes":{"name":"Rembrandtstraat","highway":"unclassified","maxspeed":"30"}},{"Shape":6,"Coordinates":[4.311883,51.85602],"Attributes":{"name":"Vondelsingel","highway":"residential"}},{"Shape":7,"Coordinates":[4.309528,51.85586],"Attributes":{"name":"Rembrandtstraat","highway":"unclassified","maxspeed":"30"}},{"Shape":7,"Coordinates":[4.310829,51.85677],"Attributes":{"name":"Paulus Potterstraat","highway":"unclassified","maxspeed":"30"}},{"Shape":9,"Coordinates":[4.30968,51.85641],"Attributes":{"name":"Johannes Vermeerstraat","highway":"residential","maxspeed":"30"}},{"Shape":10,"Coordinates":[4.3114,51.8571],"Attributes":{"name":"Jan van Scorelstraat","highway":"residential","maxspeed":"30"}},{"Shape":11,"Coordinates":[4.310363,51.85734],"Attributes":{"name":"Paulus Potterstraat","highway":"unclassified","maxspeed":"30"}},{"Shape":11,"Coordinates":[4.310911,51.85738],"Attributes":{"name":"Pieter Aertszstraat","highway":"service"}},{"Shape":14,"Coordinates":[4.309099,51.85712],"Attributes":{"name":"Frans Halsstraat","highway":"unclassified","maxspeed":"30"}},{"Shape":16,"Coordinates":[4.311774,51.85726],"Attributes":{"name":"Gerard Doustraat","highway":"unclassified","maxspeed":"30"}},{"Shape":18,"Coordinates":[4.310989,51.85842],"Attributes":{"name":"Frans Halsstraat","highway":"unclassified","maxspeed":"30"}},{"Shape":26,"Coordinates":[4.311774,51.85726],"Attributes":{"name":"Gerard Doustraat","highway":"unclassified","maxspeed":"30"}},{"Shape":28,"Coordinates":[4.310363,51.85734],"Attributes":{"name":"Paulus Potterstraat","highway":"unclassified","maxspeed":"30"}},{"Shape":28,"Coordinates":[4.309099,51.85712],"Attributes":{"name":"Frans Halsstraat","highway":"unclassified","maxspeed":"30"}},{"Shape":33,"Coordinates":[4.30968,51.85641],"Attributes":{"name":"Johannes Vermeerstraat","highway":"residential","maxspeed":"30"}},{"Shape":35,"Coordinates":[4.308,51.8573],"Attributes":{"name":"Lucas van Leijdenpad","highway":"unclassified","maxspeed":"30"}},{"Shape":36,"Coordinates":[4.308512,51.85594],"Attributes":{"name":"Jan Steenstraat","highway":"residential","maxspeed":"30"}},{"Shape":38,"Coordinates":[4.306513,51.85661],"Attributes":{"name":"Pieter de Hooghstraat","highway":"unclassified","maxspeed":"30"}},{"Shape":42,"Coordinates":[4.308512,51.85594],"Attributes":{"name":"Jan Steenstraat","highway":"residential","maxspeed":"30"}},{"Shape":42,"Coordinates":[4.3082,51.8569],"Attributes":{"name":"Frans Halsstraat","highway":"unclassified","maxspeed":"30"}},{"Shape":46,"Coordinates":[4.308155,51.85543],"Attributes":{"name":"Rembrandtstraat","highway":"unclassified","maxspeed":"30"}},{"Shape":46,"Coordinates":[4.309528,51.85586],"Attributes":{"name":"Rembrandtstraat","highway":"unclassified","maxspeed":"30"}},{"Shape":49,"Coordinates":[4.310829,51.85677],"Attributes":{"name":"Paulus Potterstraat","highway":"unclassified","maxspeed":"30"}},{"Shape":50,"Coordinates":[4.313505,51.85707],"Attributes":{"name":"Rembrandtstraat","highway":"unclassified","maxspeed":"30"}},{"Shape":52,"Coordinates":[4.311979,51.85584],"Attributes":{"name":"Vondelsingel","highway":"unclassified","maxspeed":"30"}},{"Shape":52,"Coordinates":[4.311478,51.8558],"Attributes":{"name":"Sportlaan","maxspeed":"50","highway":"tertiary"}},{"Shape":54,"Coordinates":[4.31376,51.8565],"Attributes":{"name":"Sportlaan","maxspeed":"50","highway":"tertiary"}},{"Shape":54,"Coordinates":[4.313145,51.85549],"Attributes":{"name":"Menno ter Braakstraat","highway":"residential","maxspeed":"30"}},{"Shape":58,"Coordinates":[4.312306,51.85604],"Attributes":{"name":"Sportlaan","maxspeed":"50","highway":"tertiary"}},{"Shape":59,"Coordinates":[4.314522,51.85675],"Attributes":{"name":"Sportlaan","maxspeed":"50","highway":"tertiary"}},{"Shape":61,"Coordinates":[4.314267,51.85545],"Attributes":{"name":"Heyermansstraat","highway":"residential","maxspeed":"30"}},{"Shape":63,"Coordinates":[4.313799,51.85641],"Attributes":{"name":"Heyermansstraat","highway":"residential","maxspeed":"30"}},{"Shape":64,"Coordinates":[4.314522,51.85561],"Attributes":{"highway":"service"}},{"Shape":65,"Coordinates":[4.31471,51.85528],"Attributes":{"name":"Slauerhoffstraat","highway":"residential","maxspeed":"30"}},{"Shape":65,"Coordinates":[4.313647,51.85509],"Attributes":{"name":"Betje Wolffstraat","highway":"residential","maxspeed":"30"}},{"Shape":71,"Coordinates":[4.314414,51.85413],"Attributes":{"name":"A M de Jongstraat","highway":"unclassified","maxspeed":"30"}},{"Shape":72,"Coordinates":[4.315956,51.85327],"Attributes":{"name":"Herman Gorterstraat","highway":"residential","maxspeed":"30"}},{"Shape":74,"Coordinates":[4.316312,51.85477],"Attributes":{"name":"Winston Churchilllaan","maxspeed":"50","highway":"tertiary"}},{"Shape":77,"Coordinates":[4.317206,51.85315],"Attributes":{"name":"Hoogwerfsingel","highway":"residential","maxspeed":"30"}},{"Shape":77,"Coordinates":[4.3169,51.8531],"Attributes":{"name":"Hoogwerfsingel","highway":"unclassified","maxspeed":"30"}},{"Shape":80,"Coordinates":[4.317132,51.85259],"Attributes":{"name":"Schiekampsingel","highway":"unclassified","maxspeed":"30"}},{"Shape":80,"Coordinates":[4.317521,51.8523],"Attributes":{"name":"Winston Churchilllaan","maxspeed":"50","highway":"tertiary","oneway":"yes"}},{"Shape":83,"Coordinates":[4.317599,51.85212],"Attributes":{"name":"Groene Kruisweg","oneway":"yes","highway":"primary","maxspeed":"80"}},{"Shape":83,"Coordinates":[4.317168,51.85205],"Attributes":{"name":"Groene Kruisweg","oneway":"yes","highway":"primary","maxspeed":"80"}},{"Shape":84,"Coordinates":[4.317256,51.85188],"Attributes":{"oneway":"yes","highway":"primary","maxspeed":"80"}},{"Shape":84,"Coordinates":[4.317613,51.85175],"Attributes":{"name":"Hekelingseweg","maxspeed":"50","highway":"tertiary","oneway":"yes"}},{"Shape":85,"Coordinates":[4.317599,51.85212],"Attributes":{"name":"Groene Kruisweg","maxspeed":"50","highway":"tertiary","oneway":"yes"}},{"Shape":85,"Coordinates":[4.317775,51.85178],"Attributes":{"name":"Hekelingseweg","maxspeed":"50","highway":"tertiary","oneway":"yes"}},{"Shape":86,"Coordinates":[4.317807,51.85178],"Attributes":{"maxspeed":"50","oneway":"yes","highway":"tertiary_link"}},{"Shape":92,"Coordinates":[4.321598,51.85284],"Attributes":{"name":"Groene Kruisweg","highway":"unclassified"}},{"Shape":92,"Coordinates":[4.321734,51.8526],"Attributes":{"highway":"unclassified"}},{"Shape":97,"Coordinates":[4.325237,51.85355],"Attributes":{"name":"Groene Kruisweg","highway":"unclassified","maxspeed":"50","oneway":"yes"}},{"Shape":97,"Coordinates":[4.325373,51.85328],"Attributes":{"name":"Stationsstraat","highway":"unclassified","oneway":"yes"}},{"Shape":98,"Coordinates":[4.325464,51.8536],"Attributes":{"name":"Groene Kruisweg","highway":"unclassified","maxspeed":"50","oneway":"yes"}},{"Shape":98,"Coordinates":[4.325558,51.85328],"Attributes":{"name":"Stationsstraat","highway":"unclassified","oneway":"yes"}},{"Shape":105,"Coordinates":[4.329253,51.85476],"Attributes":{"name":"Groene Kruisweg","oneway":"yes","highway":"primary","maxspeed":"80"}},{"Shape":105,"Coordinates":[4.329038,51.85482],"Attributes":{"name":"Schenkelweg","maxspeed":"50","oneway":"yes","highway":"secondary"}},{"Shape":109,"Coordinates":[4.330692,51.85326],"Attributes":{"highway":"service"}},{"Shape":111,"Coordinates":[4.330772,51.85279],"Attributes":{"name":"Noordeinde","highway":"unclassified"}},{"Shape":111,"Coordinates":[4.331012,51.85288],"Attributes":{"name":"Noordeinde","highway":"unclassified"}},{"Shape":119,"Coordinates":[4.334111,51.8507],"Attributes":{"name":"Elementenweg","highway":"unclassified","oneway":"yes"}},{"Shape":119,"Coordinates":[4.334143,51.85055],"Attributes":{"name":"Schenkelweg","maxspeed":"50","oneway":"yes","highway":"secondary"}},{"Shape":121,"Coordinates":[4.33326,51.85001],"Attributes":{"name":"Doctor J M den Uyllaan","highway":"residential","oneway":"yes"}},{"Shape":123,"Coordinates":[4.333248,51.84985],"Attributes":{"name":"Gorsstraat","highway":"residential","oneway":"yes"}},{"Shape":123,"Coordinates":[4.33298,51.84998],"Attributes":{"name":"Gorsstraat","highway":"residential","oneway":"yes"}},{"Shape":124,"Coordinates":[4.332908,51.84991],"Attributes":{"name":"Gorsstraat","highway":"residential","oneway":"yes"}},{"Shape":124,"Coordinates":[4.33317,51.84978],"Attributes":{"name":"Thorbeckelaan","highway":"residential","oneway":"yes"}},{"Shape":130,"Coordinates":[4.331324,51.849],"Attributes":{"name":"Centrumrotonde","highway":"unclassified","maxspeed":"50","oneway":"yes","junction":"roundabout"}},{"Shape":133,"Coordinates":[4.331018,51.849],"Attributes":{"name":"Centrumrotonde","highway":"unclassified","maxspeed":"50","oneway":"yes","junction":"roundabout"}},{"Shape":133,"Coordinates":[4.331021,51.84912],"Attributes":{"highway":"service"}},{"Shape":137,"Coordinates":[4.331227,51.84903],"Attributes":{"name":"Centrumrotonde","highway":"unclassified","maxspeed":"50","oneway":"yes","junction":"roundabout"}},{"Shape":141,"Coordinates":[4.330987,51.84884],"Attributes":{"name":"Centrumrotonde","highway":"unclassified","maxspeed":"50","oneway":"yes","junction":"roundabout"}},{"Shape":144,"Coordinates":[4.3303,51.8484],"Attributes":{"name":"Raadhuislaan","highway":"residential"}},{"Shape":144,"Coordinates":[4.329443,51.84808],"Attributes":{"name":"Raadhuislaan","highway":"unclassified","maxspeed":"50","oneway":"yes"}},{"Shape":144,"Coordinates":[4.330005,51.84834],"Attributes":{"highway":"service","oneway":"yes"}},{"Shape":147,"Coordinates":[4.329252,51.84946],"Attributes":{"name":"H de Lintweg","highway":"unclassified"}},{"Shape":149,"Coordinates":[4.329809,51.84943],"Attributes":{"name":"D. Losstraat","highway":"residential"}},{"Shape":155,"Coordinates":[4.3303,51.8484],"Attributes":{"name":"Raadhuislaan","highway":"residential"}},{"Shape":155,"Coordinates":[4.330841,51.84883],"Attributes":{"name":"Raadhuislaan","highway":"unclassified","maxspeed":"50","oneway":"yes"}},{"Shape":155,"Coordinates":[4.330005,51.84834],"Attributes":{"highway":"service","oneway":"yes"}},{"Shape":158,"Coordinates":[4.328319,51.84733],"Attributes":{"name":"Breestraat","highway":"residential"}},{"Shape":158,"Coordinates":[4.32875,51.8476],"Attributes":{"name":"Raadhuislaan","highway":"unclassified","maxspeed":"50","oneway":"yes"}},{"Shape":158,"Coordinates":[4.328483,51.84769],"Attributes":{"name":"Marrewijklaan","highway":"unclassified","maxspeed":"30"}},{"Shape":166,"Coordinates":[4.325887,51.84866],"Attributes":{"highway":"service","oneway":"yes"}},{"Shape":167,"Coordinates":[4.326085,51.84877],"Attributes":{"highway":"service","oneway":"yes"}},{"Shape":172,"Coordinates":[4.324555,51.84892],"Attributes":{"name":"Vredehofplein","highway":"unclassified"}},{"Shape":180,"Coordinates":[4.326077,51.84879],"Attributes":{"name":"Marrewijklaan","highway":"unclassified","maxspeed":"30"}},{"Shape":183,"Coordinates":[4.32476,51.84822],"Attributes":{"name":"Groene Kruisstraat","highway":"residential","maxspeed":"30"}},{"Shape":184,"Coordinates":[4.323937,51.8489],"Attributes":{"name":"Karel Doormanstraat","highway":"residential","maxspeed":"30"}},{"Shape":184,"Coordinates":[4.322913,51.84838],"Attributes":{"name":"Vredehofstraat","highway":"unclassified"}},{"Shape":187,"Coordinates":[4.322751,51.84942],"Attributes":{"bridge":"yes","name":"Karel Doormanstraat","highway":"residential","maxspeed":"30"}},{"Shape":189,"Coordinates":[4.323481,51.85092],"Attributes":{"bridge":"yes","name":"Boezembocht","highway":"residential"}},{"Shape":192,"Coordinates":[4.32465,51.85072],"Attributes":{"name":"Zijlstraat","highway":"residential"}},{"Shape":195,"Coordinates":[4.325409,51.85007],"Attributes":{"name":"Kerkring","highway":"service"}},{"Shape":196,"Coordinates":[4.324211,51.84945],"Attributes":{"name":"Kees de Groenplein","highway":"residential"}},{"Shape":199,"Coordinates":[4.325409,51.85007],"Attributes":{"name":"Kerkring","highway":"service"}},{"Shape":202,"Coordinates":[4.32465,51.85072],"Attributes":{"name":"Zijlstraat","highway":"residential"}},{"Shape":205,"Coordinates":[4.323775,51.85063],"Attributes":{"name":"Vierambachtenkade Zuidzijde","highway":"residential"}},{"Shape":207,"Coordinates":[4.322676,51.85029],"Attributes":{"name":"Koningin Wilhelminalaan","highway":"residential","maxspeed":"30"}},{"Shape":207,"Coordinates":[4.323012,51.85111],"Attributes":{"name":"Koningin Julianaplein","highway":"residential"}},{"Shape":208,"Coordinates":[4.3233,51.85164],"Attributes":{"name":"Koningin Julianaplein","highway":"residential"}},{"Shape":215,"Coordinates":[4.324779,51.85251],"Attributes":{"name":"Jan Campertlaan","highway":"residential"}},{"Shape":215,"Coordinates":[4.324697,51.85258],"Attributes":{"highway":"service"}},{"Shape":218,"Coordinates":[4.324734,51.85259],"Attributes":{"highway":"service"}},{"Shape":219,"Coordinates":[4.324963,51.85303],"Attributes":{"name":"Jan Campertlaan","highway":"living_street"}},{"Shape":220,"Coordinates":[4.327268,51.853],"Attributes":{"name":"Molenstraat","highway":"unclassified"}},{"Shape":220,"Coordinates":[4.325553,51.85301],"Attributes":{"name":"Stationsstraat","highway":"unclassified"}},{"Shape":225,"Coordinates":[4.325836,51.85174],"Attributes":{"name":"Boezembocht","highway":"residential"}},{"Shape":225,"Coordinates":[4.32659,51.85183],"Attributes":{"name":"Bermweg","highway":"service"}},{"Shape":226,"Coordinates":[4.326042,51.85091],"Attributes":{"name":"Eerste Heulbrugstraat","highway":"unclassified"}},{"Shape":230,"Coordinates":[4.326669,51.85138],"Attributes":{"name":"Voorstraat","highway":"residential","maxspeed":"30"}},{"Shape":233,"Coordinates":[4.328173,51.85185],"Attributes":{"name":"Noordeinde","highway":"residential","oneway":"yes"}},{"Shape":234,"Coordinates":[4.328666,51.85151],"Attributes":{"name":"Gorsstraat","highway":"residential"}},{"Shape":236,"Coordinates":[4.327793,51.8508],"Attributes":{"name":"Oostkade","highway":"residential"}},{"Shape":240,"Coordinates":[4.329021,51.85089],"Attributes":{"highway":"track"}},{"Shape":242,"Coordinates":[4.32928,51.85018],"Attributes":{"highway":"service"}},{"Shape":242,"Coordinates":[4.33042,51.85056],"Attributes":{"name":"Gorsstraat","highway":"residential","maxspeed":"30"}},{"Shape":244,"Coordinates":[4.330422,51.85063],"Attributes":{"highway":"service"}},{"Shape":245,"Coordinates":[4.330697,51.85058],"Attributes":{"name":"Gorsstraat","highway":"residential"}},{"Shape":248,"Coordinates":[4.331636,51.85027],"Attributes":{"highway":"service"}},{"Shape":249,"Coordinates":[4.332226,51.85023],"Attributes":{"name":"Gorsstraat","highway":"residential","maxspeed":"30"}},{"Shape":251,"Coordinates":[4.33256,51.85069],"Attributes":{"highway":"service"}},{"Shape":251,"Coordinates":[4.332849,51.85039],"Attributes":{"name":"Kolkplein","highway":"service"}},{"Shape":252,"Coordinates":[4.332464,51.85073],"Attributes":{"name":"Kolkplein","highway":"service"}},{"Shape":256,"Coordinates":[4.331811,51.85091],"Attributes":{"name":"Damstraat","highway":"service"}},{"Shape":257,"Coordinates":[4.331656,51.85102],"Attributes":{"name":"Damstraat","highway":"service"}},{"Shape":258,"Coordinates":[4.331455,51.8511],"Attributes":{"name":"Damstraat","highway":"service"}},{"Shape":259,"Coordinates":[4.331656,51.85102],"Attributes":{"name":"Damstraat","highway":"service"}},{"Shape":260,"Coordinates":[4.331811,51.85091],"Attributes":{"name":"Damstraat","highway":"service"}},{"Shape":264,"Coordinates":[4.332464,51.85073],"Attributes":{"name":"Kolkplein","highway":"service"}},{"Shape":265,"Coordinates":[4.33256,51.85069],"Attributes":{"highway":"service"}},{"Shape":265,"Coordinates":[4.332849,51.85039],"Attributes":{"name":"Kolkplein","highway":"service"}},{"Shape":267,"Coordinates":[4.331715,51.85038],"Attributes":{"name":"Gorsstraat","highway":"residential","maxspeed":"30"}},{"Shape":268,"Coordinates":[4.332641,51.8501],"Attributes":{"name":"Gorsstraat","highway":"residential","maxspeed":"30"}},{"Shape":268,"Coordinates":[4.332121,51.84992],"Attributes":{"name":"Gorsstraat","highway":"service"}},{"Shape":272,"Coordinates":[4.332108,51.85028],"Attributes":{"name":"Gorsstraat","highway":"residential","maxspeed":"30"}},{"Shape":273,"Coordinates":[4.33298,51.84998],"Attributes":{"name":"Gorsstraat","highway":"residential","oneway":"yes"}},{"Shape":275,"Coordinates":[4.333157,51.8499],"Attributes":{"name":"Doctor J M den Uyllaan","highway":"unclassified","maxspeed":"50","oneway":"yes"}},{"Shape":275,"Coordinates":[4.332958,51.84973],"Attributes":{"name":"Doctor J M den Uyllaan","highway":"unclassified","maxspeed":"50","oneway":"yes"}},{"Shape":276,"Coordinates":[4.333339,51.8497],"Attributes":{"name":"Thorbeckelaan","highway":"residential","oneway":"yes"}},{"Shape":276,"Coordinates":[4.331888,51.84911],"Attributes":{"name":"Doctor J M den Uyllaan","highway":"unclassified","maxspeed":"50","oneway":"yes"}},{"Shape":277,"Coordinates":[4.333412,51.84977],"Attributes":{"name":"Thorbeckelaan","highway":"residential","oneway":"yes"}},{"Shape":277,"Coordinates":[4.333157,51.8499],"Attributes":{"name":"Gorsstraat","highway":"residential","oneway":"yes"}},{"Shape":281,"Coordinates":[4.334012,51.85062],"Attributes":{"name":"Schenkelweg","maxspeed":"50","oneway":"yes","highway":"secondary"}},{"Shape":281,"Coordinates":[4.33428,51.85047],"Attributes":{"name":"Schenkelweg","maxspeed":"50","oneway":"yes","highway":"secondary"}},{"Shape":282,"Coordinates":[4.334388,51.85054],"Attributes":{"name":"Schenkelweg","maxspeed":"50","oneway":"yes","highway":"secondary"}},{"Shape":282,"Coordinates":[4.334111,51.8507],"Attributes":{"name":"Schenkelweg","maxspeed":"50","oneway":"yes","highway":"secondary"}},{"Shape":286,"Coordinates":[4.334893,51.85123],"Attributes":{"name":"Elementenweg","highway":"unclassified"}},{"Shape":287,"Coordinates":[4.335995,51.85187],"Attributes":{"name":"Adriaan Prinslaan","highway":"residential"}},{"Shape":287,"Coordinates":[4.336103,51.8518],"Attributes":{"name":"Adriaan Prinslaan","highway":"residential"}},{"Shape":289,"Coordinates":[4.33671,51.85231],"Attributes":{"name":"Elementenweg","highway":"residential","maxspeed":"50"}},{"Shape":293,"Coordinates":[4.336773,51.85234],"Attributes":{"name":"Elementenweg","highway":"unclassified","oneway":"yes"}},{"Shape":294,"Coordinates":[4.340066,51.85363],"Attributes":{"highway":"service"}},{"Shape":297,"Coordinates":[4.340659,51.85408],"Attributes":{"highway":"service"}},{"Shape":299,"Coordinates":[4.341385,51.85418],"Attributes":{"name":"Hongerlandsedijk","highway":"residential","maxspeed":"30"}},{"Shape":299,"Coordinates":[4.341249,51.85431],"Attributes":{"name":"Hongerlandsedijk","motorcar":"no","highway":"residential","maxspeed":"30"}},{"Shape":311,"Coordinates":[4.343739,51.85225],"Attributes":{"name":"Hongerlandsedijk","highway":"residential","maxspeed":"30"}},{"Shape":315,"Coordinates":[4.344673,51.8516],"Attributes":{"name":"Hongerlandsedijk","highway":"residential","maxspeed":"30"}},{"Shape":319,"Coordinates":[4.340312,51.84929],"Attributes":{"name":"Adriaan Prinslaan","highway":"residential"}},{"Shape":322,"Coordinates":[4.339995,51.84884],"Attributes":{"name":"Groenoordweg","highway":"service","oneway":"yes"}},{"Shape":323,"Coordinates":[4.338933,51.84872],"Attributes":{"name":"Groenoordweg","highway":"service"}},{"Shape":324,"Coordinates":[4.339941,51.84828],"Attributes":{"name":"Oude Maasweg","highway":"unclassified"}},{"Shape":328,"Coordinates":[4.342772,51.84898],"Attributes":{"name":"Theemsweg","highway":"residential"}},{"Shape":328,"Coordinates":[4.343457,51.84892],"Attributes":{"name":"Groenoord","highway":"residential"}},{"Shape":330,"Coordinates":[4.342339,51.84996],"Attributes":{"name":"Groenoord","highway":"residential"}},{"Shape":331,"Coordinates":[4.34311,51.84925],"Attributes":{"name":"Groenoord","highway":"residential"}},{"Shape":338,"Coordinates":[4.342339,51.84996],"Attributes":{"name":"Groenoord","highway":"residential"}},{"Shape":339,"Coordinates":[4.342772,51.84898],"Attributes":{"name":"Theemsweg","highway":"residential"}},{"Shape":343,"Coordinates":[4.339931,51.84852],"Attributes":{"name":"Oude Maasweg","highway":"unclassified","maxspeed":"30"}},{"Shape":345,"Coordinates":[4.340665,51.84819],"Attributes":{"name":"Donaulaan","highway":"unclassified","maxspeed":"50","oneway":"yes"}},{"Shape":345,"Coordinates":[4.339949,51.84815],"Attributes":{"name":"Oude Maasweg","highway":"unclassified"}},{"Shape":351,"Coordinates":[4.338152,51.84832],"Attributes":{"name":"Schenkelweg","maxspeed":"50","oneway":"yes","highway":"secondary"}},{"Shape":351,"Coordinates":[4.338574,51.84804],"Attributes":{"name":"Schenkelweg","maxspeed":"50","oneway":"yes","highway":"secondary"}},{"Shape":352,"Coordinates":[4.338102,51.8482],"Attributes":{"name":"Schenkelweg","maxspeed":"50","oneway":"yes","highway":"secondary"}},{"Shape":352,"Coordinates":[4.338386,51.84801],"Attributes":{"name":"Schenkelweg","maxspeed":"50","oneway":"yes","highway":"secondary"}},{"Shape":354,"Coordinates":[4.337877,51.84804],"Attributes":{"name":"Ruwaard van Puttenweg","maxspeed":"50","highway":"tertiary","oneway":"yes"}},{"Shape":357,"Coordinates":[4.336847,51.84761],"Attributes":{"highway":"unclassified","oneway":"yes"}},{"Shape":357,"Coordinates":[4.336725,51.84777],"Attributes":{"name":"Van Hogendorpstraat","highway":"residential"}},{"Shape":364,"Coordinates":[4.335445,51.84685],"Attributes":{"name":"Centrumlaan","highway":"residential","maxspeed":"50","oneway":"yes"}},{"Shape":364,"Coordinates":[4.335281,51.84685],"Attributes":{"name":"Ruwaard van Puttenweg","maxspeed":"50","highway":"tertiary","oneway":"yes"}},{"Shape":367,"Coordinates":[4.334736,51.84706],"Attributes":{"highway":"service","motorcar":"no","maxspeed":"50","oneway":"yes"}},{"Shape":371,"Coordinates":[4.333105,51.84767],"Attributes":{"name":"Centrumlaan","highway":"unclassified","maxspeed":"50","oneway":"yes"}},{"Shape":371,"Coordinates":[4.332804,51.84774],"Attributes":{"highway":"living_street"}},{"Shape":376,"Coordinates":[4.331092,51.84879],"Attributes":{"name":"Centrumrotonde","highway":"unclassified","maxspeed":"50","oneway":"yes","junction":"roundabout"}},{"Shape":380,"Coordinates":[4.331888,51.84911],"Attributes":{"name":"Doctor J M den Uyllaan","highway":"unclassified","maxspeed":"50","oneway":"yes"}},{"Shape":380,"Coordinates":[4.331324,51.849],"Attributes":{"name":"Centrumrotonde","highway":"unclassified","maxspeed":"50","oneway":"yes","junction":"roundabout"}},{"Shape":386,"Coordinates":[4.333076,51.84983],"Attributes":{"name":"Thorbeckelaan","highway":"residential","oneway":"yes"}},{"Shape":386,"Coordinates":[4.333339,51.8497],"Attributes":{"name":"Thorbeckelaan","highway":"residential","oneway":"yes"}},{"Shape":387,"Coordinates":[4.333386,51.84996],"Attributes":{"name":"Doctor J M den Uyllaan","highway":"unclassified","maxspeed":"50","oneway":"yes"}},{"Shape":387,"Coordinates":[4.333412,51.84977],"Attributes":{"name":"Thorbeckelaan","highway":"residential","oneway":"yes"}},{"Shape":388,"Coordinates":[4.333288,51.85],"Attributes":{"name":"Doctor J M den Uyllaan","highway":"unclassified","maxspeed":"50","oneway":"yes"}},{"Shape":388,"Coordinates":[4.333076,51.84983],"Attributes":{"name":"Doctor J M den Uyllaan","highway":"unclassified","maxspeed":"50","oneway":"yes"}},{"Shape":389,"Coordinates":[4.33326,51.85001],"Attributes":{"name":"Doctor J M den Uyllaan","highway":"residential","oneway":"yes"}},{"Shape":390,"Coordinates":[4.332908,51.84991],"Attributes":{"name":"Gorsstraat","highway":"residential","oneway":"yes"}},{"Shape":391,"Coordinates":[4.332121,51.84992],"Attributes":{"name":"Gorsstraat","highway":"service"}},{"Shape":392,"Coordinates":[4.332148,51.85034],"Attributes":{"name":"Kolkplein","highway":"service"}},{"Shape":393,"Coordinates":[4.331476,51.85044],"Attributes":{"name":"Gorsstraat","highway":"residential","maxspeed":"30"}},{"Shape":399,"Coordinates":[4.332108,51.85028],"Attributes":{"name":"Gorsstraat","highway":"residential","maxspeed":"30"}},{"Shape":402,"Coordinates":[4.330697,51.85058],"Attributes":{"name":"Gorsstraat","highway":"residential"}},{"Shape":402,"Coordinates":[4.33042,51.85056],"Attributes":{"name":"Gorsstraat","highway":"residential","maxspeed":"30"}},{"Shape":411,"Coordinates":[4.331476,51.85044],"Attributes":{"name":"Gorsstraat","highway":"residential","maxspeed":"30"}},{"Shape":412,"Coordinates":[4.330422,51.85063],"Attributes":{"highway":"service"}},{"Shape":413,"Coordinates":[4.32928,51.85018],"Attributes":{"highway":"service"}},{"Shape":413,"Coordinates":[4.329322,51.85065],"Attributes":{"name":"Noordkade","highway":"residential","maxspeed":"30"}},{"Shape":415,"Coordinates":[4.33042,51.85056],"Attributes":{"name":"Gorsstraat","highway":"residential","maxspeed":"30"}},{"Shape":417,"Coordinates":[4.329021,51.85089],"Attributes":{"highway":"track"}},{"Shape":419,"Coordinates":[4.328696,51.85123],"Attributes":{"name":"Noordkade","highway":"residential","maxspeed":"30"}},{"Shape":425,"Coordinates":[4.32847,51.85144],"Attributes":{"bridge":"yes","name":"Noordkade","highway":"residential","maxspeed":"30"}},{"Shape":431,"Coordinates":[4.328226,51.85054],"Attributes":{"name":"Erfstraat","highway":"service"}},{"Shape":437,"Coordinates":[4.327125,51.85024],"Attributes":{"name":"Kaaistraat","highway":"service","motorcar":"no"}},{"Shape":437,"Coordinates":[4.326575,51.84929],"Attributes":{"name":"Rademacherstraat","highway":"service"}},{"Shape":447,"Coordinates":[4.327125,51.85024],"Attributes":{"name":"Kaaistraat","highway":"service","motorcar":"no"}},{"Shape":453,"Coordinates":[4.328226,51.85054],"Attributes":{"name":"Erfstraat","highway":"service"}},{"Shape":459,"Coordinates":[4.328696,51.85123],"Attributes":{"name":"Noordkade","highway":"residential","maxspeed":"30"}},{"Shape":461,"Coordinates":[4.328666,51.85151],"Attributes":{"name":"Gorsstraat","highway":"residential"}},{"Shape":462,"Coordinates":[4.326832,51.85148],"Attributes":{"name":"Noordeinde","highway":"residential","maxspeed":"30","oneway":"yes"}},{"Shape":466,"Coordinates":[4.330255,51.85269],"Attributes":{"name":"Noordeinde","highway":"residential"}},{"Shape":466,"Coordinates":[4.330135,51.85258],"Attributes":{"highway":"service"}},{"Shape":469,"Coordinates":[4.330135,51.85258],"Attributes":{"highway":"service"}},{"Shape":473,"Coordinates":[4.330812,51.85296],"Attributes":{"name":"Schenkelweg","maxspeed":"50","oneway":"yes","highway":"secondary"}},{"Shape":473,"Coordinates":[4.330986,51.85272],"Attributes":{"name":"Schenkelweg","maxspeed":"50","oneway":"yes","highway":"secondary"}},{"Shape":474,"Coordinates":[4.33111,51.85291],"Attributes":{"name":"Veerweg","highway":"unclassified"}},{"Shape":474,"Coordinates":[4.331108,51.85276],"Attributes":{"name":"Schenkelweg","maxspeed":"50","oneway":"yes","highway":"secondary"}},{"Shape":475,"Coordinates":[4.331444,51.85357],"Attributes":{"highway":"service"}},{"Shape":475,"Coordinates":[4.330581,51.85322],"Attributes":{"highway":"service"}},{"Shape":477,"Coordinates":[4.329936,51.85458],"Attributes":{"name":"Ingenieur Herman de Grootweg","highway":"unclassified"}},{"Shape":480,"Coordinates":[4.329519,51.85487],"Attributes":{"name":"Groene Kruisweg","oneway":"yes","highway":"primary","maxspeed":"80"}},{"Shape":480,"Coordinates":[4.329148,51.85471],"Attributes":{"name":"Groene Kruisweg","oneway":"yes","highway":"primary","maxspeed":"80"}},{"Shape":481,"Coordinates":[4.328979,51.85496],"Attributes":{"name":"Plaatweg","highway":"unclassified","maxspeed":"50","oneway":"yes"}},{"Shape":481,"Coordinates":[4.329405,51.85497],"Attributes":{"name":"Groene Kruisweg","oneway":"yes","highway":"primary","maxspeed":"80"}},{"Shape":482,"Coordinates":[4.328979,51.85496],"Attributes":{"name":"Plaatweg","highway":"unclassified","maxspeed":"50","oneway":"yes"}},{"Shape":482,"Coordinates":[4.329148,51.85471],"Attributes":{"name":"Schenkelweg","maxspeed":"50","oneway":"yes","highway":"secondary"}},{"Shape":491,"Coordinates":[4.325532,51.85347],"Attributes":{"name":"Groene Kruisweg","highway":"unclassified","maxspeed":"50","oneway":"yes"}},{"Shape":491,"Coordinates":[4.325407,51.85375],"Attributes":{"name":"Rozenlaan","highway":"unclassified","maxspeed":"50","oneway":"yes"}},{"Shape":492,"Coordinates":[4.325211,51.85395],"Attributes":{"name":"Rozenlaan","highway":"unclassified","maxspeed":"50","oneway":"yes"}},{"Shape":492,"Coordinates":[4.325302,51.85341],"Attributes":{"name":"Groene Kruisweg","highway":"unclassified","maxspeed":"50","oneway":"yes"}},{"Shape":497,"Coordinates":[4.321667,51.8527],"Attributes":{"name":"Groene Kruisweg","highway":"unclassified"}},{"Shape":497,"Coordinates":[4.321558,51.85292],"Attributes":{"name":"Groene Kruisweg","highway":"unclassified"}},{"Shape":503,"Coordinates":[4.317437,51.85209],"Attributes":{"name":"Groene Kruisweg","oneway":"yes","highway":"primary","maxspeed":"80"}},{"Shape":503,"Coordinates":[4.317684,51.85196],"Attributes":{"name":"Groene Kruisweg","maxspeed":"50","highway":"tertiary","oneway":"yes"}},{"Shape":505,"Coordinates":[4.317132,51.85259],"Attributes":{"name":"Schiekampsingel","highway":"unclassified","maxspeed":"30"}},{"Shape":505,"Coordinates":[4.317325,51.85233],"Attributes":{"name":"Winston Churchilllaan","maxspeed":"50","highway":"tertiary","oneway":"yes"}},{"Shape":508,"Coordinates":[4.317206,51.85315],"Attributes":{"name":"Hoogwerfsingel","highway":"residential","maxspeed":"30"}},{"Shape":508,"Coordinates":[4.317019,51.85323],"Attributes":{"name":"Winston Churchilllaan","maxspeed":"50","highway":"tertiary"}},{"Shape":508,"Coordinates":[4.3169,51.8531],"Attributes":{"name":"Hoogwerfsingel","highway":"unclassified","maxspeed":"30"}},{"Shape":512,"Coordinates":[4.316307,51.85448],"Attributes":{"name":"A M de Jongstraat","highway":"unclassified","maxspeed":"30"}},{"Shape":514,"Coordinates":[4.316962,51.85391],"Attributes":{"name":"'t Plateau","highway":"residential","maxspeed":"30","oneway":"yes"}},{"Shape":514,"Coordinates":[4.315657,51.85597],"Attributes":{"name":"Winston Churchilllaan","maxspeed":"50","highway":"tertiary","oneway":"yes"}},{"Shape":517,"Coordinates":[4.315708,51.85615],"Attributes":{"name":"Winston Churchilllaan","maxspeed":"50","highway":"tertiary","oneway":"yes"}},{"Shape":519,"Coordinates":[4.315776,51.85613],"Attributes":{"highway":"unclassified","maxspeed":"50","oneway":"yes"}},{"Shape":521,"Coordinates":[4.315814,51.85624],"Attributes":{"highway":"unclassified","maxspeed":"50","oneway":"yes"}},{"Shape":522,"Coordinates":[4.317698,51.85657],"Attributes":{"name":"Willemshoevelaan","highway":"unclassified","maxspeed":"50"}},{"Shape":523,"Coordinates":[4.316568,51.85613],"Attributes":{"name":"Anjerplein","highway":"service"}},{"Shape":524,"Coordinates":[4.316902,51.85571],"Attributes":{"name":"Anjerstraat","highway":"residential","maxspeed":"30"}},{"Shape":526,"Coordinates":[4.316902,51.85571],"Attributes":{"name":"Anjerstraat","highway":"residential","maxspeed":"30"}},{"Shape":527,"Coordinates":[4.316568,51.85613],"Attributes":{"name":"Anjerplein","highway":"service"}},{"Shape":528,"Coordinates":[4.317698,51.85657],"Attributes":{"name":"Willemshoevelaan","highway":"unclassified","maxspeed":"50"}},{"Shape":529,"Coordinates":[4.316232,51.85624],"Attributes":{"highway":"unclassified","maxspeed":"50","oneway":"yes"}},{"Shape":530,"Coordinates":[4.315718,51.85625],"Attributes":{"highway":"unclassified","maxspeed":"50","oneway":"yes"}},{"Shape":532,"Coordinates":[4.315623,51.85618],"Attributes":{"highway":"unclassified","maxspeed":"50","oneway":"yes"}},{"Shape":532,"Coordinates":[4.315776,51.85613],"Attributes":{"highway":"unclassified","maxspeed":"50","oneway":"yes"}},{"Shape":532,"Coordinates":[4.315795,51.85597],"Attributes":{"name":"Winston Churchilllaan","maxspeed":"50","highway":"tertiary","oneway":"yes"}},{"Shape":532,"Coordinates":[4.315625,51.85633],"Attributes":{"name":"Winston Churchilllaan","maxspeed":"50","highway":"tertiary","oneway":"yes"}},{"Shape":534,"Coordinates":[4.315514,51.85627],"Attributes":{"name":"Winston Churchilllaan","maxspeed":"50","highway":"tertiary","oneway":"yes"}},{"Shape":537,"Coordinates":[4.316962,51.85391],"Attributes":{"name":"'t Plateau","highway":"residential","maxspeed":"30","oneway":"yes"}},{"Shape":537,"Coordinates":[4.315952,51.85565],"Attributes":{"name":"Winston Churchilllaan","maxspeed":"50","highway":"tertiary","oneway":"yes"}},{"Shape":539,"Coordinates":[4.317019,51.85323],"Attributes":{"name":"Winston Churchilllaan","maxspeed":"50","highway":"tertiary"}},{"Shape":541,"Coordinates":[4.315199,51.85427],"Attributes":{"name":"A M de Jongstraat","highway":"unclassified","maxspeed":"30"}},{"Shape":541,"Coordinates":[4.315956,51.85327],"Attributes":{"name":"Herman Gorterstraat","highway":"residential","maxspeed":"30"}},{"Shape":544,"Coordinates":[4.31624,51.85332],"Attributes":{"name":"P A de Genestetstraat","highway":"residential","maxspeed":"30"}},{"Shape":545,"Coordinates":[4.315467,51.85257],"Attributes":{"name":"Potgieterstraat","highway":"residential","maxspeed":"30"}},{"Shape":545,"Coordinates":[4.314386,51.85291],"Attributes":{"bridge":"yes","name":"P A de Genestetstraat","highway":"residential","maxspeed":"30"}},{"Shape":546,"Coordinates":[4.314612,51.85265],"Attributes":{"name":"Vondelsingel","highway":"unclassified","maxspeed":"30"}},{"Shape":546,"Coordinates":[4.314265,51.85306],"Attributes":{"name":"Vondelsingel","highway":"unclassified","maxspeed":"30"}},{"Shape":549,"Coordinates":[4.317132,51.85259],"Attributes":{"name":"Schiekampsingel","highway":"unclassified","maxspeed":"30"}},{"Shape":550,"Coordinates":[4.313771,51.85239],"Attributes":{"name":"Tollensstraat","highway":"residential","maxspeed":"30"}},{"Shape":552,"Coordinates":[4.312829,51.85246],"Attributes":{"name":"Jacq. Perkstraat","highway":"residential","maxspeed":"30"}},{"Shape":555,"Coordinates":[4.311681,51.85179],"Attributes":{"name":"Staringplantsoen","highway":"residential","maxspeed":"30"}},{"Shape":557,"Coordinates":[4.311612,51.85281],"Attributes":{"name":"Jacob Catsstraat","highway":"unclassified","maxspeed":"30"}},{"Shape":558,"Coordinates":[4.310389,51.85228],"Attributes":{"name":"Westersingel","highway":"residential","maxspeed":"30"}},{"Shape":558,"Coordinates":[4.311681,51.85179],"Attributes":{"name":"Staringplantsoen","highway":"residential","maxspeed":"30"}},{"Shape":564,"Coordinates":[4.311681,51.85179],"Attributes":{"name":"Staringplantsoen","highway":"residential","maxspeed":"30"}},{"Shape":565,"Coordinates":[4.312043,51.8523],"Attributes":{"name":"Jacob Catsstraat","highway":"unclassified","maxspeed":"30"}},{"Shape":565,"Coordinates":[4.311612,51.85281],"Attributes":{"name":"Jacob Catsstraat","highway":"unclassified","maxspeed":"30"}},{"Shape":567,"Coordinates":[4.31118,51.85243],"Attributes":{"name":"Westersingel","highway":"residential","maxspeed":"30"}},{"Shape":568,"Coordinates":[4.312449,51.85293],"Attributes":{"name":"Da Costastraat","highway":"residential","maxspeed":"30"}},{"Shape":569,"Coordinates":[4.311099,51.85283],"Attributes":{"name":"Beetsstraat","highway":"residential","maxspeed":"30"}},{"Shape":570,"Coordinates":[4.3098,51.8527],"Attributes":{"name":"A M de Jongstraat","highway":"unclassified","maxspeed":"30"}},{"Shape":570,"Coordinates":[4.312048,51.8534],"Attributes":{"name":"A M de Jongstraat","highway":"unclassified","maxspeed":"30"}},{"Shape":571,"Coordinates":[4.310108,51.85334],"Attributes":{"name":"Boutensstraat","highway":"residential","maxspeed":"30"}},{"Shape":572,"Coordinates":[4.3124,51.8541],"Attributes":{"name":"Multatulistraat","highway":"residential","maxspeed":"30"}},{"Shape":573,"Coordinates":[4.3102,51.8546],"Attributes":{"name":"Jacob Catsstraat","highway":"unclassified","maxspeed":"30"}},{"Shape":573,"Coordinates":[4.311436,51.85436],"Attributes":{"name":"Jacob van Lennepstraat","highway":"residential","maxspeed":"30"}},{"Shape":579,"Coordinates":[4.311648,51.85504],"Attributes":{"name":"Bilderdijkstraat","highway":"residential","maxspeed":"30"}},{"Shape":580,"Coordinates":[4.310945,51.85366],"Attributes":{"name":"Multatulistraat","highway":"residential","maxspeed":"30"}},{"Shape":580,"Coordinates":[4.312785,51.85363],"Attributes":{"name":"Bilderdijkstraat","highway":"residential","maxspeed":"30"}},{"Shape":581,"Coordinates":[4.3136,51.8539],"Attributes":{"name":"Vondelsingel","highway":"unclassified"}},{"Shape":581,"Coordinates":[4.312773,51.85486],"Attributes":{"name":"Vondelsingel","highway":"unclassified"}},{"Shape":583,"Coordinates":[4.3133,51.855],"Attributes":{"name":"Slauerhoffstraat","highway":"residential","maxspeed":"30"}},{"Shape":584,"Coordinates":[4.311979,51.85584],"Attributes":{"name":"Vondelsingel","highway":"unclassified","maxspeed":"30"}},{"Shape":584,"Coordinates":[4.311648,51.85504],"Attributes":{"name":"P C Hooftstraat","highway":"residential","maxspeed":"30"}}]}