{"Shape":[[4.313022,51.83587],[4.313671,51.83597],[4.313859,51.83549],[4.314137,51.835],[4.314114,51.83487],[4.314303,51.83452],[4.3144,51.8343],[4.314209,51.83427],[4.314298,51.8341],[4.314369,51.83411],[4.314298,51.8341],[4.314209,51.83427],[4.3144,51.8343],[4.314303,51.83452],[4.314114,51.83487],[4.314041,51.83486],[4.314114,51.83487],[4.314137,51.835],[4.313859,51.83549],[4.314219,51.83556],[4.314416,51.83577],[4.314581,51.83593],[4.314968,51.83629],[4.3156,51.8365],[4.315694,51.83643],[4.316217,51.83662],[4.316283,51.83668],[4.316586,51.83678],[4.316866,51.83684],[4.317004,51.83668],[4.317582,51.8369],[4.317898,51.83702],[4.318381,51.83653],[4.318489,51.8366],[4.318607,51.8367],[4.3188,51.8366],[4.3192,51.8364],[4.3195,51.8362],[4.320218,51.83548],[4.3203,51.8354],[4.320514,51.83545],[4.320782,51.83551],[4.321316,51.83555],[4.321412,51.83556],[4.321391,51.83568],[4.321393,51.83574],[4.321346,51.83605],[4.321342,51.83609],[4.321307,51.83641],[4.321081,51.83658],[4.32077,51.83682],[4.320413,51.83712],[4.320386,51.83715],[4.320413,51.83712],[4.32077,51.83682],[4.321481,51.83711],[4.321772,51.83712],[4.321859,51.83712],[4.321868,51.83712],[4.321966,51.83709],[4.322352,51.83711],[4.322404,51.83714],[4.322705,51.83716],[4.322788,51.83719],[4.323147,51.83722],[4.323262,51.8372],[4.32348,51.83721],[4.323656,51.83722],[4.32368,51.8371],[4.323694,51.83686],[4.323652,51.83677],[4.323712,51.83632],[4.323684,51.8363],[4.323534,51.83619],[4.322933,51.83577],[4.322962,51.83576],[4.322933,51.83577],[4.322364,51.83539],[4.322464,51.83532],[4.322536,51.83478],[4.321702,51.83443],[4.322205,51.83394],[4.32225,51.8338],[4.322091,51.83373],[4.32225,51.8338],[4.322326,51.8338],[4.322979,51.83382],[4.32289,51.83445],[4.323604,51.83447],[4.323663,51.8345],[4.323824,51.8346],[4.323851,51.83461],[4.323874,51.83462],[4.324122,51.83464],[4.325269,51.83468],[4.325469,51.83461],[4.325418,51.835],[4.3253,51.8351],[4.325213,51.83532],[4.325202,51.83541],[4.325196,51.83546],[4.325202,51.83541],[4.325213,51.83532],[4.324784,51.8353],[4.324642,51.83534],[4.324398,51.83531],[4.324235,51.83529],[4.323646,51.83527],[4.32364,51.83533],[4.32362,51.8354],[4.323424,51.8355],[4.322933,51.83577],[4.323534,51.83619],[4.323684,51.8363],[4.323712,51.83632],[4.323691,51.83648],[4.323712,51.83632],[4.323684,51.8363],[4.323534,51.83619],[4.322933,51.83577],[4.322364,51.83539],[4.322053,51.83555],[4.321996,51.83558],[4.321552,51.83556],[4.321412,51.83556],[4.321342,51.83555],[4.321316,51.83555],[4.320782,51.83551],[4.320514,51.83545],[4.3203,51.8354],[4.320218,51.83548],[4.3195,51.8362],[4.3192,51.8364],[4.3188,51.8366],[4.318607,51.8367],[4.318489,51.8366],[4.318544,51.83654],[4.318489,51.8366],[4.318381,51.83653],[4.317898,51.83702],[4.317582,51.8369],[4.317004,51.83668],[4.316866,51.83684],[4.316586,51.83678],[4.316283,51.83668],[4.316217,51.83662],[4.315694,51.83643],[4.316148,51.83593],[4.316802,51.83615],[4.316148,51.83593],[4.315694,51.83643],[4.3156,51.8365],[4.314968,51.83629],[4.314581,51.83593],[4.314524,51.83587],[4.314416,51.83577],[4.314219,51.83556],[4.313859,51.83549],[4.314137,51.835],[4.314114,51.83487],[4.314303,51.83452],[4.3144,51.8343],[4.314209,51.83427],[4.313241,51.8341],[4.313118,51.83407],[4.31251,51.83391],[4.312206,51.83381],[4.311372,51.83355],[4.310574,51.8334],[4.310278,51.83334],[4.3105,51.8329],[4.3101,51.8328],[4.309976,51.83276],[4.3101,51.8328],[4.3105,51.8329],[4.310278,51.83334],[4.310574,51.8334],[4.310595,51.8334],[4.311372,51.83355],[4.312206,51.83381],[4.31251,51.83391],[4.312492,51.83393],[4.311913,51.83472],[4.310999,51.83456],[4.310925,51.83455],[4.310219,51.8344],[4.310925,51.83455],[4.310999,51.83456],[4.310963,51.83464],[4.310636,51.83531],[4.311381,51.83544],[4.311953,51.83555],[4.312106,51.83563],[4.311994,51.83572],[4.311674,51.83632],[4.311584,51.8365],[4.311459,51.83675],[4.311439,51.83678],[4.3105,51.8373],[4.310274,51.83768],[4.309567,51.83775],[4.309218,51.83779],[4.308591,51.83786],[4.307698,51.83796],[4.306889,51.83805],[4.306881,51.83802],[4.306889,51.83805],[4.307698,51.83796],[4.308591,51.83786],[4.308593,51.83781],[4.308591,51.83786],[4.307698,51.83796],[4.306889,51.83805],[4.306077,51.83814],[4.30519,51.83824],[4.305066,51.8378],[4.304975,51.83781],[4.304136,51.83791],[4.304297,51.83834],[4.304089,51.83838],[4.303646,51.83843],[4.303238,51.83827],[4.30311,51.83821],[4.302869,51.83796],[4.302889,51.83788],[4.303,51.8377],[4.30307,51.8377],[4.3032,51.8377],[4.303365,51.83745],[4.3034,51.8374],[4.303529,51.83714],[4.304029,51.83724],[4.304883,51.83714],[4.304844,51.837],[4.305034,51.83661],[4.305214,51.83624],[4.305281,51.83625],[4.306133,51.8364],[4.306885,51.83654],[4.306957,51.83655],[4.306963,51.83653],[4.306957,51.83655],[4.30737,51.83662],[4.307996,51.83673],[4.308403,51.83681],[4.3089,51.8369],[4.309028,51.83662],[4.309116,51.83645],[4.309144,51.83639],[4.309074,51.83637],[4.309144,51.83639],[4.309281,51.8361],[4.309316,51.83603],[4.309387,51.8359],[4.309542,51.83558],[4.3096,51.83545],[4.309781,51.83538],[4.309716,51.83523],[4.308904,51.83507],[4.30871,51.835],[4.308904,51.83507],[4.309716,51.83523],[4.309781,51.83538],[4.310183,51.83525],[4.310244,51.83523],[4.310636,51.83531],[4.311381,51.83544],[4.311953,51.83555],[4.312106,51.83563],[4.312172,51.8357],[4.312908,51.83585],[4.313022,51.83587]],"ShapeMeta":[{"Shape":0,"Attributes":{"profile":"car"}},{"Shape":1,"Attributes":{"name":"Ouverturelaan","highway":"unclassified","oneway":"yes","profile":"car","distance":"46.06363","time":"4.422108"}},{"Shape":2,"Attributes":{"name":"Dallelaan","highway":"unclassified","profile":"car","distance":"100.9636","time":"9.692509"}},{"Shape":3,"Attributes":{"name":"Dallelaan","highway":"unclassified","profile":"car","distance":"158.0636","time":"15.17411"}},{"Shape":4,"Attributes":{"name":"Dallelaan","highway":"unclassified","profile":"car","distance":"172.9636","time":"16.60451"}},{"Shape":5,"Attributes":{"name":"Dallelaan","highway":"unclassified","profile":"car","distance":"214.0636","time":"20.55011"}},{"Shape":7,"Attributes":{"name":"Dallelaan","highway":"unclassified","profile":"car","distance":"252.7636","time":"24.26531"}},{"Shape":8,"Attributes":{"highway":"residential","profile":"car","distance":"271.9636","time":"26.10851"}},{"Shape":9,"Attributes":{"name":"Chopinstraat","highway":"residential","profile":"car","distance":"277.0375","time":"26.59561"}},{"Shape":10,"Attributes":{"name":"Chopinstraat","highway":"residential","profile":"car","distance":"282.1115","time":"207.0827"}},{"Shape":11,"Attributes":{"highway":"residential","profile":"car","distance":"301.3115","time":"208.9259"}},{"Shape":13,"Attributes":{"name":"Dallelaan","highway":"unclassified","profile":"car","distance":"340.0114","time":"212.6411"}},{"Shape":14,"Attributes":{"name":"Dallelaan","highway":"unclassified","profile":"car","distance":"381.1114","time":"216.5867"}},{"Shape":15,"Attributes":{"name":"Strawinskystraat","highway":"residential","profile":"car","distance":"386.3141","time":"217.0862"}},{"Shape":16,"Attributes":{"name":"Strawinskystraat","highway":"residential","profile":"car","distance":"391.5168","time":"397.5857"}},{"Shape":17,"Attributes":{"name":"Dallelaan","highway":"unclassified","profile":"car","distance":"406.4168","time":"399.0161"}},{"Shape":18,"Attributes":{"name":"Dallelaan","highway":"unclassified","profile":"car","distance":"463.5168","time":"404.4977"}},{"Shape":21,"Attributes":{"name":"Rigolettostraat","highway":"residential","profile":"car","distance":"537.4168","time":"411.5921"}},{"Shape":24,"Attributes":{"name":"Rigolettostraat","highway":"residential","profile":"car","distance":"645.4167","time":"421.9601"}},{"Shape":31,"Attributes":{"name":"Rigolettostraat","highway":"residential","profile":"car","distance":"831.5168","time":"439.8257"}},{"Shape":32,"Attributes":{"name":"Rigolettostraat","highway":"unclassified","profile":"car","distance":"895.1168","time":"445.9313"}},{"Shape":33,"Attributes":{"name":"Oberonweg","highway":"unclassified","profile":"car","distance":"905.7168","time":"446.9489"}},{"Shape":34,"Attributes":{"name":"Oberonweg","highway":"unclassified","profile":"car","distance":"919.7168","time":"448.2929"}},{"Shape":39,"Attributes":{"name":"Akkersweg","highway":"tertiary","profile":"car","distance":"1107.317","time":"461.1569"}},{"Shape":43,"Attributes":{"name":"Akkersvoorde","highway":"unclassified","profile":"car","distance":"1186.317","time":"468.7409"}},{"Shape":46,"Attributes":{"name":"Zeisvoorde","highway":"unclassified","profile":"car","distance":"1241.217","time":"474.0113"}},{"Shape":50,"Attributes":{"name":"Zeisvoorde","highway":"unclassified","profile":"car","distance":"1339.817","time":"483.4769"}},{"Shape":51,"Attributes":{"name":"Zeisvoorde","highway":"unclassified","profile":"car","distance":"1381.317","time":"487.4609"}},{"Shape":52,"Attributes":{"name":"Zeisvoorde","highway":"unclassified","profile":"car","distance":"1384.396","time":"487.7564"}},{"Shape":53,"Attributes":{"name":"Zeisvoorde","highway":"unclassified","profile":"car","distance":"1387.475","time":"668.052"}},{"Shape":54,"Attributes":{"name":"Zeisvoorde","highway":"unclassified","profile":"car","distance":"1428.975","time":"672.036"}},{"Shape":56,"Attributes":{"name":"Ristervoorde","highway":"unclassified","profile":"car","distance":"1507.273","time":"679.5526"}},{"Shape":57,"Attributes":{"name":"Ristervoorde","highway":"unclassified","profile":"car","distance":"1513.279","time":"860.1292"}},{"Shape":65,"Attributes":{"name":"Ristervoorde","highway":"unclassified","profile":"car","distance":"1613.175","time":"1049.719"}},{"Shape":66,"Attributes":{"name":"Ristervoorde","highway":"unclassified","profile":"car","distance":"1628.075","time":"1051.149"}},{"Shape":67,"Attributes":{"name":"Ristervoorde","highway":"unclassified","profile":"car","distance":"1640.175","time":"1052.311"}},{"Shape":72,"Attributes":{"name":"Ploegvoorde","highway":"unclassified","profile":"car","distance":"1744.175","time":"1062.295"}},{"Shape":74,"Attributes":{"name":"Ploegvoorde","highway":"unclassified","profile":"car","distance":"1822.175","time":"1069.783"}},{"Shape":75,"Attributes":{"name":"Voordeplantsoen","highway":"unclassified","profile":"car","distance":"1824.842","time":"1070.039"}},{"Shape":76,"Attributes":{"name":"Voordeplantsoen","highway":"unclassified","profile":"car","distance":"1827.51","time":"1250.295"}},{"Shape":77,"Attributes":{"name":"Ploegvoorde","highway":"unclassified","profile":"car","distance":"1885.41","time":"1255.854"}},{"Shape":79,"Attributes":{"name":"Akkersvoorde","highway":"unclassified","profile":"car","distance":"1956.11","time":"1262.641"}},{"Shape":80,"Attributes":{"name":"Disselvoorde","highway":"unclassified","profile":"car","distance":"2025.41","time":"1269.293"}},{"Shape":82,"Attributes":{"name":"Disselvoorde","highway":"unclassified","profile":"car","distance":"2105.71","time":"1277.002"}},{"Shape":83,"Attributes":{"name":"Disselvoorde","highway":"unclassified","profile":"car","distance":"2118.891","time":"1278.268"}},{"Shape":84,"Attributes":{"name":"Disselvoorde","highway":"unclassified","profile":"car","distance":"2132.073","time":"1459.533"}},{"Shape":86,"Attributes":{"name":"Schoffelvoorde","highway":"unclassified","profile":"car","distance":"2182.172","time":"1464.343"}},{"Shape":87,"Attributes":{"name":"Schoffelvoorde","highway":"unclassified","profile":"car","distance":"2251.972","time":"1471.044"}},{"Shape":89,"Attributes":{"name":"Akkersvoorde","highway":"unclassified","profile":"car","distance":"2305.873","time":"1476.218"}},{"Shape":91,"Attributes":{"name":"Akkersvoorde","highway":"unclassified","profile":"car","distance":"2323.911","time":"1477.95"}},{"Shape":95,"Attributes":{"name":"Akkersvoorde","highway":"unclassified","profile":"car","distance":"2437.472","time":"1668.852"}},{"Shape":98,"Attributes":{"name":"Zichtvoorde","highway":"unclassified","profile":"car","distance":"2519.072","time":"1676.685"}},{"Shape":100,"Attributes":{"name":"Zichtvoorde","highway":"unclassified","profile":"car","distance":"2535.234","time":"1678.237"}},{"Shape":102,"Attributes":{"name":"Zichtvoorde","highway":"unclassified","profile":"car","distance":"2551.396","time":"1859.789"}},{"Shape":105,"Attributes":{"name":"Voordeplantsoen","highway":"unclassified","profile":"car","distance":"2608.996","time":"1865.318"}},{"Shape":106,"Attributes":{"name":"Voordeplantsoen","highway":"unclassified","profile":"car","distance":"2620.296","time":"1866.403"}},{"Shape":108,"Attributes":{"name":"Voordeplantsoen","highway":"unclassified","profile":"car","distance":"2667.196","time":"1870.905"}},{"Shape":111,"Attributes":{"name":"Voordeplantsoen","highway":"unclassified","profile":"car","distance":"2738.096","time":"1877.712"}},{"Shape":113,"Attributes":{"name":"Ploegvoorde","highway":"unclassified","profile":"car","distance":"2816.096","time":"1885.2"}},{"Shape":115,"Attributes":{"name":"Ploegvoorde","highway":"unclassified","profile":"car","distance":"2836.805","time":"1887.188"}},{"Shape":117,"Attributes":{"name":"Ploegvoorde","highway":"unclassified","profile":"car","distance":"2857.514","time":"2069.176"}},{"Shape":119,"Attributes":{"name":"Ploegvoorde","highway":"unclassified","profile":"car","distance":"2935.514","time":"2076.664"}},{"Shape":120,"Attributes":{"name":"Ploegvoorde","highway":"unclassified","profile":"car","distance":"2993.415","time":"2082.222"}},{"Shape":124,"Attributes":{"name":"Akkersvoorde","highway":"unclassified","profile":"car","distance":"3066.915","time":"2089.279"}},{"Shape":125,"Attributes":{"name":"Akkersvoorde","highway":"unclassified","profile":"car","distance":"3071.832","time":"2089.75"}},{"Shape":129,"Attributes":{"name":"Akkersvoorde","highway":"unclassified","profile":"car","distance":"3145.915","time":"2276.862"}},{"Shape":134,"Attributes":{"name":"Akkersweg","highway":"tertiary","profile":"car","distance":"3333.515","time":"2289.726"}},{"Shape":135,"Attributes":{"name":"Oberonweg","highway":"unclassified","profile":"car","distance":"3347.515","time":"2291.07"}},{"Shape":136,"Attributes":{"name":"Oberonweg","highway":"unclassified","profile":"car","distance":"3354.563","time":"2291.747"}},{"Shape":137,"Attributes":{"name":"Oberonweg","highway":"unclassified","profile":"car","distance":"3361.611","time":"2472.424"}},{"Shape":138,"Attributes":{"name":"Oberonweg","highway":"unclassified","profile":"car","distance":"3372.211","time":"2473.441"}},{"Shape":139,"Attributes":{"name":"Rigolettostraat","highway":"unclassified","profile":"car","distance":"3435.811","time":"2479.547"}},{"Shape":146,"Attributes":{"name":"Rigolettostraat","highway":"residential","profile":"car","distance":"3621.911","time":"2497.413"}},{"Shape":147,"Attributes":{"name":"Aïdastraat","highway":"residential","profile":"car","distance":"3685.611","time":"2503.528"}},{"Shape":148,"Attributes":{"name":"Aïdastraat","highway":"residential","profile":"car","distance":"3737.139","time":"2508.474"}},{"Shape":149,"Attributes":{"name":"Aïdastraat","highway":"residential","profile":"car","distance":"3788.667","time":"2693.421"}},{"Shape":150,"Attributes":{"name":"Aïdastraat","highway":"residential","profile":"car","distance":"3852.367","time":"2699.536"}},{"Shape":153,"Attributes":{"name":"Rigolettostraat","highway":"residential","profile":"car","distance":"3960.367","time":"2709.904"}},{"Shape":154,"Attributes":{"name":"Rigolettostraat","highway":"residential","profile":"car","distance":"3967.615","time":"2710.6"}},{"Shape":157,"Attributes":{"name":"Rigolettostraat","highway":"residential","profile":"car","distance":"4034.267","time":"2896.999"}},{"Shape":158,"Attributes":{"name":"Dallelaan","highway":"unclassified","profile":"car","distance":"4091.366","time":"2902.48"}},{"Shape":159,"Attributes":{"name":"Dallelaan","highway":"unclassified","profile":"car","distance":"4106.267","time":"2903.911"}},{"Shape":160,"Attributes":{"name":"Dallelaan","highway":"unclassified","profile":"car","distance":"4147.367","time":"2907.856"}},{"Shape":162,"Attributes":{"name":"Dallelaan","highway":"unclassified","profile":"car","distance":"4186.066","time":"2911.572"}},{"Shape":164,"Attributes":{"name":"Dallelaan","highway":"unclassified","profile":"car","distance":"4263.966","time":"2919.05"}},{"Shape":165,"Attributes":{"name":"Dallelaan","highway":"unclassified","profile":"car","distance":"4309.367","time":"2923.408"}},{"Shape":166,"Attributes":{"name":"Dallelaan","highway":"unclassified","profile":"car","distance":"4333.167","time":"2925.693"}},{"Shape":167,"Attributes":{"name":"Dallelaan","highway":"unclassified","profile":"car","distance":"4397.466","time":"2931.866"}},{"Shape":168,"Attributes":{"name":"Dallelaan","highway":"unclassified","profile":"car","distance":"4454.667","time":"2937.357"}},{"Shape":169,"Attributes":{"name":"Dallelaan","highway":"unclassified","profile":"car","distance":"4475.867","time":"2939.392"}},{"Shape":172,"Attributes":{"name":"Schubertstraat","highway":"residential","profile":"car","distance":"4566.08","time":"2948.053"}},{"Shape":175,"Attributes":{"name":"Schubertstraat","highway":"residential","profile":"car","distance":"4656.293","time":"3136.713"}},{"Shape":176,"Attributes":{"name":"Dallelaan","highway":"unclassified","profile":"car","distance":"4677.493","time":"3138.749"}},{"Shape":177,"Attributes":{"name":"Dallelaan","highway":"unclassified","profile":"car","distance":"4678.997","time":"3138.893"}},{"Shape":178,"Attributes":{"name":"Dallelaan","highway":"unclassified","profile":"car","distance":"4734.693","time":"3324.24"}},{"Shape":179,"Attributes":{"name":"Dallelaan","highway":"unclassified","profile":"car","distance":"4798.993","time":"3330.413"}},{"Shape":180,"Attributes":{"name":"Dallelaan","highway":"unclassified","profile":"car","distance":"4822.793","time":"3332.698"}},{"Shape":181,"Attributes":{"name":"Alainweg","highway":"residential","profile":"car","distance":"4825.718","time":"3332.978"}},{"Shape":183,"Attributes":{"name":"Alainweg","highway":"residential","profile":"car","distance":"4986.893","time":"3528.451"}},{"Shape":184,"Attributes":{"name":"Alainweg","highway":"residential","profile":"car","distance":"4992.193","time":"3528.96"}},{"Shape":185,"Attributes":{"name":"Alainweg","highway":"residential","profile":"car","distance":"5043.251","time":"3533.861"}},{"Shape":186,"Attributes":{"name":"Alainweg","highway":"residential","profile":"car","distance":"5094.309","time":"3718.763"}},{"Shape":187,"Attributes":{"name":"Alainweg","highway":"residential","profile":"car","distance":"5099.609","time":"3719.271"}},{"Shape":189,"Attributes":{"name":"Citerstraat","highway":"unclassified","profile":"car","distance":"5186.309","time":"3727.595"}},{"Shape":190,"Attributes":{"name":"Ouverturelaan","highway":"unclassified","profile":"car","distance":"5239.609","time":"3732.711"}},{"Shape":192,"Attributes":{"name":"Ouverturelaan","highway":"unclassified","profile":"car","distance":"5294.609","time":"3737.991"}},{"Shape":194,"Attributes":{"name":"Parklaan","highway":"residential","profile":"car","distance":"5377.109","time":"3745.911"}},{"Shape":195,"Attributes":{"name":"Hogeweg","highway":"residential","profile":"car","distance":"5398.309","time":"3747.947"}},{"Shape":196,"Attributes":{"name":"Parklaan","highway":"residential","profile":"car","distance":"5426.729","time":"3750.675"}},{"Shape":200,"Attributes":{"name":"Parklaan","highway":"residential","profile":"car","distance":"5611.509","time":"3948.414"}},{"Shape":201,"Attributes":{"name":"Parklaan","highway":"residential","profile":"car","distance":"5635.809","time":"3950.747"}},{"Shape":202,"Attributes":{"name":"Parklaan","highway":"residential","profile":"car","distance":"5679.509","time":"3954.942"}},{"Shape":203,"Attributes":{"name":"Parklaan","highway":"residential","profile":"car","distance":"5741.809","time":"3960.923"}},{"Shape":204,"Attributes":{"name":"Parklaan","highway":"residential","profile":"car","distance":"5798.209","time":"3966.337"}},{"Shape":205,"Attributes":{"name":"Accordeonpad","highway":"residential","profile":"car","distance":"5802.055","time":"3966.706"}},{"Shape":206,"Attributes":{"name":"Accordeonpad","highway":"residential","profile":"car","distance":"5805.901","time":"4147.076"}},{"Shape":207,"Attributes":{"name":"Parklaan","highway":"residential","profile":"car","distance":"5862.301","time":"4152.491"}},{"Shape":208,"Attributes":{"name":"Parklaan","highway":"residential","profile":"car","distance":"5924.602","time":"4158.472"}},{"Shape":209,"Attributes":{"name":"Ouverturelaan","highway":"unclassified","profile":"car","distance":"5930.96","time":"4159.082"}},{"Shape":210,"Attributes":{"name":"Ouverturelaan","highway":"unclassified","profile":"car","distance":"5937.319","time":"4339.692"}},{"Shape":211,"Attributes":{"name":"Parklaan","highway":"residential","profile":"car","distance":"5999.619","time":"4345.673"}},{"Shape":212,"Attributes":{"name":"Parklaan","highway":"residential","profile":"car","distance":"6056.019","time":"4351.088"}},{"Shape":213,"Attributes":{"name":"Parklaan","highway":"residential","profile":"car","distance":"6112.619","time":"4356.521"}},{"Shape":214,"Attributes":{"name":"Parklaan","highway":"residential","profile":"car","distance":"6174.519","time":"4362.464"}},{"Shape":215,"Attributes":{"name":"Symfonielaan","highway":"residential","profile":"car","distance":"6224.419","time":"4367.254"}},{"Shape":216,"Attributes":{"name":"Bazuinstraat","highway":"residential","profile":"car","distance":"6230.806","time":"4367.867"}},{"Shape":218,"Attributes":{"name":"Bazuinstraat","highway":"residential","profile":"car","distance":"6338.719","time":"4558.227"}},{"Shape":219,"Attributes":{"name":"Tubastraat","highway":"residential","profile":"car","distance":"6353.619","time":"4559.657"}},{"Shape":222,"Attributes":{"name":"Tubastraat","highway":"residential","profile":"car","distance":"6428.819","time":"4566.876"}},{"Shape":223,"Attributes":{"name":"Tubastraat","highway":"residential","profile":"car","distance":"6461.319","time":"4569.997"}},{"Shape":226,"Attributes":{"name":"Tubastraat","highway":"residential","profile":"car","distance":"6496.019","time":"4573.328"}},{"Shape":228,"Attributes":{"name":"Tubastraat","highway":"residential","profile":"car","distance":"6534.747","time":"4577.045"}},{"Shape":229,"Attributes":{"name":"Tubastraat","highway":"residential","profile":"car","distance":"6541.12","time":"4757.657"}},{"Shape":230,"Attributes":{"name":"Tubastraat","highway":"residential","profile":"car","distance":"6570.82","time":"4760.508"}},{"Shape":232,"Attributes":{"name":"Tubastraat","highway":"residential","profile":"car","distance":"6666.62","time":"4769.705"}},{"Shape":234,"Attributes":{"name":"Symfonielaan","highway":"residential","profile":"car","distance":"6727.62","time":"4775.561"}},{"Shape":235,"Attributes":{"name":"Symfonielaan","highway":"residential","profile":"car","distance":"6770.52","time":"4779.679"}},{"Shape":236,"Attributes":{"name":"Symfonielaan","highway":"residential","profile":"car","distance":"6775.339","time":"4780.142"}},{"Shape":237,"Attributes":{"name":"Symfonielaan","highway":"residential","profile":"car","distance":"6836.22","time":"4965.987"}},{"Shape":239,"Attributes":{"name":"Symfonielaan","highway":"residential","profile":"car","distance":"6895.12","time":"4971.641"}},{"Shape":240,"Attributes":{"name":"Trombonestraat","highway":"residential","profile":"car","distance":"6896.869","time":"4971.809"}},{"Shape":241,"Attributes":{"name":"Trombonestraat","highway":"residential","profile":"car","distance":"6898.619","time":"5151.977"}},{"Shape":243,"Attributes":{"name":"Symfonielaan","highway":"residential","profile":"car","distance":"6972.919","time":"5159.11"}},{"Shape":245,"Attributes":{"name":"Banjopad","highway":"residential","profile":"car","distance":"7037.619","time":"5165.321"}},{"Shape":246,"Attributes":{"name":"Ouverturelaan","highway":"unclassified","profile":"car","distance":"7070.119","time":"5168.441"}},{"Shape":248,"Attributes":{"name":"Ouverturelaan","highway":"unclassified","profile":"car","distance":"7096.719","time":"5170.995"}},{"Shape":249,"Attributes":{"name":"Trompetpad","highway":"residential","profile":"car","distance":"7101.719","time":"5171.475"}},{"Shape":250,"Attributes":{"name":"Trompetpad","highway":"residential","profile":"car","distance":"7106.719","time":"5351.955"}},{"Shape":253,"Attributes":{"name":"Ouverturelaan","highway":"unclassified","profile":"car","distance":"7163.919","time":"5357.446"}},{"Shape":256,"Attributes":{"name":"Ouverturelaan","highway":"unclassified","profile":"car","distance":"7229.719","time":"5363.763"}},{"Shape":257,"Attributes":{"name":"Debussystraat","highway":"residential","profile":"car","distance":"7247.219","time":"5365.443"}},{"Shape":259,"Attributes":{"name":"Debussystraat","highway":"residential","profile":"car","distance":"7321.46","time":"5372.57"}},{"Shape":261,"Attributes":{"name":"Debussystraat","highway":"residential","profile":"car","distance":"7395.702","time":"5559.697"}},{"Shape":262,"Attributes":{"name":"Debussystraat","highway":"residential","profile":"car","distance":"7413.202","time":"5561.377"}},{"Shape":263,"Attributes":{"name":"Ouverturelaan","highway":"unclassified","profile":"car","distance":"7444.494","time":"5564.381"}},{"Shape":265,"Attributes":{"name":"Ouverturelaan","highway":"unclassified","profile":"car","distance":"7477.501","time":"5747.549"}},{"Shape":266,"Attributes":{"name":"Ouverturelaan","highway":"unclassified","profile":"car","distance":"7530.801","time":"5752.667"}},{"Shape":268,"Attributes":{"name":"Ouverturelaan","highway":"unclassified","profile":"car","distance":"7585.801","time":"5757.946"}},{"Shape":270,"Attributes":{"name":"Ouverturelaan","highway":"unclassified","profile":"car","distance":"7647.701","time":"5763.889"}},{"Shape":271,"Attributes":{"name":"Ouverturelaan","highway":"unclassified","oneway":"yes","profile":"car","distance":"7655.737","time":"5764.66"}}],"Stops":[{"Shape":0,"Coordinates":[4.31303,51.83582],"Attributes":{"index":"280","distance":"0","time":"0","cost_time":"180","cost_weight":"100"}},{"Shape":9,"Coordinates":[4.314361,51.83417],"Attributes":{"index":"282","distance":"277.0375","time":"26.59561","cost_time":"180","cost_weight":"100"}},{"Shape":15,"Coordinates":[4.314028,51.83492],"Attributes":{"index":"281","distance":"386.3141","time":"217.0862","cost_time":"180","cost_weight":"100"}},{"Shape":52,"Coordinates":[4.320409,51.83717],"Attributes":{"index":"264","distance":"1384.396","time":"487.7564","cost_time":"180","cost_weight":"100"}},{"Shape":56,"Coordinates":[4.321773,51.83709],"Attributes":{"index":"263","distance":"1507.273","time":"679.5526","cost_time":"180","cost_weight":"100"}},{"Shape":57,"Coordinates":[4.32186,51.83711],"Attributes":{"index":"262","distance":"1513.279","time":"860.1292","cost_time":"180","cost_weight":"100"}},{"Shape":75,"Coordinates":[4.322945,51.83572],"Attributes":{"index":"260","distance":"1824.842","time":"1070.039","cost_time":"180","cost_weight":"100"}},{"Shape":83,"Coordinates":[4.322058,51.8338],"Attributes":{"index":"246","distance":"2118.891","time":"1278.268","cost_time":"180","cost_weight":"100"}},{"Shape":91,"Coordinates":[4.323861,51.83458],"Attributes":{"index":"247","distance":"2323.911","time":"1477.95","cost_time":"180","cost_weight":"100"}},{"Shape":100,"Coordinates":[4.325218,51.83546],"Attributes":{"index":"259","distance":"2535.234","time":"1678.237","cost_time":"180","cost_weight":"100"}},{"Shape":115,"Coordinates":[4.3238,51.8365],"Attributes":{"index":"261","distance":"2836.805","time":"1887.188","cost_time":"180","cost_weight":"100"}},{"Shape":125,"Coordinates":[4.321337,51.83559],"Attributes":{"index":"265","distance":"3071.832","time":"2089.75","cost_time":"180","cost_weight":"100"}},{"Shape":136,"Coordinates":[4.3185,51.8365],"Attributes":{"index":"285","distance":"3354.563","time":"2291.747","cost_time":"180","cost_weight":"100"}},{"Shape":148,"Coordinates":[4.316805,51.83614],"Attributes":{"index":"284","distance":"3737.139","time":"2508.474","cost_time":"180","cost_weight":"100"}},{"Shape":154,"Coordinates":[4.314472,51.83592],"Attributes":{"index":"283","distance":"3967.615","time":"2710.6","cost_time":"180","cost_weight":"100"}},{"Shape":172,"Coordinates":[4.30997,51.83278],"Attributes":{"index":"277","distance":"4566.08","time":"2948.053","cost_time":"180","cost_weight":"100"}},{"Shape":177,"Coordinates":[4.31058,51.83347],"Attributes":{"index":"278","distance":"4678.997","time":"3138.893","cost_time":"180","cost_weight":"100"}},{"Shape":181,"Coordinates":[4.31252,51.83396],"Attributes":{"index":"279","distance":"4825.718","time":"3332.978","cost_time":"180","cost_weight":"100"}},{"Shape":185,"Coordinates":[4.31021,51.83444],"Attributes":{"index":"276","distance":"5043.251","time":"3533.861","cost_time":"180","cost_weight":"100"}},{"Shape":196,"Coordinates":[4.311528,51.83678],"Attributes":{"index":"266","distance":"5426.729","time":"3750.675","cost_time":"180","cost_weight":"100"}},{"Shape":205,"Coordinates":[4.306944,51.838],"Attributes":{"index":"268","distance":"5802.055","time":"3966.706","cost_time":"180","cost_weight":"100"}},{"Shape":209,"Coordinates":[4.308639,51.83781],"Attributes":{"index":"267","distance":"5930.96","time":"4159.082","cost_time":"180","cost_weight":"100"}},{"Shape":216,"Coordinates":[4.304972,51.83778],"Attributes":{"index":"269","distance":"6230.806","time":"4367.867","cost_time":"180","cost_weight":"100"}},{"Shape":228,"Coordinates":[4.303444,51.8375],"Attributes":{"index":"270","distance":"6534.747","time":"4577.045","cost_time":"180","cost_weight":"100"}},{"Shape":236,"Coordinates":[4.305273,51.8363],"Attributes":{"index":"271","distance":"6775.339","time":"4780.142","cost_time":"180","cost_weight":"100"}},{"Shape":240,"Coordinates":[4.306944,51.83653],"Attributes":{"index":"272","distance":"6896.869","time":"4971.809","cost_time":"180","cost_weight":"100"}},{"Shape":249,"Coordinates":[4.30908,51.83634],"Attributes":{"index":"273","distance":"7101.719","time":"5171.475","cost_time":"180","cost_weight":"100"}},{"Shape":259,"Coordinates":[4.308722,51.83497],"Attributes":{"index":"274","distance":"7321.46","time":"5372.57","cost_time":"180","cost_weight":"100"}},{"Shape":263,"Coordinates":[4.310176,51.83523],"Attributes":{"index":"275","distance":"7444.494","time":"5564.381","cost_time":"180","cost_weight":"100"}},{"Shape":271,"Coordinates":[4.31303,51.83582],"Attributes":{"index":"280","distance":"7655.737","time":"5764.66","cost_time":"180","cost_weight":"100"}}],"Branches":[{"Shape":1,"Coordinates":[4.313648,51.83603],"Attributes":{"name":"Dallelaan","highway":"unclassified"}},{"Shape":1,"Coordinates":[4.314013,51.83615],"Attributes":{"name":"Ouverturelaan","highway":"unclassified","oneway":"yes"}},{"Shape":2,"Coordinates":[4.313697,51.83547],"Attributes":{"name":"Rigolettostraat","highway":"residential"}},{"Shape":2,"Coordinates":[4.314219,51.83556],"Attributes":{"name":"Rigolettostraat","highway":"residential"}},{"Shape":3,"Coordinates":[4.315368,51.83524],"Attributes":{"name":"Smetanastraat","highway":"residential"}},{"Shape":4,"Coordinates":[4.313056,51.83468],"Attributes":{"name":"Strawinskystraat","highway":"residential"}},{"Shape":5,"Coordinates":[4.31459,51.83458],"Attributes":{"highway":"residential"}},{"Shape":7,"Coordinates":[4.313241,51.8341],"Attributes":{"name":"Dallelaan","highway":"unclassified"}},{"Shape":8,"Coordinates":[4.314148,51.83408],"Attributes":{"name":"Chopinstraat","highway":"residential"}},{"Shape":8,"Coordinates":[4.314751,51.83419],"Attributes":{"name":"Chopinstraat","highway":"residential"}},{"Shape":10,"Coordinates":[4.314148,51.83408],"Attributes":{"name":"Chopinstraat","highway":"residential"}},{"Shape":11,"Coordinates":[4.313241,51.8341],"Attributes":{"name":"Dallelaan","highway":"unclassified"}},{"Shape":13,"Coordinates":[4.31459,51.83458],"Attributes":{"highway":"residential"}},{"Shape":14,"Coordinates":[4.314137,51.835],"Attributes":{"name":"Dallelaan","highway":"unclassified"}},{"Shape":14,"Coordinates":[4.313056,51.83468],"Attributes":{"name":"Strawinskystraat","highway":"residential"}},{"Shape":16,"Coordinates":[4.314303,51.83452],"Attributes":{"name":"Dallelaan","highway":"unclassified"}},{"Shape":17,"Coordinates":[4.315368,51.83524],"Attributes":{"name":"Smetanastraat","highway":"residential"}},{"Shape":18,"Coordinates":[4.313671,51.83597],"Attributes":{"name":"Dallelaan","highway":"unclassified"}},{"Shape":18,"Coordinates":[4.313697,51.83547],"Attributes":{"name":"Rigolettostraat","highway":"residential"}},{"Shape":24,"Coordinates":[4.316148,51.83593],"Attributes":{"name":"Aïdastraat","highway":"residential"}},{"Shape":32,"Coordinates":[4.318041,51.83641],"Attributes":{"name":"Rigolettostraat","highway":"residential"}},{"Shape":33,"Coordinates":[4.31901,51.83615],"Attributes":{"name":"Oberonweg","highway":"unclassified"}},{"Shape":34,"Coordinates":[4.318446,51.83678],"Attributes":{"name":"Akkersweg","highway":"tertiary"}},{"Shape":39,"Coordinates":[4.319815,51.83516],"Attributes":{"name":"Oberonweg","highway":"unclassified"}},{"Shape":39,"Coordinates":[4.320601,51.83475],"Attributes":{"name":"Akkersweg","highway":"tertiary"}},{"Shape":43,"Coordinates":[4.321552,51.83556],"Attributes":{"name":"Akkersvoorde","highway":"unclassified"}},{"Shape":46,"Coordinates":[4.320751,51.83604],"Attributes":{"name":"Wanvoorde","highway":"unclassified"}},{"Shape":50,"Coordinates":[4.321481,51.83711],"Attributes":{"name":"Ristervoorde","highway":"unclassified"}},{"Shape":50,"Coordinates":[4.320461,51.83669],"Attributes":{"name":"Sikkelvoorde","highway":"unclassified"}},{"Shape":51,"Coordinates":[4.3202,51.8373],"Attributes":{"name":"Zeisvoorde","highway":"unclassified"}},{"Shape":51,"Coordinates":[4.320544,51.83718],"Attributes":{"highway":"unclassified"}},{"Shape":53,"Coordinates":[4.320544,51.83718],"Attributes":{"highway":"unclassified"}},{"Shape":54,"Coordinates":[4.321481,51.83711],"Attributes":{"name":"Ristervoorde","highway":"unclassified"}},{"Shape":54,"Coordinates":[4.321342,51.83609],"Attributes":{"name":"Zeisvoorde","highway":"unclassified"}},{"Shape":54,"Coordinates":[4.320461,51.83669],"Attributes":{"name":"Sikkelvoorde","highway":"unclassified"}},{"Shape":65,"Coordinates":[4.323285,51.83709],"Attributes":{"highway":"service"}},{"Shape":66,"Coordinates":[4.3235,51.8371],"Attributes":{"highway":"service"}},{"Shape":67,"Coordinates":[4.323599,51.83762],"Attributes":{"name":"Ploegvoorde","highway":"service","motorcar":"no"}},{"Shape":72,"Coordinates":[4.324012,51.83614],"Attributes":{"highway":"service"}},{"Shape":74,"Coordinates":[4.322626,51.83595],"Attributes":{"name":"Egvoorde","highway":"unclassified"}},{"Shape":74,"Coordinates":[4.322364,51.83539],"Attributes":{"name":"Ploegvoorde","highway":"unclassified"}},{"Shape":74,"Coordinates":[4.32362,51.8354],"Attributes":{"name":"Voordeplantsoen","highway":"unclassified"}},{"Shape":76,"Coordinates":[4.323534,51.83619],"Attributes":{"name":"Ploegvoorde","highway":"unclassified"}},{"Shape":76,"Coordinates":[4.322626,51.83595],"Attributes":{"name":"Egvoorde","highway":"unclassified"}},{"Shape":77,"Coordinates":[4.321552,51.83556],"Attributes":{"name":"Akkersvoorde","highway":"unclassified"}},{"Shape":79,"Coordinates":[4.32289,51.83445],"Attributes":{"name":"Akkersvoorde","highway":"unclassified"}},{"Shape":80,"Coordinates":[4.321584,51.83455],"Attributes":{"highway":"service"}},{"Shape":82,"Coordinates":[4.322326,51.8338],"Attributes":{"name":"Schoffelvoorde","highway":"unclassified"}},{"Shape":82,"Coordinates":[4.322041,51.83371],"Attributes":{"name":"Disselvoorde","highway":"unclassified"}},{"Shape":84,"Coordinates":[4.322205,51.83394],"Attributes":{"name":"Disselvoorde","highway":"unclassified"}},{"Shape":86,"Coordinates":[4.323691,51.83386],"Attributes":{"name":"Schoffelvoorde","highway":"unclassified"}},{"Shape":87,"Coordinates":[4.322536,51.83478],"Attributes":{"name":"Akkersvoorde","highway":"unclassified"}},{"Shape":89,"Coordinates":[4.323824,51.8346],"Attributes":{"name":"Akkersvoorde","highway":"unclassified"}},{"Shape":89,"Coordinates":[4.323664,51.83456],"Attributes":{"name":"Vlegelvoorde","highway":"unclassified"}},{"Shape":95,"Coordinates":[4.325396,51.83439],"Attributes":{"name":"Riekvoorde","highway":"unclassified"}},{"Shape":95,"Coordinates":[4.32593,51.83462],"Attributes":{"name":"Akkersvoorde","highway":"unclassified"}},{"Shape":98,"Coordinates":[4.324642,51.83534],"Attributes":{"name":"Voordeplantsoen","highway":"unclassified"}},{"Shape":98,"Coordinates":[4.325202,51.83541],"Attributes":{"name":"Zichtvoorde","highway":"unclassified"}},{"Shape":102,"Coordinates":[4.325418,51.835],"Attributes":{"name":"Zichtvoorde","highway":"unclassified"}},{"Shape":105,"Coordinates":[4.324376,51.83566],"Attributes":{"name":"Heepvoorde","highway":"unclassified"}},{"Shape":106,"Coordinates":[4.324198,51.83556],"Attributes":{"name":"Heepvoorde","highway":"unclassified"}},{"Shape":108,"Coordinates":[4.323161,51.8353],"Attributes":{"name":"Voordeplantsoen","highway":"unclassified"}},{"Shape":111,"Coordinates":[4.322626,51.83595],"Attributes":{"name":"Egvoorde","highway":"unclassified"}},{"Shape":111,"Coordinates":[4.322364,51.83539],"Attributes":{"name":"Ploegvoorde","highway":"unclassified"}},{"Shape":113,"Coordinates":[4.323712,51.83632],"Attributes":{"name":"Ploegvoorde","highway":"unclassified"}},{"Shape":113,"Coordinates":[4.324012,51.83614],"Attributes":{"highway":"service"}},{"Shape":117,"Coordinates":[4.324012,51.83614],"Attributes":{"highway":"service"}},{"Shape":119,"Coordinates":[4.322626,51.83595],"Attributes":{"name":"Egvoorde","highway":"unclassified"}},{"Shape":119,"Coordinates":[4.32362,51.8354],"Attributes":{"name":"Voordeplantsoen","highway":"unclassified"}},{"Shape":120,"Coordinates":[4.322464,51.83532],"Attributes":{"name":"Akkersvoorde","highway":"unclassified"}},{"Shape":124,"Coordinates":[4.321391,51.83568],"Attributes":{"name":"Zeisvoorde","highway":"unclassified"}},{"Shape":124,"Coordinates":[4.320514,51.83545],"Attributes":{"name":"Akkersvoorde","highway":"unclassified"}},{"Shape":129,"Coordinates":[4.319815,51.83516],"Attributes":{"name":"Oberonweg","highway":"unclassified"}},{"Shape":129,"Coordinates":[4.320601,51.83475],"Attributes":{"name":"Akkersweg","highway":"tertiary"}},{"Shape":134,"Coordinates":[4.318446,51.83678],"Attributes":{"name":"Akkersweg","highway":"tertiary"}},{"Shape":135,"Coordinates":[4.31901,51.83615],"Attributes":{"name":"Oberonweg","highway":"unclassified"}},{"Shape":135,"Coordinates":[4.318381,51.83653],"Attributes":{"name":"Oberonweg","highway":"unclassified"}},{"Shape":137,"Coordinates":[4.318607,51.8367],"Attributes":{"name":"Oberonweg","highway":"unclassified"}},{"Shape":138,"Coordinates":[4.318041,51.83641],"Attributes":{"name":"Rigolettostraat","highway":"residential"}},{"Shape":146,"Coordinates":[4.314968,51.83629],"Attributes":{"name":"Rigolettostraat","highway":"residential"}},{"Shape":147,"Coordinates":[4.317276,51.83575],"Attributes":{"name":"Aïdastraat","highway":"residential"}},{"Shape":147,"Coordinates":[4.315895,51.83583],"Attributes":{"name":"Aïdastraat","highway":"residential"}},{"Shape":149,"Coordinates":[4.315895,51.83583],"Attributes":{"name":"Aïdastraat","highway":"residential"}},{"Shape":150,"Coordinates":[4.316217,51.83662],"Attributes":{"name":"Rigolettostraat","highway":"residential"}},{"Shape":153,"Coordinates":[4.314219,51.83556],"Attributes":{"name":"Rigolettostraat","highway":"residential"}},{"Shape":157,"Coordinates":[4.313671,51.83597],"Attributes":{"name":"Dallelaan","highway":"unclassified"}},{"Shape":157,"Coordinates":[4.313697,51.83547],"Attributes":{"name":"Rigolettostraat","highway":"residential"}},{"Shape":158,"Coordinates":[4.315368,51.83524],"Attributes":{"name":"Smetanastraat","highway":"residential"}},{"Shape":159,"Coordinates":[4.313056,51.83468],"Attributes":{"name":"Strawinskystraat","highway":"residential"}},{"Shape":160,"Coordinates":[4.31459,51.83458],"Attributes":{"highway":"residential"}},{"Shape":162,"Coordinates":[4.314298,51.8341],"Attributes":{"highway":"residential"}},{"Shape":164,"Coordinates":[4.313292,51.83378],"Attributes":{"highway":"service"}},{"Shape":164,"Coordinates":[4.312998,51.83432],"Attributes":{"highway":"service"}},{"Shape":165,"Coordinates":[4.311913,51.83472],"Attributes":{"name":"Alainweg","highway":"residential"}},{"Shape":166,"Coordinates":[4.312547,51.83337],"Attributes":{"name":"Bizetstraat","highway":"unclassified"}},{"Shape":167,"Coordinates":[4.3112,51.8339],"Attributes":{"name":"Ravelstraat","highway":"unclassified"}},{"Shape":167,"Coordinates":[4.3117,51.8331],"Attributes":{"name":"Bizetstraat","highway":"unclassified"}},{"Shape":168,"Coordinates":[4.3111,51.8325],"Attributes":{"name":"Bachbaan","highway":"unclassified","motorcar":"no"}},{"Shape":168,"Coordinates":[4.310143,51.83438],"Attributes":{"name":"Bachbaan","highway":"unclassified","motorcar":"no"}},{"Shape":169,"Coordinates":[4.309624,51.83321],"Attributes":{"name":"Dallelaan","highway":"unclassified"}},{"Shape":169,"Coordinates":[4.3101,51.8328],"Attributes":{"name":"Schubertstraat","highway":"residential"}},{"Shape":175,"Coordinates":[4.309624,51.83321],"Attributes":{"name":"Dallelaan","highway":"unclassified"}},{"Shape":176,"Coordinates":[4.311372,51.83355],"Attributes":{"name":"Dallelaan","highway":"unclassified"}},{"Shape":176,"Coordinates":[4.3111,51.8325],"Attributes":{"name":"Bachbaan","highway":"unclassified","motorcar":"no"}},{"Shape":176,"Coordinates":[4.310143,51.83438],"Attributes":{"name":"Bachbaan","highway":"unclassified","motorcar":"no"}},{"Shape":178,"Coordinates":[4.3112,51.8339],"Attributes":{"name":"Ravelstraat","highway":"unclassified"}},{"Shape":178,"Coordinates":[4.3117,51.8331],"Attributes":{"name":"Bizetstraat","highway":"unclassified"}},{"Shape":179,"Coordinates":[4.312547,51.83337],"Attributes":{"name":"Bizetstraat","highway":"unclassified"}},{"Shape":180,"Coordinates":[4.313118,51.83407],"Attributes":{"name":"Dallelaan","highway":"unclassified"}},{"Shape":180,"Coordinates":[4.311913,51.83472],"Attributes":{"name":"Alainweg","highway":"residential"}},{"Shape":183,"Coordinates":[4.310963,51.83464],"Attributes":{"name":"Citerstraat","highway":"unclassified"}},{"Shape":184,"Coordinates":[4.310143,51.83438],"Attributes":{"name":"Alainweg","highway":"residential"}},{"Shape":184,"Coordinates":[4.311027,51.83434],"Attributes":{"highway":"service"}},{"Shape":186,"Coordinates":[4.311027,51.83434],"Attributes":{"highway":"service"}},{"Shape":187,"Coordinates":[4.311913,51.83472],"Attributes":{"name":"Alainweg","highway":"residential"}},{"Shape":189,"Coordinates":[4.310244,51.83523],"Attributes":{"name":"Ouverturelaan","highway":"unclassified"}},{"Shape":189,"Coordinates":[4.310493,51.83541],"Attributes":{"name":"Citerstraat","highway":"unclassified"}},{"Shape":190,"Coordinates":[4.311515,51.83516],"Attributes":{"name":"Cellostraat","highway":"unclassified"}},{"Shape":192,"Coordinates":[4.312172,51.8357],"Attributes":{"name":"Ouverturelaan","highway":"unclassified"}},{"Shape":192,"Coordinates":[4.312172,51.83555],"Attributes":{"name":"Harpstraat","highway":"residential"}},{"Shape":194,"Coordinates":[4.310956,51.83618],"Attributes":{"name":"Hogeweg","highway":"unclassified"}},{"Shape":195,"Coordinates":[4.311439,51.83678],"Attributes":{"name":"Parklaan","highway":"residential"}},{"Shape":195,"Coordinates":[4.310171,51.83625],"Attributes":{"name":"Mandolinestraat","highway":"residential"}},{"Shape":200,"Coordinates":[4.309512,51.83751],"Attributes":{"name":"Mandolinestraat","highway":"residential"}},{"Shape":201,"Coordinates":[4.309288,51.83809],"Attributes":{"highway":"residential"}},{"Shape":202,"Coordinates":[4.3086,51.8376],"Attributes":{"name":"Ouverturelaan","highway":"unclassified"}},{"Shape":202,"Coordinates":[4.308682,51.83819],"Attributes":{"name":"Ouverturelaan","highway":"unclassified"}},{"Shape":203,"Coordinates":[4.307854,51.83845],"Attributes":{"name":"Klavecimbelpad","highway":"residential"}},{"Shape":203,"Coordinates":[4.307481,51.83714],"Attributes":{"name":"Pianopad","highway":"residential"}},{"Shape":204,"Coordinates":[4.306077,51.83814],"Attributes":{"name":"Parklaan","highway":"residential"}},{"Shape":204,"Coordinates":[4.307054,51.83856],"Attributes":{"name":"Orgelpad","highway":"residential"}},{"Shape":204,"Coordinates":[4.306697,51.83723],"Attributes":{"name":"Accordeonpad","highway":"residential"}},{"Shape":206,"Coordinates":[4.306077,51.83814],"Attributes":{"name":"Parklaan","highway":"residential"}},{"Shape":206,"Coordinates":[4.307054,51.83856],"Attributes":{"name":"Orgelpad","highway":"residential"}},{"Shape":207,"Coordinates":[4.307854,51.83845],"Attributes":{"name":"Klavecimbelpad","highway":"residential"}},{"Shape":207,"Coordinates":[4.307481,51.83714],"Attributes":{"name":"Pianopad","highway":"residential"}},{"Shape":208,"Coordinates":[4.309218,51.83779],"Attributes":{"name":"Parklaan","highway":"residential"}},{"Shape":208,"Coordinates":[4.3086,51.8376],"Attributes":{"name":"Ouverturelaan","highway":"unclassified"}},{"Shape":208,"Coordinates":[4.308682,51.83819],"Attributes":{"name":"Ouverturelaan","highway":"unclassified"}},{"Shape":210,"Coordinates":[4.309218,51.83779],"Attributes":{"name":"Parklaan","highway":"residential"}},{"Shape":210,"Coordinates":[4.308682,51.83819],"Attributes":{"name":"Ouverturelaan","highway":"unclassified"}},{"Shape":211,"Coordinates":[4.307854,51.83845],"Attributes":{"name":"Klavecimbelpad","highway":"residential"}},{"Shape":211,"Coordinates":[4.307481,51.83714],"Attributes":{"name":"Pianopad","highway":"residential"}},{"Shape":212,"Coordinates":[4.307054,51.83856],"Attributes":{"name":"Orgelpad","highway":"residential"}},{"Shape":212,"Coordinates":[4.306697,51.83723],"Attributes":{"name":"Accordeonpad","highway":"residential"}},{"Shape":213,"Coordinates":[4.306229,51.83868],"Attributes":{"name":"Spinetpad","highway":"residential"}},{"Shape":213,"Coordinates":[4.305987,51.83783],"Attributes":{"name":"Fagotstraat","highway":"residential"}},{"Shape":214,"Coordinates":[4.305298,51.83863],"Attributes":{"name":"Symfonielaan","highway":"residential"}},{"Shape":215,"Coordinates":[4.304136,51.83791],"Attributes":{"name":"Bazuinstraat","highway":"residential"}},{"Shape":215,"Coordinates":[4.304952,51.8374],"Attributes":{"name":"Symfonielaan","highway":"residential"}},{"Shape":218,"Coordinates":[4.30433,51.83843],"Attributes":{"name":"Bazuinstraat","highway":"residential"}},{"Shape":226,"Coordinates":[4.3032,51.8377],"Attributes":{"name":"Tubastraat","highway":"residential"}},{"Shape":230,"Coordinates":[4.303662,51.83689],"Attributes":{"name":"Tubastraat","highway":"residential"}},{"Shape":232,"Coordinates":[4.304952,51.8374],"Attributes":{"name":"Symfonielaan","highway":"residential"}},{"Shape":234,"Coordinates":[4.303923,51.8364],"Attributes":{"name":"Waldhoornstraat","highway":"residential"}},{"Shape":235,"Coordinates":[4.305395,51.83588],"Attributes":{"name":"Hobostraat","highway":"residential"}},{"Shape":235,"Coordinates":[4.306133,51.8364],"Attributes":{"name":"Symfonielaan","highway":"residential"}},{"Shape":237,"Coordinates":[4.306499,51.83562],"Attributes":{"name":"Klarinetstraat","highway":"residential"}},{"Shape":237,"Coordinates":[4.305882,51.83687],"Attributes":{"name":"Fagotstraat","highway":"residential"}},{"Shape":239,"Coordinates":[4.30737,51.83662],"Attributes":{"name":"Symfonielaan","highway":"residential"}},{"Shape":239,"Coordinates":[4.307279,51.83576],"Attributes":{"name":"Trombonestraat","highway":"residential"}},{"Shape":241,"Coordinates":[4.306885,51.83654],"Attributes":{"name":"Symfonielaan","highway":"residential"}},{"Shape":245,"Coordinates":[4.3086,51.8376],"Attributes":{"name":"Ouverturelaan","highway":"unclassified"}},{"Shape":246,"Coordinates":[4.309903,51.83677],"Attributes":{"name":"Luitstraat","highway":"residential"}},{"Shape":248,"Coordinates":[4.309316,51.83603],"Attributes":{"name":"Ouverturelaan","highway":"unclassified"}},{"Shape":248,"Coordinates":[4.308639,51.83629],"Attributes":{"name":"Trompetpad","highway":"residential"}},{"Shape":250,"Coordinates":[4.309116,51.83645],"Attributes":{"name":"Ouverturelaan","highway":"unclassified"}},{"Shape":256,"Coordinates":[4.310244,51.83523],"Attributes":{"name":"Ouverturelaan","highway":"unclassified"}},{"Shape":257,"Coordinates":[4.308904,51.83507],"Attributes":{"name":"Debussystraat","highway":"residential"}},{"Shape":257,"Coordinates":[4.310093,51.83448],"Attributes":{"name":"Bachbaan","highway":"unclassified","motorcar":"no"}},{"Shape":261,"Coordinates":[4.310093,51.83448],"Attributes":{"name":"Bachbaan","highway":"unclassified","motorcar":"no"}},{"Shape":262,"Coordinates":[4.310244,51.83523],"Attributes":{"name":"Ouverturelaan","highway":"unclassified"}},{"Shape":262,"Coordinates":[4.3096,51.83545],"Attributes":{"name":"Ouverturelaan","highway":"unclassified"}},{"Shape":265,"Coordinates":[4.310963,51.83464],"Attributes":{"name":"Citerstraat","highway":"unclassified"}},{"Shape":265,"Coordinates":[4.310493,51.83541],"Attributes":{"name":"Citerstraat","highway":"unclassified"}},{"Shape":266,"Coordinates":[4.311515,51.83516],"Attributes":{"name":"Cellostraat","highway":"unclassified"}},{"Shape":268,"Coordinates":[4.312172,51.83555],"Attributes":{"name":"Harpstraat","highway":"residential"}},{"Shape":268,"Coordinates":[4.311994,51.83572],"Attributes":{"name":"Parklaan","highway":"residential"}},{"Shape":270,"Coordinates":[4.313671,51.83597],"Attributes":{"name":"Ouverturelaan","highway":"unclassified","oneway":"yes"}},{"Shape":270,"Coordinates":[4.312684,51.83628],"Attributes":{"name":"Piccolopad","highway":"residential"}},{"Shape":270,"Coordinates":[4.313648,51.83603],"Attributes":{"highway":"unclassified","oneway":"yes"}}]}