{"Shape":[[4.3567,51.838],[4.35744,51.83802],[4.357405,51.83851],[4.357304,51.83856],[4.356604,51.83854],[4.356521,51.83856],[4.356054,51.83867],[4.356095,51.83873],[4.356225,51.83888],[4.356655,51.83944],[4.356703,51.8395],[4.356782,51.83951],[4.356853,51.83953],[4.356906,51.83957],[4.35694,51.83961],[4.356953,51.83965],[4.356946,51.83969],[4.356892,51.83976],[4.356812,51.8398],[4.356715,51.83981],[4.35661,51.8398],[4.356521,51.83977],[4.356156,51.83985],[4.354842,51.84018],[4.350435,51.84134],[4.35021,51.84141],[4.350195,51.84144],[4.350135,51.8415],[4.350092,51.84152],[4.350068,51.8416],[4.350081,51.84171],[4.350096,51.84182],[4.350115,51.84187],[4.350371,51.84264],[4.350522,51.84336],[4.350533,51.84388],[4.350525,51.8441],[4.350538,51.84435],[4.350529,51.84464],[4.350529,51.8449],[4.350674,51.8449],[4.351593,51.84494],[4.352522,51.84497],[4.353512,51.84501],[4.353844,51.8451],[4.354144,51.84518],[4.3545,51.8447],[4.35539,51.84448],[4.355716,51.84436],[4.357849,51.84365],[4.357891,51.84364],[4.357849,51.84365],[4.355716,51.84436],[4.35539,51.84448],[4.355381,51.84449],[4.3545,51.8447],[4.354144,51.84518],[4.353844,51.8451],[4.35351,51.84552],[4.353287,51.84561],[4.351506,51.84632],[4.350612,51.84632],[4.350501,51.84632],[4.350501,51.84563],[4.350529,51.8449],[4.350529,51.84464],[4.350538,51.84435],[4.350525,51.8441],[4.350658,51.8441],[4.351089,51.8441],[4.351569,51.84409],[4.351998,51.84408],[4.352411,51.84408],[4.352471,51.84408],[4.352509,51.84411],[4.352643,51.84421],[4.353803,51.84381],[4.35384,51.8438],[4.354635,51.84359],[4.355058,51.84346],[4.354899,51.84327],[4.355454,51.84306],[4.355878,51.84352],[4.355454,51.84306],[4.3559,51.8429],[4.355771,51.84275],[4.355771,51.84275],[4.355804,51.84259],[4.355422,51.84256],[4.354947,51.84259],[4.354726,51.84271],[4.354433,51.84291],[4.354007,51.84272],[4.353512,51.84256],[4.352984,51.84244],[4.35244,51.8424],[4.3524,51.8424],[4.351302,51.84253],[4.3505,51.84262],[4.350371,51.84264],[4.350115,51.84187],[4.350096,51.84182],[4.350018,51.84171],[4.349961,51.84163],[4.349898,51.84155],[4.349844,51.84155],[4.349792,51.84153],[4.349741,51.84151],[4.349668,51.84145],[4.349641,51.84138],[4.349648,51.84134],[4.349666,51.84131],[4.349733,51.84125],[4.349779,51.84123],[4.349773,51.84107],[4.349725,51.84097],[4.349637,51.84082],[4.349562,51.84072],[4.349473,51.84055],[4.349343,51.84038],[4.349247,51.84026],[4.349227,51.84022],[4.349242,51.84018],[4.349291,51.84015],[4.349341,51.84015],[4.349291,51.84015],[4.349242,51.84018],[4.349227,51.84022],[4.349247,51.84026],[4.349343,51.84038],[4.349473,51.84055],[4.349562,51.84072],[4.349637,51.84082],[4.349725,51.84097],[4.349773,51.84107],[4.349949,51.8412],[4.350004,51.84121],[4.350057,51.84122],[4.350151,51.84123],[4.350306,51.84121],[4.351436,51.84094],[4.353651,51.84037],[4.355665,51.83982],[4.356448,51.83964],[4.356467,51.83959],[4.356505,51.83955],[4.356559,51.83953],[4.356528,51.83948],[4.356172,51.83889],[4.356095,51.83873],[4.356054,51.83867],[4.355865,51.83872],[4.355744,51.83854],[4.355442,51.83807],[4.355262,51.83775],[4.355149,51.83741],[4.355262,51.83775],[4.355442,51.83807],[4.354567,51.83827],[4.354502,51.83861],[4.354394,51.83879],[4.354266,51.83889],[4.353954,51.83899],[4.353641,51.83902],[4.353499,51.83899],[4.353641,51.83902],[4.353954,51.83899],[4.354266,51.83889],[4.354394,51.83879],[4.354502,51.83861],[4.354567,51.83827],[4.354431,51.83799],[4.354358,51.83789],[4.354114,51.83788],[4.353674,51.83787],[4.3535,51.83787],[4.353401,51.83786],[4.353249,51.83786],[4.353267,51.83731],[4.352183,51.83727],[4.35223,51.83674],[4.352281,51.83624],[4.352559,51.83624],[4.3527,51.83624],[4.353416,51.83625],[4.354496,51.83628],[4.354549,51.83569],[4.354558,51.8356],[4.354549,51.83569],[4.354496,51.83628],[4.354723,51.8363],[4.355241,51.83632],[4.355292,51.83623],[4.355379,51.83607],[4.355661,51.83566],[4.356078,51.83521],[4.35621,51.83526],[4.356462,51.83506],[4.35676,51.83488],[4.357081,51.83472],[4.357435,51.83458],[4.357344,51.83449],[4.357036,51.83429],[4.356118,51.83365],[4.35606,51.83361],[4.355329,51.8331],[4.355031,51.83289],[4.355093,51.83282],[4.355672,51.83251],[4.35604,51.83231],[4.356162,51.83229],[4.356239,51.83227],[4.356392,51.83227],[4.356502,51.83228],[4.3567,51.8323],[4.357197,51.83241],[4.357409,51.83244],[4.357605,51.83242],[4.358144,51.83232],[4.358191,51.8318],[4.358144,51.83232],[4.357605,51.83242],[4.357409,51.83244],[4.357197,51.83241],[4.3567,51.8323],[4.356392,51.83227],[4.356239,51.83227],[4.356162,51.83229],[4.356112,51.83237],[4.355743,51.83256],[4.355162,51.83287],[4.355031,51.83289],[4.354982,51.83286],[4.354829,51.83276],[4.354083,51.83223],[4.354129,51.83141],[4.354129,51.83141],[4.354129,51.83141],[4.354083,51.83223],[4.354829,51.83276],[4.354982,51.83286],[4.354767,51.83298],[4.35451,51.83318],[4.354292,51.8333],[4.353833,51.83347],[4.353737,51.83353],[4.353667,51.83348],[4.35358,51.83342],[4.353667,51.83348],[4.353737,51.83353],[4.354132,51.83377],[4.354263,51.83387],[4.354307,51.83396],[4.354862,51.83434],[4.35489,51.83435],[4.355624,51.83485],[4.355773,51.83496],[4.35603,51.8348],[4.356064,51.83468],[4.356438,51.83448],[4.35656,51.83442],[4.356722,51.83442],[4.357036,51.83429],[4.357344,51.83449],[4.357435,51.83458],[4.35772,51.83448],[4.358244,51.83437],[4.358519,51.8343],[4.358867,51.83425],[4.359239,51.83422],[4.359233,51.8341],[4.359243,51.83399],[4.3593,51.8334],[4.359339,51.8329],[4.358464,51.83288],[4.3575,51.83284],[4.358464,51.83288],[4.359339,51.8329],[4.3593,51.8334],[4.359233,51.8341],[4.359239,51.83422],[4.359355,51.83421],[4.359982,51.83422],[4.360428,51.83422],[4.360715,51.83423],[4.361216,51.83426],[4.36149,51.8343],[4.361445,51.8344],[4.361368,51.83445],[4.361287,51.83451],[4.361287,51.83468],[4.361362,51.83472],[4.361629,51.83485],[4.36163,51.83494],[4.361629,51.83485],[4.361362,51.83472],[4.361287,51.83468],[4.361287,51.83451],[4.361368,51.83445],[4.361445,51.8344],[4.36149,51.8343],[4.361663,51.83434],[4.36189,51.8344],[4.362263,51.83449],[4.36259,51.83456],[4.362295,51.83504],[4.362207,51.83537],[4.362183,51.8356],[4.362249,51.83609],[4.362269,51.83624],[4.362395,51.83686],[4.362588,51.83685],[4.362637,51.83716],[4.362693,51.83744],[4.362755,51.83772],[4.362759,51.83774],[4.362755,51.83772],[4.362693,51.83744],[4.362637,51.83716],[4.362588,51.83685],[4.362395,51.83686],[4.362199,51.83688],[4.362391,51.8378],[4.362199,51.83688],[4.362113,51.83641],[4.362199,51.83688],[4.362395,51.83686],[4.362588,51.83685],[4.362637,51.83716],[4.362693,51.83744],[4.362755,51.83772],[4.362813,51.83805],[4.362897,51.83831],[4.362933,51.83848],[4.363002,51.83858],[4.36314,51.83867],[4.363311,51.83872],[4.363814,51.83873],[4.364505,51.83876],[4.364714,51.83876],[4.36481,51.83882],[4.366362,51.83887],[4.367903,51.83892],[4.366362,51.83887],[4.36481,51.83882],[4.364714,51.83876],[4.364704,51.83848],[4.36464,51.83818],[4.364522,51.83761],[4.365499,51.83763],[4.365944,51.83764],[4.365939,51.8376],[4.365883,51.83719],[4.365823,51.83672],[4.36506,51.8367],[4.365064,51.8366],[4.365098,51.83566],[4.365858,51.83567],[4.365995,51.83579],[4.366209,51.83587],[4.366416,51.83591],[4.366599,51.83589],[4.366675,51.83588],[4.366899,51.83581],[4.367046,51.8357],[4.367049,51.83558],[4.367056,51.83533],[4.367445,51.83514],[4.368117,51.83483],[4.367445,51.83514],[4.367056,51.83533],[4.367049,51.83558],[4.367046,51.8357],[4.366899,51.83581],[4.366675,51.83588],[4.366416,51.83591],[4.366209,51.83587],[4.365995,51.83579],[4.365858,51.83567],[4.365098,51.83566],[4.364598,51.83564],[4.3645,51.8348],[4.364818,51.83464],[4.3645,51.8348],[4.364598,51.83564],[4.363756,51.83563],[4.363351,51.83562],[4.363294,51.83529],[4.363256,51.83514],[4.362886,51.83512],[4.362876,51.8352],[4.362886,51.83512],[4.363256,51.83514],[4.363294,51.83529],[4.363351,51.83562],[4.363699,51.83563],[4.363351,51.83562],[4.362383,51.8356],[4.362183,51.8356],[4.362207,51.83537],[4.362295,51.83504],[4.36259,51.83456],[4.362716,51.8344],[4.362961,51.83414],[4.363196,51.83397],[4.363072,51.8339],[4.362954,51.83384],[4.362914,51.83384],[4.362954,51.83384],[4.363072,51.8339],[4.363196,51.83397],[4.363334,51.83386],[4.363766,51.83361],[4.365041,51.83299],[4.365505,51.83278],[4.366881,51.83212],[4.367074,51.83205],[4.367031,51.83201],[4.367019,51.83197],[4.367038,51.83192],[4.367087,51.83188],[4.367157,51.83186],[4.367311,51.83187],[4.36737,51.8319],[4.367399,51.83193],[4.367401,51.83201],[4.367373,51.83204],[4.367329,51.83207],[4.367404,51.83212],[4.369301,51.83364],[4.369798,51.83403],[4.369971,51.83395],[4.369474,51.83356],[4.369341,51.83345],[4.368838,51.83305],[4.368187,51.83253],[4.368289,51.83248],[4.368187,51.83253],[4.368838,51.83305],[4.369474,51.83356],[4.369971,51.83395],[4.369798,51.83403],[4.370261,51.83447],[4.370527,51.83491],[4.370679,51.83535],[4.370678,51.83587],[4.370462,51.83586],[4.370457,51.83588],[4.370326,51.83643],[4.370177,51.83698],[4.368972,51.8369],[4.368389,51.83685],[4.368356,51.83699],[4.368389,51.83685],[4.368972,51.8369],[4.370177,51.83698],[4.370038,51.8376],[4.370005,51.83772],[4.369893,51.83816],[4.370094,51.83818],[4.36999,51.83858],[4.370255,51.83857],[4.370311,51.83854],[4.370436,51.83859],[4.370712,51.83867],[4.37106,51.83872],[4.371407,51.83873],[4.3717,51.83871],[4.372097,51.83863],[4.372175,51.83837],[4.372507,51.8371],[4.372175,51.83837],[4.372097,51.83863],[4.3717,51.83871],[4.371407,51.83873],[4.371304,51.83873],[4.37106,51.83872],[4.370712,51.83867],[4.370436,51.83859],[4.370311,51.83854],[4.370255,51.83857],[4.36999,51.83858],[4.370094,51.83818],[4.370241,51.83762],[4.3704,51.837],[4.370615,51.83702],[4.370728,51.8366],[4.370763,51.83647],[4.370826,51.8362],[4.370903,51.83588],[4.370893,51.83534],[4.370876,51.83529],[4.370724,51.83487],[4.370527,51.83491],[4.370261,51.83447],[4.369798,51.83403],[4.369626,51.83411],[4.369594,51.83409],[4.369088,51.83369],[4.368437,51.83317],[4.367792,51.83266],[4.367764,51.83264],[4.367792,51.83266],[4.367483,51.83282],[4.367129,51.83322],[4.366941,51.83331],[4.366846,51.83372],[4.367596,51.83383],[4.366846,51.83372],[4.365999,51.83372],[4.365982,51.83362],[4.365887,51.8331],[4.365628,51.83289],[4.364795,51.83329],[4.363894,51.83372],[4.36375,51.83378],[4.363663,51.83383],[4.363661,51.83393],[4.363647,51.83459],[4.363756,51.83563],[4.363351,51.83562],[4.362383,51.8356],[4.362183,51.8356],[4.362207,51.83537],[4.362295,51.83504],[4.36259,51.83456],[4.362263,51.83449],[4.36189,51.8344],[4.361663,51.83434],[4.36149,51.8343],[4.361216,51.83426],[4.360715,51.83423],[4.360428,51.83422],[4.359982,51.83422],[4.359963,51.83443],[4.359956,51.83451],[4.360041,51.83551],[4.360006,51.83558],[4.359909,51.83559],[4.359545,51.83559],[4.359371,51.83561],[4.358798,51.83573],[4.358778,51.83574],[4.358304,51.83594],[4.357912,51.83622],[4.357645,51.83656],[4.357581,51.83673],[4.357536,51.83692],[4.357599,51.83693],[4.358421,51.83695],[4.358706,51.83696],[4.359236,51.83698],[4.359298,51.83698],[4.359346,51.83698],[4.359304,51.83751],[4.359249,51.83808],[4.359207,51.83857],[4.359298,51.83863],[4.359503,51.83864],[4.359298,51.83863],[4.359207,51.83857],[4.358305,51.83854],[4.357405,51.83851],[4.35744,51.83802],[4.3567,51.838]],"ShapeMeta":[{"Shape":0,"Attributes":{"profile":"car"}},{"Shape":1,"Attributes":{"name":"Catharina van Tussenbroekstraat","highway":"residential","maxspeed":"30","profile":"car","distance":"50.85901","time":"8.137442"}},{"Shape":2,"Attributes":{"name":"Wilhelmina Bladergroenstraat","highway":"residential","maxspeed":"30","profile":"car","distance":"105.159","time":"16.82544"}},{"Shape":6,"Attributes":{"name":"Aletta Jacobsstraat","highway":"residential","maxspeed":"30","profile":"car","distance":"202.959","time":"32.47344"}},{"Shape":7,"Attributes":{"name":"Joke Smitlaan","maxspeed":"50","highway":"tertiary","profile":"car","distance":"209.459","time":"33.09744"}},{"Shape":10,"Attributes":{"name":"Joke Smitlaan","maxspeed":"50","highway":"tertiary","oneway":"yes","profile":"car","distance":"305.159","time":"42.28464"}},{"Shape":12,"Attributes":{"name":"Maaswijkweg","maxspeed":"50","highway":"tertiary","junction":"roundabout","profile":"car","distance":"316.059","time":"43.33104"}},{"Shape":15,"Attributes":{"name":"Maaswijkweg","maxspeed":"50","highway":"tertiary","junction":"roundabout","profile":"car","distance":"331.659","time":"44.82864"}},{"Shape":21,"Attributes":{"name":"Maaswijkweg","maxspeed":"50","highway":"tertiary","junction":"roundabout","profile":"car","distance":"372.759","time":"48.77424"}},{"Shape":22,"Attributes":{"name":"Maaswijkweg","maxspeed":"50","highway":"tertiary","oneway":"yes","profile":"car","distance":"399.459","time":"51.33744"}},{"Shape":25,"Attributes":{"name":"Maaswijkweg","maxspeed":"50","highway":"tertiary","oneway":"yes","profile":"car","distance":"843.1591","time":"93.93264"}},{"Shape":28,"Attributes":{"name":"Maaswijkweg","maxspeed":"50","highway":"tertiary","junction":"roundabout","profile":"car","distance":"858.5591","time":"95.41104"}},{"Shape":31,"Attributes":{"highway":"unclassified","maxspeed":"50","oneway":"yes","profile":"car","distance":"892.2591","time":"98.64624"}},{"Shape":32,"Attributes":{"name":"Rivierlaan","highway":"unclassified","maxspeed":"50","profile":"car","distance":"897.8591","time":"99.18384"}},{"Shape":33,"Attributes":{"name":"Rivierlaan","highway":"unclassified","maxspeed":"50","profile":"car","distance":"984.459","time":"107.4974"}},{"Shape":36,"Attributes":{"name":"Rivierlaan","highway":"unclassified","maxspeed":"50","profile":"car","distance":"1147.959","time":"123.1934"}},{"Shape":38,"Attributes":{"name":"Rivierlaan","highway":"unclassified","maxspeed":"50","profile":"car","distance":"1208.159","time":"128.9726"}},{"Shape":39,"Attributes":{"name":"Rivierlaan","highway":"unclassified","maxspeed":"50","profile":"car","distance":"1236.959","time":"131.7374"}},{"Shape":41,"Attributes":{"name":"Lekstraat","highway":"unclassified","profile":"car","distance":"1310.159","time":"138.7646"}},{"Shape":42,"Attributes":{"name":"Lekstraat","highway":"unclassified","profile":"car","distance":"1374.059","time":"144.899"}},{"Shape":44,"Attributes":{"name":"Lekstraat","highway":"unclassified","profile":"car","distance":"1466.959","time":"153.8174"}},{"Shape":45,"Attributes":{"name":"Lekstraat","highway":"unclassified","profile":"car","distance":"1489.359","time":"155.9678"}},{"Shape":47,"Attributes":{"name":"Maasboulevard","highway":"unclassified","profile":"car","distance":"1613.859","time":"167.9198"}},{"Shape":49,"Attributes":{"name":"Maasboulevard","highway":"unclassified","maxspeed":"30","profile":"car","distance":"1806.259","time":"198.7038"}},{"Shape":50,"Attributes":{"name":"Maasboulevard","highway":"unclassified","maxspeed":"30","profile":"car","distance":"1809.52","time":"199.2255"}},{"Shape":51,"Attributes":{"name":"Maasboulevard","highway":"unclassified","maxspeed":"30","profile":"car","distance":"1812.781","time":"379.7472"}},{"Shape":53,"Attributes":{"name":"Maasboulevard","highway":"unclassified","maxspeed":"30","profile":"car","distance":"2005.181","time":"410.5312"}},{"Shape":54,"Attributes":{"name":"Maasboulevard","highway":"unclassified","profile":"car","distance":"2005.802","time":"410.5908"}},{"Shape":56,"Attributes":{"name":"Maasboulevard","highway":"unclassified","profile":"car","distance":"2129.681","time":"602.4832"}},{"Shape":57,"Attributes":{"name":"Lekstraat","highway":"unclassified","profile":"car","distance":"2152.081","time":"604.6336"}},{"Shape":59,"Attributes":{"name":"Waalstraat","highway":"unclassified","profile":"car","distance":"2222.685","time":"611.4116"}},{"Shape":61,"Attributes":{"name":"Waalstraat","highway":"unclassified","profile":"car","distance":"2429.581","time":"811.2736"}},{"Shape":62,"Attributes":{"name":"Waalstraat","highway":"unclassified","profile":"car","distance":"2437.181","time":"812.0032"}},{"Shape":63,"Attributes":{"name":"Rivierlaan","highway":"unclassified","maxspeed":"50","profile":"car","distance":"2513.481","time":"819.328"}},{"Shape":64,"Attributes":{"name":"Rivierlaan","highway":"unclassified","maxspeed":"50","profile":"car","distance":"2594.881","time":"827.1425"}},{"Shape":65,"Attributes":{"name":"Rivierlaan","highway":"unclassified","maxspeed":"50","profile":"car","distance":"2623.681","time":"829.9072"}},{"Shape":67,"Attributes":{"name":"Rivierlaan","highway":"unclassified","maxspeed":"50","profile":"car","distance":"2683.881","time":"835.6864"}},{"Shape":68,"Attributes":{"name":"Gangesstraat","highway":"unclassified","profile":"car","distance":"2692.981","time":"836.5601"}},{"Shape":70,"Attributes":{"name":"Gangesstraat","highway":"residential","maxspeed":"30","profile":"car","distance":"2755.481","time":"846.5601"}},{"Shape":71,"Attributes":{"name":"Gangesstraat","highway":"residential","maxspeed":"30","profile":"car","distance":"2784.981","time":"851.28"}},{"Shape":72,"Attributes":{"name":"Gangesstraat","highway":"residential","maxspeed":"30","profile":"car","distance":"2813.281","time":"855.808"}},{"Shape":75,"Attributes":{"name":"Gangesstraat","highway":"residential","maxspeed":"30","profile":"car","distance":"2835.981","time":"859.4401"}},{"Shape":77,"Attributes":{"name":"Mekongstraat","highway":"residential","maxspeed":"30","profile":"car","distance":"2930.079","time":"874.4957"}},{"Shape":79,"Attributes":{"name":"Mekongstraat","highway":"residential","maxspeed":"30","profile":"car","distance":"3021.781","time":"1069.168"}},{"Shape":80,"Attributes":{"name":"Indusstraat","highway":"residential","maxspeed":"30","profile":"car","distance":"3045.981","time":"1073.04"}},{"Shape":81,"Attributes":{"name":"Zambezistraat","highway":"residential","maxspeed":"30","profile":"car","distance":"3090.381","time":"1080.144"}},{"Shape":82,"Attributes":{"name":"Gambiastraat","highway":"residential","maxspeed":"30","profile":"car","distance":"3149.819","time":"1089.654"}},{"Shape":83,"Attributes":{"name":"Gambiastraat","highway":"residential","maxspeed":"30","profile":"car","distance":"3209.257","time":"1279.164"}},{"Shape":84,"Attributes":{"name":"Zambezistraat","highway":"residential","maxspeed":"30","profile":"car","distance":"3244.657","time":"1284.828"}},{"Shape":86,"Attributes":{"name":"Kongostraat","highway":"residential","maxspeed":"30","profile":"car","distance":"3263.767","time":"1287.886"}},{"Shape":87,"Attributes":{"name":"Kongostraat","highway":"residential","maxspeed":"30","profile":"car","distance":"3280.857","time":"1650.62"}},{"Shape":91,"Attributes":{"name":"Nijlstraat","highway":"residential","maxspeed":"30","profile":"car","distance":"3390.357","time":"1668.14"}},{"Shape":93,"Attributes":{"name":"Indusstraat","highway":"residential","maxspeed":"30","profile":"car","distance":"3464.957","time":"1680.076"}},{"Shape":95,"Attributes":{"name":"Indusstraat","highway":"residential","maxspeed":"30","profile":"car","distance":"3541.057","time":"1692.252"}},{"Shape":97,"Attributes":{"name":"Indusstraat","highway":"residential","maxspeed":"30","profile":"car","distance":"3620.557","time":"1704.972"}},{"Shape":99,"Attributes":{"name":"Indusstraat","highway":"residential","maxspeed":"30","profile":"car","distance":"3685.657","time":"1715.388"}},{"Shape":100,"Attributes":{"name":"Rivierlaan","highway":"unclassified","maxspeed":"50","profile":"car","distance":"3772.257","time":"1723.702"}},{"Shape":101,"Attributes":{"name":"Rivierlaan","highway":"unclassified","maxspeed":"50","profile":"car","distance":"3777.857","time":"1724.24"}},{"Shape":104,"Attributes":{"name":"Rivierlaan","highway":"unclassified","maxspeed":"50","oneway":"yes","profile":"car","distance":"3810.857","time":"1727.408"}},{"Shape":106,"Attributes":{"name":"Maaswijkweg","maxspeed":"50","highway":"tertiary","junction":"roundabout","profile":"car","distance":"3818.557","time":"1728.147"}},{"Shape":110,"Attributes":{"name":"Maaswijkweg","maxspeed":"50","highway":"tertiary","junction":"roundabout","profile":"car","distance":"3844.057","time":"1730.595"}},{"Shape":113,"Attributes":{"name":"Maaswijkweg","maxspeed":"50","highway":"tertiary","junction":"roundabout","profile":"car","distance":"3859.657","time":"1732.092"}},{"Shape":114,"Attributes":{"highway":"unclassified","oneway":"yes","profile":"car","distance":"3876.957","time":"1733.753"}},{"Shape":115,"Attributes":{"name":"Hürthstraat","highway":"living_street","profile":"car","distance":"3889.257","time":"1745.561"}},{"Shape":116,"Attributes":{"name":"Hürthstraat","highway":"living_street","profile":"car","distance":"3906.457","time":"1762.073"}},{"Shape":118,"Attributes":{"name":"Hürthstraat","highway":"living_street","profile":"car","distance":"3938.257","time":"1792.601"}},{"Shape":119,"Attributes":{"name":"Hürthstraat","highway":"living_street","profile":"car","distance":"3959.657","time":"1813.145"}},{"Shape":124,"Attributes":{"name":"Hürthstraat","highway":"living_street","profile":"car","distance":"3991.879","time":"1844.078"}},{"Shape":129,"Attributes":{"name":"Hürthstraat","highway":"living_street","profile":"car","distance":"4024.101","time":"2055.011"}},{"Shape":130,"Attributes":{"name":"Hürthstraat","highway":"living_street","profile":"car","distance":"4045.501","time":"2075.555"}},{"Shape":132,"Attributes":{"name":"Hürthstraat","highway":"living_street","profile":"car","distance":"4077.301","time":"2106.083"}},{"Shape":133,"Attributes":{"name":"Hürthstraat","highway":"living_street","profile":"car","distance":"4094.501","time":"2122.595"}},{"Shape":134,"Attributes":{"name":"Hürthstraat","highway":"living_street","profile":"car","distance":"4106.801","time":"2134.403"}},{"Shape":135,"Attributes":{"name":"Hürthstraat","highway":"unclassified","oneway":"yes","profile":"car","distance":"4125.601","time":"2136.208"}},{"Shape":137,"Attributes":{"name":"Maaswijkweg","maxspeed":"50","highway":"tertiary","junction":"roundabout","profile":"car","distance":"4133.201","time":"2136.938"}},{"Shape":143,"Attributes":{"name":"Maaswijkweg","maxspeed":"50","highway":"tertiary","oneway":"yes","profile":"car","distance":"4607.401","time":"2182.461"}},{"Shape":146,"Attributes":{"name":"Maaswijkweg","maxspeed":"50","highway":"tertiary","junction":"roundabout","profile":"car","distance":"4622.301","time":"2183.891"}},{"Shape":149,"Attributes":{"name":"Joke Smitlaan","maxspeed":"50","highway":"tertiary","oneway":"yes","profile":"car","distance":"4716.901","time":"2192.973"}},{"Shape":150,"Attributes":{"name":"Joke Smitlaan","maxspeed":"50","highway":"tertiary","profile":"car","distance":"4723.401","time":"2193.597"}},{"Shape":151,"Attributes":{"name":"Marga Klompéstraat","highway":"residential","maxspeed":"30","profile":"car","distance":"4737.401","time":"2195.837"}},{"Shape":152,"Attributes":{"name":"Suze Groenewegstraat","highway":"residential","maxspeed":"30","profile":"car","distance":"4759.81","time":"2199.422"}},{"Shape":153,"Attributes":{"name":"Suze Groenewegstraat","highway":"residential","maxspeed":"30","profile":"car","distance":"4815.901","time":"2388.397"}},{"Shape":155,"Attributes":{"name":"Suze Groenewegstraat","highway":"residential","maxspeed":"30","profile":"car","distance":"4891.23","time":"2400.449"}},{"Shape":157,"Attributes":{"name":"Suze Groenewegstraat","highway":"residential","maxspeed":"30","profile":"car","distance":"4966.559","time":"2592.502"}},{"Shape":158,"Attributes":{"name":"Johanna Engwirda-Agricolastraat","highway":"residential","maxspeed":"30","profile":"car","distance":"5030.859","time":"2602.79"}},{"Shape":164,"Attributes":{"name":"Johanna Engwirda-Agricolastraat","highway":"residential","maxspeed":"30","profile":"car","distance":"5160.164","time":"2623.478"}},{"Shape":170,"Attributes":{"name":"Johanna Engwirda-Agricolastraat","highway":"residential","maxspeed":"30","profile":"car","distance":"5289.468","time":"2824.167"}},{"Shape":173,"Attributes":{"name":"Johanna Engwirda-Agricolastraat","highway":"residential","maxspeed":"30","profile":"car","distance":"5351.068","time":"2834.023"}},{"Shape":174,"Attributes":{"name":"Johanna Engwirda-Agricolastraat","highway":"residential","maxspeed":"30","profile":"car","distance":"5381.269","time":"2838.855"}},{"Shape":175,"Attributes":{"name":"Johanna Engwirda-Agricolastraat","highway":"residential","maxspeed":"30","profile":"car","distance":"5393.212","time":"2840.766"}},{"Shape":176,"Attributes":{"name":"Johanna Engwirda-Agricolastraat","highway":"residential","maxspeed":"30","profile":"car","distance":"5400.027","time":"3021.856"}},{"Shape":177,"Attributes":{"name":"Johanna Engwirda-Agricolastraat","highway":"residential","maxspeed":"30","profile":"car","distance":"5410.468","time":"3203.527"}},{"Shape":178,"Attributes":{"name":"Carry Pothuis-Smitstraat","highway":"residential","maxspeed":"30","profile":"car","distance":"5471.968","time":"3213.366"}},{"Shape":180,"Attributes":{"name":"Wilhelmina Hofman-Pootstraat","highway":"residential","maxspeed":"30","profile":"car","distance":"5605.168","time":"3234.678"}},{"Shape":182,"Attributes":{"name":"Wilhelmina Druckerstraat","highway":"residential","maxspeed":"30","profile":"car","distance":"5680.368","time":"3246.71"}},{"Shape":183,"Attributes":{"name":"Wilhelmina Druckerstraat","highway":"residential","maxspeed":"30","profile":"car","distance":"5690.06","time":"3248.261"}},{"Shape":185,"Attributes":{"name":"Wilhelmina Druckerstraat","highway":"residential","maxspeed":"30","profile":"car","distance":"5813.468","time":"3448.006"}},{"Shape":186,"Attributes":{"name":"Roosje Vosstraat","highway":"residential","maxspeed":"30","profile":"car","distance":"5878.868","time":"3458.47"}},{"Shape":187,"Attributes":{"name":"Roosje Vosstraat","highway":"residential","maxspeed":"30","profile":"car","distance":"5889.476","time":"3460.167"}},{"Shape":188,"Attributes":{"name":"Roosje Vosstraat","highway":"residential","maxspeed":"30","profile":"car","distance":"5900.084","time":"3641.864"}},{"Shape":189,"Attributes":{"name":"Roosje Vosstraat","highway":"residential","maxspeed":"30","profile":"car","distance":"5965.484","time":"3652.328"}},{"Shape":190,"Attributes":{"name":"Wilhelmina Druckerstraat","highway":"residential","maxspeed":"30","profile":"car","distance":"5981.084","time":"3654.824"}},{"Shape":191,"Attributes":{"name":"Wilhelmina Druckerstraat","highway":"residential","maxspeed":"30","profile":"car","distance":"6016.784","time":"3660.536"}},{"Shape":192,"Attributes":{"name":"Mina Krusemanstraat","highway":"residential","maxspeed":"30","profile":"car","distance":"6027.507","time":"3662.252"}},{"Shape":195,"Attributes":{"name":"Mina Krusemanstraat","highway":"residential","maxspeed":"30","profile":"car","distance":"6153.684","time":"3862.44"}},{"Shape":196,"Attributes":{"name":"Maria Doorman-Kielstrastraat","highway":"residential","maxspeed":"30","profile":"car","distance":"6164.784","time":"3864.216"}},{"Shape":200,"Attributes":{"name":"Joke Smitlaan","maxspeed":"50","highway":"tertiary","oneway":"yes","profile":"car","distance":"6278.984","time":"3875.179"}},{"Shape":201,"Attributes":{"name":"Etty Hillesumstraat","highway":"residential","maxspeed":"30","profile":"car","distance":"6290.884","time":"3877.083"}},{"Shape":202,"Attributes":{"name":"Etty Hillesumstraat","highway":"residential","maxspeed":"30","profile":"car","distance":"6321.684","time":"3882.011"}},{"Shape":203,"Attributes":{"name":"Etty Hillesumstraat","highway":"residential","maxspeed":"30","profile":"car","distance":"6416.484","time":"3897.179"}},{"Shape":204,"Attributes":{"name":"Etty Hillesumstraat","highway":"residential","maxspeed":"30","profile":"car","distance":"6422.584","time":"3898.156"}},{"Shape":205,"Attributes":{"name":"Etty Hillesumstraat","highway":"residential","maxspeed":"30","profile":"car","distance":"6498.084","time":"3910.236"}},{"Shape":206,"Attributes":{"name":"Etty Hillesumstraat","highway":"residential","maxspeed":"30","profile":"car","distance":"6528.784","time":"3915.147"}},{"Shape":208,"Attributes":{"name":"Mien Sneevliet-Draaijerstraat","highway":"residential","maxspeed":"30","oneway":"yes","profile":"car","distance":"6590.384","time":"3925.003"}},{"Shape":210,"Attributes":{"name":"Mien Sneevliet-Draaijerstraat","highway":"residential","maxspeed":"30","oneway":"yes","profile":"car","distance":"6632.584","time":"3931.756"}},{"Shape":213,"Attributes":{"name":"Petronella Brugsmastraat","highway":"residential","maxspeed":"30","profile":"car","distance":"6656.65","time":"3935.606"}},{"Shape":219,"Attributes":{"name":"Petronella Brugsmastraat","highway":"residential","maxspeed":"30","profile":"car","distance":"6831.895","time":"4143.645"}},{"Shape":227,"Attributes":{"name":"Petronella Brugsmastraat","highway":"residential","maxspeed":"30","profile":"car","distance":"7031.206","time":"4355.535"}},{"Shape":229,"Attributes":{"name":"Mien Sneevliet-Draaijerstraat","highway":"residential","maxspeed":"30","oneway":"yes","profile":"car","distance":"7073.606","time":"4362.319"}},{"Shape":231,"Attributes":{"name":"Mien Sneevliet-Draaijerstraat","highway":"residential","maxspeed":"30","oneway":"yes","profile":"car","distance":"7135.606","time":"4372.239"}},{"Shape":232,"Attributes":{"name":"Etty Hillesumstraat","highway":"residential","maxspeed":"30","profile":"car","distance":"7140.606","time":"4373.039"}},{"Shape":236,"Attributes":{"name":"Etty Hillesumstraat","highway":"residential","maxspeed":"30","profile":"car","distance":"7325.083","time":"4402.555"}},{"Shape":240,"Attributes":{"name":"Etty Hillesumstraat","highway":"residential","maxspeed":"30","profile":"car","distance":"7509.561","time":"4612.072"}},{"Shape":245,"Attributes":{"name":"Mien Sneevliet-Draaijerstraat","highway":"residential","maxspeed":"30","profile":"car","distance":"7624.461","time":"4630.456"}},{"Shape":247,"Attributes":{"name":"Willemijn Posthumusstraat","highway":"residential","maxspeed":"30","profile":"car","distance":"7640.938","time":"4633.092"}},{"Shape":249,"Attributes":{"name":"Willemijn Posthumusstraat","highway":"residential","maxspeed":"30","profile":"car","distance":"7657.416","time":"4815.728"}},{"Shape":250,"Attributes":{"name":"Maria Doorman-Kielstrastraat","highway":"residential","maxspeed":"30","profile":"car","distance":"7695.416","time":"4821.808"}},{"Shape":252,"Attributes":{"name":"Maria Doorman-Kielstrastraat","highway":"residential","maxspeed":"30","profile":"car","distance":"7719.916","time":"4825.728"}},{"Shape":253,"Attributes":{"name":"Maria Doorman-Kielstrastraat","highway":"residential","maxspeed":"30","profile":"car","distance":"7776.356","time":"4834.759"}},{"Shape":255,"Attributes":{"name":"Maria Doorman-Kielstrastraat","highway":"residential","maxspeed":"30","profile":"car","distance":"7853.515","time":"5027.104"}},{"Shape":256,"Attributes":{"name":"Maria Doorman-Kielstrastraat","highway":"residential","maxspeed":"30","profile":"car","distance":"7869.515","time":"5029.664"}},{"Shape":259,"Attributes":{"highway":"residential","maxspeed":"30","profile":"car","distance":"7941.99","time":"5041.26"}},{"Shape":262,"Attributes":{"highway":"residential","maxspeed":"30","profile":"car","distance":"7990.316","time":"5228.992"}},{"Shape":263,"Attributes":{"name":"Etty Hillesumstraat","highway":"residential","maxspeed":"30","profile":"car","distance":"8021.116","time":"5233.92"}},{"Shape":264,"Attributes":{"name":"Etty Hillesumstraat","highway":"residential","maxspeed":"30","profile":"car","distance":"8033.016","time":"5235.824"}},{"Shape":266,"Attributes":{"name":"Joke Smitlaan","maxspeed":"50","highway":"tertiary","oneway":"yes","profile":"car","distance":"8093.616","time":"5241.642"}},{"Shape":269,"Attributes":{"name":"Joke Smitlaan","maxspeed":"50","highway":"tertiary","profile":"car","distance":"8164.116","time":"5248.41"}},{"Shape":270,"Attributes":{"name":"Anne Frankstraat","highway":"residential","maxspeed":"30","profile":"car","distance":"8177.216","time":"5250.505"}},{"Shape":271,"Attributes":{"name":"Anne Frankstraat","highway":"residential","maxspeed":"30","profile":"car","distance":"8189.11","time":"5252.409"}},{"Shape":273,"Attributes":{"name":"Anne Frankstraat","highway":"residential","maxspeed":"30","profile":"car","distance":"8311.016","time":"5451.914"}},{"Shape":274,"Attributes":{"name":"Hannie Schaftstraat","highway":"residential","maxspeed":"30","profile":"car","distance":"8371.115","time":"5461.53"}},{"Shape":275,"Attributes":{"name":"Hannie Schaftstraat","highway":"residential","maxspeed":"30","profile":"car","distance":"8437.56","time":"5472.161"}},{"Shape":276,"Attributes":{"name":"Hannie Schaftstraat","highway":"residential","maxspeed":"30","profile":"car","distance":"8504.004","time":"5662.792"}},{"Shape":277,"Attributes":{"name":"Hannie Schaftstraat","highway":"residential","maxspeed":"30","profile":"car","distance":"8564.104","time":"5672.408"}},{"Shape":279,"Attributes":{"name":"Anne Frankstraat","highway":"residential","maxspeed":"30","profile":"car","distance":"8697.904","time":"5693.816"}},{"Shape":280,"Attributes":{"name":"Anne Frankstraat","highway":"residential","maxspeed":"30","profile":"car","distance":"8711.004","time":"5695.912"}},{"Shape":281,"Attributes":{"name":"Joke Smitlaan","maxspeed":"50","highway":"tertiary","profile":"car","distance":"8719.004","time":"5696.68"}},{"Shape":282,"Attributes":{"name":"Joke Smitlaan","maxspeed":"50","highway":"tertiary","profile":"car","distance":"8762.004","time":"5700.808"}},{"Shape":283,"Attributes":{"name":"Joke Smitlaan","maxspeed":"50","highway":"tertiary","profile":"car","distance":"8792.604","time":"5703.746"}},{"Shape":285,"Attributes":{"name":"Joke Smitlaan","maxspeed":"50","highway":"tertiary","profile":"car","distance":"8846.904","time":"5708.958"}},{"Shape":286,"Attributes":{"name":"Joke Smitlaan","maxspeed":"50","highway":"tertiary","profile":"car","distance":"8866.304","time":"5710.821"}},{"Shape":287,"Attributes":{"name":"Margaretha Roosenboomstraat","highway":"residential","profile":"car","distance":"8877.704","time":"5711.916"}},{"Shape":291,"Attributes":{"name":"Margaretha Roosenboomstraat","highway":"residential","profile":"car","distance":"8919.504","time":"5715.928"}},{"Shape":292,"Attributes":{"name":"Margaretha Roosenboomstraat","highway":"residential","profile":"car","distance":"8942.804","time":"5718.165"}},{"Shape":293,"Attributes":{"name":"Margaretha Roosenboomstraat","highway":"residential","profile":"car","distance":"8952.548","time":"5719.101"}},{"Shape":294,"Attributes":{"name":"Margaretha Roosenboomstraat","highway":"residential","profile":"car","distance":"8962.292","time":"5900.037"}},{"Shape":295,"Attributes":{"name":"Margaretha Roosenboomstraat","highway":"residential","profile":"car","distance":"8985.592","time":"5902.273"}},{"Shape":299,"Attributes":{"name":"Margaretha Roosenboomstraat","highway":"residential","profile":"car","distance":"9027.392","time":"5906.286"}},{"Shape":300,"Attributes":{"name":"Margaretha Roosenboomstraat","highway":"residential","profile":"car","distance":"9038.792","time":"5907.38"}},{"Shape":301,"Attributes":{"name":"Joke Smitlaan","maxspeed":"50","highway":"tertiary","profile":"car","distance":"9051.192","time":"5908.571"}},{"Shape":304,"Attributes":{"name":"Joke Smitlaan","maxspeed":"50","highway":"tertiary","profile":"car","distance":"9119.592","time":"5915.137"}},{"Shape":307,"Attributes":{"name":"Annie Romein-Verschoorlaan","maxspeed":"50","highway":"tertiary","profile":"car","distance":"9238.792","time":"5926.581"}},{"Shape":308,"Attributes":{"name":"Annie Romein-Verschoorlaan","maxspeed":"50","highway":"tertiary","profile":"car","distance":"9293.694","time":"5931.851"}},{"Shape":309,"Attributes":{"name":"Annie Romein-Verschoorlaan","maxspeed":"50","highway":"tertiary","profile":"car","distance":"9310.292","time":"6113.444"}},{"Shape":310,"Attributes":{"name":"Annie Romein-Verschoorlaan","maxspeed":"50","highway":"tertiary","profile":"car","distance":"9380.392","time":"6120.174"}},{"Shape":311,"Attributes":{"name":"Theo Mann-Bouwmeesterstraat","highway":"residential","maxspeed":"30","profile":"car","distance":"9393.792","time":"6122.318"}},{"Shape":312,"Attributes":{"name":"Maria Kleine-Gartmanstraat","highway":"residential","maxspeed":"30","profile":"car","distance":"9429.092","time":"6127.966"}},{"Shape":313,"Attributes":{"name":"Maria Kleine-Gartmanstraat","highway":"residential","maxspeed":"30","profile":"car","distance":"9460.692","time":"6133.022"}},{"Shape":314,"Attributes":{"name":"Maria Kleine-Gartmanstraat","highway":"residential","maxspeed":"30","profile":"car","distance":"9491.892","time":"6138.014"}},{"Shape":315,"Attributes":{"name":"Maria Kleine-Gartmanstraat","highway":"residential","maxspeed":"30","profile":"car","distance":"9494.024","time":"6138.355"}},{"Shape":316,"Attributes":{"name":"Maria Kleine-Gartmanstraat","highway":"residential","maxspeed":"30","profile":"car","distance":"9496.157","time":"6318.696"}},{"Shape":317,"Attributes":{"name":"Maria Kleine-Gartmanstraat","highway":"residential","maxspeed":"30","profile":"car","distance":"9527.357","time":"6323.688"}},{"Shape":318,"Attributes":{"name":"Maria Kleine-Gartmanstraat","highway":"residential","maxspeed":"30","profile":"car","distance":"9558.957","time":"6328.744"}},{"Shape":319,"Attributes":{"name":"Maria Kleine-Gartmanstraat","highway":"residential","maxspeed":"30","profile":"car","distance":"9594.257","time":"6334.392"}},{"Shape":320,"Attributes":{"name":"Theo Mann-Bouwmeesterstraat","highway":"residential","maxspeed":"30","profile":"car","distance":"9607.657","time":"6336.536"}},{"Shape":321,"Attributes":{"name":"Mimi Boesnachstraat","highway":"residential","maxspeed":"30","profile":"car","distance":"9621.157","time":"6338.696"}},{"Shape":322,"Attributes":{"name":"Ida Wassermanstraat","highway":"residential","maxspeed":"30","profile":"car","distance":"9724.563","time":"6355.241"}},{"Shape":323,"Attributes":{"name":"Ida Wassermanstraat","highway":"residential","maxspeed":"30","profile":"car","distance":"9827.969","time":"6551.786"}},{"Shape":324,"Attributes":{"name":"Margaretha Roosenboomstraat","highway":"residential","maxspeed":"30","profile":"car","distance":"9880.44","time":"6560.182"}},{"Shape":325,"Attributes":{"name":"Margaretha Roosenboomstraat","highway":"residential","maxspeed":"30","profile":"car","distance":"9932.911","time":"6748.578"}},{"Shape":326,"Attributes":{"name":"Mimi Boesnachstraat","highway":"residential","maxspeed":"30","profile":"car","distance":"9946.411","time":"6750.737"}},{"Shape":327,"Attributes":{"name":"Theo Mann-Bouwmeesterstraat","highway":"residential","maxspeed":"30","profile":"car","distance":"9959.812","time":"6752.881"}},{"Shape":328,"Attributes":{"name":"Maria Kleine-Gartmanstraat","highway":"residential","maxspeed":"30","profile":"car","distance":"9995.111","time":"6758.529"}},{"Shape":329,"Attributes":{"name":"Maria Kleine-Gartmanstraat","highway":"residential","maxspeed":"30","profile":"car","distance":"10026.71","time":"6763.585"}},{"Shape":330,"Attributes":{"name":"Maria Kleine-Gartmanstraat","highway":"residential","maxspeed":"30","profile":"car","distance":"10057.91","time":"6768.578"}},{"Shape":331,"Attributes":{"name":"Maria Kleine-Gartmanstraat","highway":"residential","maxspeed":"30","profile":"car","distance":"10094.11","time":"6774.37"}},{"Shape":332,"Attributes":{"name":"Maria Kleine-Gartmanstraat","highway":"residential","maxspeed":"30","profile":"car","distance":"10124.31","time":"6779.202"}},{"Shape":337,"Attributes":{"name":"Maria Kleine-Gartmanstraat","highway":"residential","maxspeed":"30","profile":"car","distance":"10216.31","time":"6793.921"}},{"Shape":338,"Attributes":{"name":"Maria Kleine-Gartmanstraat","highway":"residential","maxspeed":"30","profile":"car","distance":"10263.84","time":"6801.526"}},{"Shape":339,"Attributes":{"name":"Maria Kleine-Gartmanstraat","highway":"residential","maxspeed":"30","profile":"car","distance":"10278.21","time":"6983.825"}},{"Shape":342,"Attributes":{"name":"Maria Kleine-Gartmanstraat","highway":"residential","maxspeed":"30","profile":"car","distance":"10500.14","time":"7019.334"}},{"Shape":345,"Attributes":{"name":"Maria Kleine-Gartmanstraat","highway":"residential","maxspeed":"30","profile":"car","distance":"10722.07","time":"7234.843"}},{"Shape":346,"Attributes":{"name":"Esther de Boer-van Rijkstraat","highway":"residential","maxspeed":"30","profile":"car","distance":"10753.37","time":"7239.851"}},{"Shape":347,"Attributes":{"name":"Esther de Boer-van Rijkstraat","highway":"residential","maxspeed":"30","profile":"car","distance":"10787.57","time":"7245.323"}},{"Shape":348,"Attributes":{"name":"Esther de Boer-van Rijkstraat","highway":"residential","maxspeed":"30","profile":"car","distance":"10850.87","time":"7255.451"}},{"Shape":349,"Attributes":{"name":"Josephine van Gasterenstraat","highway":"residential","maxspeed":"30","profile":"car","distance":"10917.97","time":"7266.187"}},{"Shape":350,"Attributes":{"name":"Josephine van Gasterenstraat","highway":"residential","maxspeed":"30","profile":"car","distance":"10948.47","time":"7271.067"}},{"Shape":351,"Attributes":{"name":"Corrie Vonkplantsoen","highway":"residential","maxspeed":"30","profile":"car","distance":"10952.29","time":"7271.679"}},{"Shape":353,"Attributes":{"name":"Corrie Vonkplantsoen","highway":"residential","maxspeed":"30","profile":"car","distance":"11051.37","time":"7467.531"}},{"Shape":354,"Attributes":{"name":"Theo Mann-Bouwmeesterstraat","highway":"residential","maxspeed":"30","profile":"car","distance":"11103.77","time":"7475.916"}},{"Shape":355,"Attributes":{"name":"Suze Robertsonstraat","highway":"residential","maxspeed":"30","profile":"car","distance":"11114.37","time":"7477.612"}},{"Shape":356,"Attributes":{"name":"Suze Robertsonstraat","highway":"residential","maxspeed":"30","profile":"car","distance":"11219.56","time":"7674.443"}},{"Shape":357,"Attributes":{"name":"Sientje Mesdag-van Houtenstraat","highway":"residential","maxspeed":"30","profile":"car","distance":"11271.76","time":"7682.795"}},{"Shape":360,"Attributes":{"name":"Sientje Mesdag-van Houtenstraat","highway":"residential","maxspeed":"30","profile":"car","distance":"11320.46","time":"7690.587"}},{"Shape":361,"Attributes":{"name":"Sientje Mesdag-van Houtenstraat","highway":"residential","maxspeed":"30","profile":"car","distance":"11333.17","time":"7692.62"}},{"Shape":364,"Attributes":{"name":"Sientje Mesdag-van Houtenstraat","highway":"residential","maxspeed":"30","profile":"car","distance":"11371.16","time":"7878.699"}},{"Shape":368,"Attributes":{"name":"Martina Kramersstraat","highway":"residential","maxspeed":"30","profile":"car","distance":"11504.52","time":"7900.037"}},{"Shape":372,"Attributes":{"name":"Martina Kramersstraat","highway":"residential","maxspeed":"30","profile":"car","distance":"11637.88","time":"8101.375"}},{"Shape":375,"Attributes":{"name":"Sientje Mesdag-van Houtenstraat","highway":"residential","maxspeed":"30","profile":"car","distance":"11688.58","time":"8109.487"}},{"Shape":378,"Attributes":{"name":"Sientje Mesdag-van Houtenstraat","highway":"residential","maxspeed":"30","profile":"car","distance":"11737.28","time":"8117.279"}},{"Shape":379,"Attributes":{"name":"Sientje Mesdag-van Houtenstraat","highway":"residential","maxspeed":"30","profile":"car","distance":"11789.48","time":"8125.631"}},{"Shape":380,"Attributes":{"name":"Sientje Mesdag-van Houtenstraat","highway":"residential","maxspeed":"30","profile":"car","distance":"11823.78","time":"8131.119"}},{"Shape":382,"Attributes":{"name":"Harriët Freezerstraat","highway":"residential","maxspeed":"30","profile":"car","distance":"11946.01","time":"8150.675"}},{"Shape":384,"Attributes":{"name":"Harriët Freezerstraat","highway":"residential","maxspeed":"30","profile":"car","distance":"12068.24","time":"8350.23"}},{"Shape":385,"Attributes":{"name":"Sientje Mesdag-van Houtenstraat","highway":"residential","maxspeed":"30","profile":"car","distance":"12126.04","time":"8359.479"}},{"Shape":386,"Attributes":{"name":"Sientje Mesdag-van Houtenstraat","highway":"residential","maxspeed":"30","profile":"car","distance":"12153.84","time":"8363.927"}},{"Shape":387,"Attributes":{"name":"Lizzy Ansinghstraat","highway":"unclassified","maxspeed":"30","profile":"car","distance":"12191.34","time":"8369.927"}},{"Shape":388,"Attributes":{"name":"Lizzy Ansinghstraat","highway":"unclassified","maxspeed":"30","profile":"car","distance":"12208.04","time":"8372.599"}},{"Shape":390,"Attributes":{"name":"Lizzy Ansinghstraat","highway":"unclassified","maxspeed":"30","profile":"car","distance":"12241.56","time":"8377.962"}},{"Shape":392,"Attributes":{"name":"Lizzy Ansinghstraat","highway":"unclassified","maxspeed":"30","profile":"car","distance":"12275.08","time":"8563.325"}},{"Shape":393,"Attributes":{"name":"Lizzy Ansinghstraat","highway":"unclassified","maxspeed":"30","profile":"car","distance":"12291.78","time":"8565.997"}},{"Shape":394,"Attributes":{"name":"Lizzy Ansinghstraat","highway":"unclassified","maxspeed":"30","profile":"car","distance":"12329.28","time":"8571.997"}},{"Shape":395,"Attributes":{"name":"Sientje Mesdag-van Houtenstraat","highway":"residential","maxspeed":"30","profile":"car","distance":"12353.21","time":"8575.826"}},{"Shape":396,"Attributes":{"name":"Sientje Mesdag-van Houtenstraat","highway":"residential","maxspeed":"30","profile":"car","distance":"12377.14","time":"8759.654"}},{"Shape":397,"Attributes":{"name":"Sientje Mesdag-van Houtenstraat","highway":"residential","maxspeed":"30","profile":"car","distance":"12443.64","time":"8770.295"}},{"Shape":398,"Attributes":{"name":"Sientje Mesdag-van Houtenstraat","highway":"residential","maxspeed":"30","profile":"car","distance":"12457.34","time":"8772.486"}},{"Shape":401,"Attributes":{"name":"Annie Romein-Verschoorlaan","maxspeed":"50","highway":"tertiary","profile":"car","distance":"12576.54","time":"8783.93"}},{"Shape":402,"Attributes":{"name":"Annie Romein-Verschoorlaan","maxspeed":"50","highway":"tertiary","profile":"car","distance":"12597.04","time":"8785.898"}},{"Shape":404,"Attributes":{"name":"Annie Romein-Verschoorlaan","maxspeed":"50","highway":"tertiary","profile":"car","distance":"12655.34","time":"8791.495"}},{"Shape":406,"Attributes":{"name":"Hadewychplaats","highway":"service","profile":"car","distance":"12677.04","time":"8794.967"}},{"Shape":407,"Attributes":{"name":"Ida Gerhardtplein","highway":"service","profile":"car","distance":"12679.78","time":"8795.405"}},{"Shape":408,"Attributes":{"name":"Ida Gerhardtplein","highway":"service","profile":"car","distance":"12682.52","time":"8975.844"}},{"Shape":410,"Attributes":{"name":"Hadewychplaats","highway":"service","profile":"car","distance":"12704.22","time":"8979.315"}},{"Shape":413,"Attributes":{"name":"Annie Romein-Verschoorlaan","maxspeed":"50","highway":"tertiary","profile":"car","distance":"12871.12","time":"8995.338"}},{"Shape":414,"Attributes":{"name":"Annie Romein-Verschoorlaan","maxspeed":"50","highway":"tertiary","profile":"car","distance":"12910.62","time":"8999.13"}},{"Shape":416,"Attributes":{"name":"Annie Romein-Verschoorlaan","maxspeed":"50","highway":"tertiary","profile":"car","distance":"13045.52","time":"9012.08"}},{"Shape":423,"Attributes":{"name":"Annie Romein-Verschoorlaan","maxspeed":"50","highway":"tertiary","oneway":"yes","junction":"roundabout","profile":"car","distance":"13088.82","time":"9016.237"}},{"Shape":427,"Attributes":{"name":"Annie Romein-Verschoorlaan","maxspeed":"50","highway":"tertiary","oneway":"yes","junction":"roundabout","profile":"car","distance":"13110.12","time":"9018.282"}},{"Shape":430,"Attributes":{"name":"Geertruida Bosboom-Toussaintlaan","maxspeed":"50","highway":"tertiary","profile":"car","distance":"13386.62","time":"9044.826"}},{"Shape":431,"Attributes":{"name":"Belle van Zuylenstraat","highway":"residential","maxspeed":"30","profile":"car","distance":"13401.72","time":"9047.242"}},{"Shape":432,"Attributes":{"name":"Else van der Banstraat","highway":"residential","maxspeed":"30","profile":"car","distance":"13457.12","time":"9056.106"}},{"Shape":433,"Attributes":{"name":"Else van der Banstraat","highway":"residential","maxspeed":"30","profile":"car","distance":"13471.98","time":"9058.483"}},{"Shape":434,"Attributes":{"name":"Else van der Banstraat","highway":"residential","maxspeed":"30","profile":"car","distance":"13528.42","time":"9247.515"}},{"Shape":435,"Attributes":{"name":"Else van der Banstraat","highway":"residential","maxspeed":"30","profile":"car","distance":"13601.32","time":"9259.179"}},{"Shape":436,"Attributes":{"name":"Hélène Swarthstraat","highway":"residential","maxspeed":"30","profile":"car","distance":"13610.15","time":"9260.59"}},{"Shape":437,"Attributes":{"name":"Hélène Swarthstraat","highway":"residential","maxspeed":"30","profile":"car","distance":"13618.97","time":"9442.002"}},{"Shape":438,"Attributes":{"name":"Else van der Banstraat","highway":"residential","maxspeed":"30","profile":"car","distance":"13691.87","time":"9453.665"}},{"Shape":439,"Attributes":{"name":"Else van der Banstraat","highway":"residential","maxspeed":"30","profile":"car","distance":"13763.17","time":"9465.073"}},{"Shape":440,"Attributes":{"name":"Else van der Banstraat","highway":"residential","maxspeed":"30","profile":"car","distance":"13818.57","time":"9473.938"}},{"Shape":441,"Attributes":{"name":"Belle van Zuylenstraat","highway":"residential","maxspeed":"30","profile":"car","distance":"13833.67","time":"9476.354"}},{"Shape":443,"Attributes":{"name":"Geertruida Bosboom-Toussaintlaan","maxspeed":"50","highway":"tertiary","profile":"car","distance":"13943.57","time":"9486.904"}},{"Shape":445,"Attributes":{"name":"Geertruida Bosboom-Toussaintlaan","maxspeed":"50","highway":"tertiary","profile":"car","distance":"14051.47","time":"9497.263"}},{"Shape":446,"Attributes":{"name":"Sientje Mesdag-van Houtenstraat","highway":"residential","maxspeed":"30","profile":"car","distance":"14066.27","time":"9499.63"}},{"Shape":447,"Attributes":{"name":"Beb Vuykstraat","highway":"residential","maxspeed":"30","profile":"car","distance":"14068.84","time":"9500.042"}},{"Shape":448,"Attributes":{"name":"Beb Vuykstraat","highway":"residential","maxspeed":"30","profile":"car","distance":"14130.07","time":"9689.839"}},{"Shape":449,"Attributes":{"name":"Beb Vuykstraat","highway":"residential","maxspeed":"30","profile":"car","distance":"14191.57","time":"9699.679"}},{"Shape":451,"Attributes":{"name":"Theo Mann-Bouwmeesterstraat","highway":"residential","maxspeed":"30","profile":"car","distance":"14315.07","time":"9719.438"}},{"Shape":452,"Attributes":{"name":"Top Naeffstraat","highway":"residential","maxspeed":"30","profile":"car","distance":"14330.49","time":"9721.906"}},{"Shape":453,"Attributes":{"name":"Top Naeffstraat","highway":"residential","maxspeed":"30","profile":"car","distance":"14345.91","time":"9904.373"}},{"Shape":455,"Attributes":{"name":"Theo Mann-Bouwmeesterstraat","highway":"residential","maxspeed":"30","profile":"car","distance":"14469.41","time":"9924.134"}},{"Shape":456,"Attributes":{"name":"Beb Vuykstraat","highway":"residential","maxspeed":"30","profile":"car","distance":"14539.11","time":"9935.285"}},{"Shape":457,"Attributes":{"name":"Beb Vuykstraat","highway":"residential","maxspeed":"30","profile":"car","distance":"14553.27","time":"9937.551"}},{"Shape":458,"Attributes":{"name":"Beb Vuykstraat","highway":"residential","maxspeed":"30","profile":"car","distance":"14602.61","time":"10125.44"}},{"Shape":459,"Attributes":{"name":"Maria Tesselschadestraat","highway":"residential","maxspeed":"30","profile":"car","distance":"14616.61","time":"10127.68"}},{"Shape":460,"Attributes":{"name":"Geertruida Bosboom-Toussaintlaan","maxspeed":"50","highway":"tertiary","profile":"car","distance":"14661.21","time":"10131.97"}},{"Shape":462,"Attributes":{"name":"Henriëtte Roland Holststraat","highway":"residential","maxspeed":"30","profile":"car","distance":"14684.31","time":"10135.66"}},{"Shape":468,"Attributes":{"name":"Henriëtte Roland Holststraat","highway":"residential","maxspeed":"30","profile":"car","distance":"14812.61","time":"10156.19"}},{"Shape":470,"Attributes":{"name":"Lange Groeneweg","highway":"residential","maxspeed":"30","profile":"car","distance":"14984.59","time":"10183.71"}},{"Shape":472,"Attributes":{"name":"Lange Groeneweg","highway":"residential","maxspeed":"30","profile":"car","distance":"15156.57","time":"10391.23"}},{"Shape":475,"Attributes":{"name":"Henriëtte Roland Holststraat","highway":"residential","maxspeed":"30","profile":"car","distance":"15212.55","time":"10400.18"}},{"Shape":479,"Attributes":{"name":"Henriëtte Roland Holststraat","highway":"residential","maxspeed":"30","profile":"car","distance":"15284.87","time":"10591.75"}},{"Shape":481,"Attributes":{"name":"Henriëtte Roland Holststraat","highway":"residential","maxspeed":"30","profile":"car","distance":"15307.97","time":"10595.45"}},{"Shape":482,"Attributes":{"name":"Geertruida Bosboom-Toussaintlaan","maxspeed":"50","highway":"tertiary","profile":"car","distance":"15352.57","time":"10599.73"}},{"Shape":483,"Attributes":{"name":"Geertruida Bosboom-Toussaintlaan","maxspeed":"50","highway":"tertiary","profile":"car","distance":"15416.56","time":"10605.87"}},{"Shape":484,"Attributes":{"name":"Geertruida Bosboom-Toussaintlaan","maxspeed":"50","highway":"tertiary","profile":"car","distance":"15485.67","time":"10792.5"}},{"Shape":485,"Attributes":{"name":"Theo Mann-Bouwmeesterstraat","highway":"residential","maxspeed":"30","profile":"car","distance":"15500.57","time":"10794.89"}},{"Shape":486,"Attributes":{"name":"Else van der Banstraat","highway":"residential","maxspeed":"30","profile":"car","distance":"15548.69","time":"10802.59"}},{"Shape":487,"Attributes":{"name":"Else van der Banstraat","highway":"residential","maxspeed":"30","profile":"car","distance":"15563.27","time":"10984.92"}},{"Shape":489,"Attributes":{"name":"Else van der Banstraat","highway":"residential","maxspeed":"30","profile":"car","distance":"15629.27","time":"10995.48"}},{"Shape":490,"Attributes":{"name":"Else van der Banstraat","highway":"residential","maxspeed":"30","profile":"car","distance":"15689.07","time":"11005.05"}},{"Shape":491,"Attributes":{"name":"Else van der Banstraat","highway":"residential","maxspeed":"30","profile":"car","distance":"15694.69","time":"11005.95"}},{"Shape":492,"Attributes":{"name":"Else van der Banstraat","highway":"residential","maxspeed":"30","profile":"car","distance":"15743.27","time":"11193.72"}},{"Shape":493,"Attributes":{"name":"Truus Schröderstraat","highway":"unclassified","maxspeed":"30","profile":"car","distance":"15757.57","time":"11196.01"}},{"Shape":495,"Attributes":{"name":"Geertruida Bosboom-Toussaintlaan","maxspeed":"50","highway":"tertiary","profile":"car","distance":"15867.47","time":"11206.56"}},{"Shape":496,"Attributes":{"name":"Belle van Zuylenstraat","highway":"residential","maxspeed":"30","profile":"car","distance":"15882.27","time":"11208.93"}},{"Shape":497,"Attributes":{"name":"Beb Vuykstraat","highway":"residential","maxspeed":"30","profile":"car","distance":"15885.82","time":"11209.5"}},{"Shape":498,"Attributes":{"name":"Beb Vuykstraat","highway":"residential","maxspeed":"30","profile":"car","distance":"15942.07","time":"11398.5"}},{"Shape":499,"Attributes":{"name":"Beb Vuykstraat","highway":"residential","maxspeed":"30","profile":"car","distance":"16014.97","time":"11410.17"}},{"Shape":500,"Attributes":{"name":"Beb Vuykstraat","highway":"residential","maxspeed":"30","profile":"car","distance":"16087.07","time":"11421.7"}},{"Shape":501,"Attributes":{"name":"Beb Vuykstraat","highway":"residential","maxspeed":"30","profile":"car","distance":"16090.19","time":"11422.2"}},{"Shape":502,"Attributes":{"name":"Beb Vuykstraat","highway":"residential","maxspeed":"30","profile":"car","distance":"16093.3","time":"11602.7"}},{"Shape":505,"Attributes":{"name":"Anke Servaesstraat","highway":"residential","maxspeed":"30","profile":"car","distance":"16187.71","time":"11617.8"}},{"Shape":506,"Attributes":{"name":"Anke Servaesstraat","highway":"residential","maxspeed":"30","profile":"car","distance":"16234.3","time":"11625.26"}},{"Shape":507,"Attributes":{"name":"Madelon Lulofsstraat","highway":"residential","maxspeed":"30","profile":"car","distance":"16287.23","time":"11633.73"}},{"Shape":508,"Attributes":{"name":"Madelon Lulofsstraat","highway":"residential","maxspeed":"30","profile":"car","distance":"16340.16","time":"11822.2"}},{"Shape":509,"Attributes":{"name":"Marie van Zeggelenstraat","highway":"residential","maxspeed":"30","profile":"car","distance":"16398.26","time":"11831.5"}},{"Shape":510,"Attributes":{"name":"Marie van Zeggelenstraat","highway":"residential","maxspeed":"30","profile":"car","distance":"16408.93","time":"11833.2"}},{"Shape":512,"Attributes":{"name":"Marie van Zeggelenstraat","highway":"residential","maxspeed":"30","profile":"car","distance":"16496.66","time":"12027.24"}},{"Shape":513,"Attributes":{"name":"Lucretia van Merkenstraat","highway":"residential","maxspeed":"30","profile":"car","distance":"16568.86","time":"12038.79"}},{"Shape":514,"Attributes":{"name":"Lucretia van Merkenstraat","highway":"residential","maxspeed":"30","profile":"car","distance":"16647.16","time":"12051.32"}},{"Shape":517,"Attributes":{"name":"Henriëtte van der Meijstraat","highway":"residential","maxspeed":"30","profile":"car","distance":"16678.12","time":"12056.27"}},{"Shape":519,"Attributes":{"name":"Henriëtte van der Meijstraat","highway":"residential","maxspeed":"30","profile":"car","distance":"16867.55","time":"12266.58"}},{"Shape":520,"Attributes":{"name":"Sientje Mesdag-van Houtenstraat","highway":"residential","maxspeed":"30","profile":"car","distance":"16895.35","time":"12271.03"}},{"Shape":521,"Attributes":{"name":"Sientje Mesdag-van Houtenstraat","highway":"residential","maxspeed":"30","profile":"car","distance":"16961.85","time":"12281.67"}},{"Shape":522,"Attributes":{"name":"Sientje Mesdag-van Houtenstraat","highway":"residential","maxspeed":"30","profile":"car","distance":"16975.55","time":"12283.86"}},{"Shape":525,"Attributes":{"name":"Annie Romein-Verschoorlaan","maxspeed":"50","highway":"tertiary","profile":"car","distance":"17094.75","time":"12295.3"}},{"Shape":528,"Attributes":{"name":"Joke Smitlaan","maxspeed":"50","highway":"tertiary","profile":"car","distance":"17163.15","time":"12301.87"}},{"Shape":529,"Attributes":{"name":"Joke Smitlaan","maxspeed":"50","highway":"tertiary","profile":"car","distance":"17175.55","time":"12303.06"}},{"Shape":530,"Attributes":{"name":"Joke Smitlaan","maxspeed":"50","highway":"tertiary","profile":"car","distance":"17194.95","time":"12304.92"}},{"Shape":532,"Attributes":{"name":"Joke Smitlaan","maxspeed":"50","highway":"tertiary","profile":"car","distance":"17249.25","time":"12310.13"}},{"Shape":533,"Attributes":{"name":"Joke Smitlaan","maxspeed":"50","highway":"tertiary","profile":"car","distance":"17279.85","time":"12313.07"}},{"Shape":534,"Attributes":{"name":"Clara Visserstraat","highway":"residential","maxspeed":"30","profile":"car","distance":"17303.63","time":"12316.88"}},{"Shape":537,"Attributes":{"name":"Clara Visserstraat","highway":"residential","maxspeed":"30","profile":"car","distance":"17431.36","time":"12517.32"}},{"Shape":540,"Attributes":{"name":"Wilhelmina Bladergroenstraat","highway":"residential","maxspeed":"30","profile":"car","distance":"17475.15","time":"12524.32"}},{"Shape":541,"Attributes":{"name":"Wilhelmina Bladergroenstraat","highway":"residential","maxspeed":"30","profile":"car","distance":"17516.86","time":"12531"}},{"Shape":542,"Attributes":{"name":"Wilhelmina Bladergroenstraat","highway":"residential","maxspeed":"30","profile":"car","distance":"17518.45","time":"12531.25"}},{"Shape":544,"Attributes":{"name":"Wilhelmina Bladergroenstraat","highway":"residential","maxspeed":"30","profile":"car","distance":"17599.35","time":"12904.19"}},{"Shape":545,"Attributes":{"name":"Wilhelmina Bladergroenstraat","highway":"residential","maxspeed":"30","profile":"car","distance":"17640.85","time":"12910.83"}},{"Shape":547,"Attributes":{"name":"Wilhelmina Bladergroenstraat","highway":"residential","maxspeed":"30","profile":"car","distance":"17681.85","time":"12917.39"}},{"Shape":548,"Attributes":{"name":"Maria Rutgers-Hoitsemastraat","highway":"residential","maxspeed":"30","profile":"car","distance":"17686.2","time":"12918.09"}},{"Shape":549,"Attributes":{"name":"Maria Rutgers-Hoitsemastraat","highway":"residential","maxspeed":"30","profile":"car","distance":"17742.75","time":"13107.14"}},{"Shape":552,"Attributes":{"name":"Maria Rutgers-Hoitsemastraat","highway":"residential","maxspeed":"30","profile":"car","distance":"17803.04","time":"13116.78"}},{"Shape":553,"Attributes":{"name":"Maria Rutgers-Hoitsemastraat","highway":"residential","maxspeed":"30","profile":"car","distance":"17806.36","time":"13297.31"}},{"Shape":554,"Attributes":{"name":"Hélène Mercierstraat","highway":"residential","maxspeed":"30","profile":"car","distance":"17865.36","time":"13306.75"}},{"Shape":555,"Attributes":{"name":"Hélène Mercierstraat","highway":"residential","maxspeed":"30","profile":"car","distance":"17928.66","time":"13316.88"}},{"Shape":556,"Attributes":{"name":"Hélène Mercierstraat","highway":"residential","maxspeed":"30","profile":"car","distance":"17983.36","time":"13325.63"}},{"Shape":558,"Attributes":{"name":"Aletta Jacobsstraat","highway":"residential","maxspeed":"30","profile":"car","distance":"18006.36","time":"13329.31"}},{"Shape":560,"Attributes":{"name":"Aletta Jacobsstraat","highway":"residential","maxspeed":"30","profile":"car","distance":"18029.36","time":"13512.99"}},{"Shape":561,"Attributes":{"name":"Aletta Jacobsstraat","highway":"residential","maxspeed":"30","profile":"car","distance":"18091.46","time":"13522.93"}},{"Shape":562,"Attributes":{"name":"Aletta Jacobsstraat","highway":"residential","maxspeed":"30","profile":"car","distance":"18153.26","time":"13532.81"}},{"Shape":563,"Attributes":{"name":"Wilhelmina Bladergroenstraat","highway":"residential","maxspeed":"30","profile":"car","distance":"18207.56","time":"13541.5"}},{"Shape":564,"Attributes":{"name":"Catharina van Tussenbroekstraat","highway":"residential","maxspeed":"30","profile":"car","distance":"18258.42","time":"13549.64"}}],"Stops":[{"Shape":0,"Coordinates":[4.3567,51.838],"Attributes":{"index":"117","distance":"0","time":"0","cost_time":"180"}},{"Shape":50,"Coordinates":[4.3579,51.84365],"Attributes":{"index":"97","distance":"1809.52","time":"199.2255","cost_time":"180"}},{"Shape":54,"Coordinates":[4.355392,51.84453],"Attributes":{"index":"98","distance":"2005.802","time":"410.5908","cost_time":"180"}},{"Shape":59,"Coordinates":[4.353306,51.84566],"Attributes":{"index":"96","distance":"2222.685","time":"611.4116","cost_time":"180"}},{"Shape":77,"Coordinates":[4.353826,51.84376],"Attributes":{"index":"104","distance":"2930.079","time":"874.4957","cost_time":"180"}},{"Shape":82,"Coordinates":[4.3559,51.84351],"Attributes":{"index":"105","distance":"3149.819","time":"1089.654","cost_time":"180"}},{"Shape":86,"Coordinates":[4.355693,51.84278],"Attributes":{"index":"106","distance":"3263.767","time":"1287.886","cost_time":"180"}},{"Shape":86,"Coordinates":[4.355694,51.84275],"Attributes":{"index":"107","distance":"3263.767","time":"1467.886","cost_time":"180"}},{"Shape":124,"Coordinates":[4.349341,51.84015],"Attributes":{"index":"111","distance":"3991.879","time":"1844.078","cost_time":"180"}},{"Shape":152,"Coordinates":[4.3558,51.8385],"Attributes":{"index":"112","distance":"4759.81","time":"2199.422","cost_time":"180"}},{"Shape":155,"Coordinates":[4.3552,51.8374],"Attributes":{"index":"116","distance":"4891.23","time":"2400.449","cost_time":"180"}},{"Shape":164,"Coordinates":[4.3535,51.839],"Attributes":{"index":"115","distance":"5160.164","time":"2623.478","cost_time":"180"}},{"Shape":175,"Coordinates":[4.3535,51.8379],"Attributes":{"index":"113","distance":"5393.212","time":"2840.766","cost_time":"180"}},{"Shape":176,"Coordinates":[4.3534,51.8379],"Attributes":{"index":"114","distance":"5400.027","time":"3021.856","cost_time":"180"}},{"Shape":183,"Coordinates":[4.3527,51.8362],"Attributes":{"index":"132","distance":"5690.06","time":"3248.261","cost_time":"180"}},{"Shape":187,"Coordinates":[4.3546,51.8356],"Attributes":{"index":"131","distance":"5889.476","time":"3460.167","cost_time":"180"}},{"Shape":192,"Coordinates":[4.35533,51.83625],"Attributes":{"index":"133","distance":"6027.507","time":"3662.252","cost_time":"180"}},{"Shape":213,"Coordinates":[4.3565,51.8323],"Attributes":{"index":"126","distance":"6656.65","time":"3935.606","cost_time":"180"}},{"Shape":219,"Coordinates":[4.3582,51.8318],"Attributes":{"index":"127","distance":"6831.895","time":"4143.645","cost_time":"180"}},{"Shape":236,"Coordinates":[4.3541,51.8314],"Attributes":{"index":"128","distance":"7325.083","time":"4402.555","cost_time":"180"}},{"Shape":247,"Coordinates":[4.3536,51.8334],"Attributes":{"index":"129","distance":"7640.938","time":"4633.092","cost_time":"180"}},{"Shape":253,"Coordinates":[4.35483,51.83439],"Attributes":{"index":"130","distance":"7776.356","time":"4834.759","cost_time":"180"}},{"Shape":259,"Coordinates":[4.3565,51.8346],"Attributes":{"index":"134","distance":"7941.99","time":"5041.26","cost_time":"180"}},{"Shape":271,"Coordinates":[4.3593,51.834],"Attributes":{"index":"124","distance":"8189.11","time":"5252.409","cost_time":"180"}},{"Shape":275,"Coordinates":[4.3575,51.83281],"Attributes":{"index":"125","distance":"8437.56","time":"5472.161","cost_time":"180"}},{"Shape":293,"Coordinates":[4.36169,51.83494],"Attributes":{"index":"135","distance":"8952.548","time":"5719.101","cost_time":"180"}},{"Shape":308,"Coordinates":[4.3622,51.8361],"Attributes":{"index":"137","distance":"9293.694","time":"5931.851","cost_time":"180"}},{"Shape":315,"Coordinates":[4.36272,51.83775],"Attributes":{"index":"157","distance":"9494.024","time":"6138.355","cost_time":"180"}},{"Shape":322,"Coordinates":[4.3624,51.8378],"Attributes":{"index":"138","distance":"9724.563","time":"6355.241","cost_time":"180"}},{"Shape":324,"Coordinates":[4.362184,51.8364],"Attributes":{"index":"139","distance":"9880.44","time":"6560.182","cost_time":"180"}},{"Shape":338,"Coordinates":[4.3645,51.8389],"Attributes":{"index":"156","distance":"10263.84","time":"6801.526","cost_time":"180"}},{"Shape":342,"Coordinates":[4.3679,51.839],"Attributes":{"index":"155","distance":"10500.14","time":"7019.334","cost_time":"180"}},{"Shape":351,"Coordinates":[4.366,51.8376],"Attributes":{"index":"158","distance":"10952.29","time":"7271.679","cost_time":"180"}},{"Shape":355,"Coordinates":[4.3652,51.8366],"Attributes":{"index":"159","distance":"11114.37","time":"7477.612","cost_time":"180"}},{"Shape":361,"Coordinates":[4.3666,51.8359],"Attributes":{"index":"160","distance":"11333.17","time":"7692.62","cost_time":"180"}},{"Shape":368,"Coordinates":[4.3681,51.8348],"Attributes":{"index":"161","distance":"11504.52","time":"7900.037","cost_time":"180"}},{"Shape":382,"Coordinates":[4.3648,51.8346],"Attributes":{"index":"142","distance":"11946.01","time":"8150.675","cost_time":"180"}},{"Shape":390,"Coordinates":[4.3629,51.8352],"Attributes":{"index":"140","distance":"12241.56","time":"8377.962","cost_time":"180"}},{"Shape":395,"Coordinates":[4.3637,51.8356],"Attributes":{"index":"141","distance":"12353.21","time":"8575.826","cost_time":"180"}},{"Shape":407,"Coordinates":[4.362908,51.83392],"Attributes":{"index":"136","distance":"12679.78","time":"8795.405","cost_time":"180"}},{"Shape":433,"Coordinates":[4.36933,51.83347],"Attributes":{"index":"148","distance":"13471.98","time":"9058.483","cost_time":"180"}},{"Shape":436,"Coordinates":[4.3683,51.8325],"Attributes":{"index":"149","distance":"13610.15","time":"9260.59","cost_time":"180"}},{"Shape":447,"Coordinates":[4.3705,51.8359],"Attributes":{"index":"153","distance":"14068.84","time":"9500.042","cost_time":"180"}},{"Shape":452,"Coordinates":[4.3684,51.837],"Attributes":{"index":"154","distance":"14330.49","time":"9721.906","cost_time":"180"}},{"Shape":457,"Coordinates":[4.3699,51.8377],"Attributes":{"index":"151","distance":"14553.27","time":"9937.551","cost_time":"180"}},{"Shape":470,"Coordinates":[4.3725,51.8371],"Attributes":{"index":"164","distance":"14984.59","time":"10183.71","cost_time":"180"}},{"Shape":475,"Coordinates":[4.3713,51.8388],"Attributes":{"index":"163","distance":"15212.55","time":"10400.18","cost_time":"180"}},{"Shape":483,"Coordinates":[4.3702,51.8376],"Attributes":{"index":"162","distance":"15416.56","time":"10605.87","cost_time":"180"}},{"Shape":486,"Coordinates":[4.370707,51.83658],"Attributes":{"index":"152","distance":"15548.69","time":"10802.59","cost_time":"180"}},{"Shape":491,"Coordinates":[4.37083,51.83531],"Attributes":{"index":"150","distance":"15694.69","time":"11005.95","cost_time":"180"}},{"Shape":497,"Coordinates":[4.36964,51.83403],"Attributes":{"index":"147","distance":"15885.82","time":"11209.5","cost_time":"180"}},{"Shape":501,"Coordinates":[4.3678,51.8326],"Attributes":{"index":"146","distance":"16090.19","time":"11422.2","cost_time":"180"}},{"Shape":507,"Coordinates":[4.3676,51.8338],"Attributes":{"index":"145","distance":"16287.23","time":"11633.73","cost_time":"180"}},{"Shape":510,"Coordinates":[4.3661,51.8336],"Attributes":{"index":"144","distance":"16408.93","time":"11833.2","cost_time":"180"}},{"Shape":517,"Coordinates":[4.36365,51.83393],"Attributes":{"index":"143","distance":"16678.12","time":"12056.27","cost_time":"180"}},{"Shape":534,"Coordinates":[4.36006,51.83444],"Attributes":{"index":"123","distance":"17303.63","time":"12316.88","cost_time":"180"}},{"Shape":542,"Coordinates":[4.3588,51.8358],"Attributes":{"index":"122","distance":"17518.45","time":"12531.25","cost_time":"180"}},{"Shape":542,"Coordinates":[4.3588,51.8358],"Attributes":{"index":"121","distance":"17518.45","time":"12711.25","cost_time":"180"}},{"Shape":548,"Coordinates":[4.3576,51.8369],"Attributes":{"index":"120","distance":"17686.2","time":"12918.09","cost_time":"180"}},{"Shape":552,"Coordinates":[4.3593,51.8369],"Attributes":{"index":"119","distance":"17803.04","time":"13116.78","cost_time":"180"}},{"Shape":558,"Coordinates":[4.3595,51.8387],"Attributes":{"index":"118","distance":"18006.36","time":"13329.31","cost_time":"180"}},{"Shape":564,"Coordinates":[4.3567,51.838],"Attributes":{"index":"117","distance":"18258.42","time":"13549.64","cost_time":"180"}}],"Branches":[{"Shape":1,"Coordinates":[4.357479,51.83744],"Attributes":{"name":"Wilhelmina Bladergroenstraat","highway":"residential","maxspeed":"30"}},{"Shape":2,"Coordinates":[4.358305,51.83854],"Attributes":{"name":"Aletta Jacobsstraat","highway":"residential","maxspeed":"30"}},{"Shape":6,"Coordinates":[4.355865,51.83872],"Attributes":{"name":"Marga Klompéstraat","highway":"residential","maxspeed":"30"}},{"Shape":6,"Coordinates":[4.355722,51.83817],"Attributes":{"name":"Joke Smitlaan","maxspeed":"50","highway":"tertiary"}},{"Shape":7,"Coordinates":[4.356528,51.83948],"Attributes":{"name":"Joke Smitlaan","maxspeed":"50","highway":"tertiary","oneway":"yes"}},{"Shape":10,"Coordinates":[4.356627,51.8395],"Attributes":{"name":"Maaswijkweg","maxspeed":"50","highway":"tertiary","junction":"roundabout"}},{"Shape":12,"Coordinates":[4.35768,51.83932],"Attributes":{"name":"Maaswijkweg","maxspeed":"50","highway":"tertiary","oneway":"yes"}},{"Shape":15,"Coordinates":[4.358794,51.83924],"Attributes":{"name":"Maaswijkweg","maxspeed":"50","highway":"tertiary","oneway":"yes"}},{"Shape":21,"Coordinates":[4.356475,51.83973],"Attributes":{"name":"Maaswijkweg","maxspeed":"50","highway":"tertiary","junction":"roundabout"}},{"Shape":22,"Coordinates":[4.35493,51.84024],"Attributes":{"highway":"service"}},{"Shape":25,"Coordinates":[4.350117,51.84124],"Attributes":{"name":"Maaswijkweg","maxspeed":"50","highway":"tertiary","junction":"roundabout"}},{"Shape":28,"Coordinates":[4.35,51.84155],"Attributes":{"name":"Maaswijkweg","maxspeed":"50","highway":"tertiary","junction":"roundabout"}},{"Shape":31,"Coordinates":[4.350018,51.84171],"Attributes":{"name":"Rivierlaan","highway":"unclassified","maxspeed":"50","oneway":"yes"}},{"Shape":32,"Coordinates":[4.348724,51.84186],"Attributes":{"highway":"service"}},{"Shape":32,"Coordinates":[4.350286,51.84183],"Attributes":{"highway":"service"}},{"Shape":33,"Coordinates":[4.35025,51.84265],"Attributes":{"name":"Amazonestraat","highway":"residential"}},{"Shape":33,"Coordinates":[4.3505,51.84262],"Attributes":{"name":"Indusstraat","highway":"residential","maxspeed":"30"}},{"Shape":36,"Coordinates":[4.350658,51.8441],"Attributes":{"name":"Gangesstraat","highway":"unclassified"}},{"Shape":36,"Coordinates":[4.350013,51.8441],"Attributes":{"name":"Coloradostraat","highway":"residential"}},{"Shape":38,"Coordinates":[4.350654,51.84464],"Attributes":{"name":"Lenastraat","highway":"unclassified"}},{"Shape":38,"Coordinates":[4.350383,51.84464],"Attributes":{"name":"Missouristraat","highway":"unclassified"}},{"Shape":39,"Coordinates":[4.35039,51.8449],"Attributes":{"name":"Schiestraat","highway":"unclassified"}},{"Shape":39,"Coordinates":[4.350501,51.84563],"Attributes":{"name":"Rivierlaan","highway":"unclassified","maxspeed":"50"}},{"Shape":41,"Coordinates":[4.351521,51.84591],"Attributes":{"name":"Merwedestraat","highway":"unclassified"}},{"Shape":42,"Coordinates":[4.352463,51.84557],"Attributes":{"name":"Lingestraat","highway":"unclassified"}},{"Shape":44,"Coordinates":[4.35351,51.84552],"Attributes":{"name":"Waalstraat","highway":"unclassified"}},{"Shape":45,"Coordinates":[4.3538,51.8457],"Attributes":{"name":"Maasboulevard","highway":"unclassified"}},{"Shape":49,"Coordinates":[4.357975,51.84361],"Attributes":{"name":"Maasboulevard","highway":"unclassified","maxspeed":"30"}},{"Shape":49,"Coordinates":[4.358002,51.84385],"Attributes":{"highway":"residential"}},{"Shape":51,"Coordinates":[4.358002,51.84385],"Attributes":{"highway":"residential"}},{"Shape":53,"Coordinates":[4.3545,51.8447],"Attributes":{"name":"Maasboulevard","highway":"unclassified"}},{"Shape":56,"Coordinates":[4.3538,51.8457],"Attributes":{"name":"Maasboulevard","highway":"unclassified"}},{"Shape":57,"Coordinates":[4.353512,51.84501],"Attributes":{"name":"Lekstraat","highway":"unclassified"}},{"Shape":57,"Coordinates":[4.35351,51.84552],"Attributes":{"name":"Waalstraat","highway":"unclassified"}},{"Shape":62,"Coordinates":[4.350499,51.84662],"Attributes":{"name":"Rivierlaan","highway":"unclassified","maxspeed":"50"}},{"Shape":62,"Coordinates":[4.350371,51.84632],"Attributes":{"name":"Zaanstraat","highway":"residential"}},{"Shape":63,"Coordinates":[4.350027,51.84563],"Attributes":{"name":"Gouwestraat","highway":"unclassified"}},{"Shape":64,"Coordinates":[4.350674,51.8449],"Attributes":{"name":"Lekstraat","highway":"unclassified"}},{"Shape":64,"Coordinates":[4.35039,51.8449],"Attributes":{"name":"Schiestraat","highway":"unclassified"}},{"Shape":65,"Coordinates":[4.350654,51.84464],"Attributes":{"name":"Lenastraat","highway":"unclassified"}},{"Shape":65,"Coordinates":[4.350383,51.84464],"Attributes":{"name":"Missouristraat","highway":"unclassified"}},{"Shape":67,"Coordinates":[4.350013,51.8441],"Attributes":{"name":"Coloradostraat","highway":"residential"}},{"Shape":67,"Coordinates":[4.350522,51.84336],"Attributes":{"name":"Rivierlaan","highway":"unclassified","maxspeed":"50"}},{"Shape":70,"Coordinates":[4.351569,51.84381],"Attributes":{"name":"Eufraatstraat","highway":"residential"}},{"Shape":71,"Coordinates":[4.351997,51.84428],"Attributes":{"name":"Lenastraat","highway":"residential","maxspeed":"30"}},{"Shape":72,"Coordinates":[4.352435,51.8427],"Attributes":{"name":"Tigrisstraat","highway":"residential","maxspeed":"30"}},{"Shape":75,"Coordinates":[4.352939,51.84451],"Attributes":{"name":"Gangesstraat","highway":"residential","maxspeed":"30"}},{"Shape":75,"Coordinates":[4.354635,51.84359],"Attributes":{"name":"Mekongstraat","highway":"residential","maxspeed":"30"}},{"Shape":79,"Coordinates":[4.3553,51.84374],"Attributes":{"name":"Indusstraat","highway":"residential","maxspeed":"30"}},{"Shape":80,"Coordinates":[4.354433,51.84291],"Attributes":{"name":"Indusstraat","highway":"residential","maxspeed":"30"}},{"Shape":81,"Coordinates":[4.355895,51.84354],"Attributes":{"name":"Gambiastraat","highway":"residential","maxspeed":"30"}},{"Shape":81,"Coordinates":[4.3559,51.8429],"Attributes":{"name":"Zambezistraat","highway":"residential","maxspeed":"30"}},{"Shape":83,"Coordinates":[4.354899,51.84327],"Attributes":{"name":"Zambezistraat","highway":"residential","maxspeed":"30"}},{"Shape":84,"Coordinates":[4.355771,51.84275],"Attributes":{"name":"Kongostraat","highway":"residential","maxspeed":"30"}},{"Shape":84,"Coordinates":[4.356347,51.8434],"Attributes":{"name":"Kongostraat","highway":"residential","maxspeed":"30"}},{"Shape":87,"Coordinates":[4.356381,51.84263],"Attributes":{"name":"Nijlstraat","highway":"residential","maxspeed":"30"}},{"Shape":91,"Coordinates":[4.353421,51.84358],"Attributes":{"name":"Tamarstraat","highway":"residential","maxspeed":"30"}},{"Shape":91,"Coordinates":[4.354899,51.84327],"Attributes":{"name":"Indusstraat","highway":"residential","maxspeed":"30"}},{"Shape":93,"Coordinates":[4.352971,51.8434],"Attributes":{"name":"Jordaanstraat","highway":"residential","maxspeed":"30"}},{"Shape":95,"Coordinates":[4.352435,51.8427],"Attributes":{"name":"Tigrisstraat","highway":"residential","maxspeed":"30"}},{"Shape":97,"Coordinates":[4.351385,51.84277],"Attributes":{"name":"Eufraatstraat","highway":"residential"}},{"Shape":99,"Coordinates":[4.35025,51.84265],"Attributes":{"name":"Amazonestraat","highway":"residential"}},{"Shape":99,"Coordinates":[4.350522,51.84336],"Attributes":{"name":"Rivierlaan","highway":"unclassified","maxspeed":"50"}},{"Shape":100,"Coordinates":[4.348724,51.84186],"Attributes":{"highway":"service"}},{"Shape":100,"Coordinates":[4.350286,51.84183],"Attributes":{"highway":"service"}},{"Shape":101,"Coordinates":[4.350068,51.8416],"Attributes":{"highway":"unclassified","maxspeed":"50","oneway":"yes"}},{"Shape":104,"Coordinates":[4.35,51.84155],"Attributes":{"name":"Maaswijkweg","maxspeed":"50","highway":"tertiary","junction":"roundabout"}},{"Shape":106,"Coordinates":[4.349615,51.84154],"Attributes":{"name":"Maaswijkweg","maxspeed":"50","highway":"tertiary","oneway":"yes"}},{"Shape":110,"Coordinates":[4.348705,51.84158],"Attributes":{"name":"Maaswijkweg","maxspeed":"50","highway":"tertiary","oneway":"yes"}},{"Shape":113,"Coordinates":[4.349833,51.84121],"Attributes":{"name":"Maaswijkweg","maxspeed":"50","highway":"tertiary","junction":"roundabout"}},{"Shape":114,"Coordinates":[4.349949,51.8412],"Attributes":{"name":"Hürthstraat","highway":"unclassified","oneway":"yes"}},{"Shape":115,"Coordinates":[4.349835,51.84094],"Attributes":{"name":"Hürthstraat","highway":"living_street"}},{"Shape":116,"Coordinates":[4.349546,51.84083],"Attributes":{"name":"Thetfordstraat","highway":"living_street"}},{"Shape":118,"Coordinates":[4.349468,51.84029],"Attributes":{"name":"Hürthstraat","highway":"living_street"}},{"Shape":119,"Coordinates":[4.349247,51.84026],"Attributes":{"name":"Hürthstraat","highway":"living_street"}},{"Shape":130,"Coordinates":[4.349468,51.84029],"Attributes":{"name":"Hürthstraat","highway":"living_street"}},{"Shape":132,"Coordinates":[4.349546,51.84083],"Attributes":{"name":"Thetfordstraat","highway":"living_street"}},{"Shape":133,"Coordinates":[4.349835,51.84094],"Attributes":{"name":"Hürthstraat","highway":"living_street"}},{"Shape":134,"Coordinates":[4.349779,51.84123],"Attributes":{"highway":"unclassified","oneway":"yes"}},{"Shape":135,"Coordinates":[4.349833,51.84121],"Attributes":{"name":"Maaswijkweg","maxspeed":"50","highway":"tertiary","junction":"roundabout"}},{"Shape":137,"Coordinates":[4.350117,51.84124],"Attributes":{"name":"Maaswijkweg","maxspeed":"50","highway":"tertiary","junction":"roundabout"}},{"Shape":143,"Coordinates":[4.356475,51.83973],"Attributes":{"name":"Maaswijkweg","maxspeed":"50","highway":"tertiary","junction":"roundabout"}},{"Shape":146,"Coordinates":[4.356627,51.8395],"Attributes":{"name":"Maaswijkweg","maxspeed":"50","highway":"tertiary","junction":"roundabout"}},{"Shape":149,"Coordinates":[4.356225,51.83888],"Attributes":{"name":"Joke Smitlaan","maxspeed":"50","highway":"tertiary","oneway":"yes"}},{"Shape":150,"Coordinates":[4.356521,51.83856],"Attributes":{"name":"Aletta Jacobsstraat","highway":"residential","maxspeed":"30"}},{"Shape":150,"Coordinates":[4.355722,51.83817],"Attributes":{"name":"Joke Smitlaan","maxspeed":"50","highway":"tertiary"}},{"Shape":151,"Coordinates":[4.355413,51.83882],"Attributes":{"name":"Marga Klompéstraat","highway":"residential","maxspeed":"30"}},{"Shape":151,"Coordinates":[4.355442,51.83807],"Attributes":{"name":"Suze Groenewegstraat","highway":"residential","maxspeed":"30"}},{"Shape":153,"Coordinates":[4.355262,51.83775],"Attributes":{"name":"Suze Groenewegstraat","highway":"residential","maxspeed":"30"}},{"Shape":153,"Coordinates":[4.354567,51.83827],"Attributes":{"name":"Johanna Engwirda-Agricolastraat","highway":"residential","maxspeed":"30"}},{"Shape":157,"Coordinates":[4.355865,51.83872],"Attributes":{"name":"Suze Groenewegstraat","highway":"residential","maxspeed":"30"}},{"Shape":158,"Coordinates":[4.354358,51.83789],"Attributes":{"name":"Johanna Engwirda-Agricolastraat","highway":"residential","maxspeed":"30"}},{"Shape":158,"Coordinates":[4.354502,51.83861],"Attributes":{"name":"Johanna Engwirda-Agricolastraat","highway":"residential","maxspeed":"30"}},{"Shape":170,"Coordinates":[4.355442,51.83807],"Attributes":{"name":"Johanna Engwirda-Agricolastraat","highway":"residential","maxspeed":"30"}},{"Shape":173,"Coordinates":[4.354056,51.83848],"Attributes":{"name":"Liesbeth Ribbius Peletierpad","highway":"residential","maxspeed":"30"}},{"Shape":174,"Coordinates":[4.353249,51.83786],"Attributes":{"name":"Johanna Engwirda-Agricolastraat","highway":"residential","maxspeed":"30"}},{"Shape":174,"Coordinates":[4.353606,51.83847],"Attributes":{"name":"Anna de Waalpad","highway":"residential","maxspeed":"30"}},{"Shape":177,"Coordinates":[4.353225,51.83834],"Attributes":{"name":"Carry Pothuis-Smitstraat","highway":"residential","maxspeed":"30"}},{"Shape":177,"Coordinates":[4.352627,51.83785],"Attributes":{"name":"Truus Smulders-Beliënstraat","highway":"residential","maxspeed":"30"}},{"Shape":178,"Coordinates":[4.354631,51.83735],"Attributes":{"name":"Wilhelmina Hofman-Pootstraat","highway":"residential","maxspeed":"30"}},{"Shape":182,"Coordinates":[4.353416,51.83625],"Attributes":{"name":"Wilhelmina Druckerstraat","highway":"residential","maxspeed":"30"}},{"Shape":182,"Coordinates":[4.352559,51.83601],"Attributes":{"name":"Annette Versluys-Poelmanstraat","highway":"residential","maxspeed":"30"}},{"Shape":185,"Coordinates":[4.354723,51.8363],"Attributes":{"name":"Wilhelmina Druckerstraat","highway":"residential","maxspeed":"30"}},{"Shape":186,"Coordinates":[4.3546,51.8357],"Attributes":{"name":"Roosje Vosstraat","highway":"residential","maxspeed":"30"}},{"Shape":186,"Coordinates":[4.353442,51.83566],"Attributes":{"name":"Clara Wichmannstraat","highway":"residential","maxspeed":"30"}},{"Shape":186,"Coordinates":[4.3546,51.83545],"Attributes":{"name":"Roosje Vosstraat","highway":"residential","maxspeed":"30"}},{"Shape":188,"Coordinates":[4.3546,51.8357],"Attributes":{"name":"Roosje Vosstraat","highway":"residential","maxspeed":"30"}},{"Shape":188,"Coordinates":[4.353442,51.83566],"Attributes":{"name":"Clara Wichmannstraat","highway":"residential","maxspeed":"30"}},{"Shape":189,"Coordinates":[4.353416,51.83625],"Attributes":{"name":"Wilhelmina Druckerstraat","highway":"residential","maxspeed":"30"}},{"Shape":190,"Coordinates":[4.35471,51.83656],"Attributes":{"highway":"residential","maxspeed":"30"}},{"Shape":191,"Coordinates":[4.355383,51.83632],"Attributes":{"name":"Wilhelmina Druckerstraat","highway":"residential","maxspeed":"30"}},{"Shape":191,"Coordinates":[4.355661,51.83566],"Attributes":{"name":"Mina Krusemanstraat","highway":"residential","maxspeed":"30"}},{"Shape":195,"Coordinates":[4.355773,51.83496],"Attributes":{"name":"Maria Doorman-Kielstrastraat","highway":"residential","maxspeed":"30"}},{"Shape":196,"Coordinates":[4.356272,51.83529],"Attributes":{"name":"Maria Doorman-Kielstrastraat","highway":"residential","maxspeed":"30"}},{"Shape":196,"Coordinates":[4.355559,51.83603],"Attributes":{"name":"Joke Smitlaan","maxspeed":"50","highway":"tertiary","oneway":"yes"}},{"Shape":200,"Coordinates":[4.357471,51.83462],"Attributes":{"name":"Etty Hillesumstraat","highway":"residential","maxspeed":"30"}},{"Shape":200,"Coordinates":[4.35772,51.83448],"Attributes":{"name":"Joke Smitlaan","maxspeed":"50","highway":"tertiary","oneway":"yes"}},{"Shape":201,"Coordinates":[4.358588,51.83418],"Attributes":{"name":"Mies van Oort-Laustraat","highway":"residential","maxspeed":"30"}},{"Shape":202,"Coordinates":[4.356722,51.83442],"Attributes":{"highway":"residential","maxspeed":"30"}},{"Shape":203,"Coordinates":[4.355572,51.83396],"Attributes":{"name":"Hannie Schaftstraat","highway":"residential","maxspeed":"30"}},{"Shape":204,"Coordinates":[4.35673,51.83325],"Attributes":{"name":"Hannie Schaftstraat","highway":"residential","maxspeed":"30"}},{"Shape":205,"Coordinates":[4.355028,51.83327],"Attributes":{"highway":"residential","maxspeed":"30"}},{"Shape":206,"Coordinates":[4.354982,51.83286],"Attributes":{"name":"Etty Hillesumstraat","highway":"residential","maxspeed":"30"}},{"Shape":206,"Coordinates":[4.355162,51.83287],"Attributes":{"name":"Mien Sneevliet-Draaijerstraat","highway":"residential","maxspeed":"30","oneway":"yes"}},{"Shape":208,"Coordinates":[4.355034,51.83205],"Attributes":{"name":"Mia van der Wall-Duyvendakstraat","highway":"residential","maxspeed":"30"}},{"Shape":208,"Coordinates":[4.355743,51.83256],"Attributes":{"name":"Mia van der Wall-Duyvendakstraat","highway":"residential","maxspeed":"30"}},{"Shape":210,"Coordinates":[4.358144,51.83232],"Attributes":{"name":"Petronella Brugsmastraat","highway":"residential","maxspeed":"30"}},{"Shape":210,"Coordinates":[4.356006,51.83215],"Attributes":{"name":"Petronella Brugsmastraat","highway":"residential","maxspeed":"30"}},{"Shape":210,"Coordinates":[4.356112,51.83237],"Attributes":{"name":"Mien Sneevliet-Draaijerstraat","highway":"residential","maxspeed":"30","oneway":"yes"}},{"Shape":227,"Coordinates":[4.356006,51.83215],"Attributes":{"name":"Petronella Brugsmastraat","highway":"residential","maxspeed":"30"}},{"Shape":227,"Coordinates":[4.35604,51.83231],"Attributes":{"name":"Mien Sneevliet-Draaijerstraat","highway":"residential","maxspeed":"30","oneway":"yes"}},{"Shape":229,"Coordinates":[4.355672,51.83251],"Attributes":{"name":"Mia van der Wall-Duyvendakstraat","highway":"residential","maxspeed":"30"}},{"Shape":229,"Coordinates":[4.35673,51.83325],"Attributes":{"name":"Jacoba Pulskensstraat","highway":"residential","maxspeed":"30"}},{"Shape":231,"Coordinates":[4.355329,51.8331],"Attributes":{"name":"Etty Hillesumstraat","highway":"residential","maxspeed":"30"}},{"Shape":231,"Coordinates":[4.355093,51.83282],"Attributes":{"name":"Mien Sneevliet-Draaijerstraat","highway":"residential","maxspeed":"30","oneway":"yes"}},{"Shape":232,"Coordinates":[4.354129,51.83141],"Attributes":{"name":"Etty Hillesumstraat","highway":"residential","maxspeed":"30"}},{"Shape":232,"Coordinates":[4.354767,51.83298],"Attributes":{"name":"Mien Sneevliet-Draaijerstraat","highway":"residential","maxspeed":"30"}},{"Shape":240,"Coordinates":[4.355031,51.83289],"Attributes":{"name":"Etty Hillesumstraat","highway":"residential","maxspeed":"30"}},{"Shape":245,"Coordinates":[4.354132,51.83377],"Attributes":{"name":"Maria Doorman-Kielstrastraat","highway":"residential","maxspeed":"30"}},{"Shape":245,"Coordinates":[4.353489,51.83369],"Attributes":{"name":"Johanna Naberstraat","highway":"residential","maxspeed":"30"}},{"Shape":245,"Coordinates":[4.353667,51.83348],"Attributes":{"name":"Willemijn Posthumusstraat","highway":"residential","maxspeed":"30"}},{"Shape":249,"Coordinates":[4.353489,51.83369],"Attributes":{"name":"Johanna Naberstraat","highway":"residential","maxspeed":"30"}},{"Shape":249,"Coordinates":[4.354767,51.83298],"Attributes":{"name":"Mien Sneevliet-Draaijerstraat","highway":"residential","maxspeed":"30"}},{"Shape":250,"Coordinates":[4.355028,51.83327],"Attributes":{"highway":"residential","maxspeed":"30"}},{"Shape":252,"Coordinates":[4.353589,51.83436],"Attributes":{"name":"Annette Versluys-Poelmanstraat","highway":"residential","maxspeed":"30"}},{"Shape":252,"Coordinates":[4.35489,51.83435],"Attributes":{"name":"Maria Doorman-Kielstrastraat","highway":"residential","maxspeed":"30"}},{"Shape":255,"Coordinates":[4.354878,51.83525],"Attributes":{"name":"Roosje Vosstraat","highway":"residential","maxspeed":"30"}},{"Shape":256,"Coordinates":[4.356078,51.83521],"Attributes":{"name":"Maria Doorman-Kielstrastraat","highway":"residential","maxspeed":"30"}},{"Shape":256,"Coordinates":[4.356722,51.83442],"Attributes":{"highway":"residential","maxspeed":"30"}},{"Shape":262,"Coordinates":[4.356118,51.83365],"Attributes":{"name":"Etty Hillesumstraat","highway":"residential","maxspeed":"30"}},{"Shape":263,"Coordinates":[4.358588,51.83418],"Attributes":{"name":"Mies van Oort-Laustraat","highway":"residential","maxspeed":"30"}},{"Shape":264,"Coordinates":[4.357471,51.83462],"Attributes":{"name":"Etty Hillesumstraat","highway":"residential","maxspeed":"30"}},{"Shape":264,"Coordinates":[4.356462,51.83506],"Attributes":{"name":"Joke Smitlaan","maxspeed":"50","highway":"tertiary","oneway":"yes"}},{"Shape":266,"Coordinates":[4.358017,51.83445],"Attributes":{"name":"Joke Smitlaan","maxspeed":"50","highway":"tertiary","oneway":"yes"}},{"Shape":269,"Coordinates":[4.359355,51.83421],"Attributes":{"name":"Joke Smitlaan","maxspeed":"50","highway":"tertiary"}},{"Shape":270,"Coordinates":[4.3593,51.8334],"Attributes":{"name":"Anne Frankstraat","highway":"residential","maxspeed":"30"}},{"Shape":270,"Coordinates":[4.358588,51.83418],"Attributes":{"name":"Mies van Oort-Laustraat","highway":"residential","maxspeed":"30"}},{"Shape":273,"Coordinates":[4.359152,51.83241],"Attributes":{"name":"Anne Frankstraat","highway":"residential","maxspeed":"30"}},{"Shape":274,"Coordinates":[4.357482,51.83284],"Attributes":{"name":"Hannie Schaftstraat","highway":"residential","maxspeed":"30"}},{"Shape":274,"Coordinates":[4.358418,51.83335],"Attributes":{"name":"Trix Terwindtstraat","highway":"residential","maxspeed":"30"}},{"Shape":276,"Coordinates":[4.358418,51.83335],"Attributes":{"name":"Trix Terwindtstraat","highway":"residential","maxspeed":"30"}},{"Shape":277,"Coordinates":[4.359152,51.83241],"Attributes":{"name":"Anne Frankstraat","highway":"residential","maxspeed":"30"}},{"Shape":279,"Coordinates":[4.358588,51.83418],"Attributes":{"name":"Mies van Oort-Laustraat","highway":"residential","maxspeed":"30"}},{"Shape":280,"Coordinates":[4.358867,51.83425],"Attributes":{"name":"Joke Smitlaan","maxspeed":"50","highway":"tertiary"}},{"Shape":282,"Coordinates":[4.359956,51.83451],"Attributes":{"name":"Clara Visserstraat","highway":"residential","maxspeed":"30"}},{"Shape":283,"Coordinates":[4.36026,51.83197],"Attributes":{"name":"Drogendijk","highway":"unclassified","maxspeed":"30"}},{"Shape":283,"Coordinates":[4.360504,51.83558],"Attributes":{"name":"Drogendijk","highway":"unclassified","maxspeed":"30"}},{"Shape":285,"Coordinates":[4.361255,51.83418],"Attributes":{"name":"Hadewychplaats","highway":"service"}},{"Shape":286,"Coordinates":[4.361663,51.83434],"Attributes":{"name":"Joke Smitlaan","maxspeed":"50","highway":"tertiary"}},{"Shape":287,"Coordinates":[4.361462,51.83443],"Attributes":{"name":"Margaretha Roosenboomstraat","highway":"residential","maxspeed":"30"}},{"Shape":291,"Coordinates":[4.361384,51.83525],"Attributes":{"name":"Margaretha Roosenboomstraat","highway":"residential"}},{"Shape":292,"Coordinates":[4.361636,51.83525],"Attributes":{"name":"Margaretha Roosenboomstraat","highway":"residential"}},{"Shape":295,"Coordinates":[4.361384,51.83525],"Attributes":{"name":"Margaretha Roosenboomstraat","highway":"residential"}},{"Shape":299,"Coordinates":[4.361462,51.83443],"Attributes":{"name":"Margaretha Roosenboomstraat","highway":"residential","maxspeed":"30"}},{"Shape":300,"Coordinates":[4.361216,51.83426],"Attributes":{"name":"Joke Smitlaan","maxspeed":"50","highway":"tertiary"}},{"Shape":304,"Coordinates":[4.362716,51.8344],"Attributes":{"name":"Annie Romein-Verschoorlaan","maxspeed":"50","highway":"tertiary"}},{"Shape":307,"Coordinates":[4.362383,51.8356],"Attributes":{"name":"Sientje Mesdag-van Houtenstraat","highway":"residential","maxspeed":"30"}},{"Shape":307,"Coordinates":[4.362,51.83559],"Attributes":{"name":"Marie van Regteren Altenastraat","highway":"residential","maxspeed":"30"}},{"Shape":307,"Coordinates":[4.362269,51.83624],"Attributes":{"name":"Annie Romein-Verschoorlaan","maxspeed":"50","highway":"tertiary"}},{"Shape":310,"Coordinates":[4.362199,51.83688],"Attributes":{"name":"Mimi Boesnachstraat","highway":"residential","maxspeed":"30"}},{"Shape":310,"Coordinates":[4.362519,51.83747],"Attributes":{"name":"Annie Romein-Verschoorlaan","maxspeed":"50","highway":"tertiary"}},{"Shape":311,"Coordinates":[4.363842,51.83675],"Attributes":{"name":"Theo Mann-Bouwmeesterstraat","highway":"residential","maxspeed":"30"}},{"Shape":311,"Coordinates":[4.362459,51.83624],"Attributes":{"name":"Lizzy Ansinghstraat","highway":"residential","maxspeed":"30"}},{"Shape":312,"Coordinates":[4.363731,51.83709],"Attributes":{"name":"Magda Janssenstraat","highway":"residential","maxspeed":"30","oneway":"yes"}},{"Shape":313,"Coordinates":[4.363787,51.83738],"Attributes":{"name":"Fie Carelsenstraat","highway":"residential","maxspeed":"30","oneway":"yes"}},{"Shape":314,"Coordinates":[4.362813,51.83805],"Attributes":{"name":"Maria Kleine-Gartmanstraat","highway":"residential","maxspeed":"30"}},{"Shape":314,"Coordinates":[4.363823,51.83765],"Attributes":{"name":"Annie van Eesstraat","highway":"residential","maxspeed":"30","oneway":"yes"}},{"Shape":316,"Coordinates":[4.363823,51.83765],"Attributes":{"name":"Annie van Eesstraat","highway":"residential","maxspeed":"30","oneway":"yes"}},{"Shape":317,"Coordinates":[4.363787,51.83738],"Attributes":{"name":"Fie Carelsenstraat","highway":"residential","maxspeed":"30","oneway":"yes"}},{"Shape":318,"Coordinates":[4.363731,51.83709],"Attributes":{"name":"Magda Janssenstraat","highway":"residential","maxspeed":"30","oneway":"yes"}},{"Shape":319,"Coordinates":[4.363842,51.83675],"Attributes":{"name":"Theo Mann-Bouwmeesterstraat","highway":"residential","maxspeed":"30"}},{"Shape":319,"Coordinates":[4.362459,51.83624],"Attributes":{"name":"Lizzy Ansinghstraat","highway":"residential","maxspeed":"30"}},{"Shape":320,"Coordinates":[4.362269,51.83624],"Attributes":{"name":"Annie Romein-Verschoorlaan","maxspeed":"50","highway":"tertiary"}},{"Shape":320,"Coordinates":[4.362519,51.83747],"Attributes":{"name":"Annie Romein-Verschoorlaan","maxspeed":"50","highway":"tertiary"}},{"Shape":321,"Coordinates":[4.362408,51.83788],"Attributes":{"name":"Ida Wassermanstraat","highway":"residential","maxspeed":"30"}},{"Shape":321,"Coordinates":[4.361285,51.83695],"Attributes":{"name":"Mimi Boesnachstraat","highway":"residential","maxspeed":"30"}},{"Shape":321,"Coordinates":[4.36209,51.83628],"Attributes":{"name":"Margaretha Roosenboomstraat","highway":"residential","maxspeed":"30"}},{"Shape":323,"Coordinates":[4.361285,51.83695],"Attributes":{"name":"Mimi Boesnachstraat","highway":"residential","maxspeed":"30"}},{"Shape":323,"Coordinates":[4.362395,51.83686],"Attributes":{"name":"Mimi Boesnachstraat","highway":"residential","maxspeed":"30"}},{"Shape":323,"Coordinates":[4.36209,51.83628],"Attributes":{"name":"Margaretha Roosenboomstraat","highway":"residential","maxspeed":"30"}},{"Shape":325,"Coordinates":[4.362408,51.83788],"Attributes":{"name":"Ida Wassermanstraat","highway":"residential","maxspeed":"30"}},{"Shape":325,"Coordinates":[4.361285,51.83695],"Attributes":{"name":"Mimi Boesnachstraat","highway":"residential","maxspeed":"30"}},{"Shape":326,"Coordinates":[4.362269,51.83624],"Attributes":{"name":"Annie Romein-Verschoorlaan","maxspeed":"50","highway":"tertiary"}},{"Shape":326,"Coordinates":[4.362519,51.83747],"Attributes":{"name":"Annie Romein-Verschoorlaan","maxspeed":"50","highway":"tertiary"}},{"Shape":327,"Coordinates":[4.363842,51.83675],"Attributes":{"name":"Theo Mann-Bouwmeesterstraat","highway":"residential","maxspeed":"30"}},{"Shape":327,"Coordinates":[4.362459,51.83624],"Attributes":{"name":"Lizzy Ansinghstraat","highway":"residential","maxspeed":"30"}},{"Shape":328,"Coordinates":[4.363731,51.83709],"Attributes":{"name":"Magda Janssenstraat","highway":"residential","maxspeed":"30","oneway":"yes"}},{"Shape":329,"Coordinates":[4.363787,51.83738],"Attributes":{"name":"Fie Carelsenstraat","highway":"residential","maxspeed":"30","oneway":"yes"}},{"Shape":330,"Coordinates":[4.363823,51.83765],"Attributes":{"name":"Annie van Eesstraat","highway":"residential","maxspeed":"30","oneway":"yes"}},{"Shape":331,"Coordinates":[4.363896,51.83796],"Attributes":{"name":"Charlotte Köhlerstraat","highway":"residential","maxspeed":"30","oneway":"yes"}},{"Shape":332,"Coordinates":[4.363446,51.83828],"Attributes":{"name":"Fien de la Marstraat","highway":"residential","maxspeed":"30"}},{"Shape":337,"Coordinates":[4.364714,51.83876],"Attributes":{"name":"Maria Kleine-Gartmanstraat","highway":"residential","maxspeed":"30"}},{"Shape":337,"Coordinates":[4.363836,51.83839],"Attributes":{"name":"Fien de la Marstraat","highway":"residential","maxspeed":"30"}},{"Shape":339,"Coordinates":[4.364704,51.83848],"Attributes":{"name":"Esther de Boer-van Rijkstraat","highway":"residential","maxspeed":"30"}},{"Shape":339,"Coordinates":[4.36481,51.83882],"Attributes":{"name":"Maria Kleine-Gartmanstraat","highway":"residential","maxspeed":"30"}},{"Shape":345,"Coordinates":[4.363814,51.83873],"Attributes":{"name":"Maria Kleine-Gartmanstraat","highway":"residential","maxspeed":"30"}},{"Shape":346,"Coordinates":[4.365851,51.83851],"Attributes":{"name":"Vera Bondamstraat","highway":"residential","maxspeed":"30"}},{"Shape":347,"Coordinates":[4.36574,51.83821],"Attributes":{"name":"Else Mauhsstraat","highway":"residential","maxspeed":"30"}},{"Shape":348,"Coordinates":[4.364458,51.83731],"Attributes":{"name":"Esther de Boer-van Rijkstraat","highway":"residential","maxspeed":"30"}},{"Shape":349,"Coordinates":[4.365455,51.83734],"Attributes":{"name":"Ronnie Biermanstraat","highway":"residential","maxspeed":"30"}},{"Shape":350,"Coordinates":[4.365883,51.83719],"Attributes":{"name":"Corrie Vonkplantsoen","highway":"residential","maxspeed":"30"}},{"Shape":350,"Coordinates":[4.365971,51.83768],"Attributes":{"name":"Corrie Vonkplantsoen","highway":"residential","maxspeed":"30"}},{"Shape":353,"Coordinates":[4.36585,51.83667],"Attributes":{"name":"Theo Mann-Bouwmeesterstraat","highway":"residential","maxspeed":"30"}},{"Shape":354,"Coordinates":[4.364371,51.83671],"Attributes":{"name":"Theo Mann-Bouwmeesterstraat","highway":"residential","maxspeed":"30"}},{"Shape":354,"Coordinates":[4.365098,51.83566],"Attributes":{"name":"Suze Robertsonstraat","highway":"residential","maxspeed":"30"}},{"Shape":356,"Coordinates":[4.364598,51.83564],"Attributes":{"name":"Sientje Mesdag-van Houtenstraat","highway":"residential","maxspeed":"30"}},{"Shape":357,"Coordinates":[4.365564,51.83504],"Attributes":{"name":"Emmy Belinfantestraat","highway":"residential","maxspeed":"30"}},{"Shape":360,"Coordinates":[4.366899,51.83581],"Attributes":{"name":"Sientje Mesdag-van Houtenstraat","highway":"residential","maxspeed":"30"}},{"Shape":364,"Coordinates":[4.367727,51.83575],"Attributes":{"name":"Sientje Mesdag-van Houtenstraat","highway":"residential","maxspeed":"30"}},{"Shape":364,"Coordinates":[4.367445,51.83514],"Attributes":{"name":"Martina Kramersstraat","highway":"residential","maxspeed":"30"}},{"Shape":372,"Coordinates":[4.367727,51.83575],"Attributes":{"name":"Sientje Mesdag-van Houtenstraat","highway":"residential","maxspeed":"30"}},{"Shape":378,"Coordinates":[4.365564,51.83504],"Attributes":{"name":"Emmy Belinfantestraat","highway":"residential","maxspeed":"30"}},{"Shape":379,"Coordinates":[4.36506,51.8367],"Attributes":{"name":"Suze Robertsonstraat","highway":"residential","maxspeed":"30"}},{"Shape":380,"Coordinates":[4.363756,51.83563],"Attributes":{"name":"Sientje Mesdag-van Houtenstraat","highway":"residential","maxspeed":"30"}},{"Shape":380,"Coordinates":[4.3645,51.8348],"Attributes":{"name":"Harriët Freezerstraat","highway":"residential","maxspeed":"30"}},{"Shape":384,"Coordinates":[4.365098,51.83566],"Attributes":{"name":"Sientje Mesdag-van Houtenstraat","highway":"residential","maxspeed":"30"}},{"Shape":385,"Coordinates":[4.36375,51.83378],"Attributes":{"name":"Henriëtte van der Meijstraat","highway":"residential","maxspeed":"30"}},{"Shape":386,"Coordinates":[4.362383,51.8356],"Attributes":{"name":"Sientje Mesdag-van Houtenstraat","highway":"residential","maxspeed":"30"}},{"Shape":387,"Coordinates":[4.362867,51.83527],"Attributes":{"name":"Lizzy Ansinghstraat","highway":"unclassified","maxspeed":"30"}},{"Shape":388,"Coordinates":[4.362886,51.83512],"Attributes":{"name":"Lizzy Ansinghstraat","highway":"unclassified","maxspeed":"30"}},{"Shape":393,"Coordinates":[4.362867,51.83527],"Attributes":{"name":"Lizzy Ansinghstraat","highway":"unclassified","maxspeed":"30"}},{"Shape":394,"Coordinates":[4.362383,51.8356],"Attributes":{"name":"Sientje Mesdag-van Houtenstraat","highway":"residential","maxspeed":"30"}},{"Shape":394,"Coordinates":[4.363756,51.83563],"Attributes":{"name":"Sientje Mesdag-van Houtenstraat","highway":"residential","maxspeed":"30"}},{"Shape":396,"Coordinates":[4.363294,51.83529],"Attributes":{"name":"Lizzy Ansinghstraat","highway":"unclassified","maxspeed":"30"}},{"Shape":397,"Coordinates":[4.362482,51.83507],"Attributes":{"name":"Lizzy Ansinghstraat","highway":"residential","maxspeed":"30"}},{"Shape":397,"Coordinates":[4.362459,51.83624],"Attributes":{"name":"Lizzy Ansinghstraat","highway":"residential","maxspeed":"30"}},{"Shape":398,"Coordinates":[4.362,51.83559],"Attributes":{"name":"Marie van Regteren Altenastraat","highway":"residential","maxspeed":"30"}},{"Shape":398,"Coordinates":[4.362269,51.83624],"Attributes":{"name":"Annie Romein-Verschoorlaan","maxspeed":"50","highway":"tertiary"}},{"Shape":401,"Coordinates":[4.362263,51.83449],"Attributes":{"name":"Joke Smitlaan","maxspeed":"50","highway":"tertiary"}},{"Shape":404,"Coordinates":[4.363766,51.83361],"Attributes":{"name":"Annie Romein-Verschoorlaan","maxspeed":"50","highway":"tertiary"}},{"Shape":406,"Coordinates":[4.362726,51.83382],"Attributes":{"name":"Ida Gerhardtplein","highway":"service"}},{"Shape":406,"Coordinates":[4.363036,51.83369],"Attributes":{"name":"Ida Gerhardtplein","highway":"service"}},{"Shape":408,"Coordinates":[4.363036,51.83369],"Attributes":{"name":"Ida Gerhardtplein","highway":"service"}},{"Shape":410,"Coordinates":[4.362961,51.83414],"Attributes":{"name":"Annie Romein-Verschoorlaan","maxspeed":"50","highway":"tertiary"}},{"Shape":413,"Coordinates":[4.364963,51.83293],"Attributes":{"name":"Beylshoflaan","highway":"residential","maxspeed":"30"}},{"Shape":414,"Coordinates":[4.365628,51.83289],"Attributes":{"name":"Marie van Zeggelenstraat","highway":"residential","maxspeed":"30"}},{"Shape":416,"Coordinates":[4.367243,51.83209],"Attributes":{"name":"Annie Romein-Verschoorlaan","maxspeed":"50","highway":"tertiary","oneway":"yes","junction":"roundabout"}},{"Shape":423,"Coordinates":[4.367531,51.83181],"Attributes":{"name":"Annie Romein-Verschoorlaan","maxspeed":"50","highway":"tertiary"}},{"Shape":427,"Coordinates":[4.367243,51.83209],"Attributes":{"name":"Annie Romein-Verschoorlaan","maxspeed":"50","highway":"tertiary","oneway":"yes","junction":"roundabout"}},{"Shape":430,"Coordinates":[4.369626,51.83411],"Attributes":{"name":"Belle van Zuylenstraat","highway":"residential","maxspeed":"30"}},{"Shape":430,"Coordinates":[4.370261,51.83447],"Attributes":{"name":"Geertruida Bosboom-Toussaintlaan","maxspeed":"50","highway":"tertiary"}},{"Shape":431,"Coordinates":[4.37044,51.83441],"Attributes":{"name":"Else van der Banstraat","highway":"residential","maxspeed":"30"}},{"Shape":431,"Coordinates":[4.370699,51.83359],"Attributes":{"name":"Belle van Zuylenstraat","highway":"residential","maxspeed":"30"}},{"Shape":432,"Coordinates":[4.368838,51.83305],"Attributes":{"name":"Else van der Banstraat","highway":"residential","maxspeed":"30"}},{"Shape":432,"Coordinates":[4.369666,51.83346],"Attributes":{"name":"Clare Lennartstraat","highway":"residential","maxspeed":"30"}},{"Shape":434,"Coordinates":[4.369786,51.8326],"Attributes":{"name":"Jeanne van Schaik-Willingstraat","highway":"residential","maxspeed":"30"}},{"Shape":435,"Coordinates":[4.367612,51.83207],"Attributes":{"name":"Else van der Banstraat","highway":"residential","maxspeed":"30"}},{"Shape":435,"Coordinates":[4.368486,51.83239],"Attributes":{"name":"Hélène Swarthstraat","highway":"residential","maxspeed":"30"}},{"Shape":437,"Coordinates":[4.367612,51.83207],"Attributes":{"name":"Else van der Banstraat","highway":"residential","maxspeed":"30"}},{"Shape":438,"Coordinates":[4.369786,51.8326],"Attributes":{"name":"Jeanne van Schaik-Willingstraat","highway":"residential","maxspeed":"30"}},{"Shape":439,"Coordinates":[4.369666,51.83346],"Attributes":{"name":"Clare Lennartstraat","highway":"residential","maxspeed":"30"}},{"Shape":440,"Coordinates":[4.37044,51.83441],"Attributes":{"name":"Else van der Banstraat","highway":"residential","maxspeed":"30"}},{"Shape":440,"Coordinates":[4.370699,51.83359],"Attributes":{"name":"Belle van Zuylenstraat","highway":"residential","maxspeed":"30"}},{"Shape":441,"Coordinates":[4.369626,51.83411],"Attributes":{"name":"Belle van Zuylenstraat","highway":"residential","maxspeed":"30"}},{"Shape":441,"Coordinates":[4.367404,51.83212],"Attributes":{"name":"Geertruida Bosboom-Toussaintlaan","maxspeed":"50","highway":"tertiary"}},{"Shape":443,"Coordinates":[4.370315,51.83495],"Attributes":{"name":"Truus Schröderstraat","highway":"unclassified","maxspeed":"30"}},{"Shape":443,"Coordinates":[4.370724,51.83487],"Attributes":{"name":"Truus Schröderstraat","highway":"unclassified","maxspeed":"30"}},{"Shape":445,"Coordinates":[4.370903,51.83588],"Attributes":{"name":"Sientje Mesdag-van Houtenstraat","highway":"residential","maxspeed":"30"}},{"Shape":445,"Coordinates":[4.370606,51.8362],"Attributes":{"name":"Geertruida Bosboom-Toussaintlaan","maxspeed":"50","highway":"tertiary"}},{"Shape":446,"Coordinates":[4.370476,51.83536],"Attributes":{"name":"Beb Vuykstraat","highway":"residential","maxspeed":"30"}},{"Shape":446,"Coordinates":[4.370326,51.83643],"Attributes":{"name":"Beb Vuykstraat","highway":"residential","maxspeed":"30"}},{"Shape":446,"Coordinates":[4.368702,51.83578],"Attributes":{"name":"Sientje Mesdag-van Houtenstraat","highway":"residential","maxspeed":"30"}},{"Shape":448,"Coordinates":[4.369906,51.8364],"Attributes":{"name":"Catharina van Renneshof","highway":"residential","maxspeed":"30"}},{"Shape":449,"Coordinates":[4.370038,51.8376],"Attributes":{"name":"Beb Vuykstraat","highway":"residential","maxspeed":"30"}},{"Shape":449,"Coordinates":[4.3704,51.837],"Attributes":{"name":"Theo Mann-Bouwmeesterstraat","highway":"residential","maxspeed":"30"}},{"Shape":451,"Coordinates":[4.368241,51.83746],"Attributes":{"name":"Top Naeffstraat","highway":"residential","maxspeed":"30"}},{"Shape":451,"Coordinates":[4.367617,51.8368],"Attributes":{"name":"Theo Mann-Bouwmeesterstraat","highway":"residential","maxspeed":"30"}},{"Shape":453,"Coordinates":[4.367617,51.8368],"Attributes":{"name":"Theo Mann-Bouwmeesterstraat","highway":"residential","maxspeed":"30"}},{"Shape":455,"Coordinates":[4.370326,51.83643],"Attributes":{"name":"Beb Vuykstraat","highway":"residential","maxspeed":"30"}},{"Shape":455,"Coordinates":[4.3704,51.837],"Attributes":{"name":"Theo Mann-Bouwmeesterstraat","highway":"residential","maxspeed":"30"}},{"Shape":456,"Coordinates":[4.369893,51.83816],"Attributes":{"name":"Beb Vuykstraat","highway":"residential","maxspeed":"30"}},{"Shape":456,"Coordinates":[4.369532,51.83755],"Attributes":{"name":"Maria Dermoûtstraat","highway":"residential","maxspeed":"30"}},{"Shape":458,"Coordinates":[4.368901,51.83807],"Attributes":{"name":"Maria Tesselschadestraat","highway":"residential","maxspeed":"30"}},{"Shape":459,"Coordinates":[4.370308,51.83821],"Attributes":{"name":"Maria Tesselschadestraat","highway":"residential","maxspeed":"30"}},{"Shape":459,"Coordinates":[4.3704,51.837],"Attributes":{"name":"Geertruida Bosboom-Toussaintlaan","maxspeed":"50","highway":"tertiary"}},{"Shape":460,"Coordinates":[4.369864,51.83901],"Attributes":{"name":"Geertruida Bosboom-Toussaintlaan","maxspeed":"50","highway":"tertiary"}},{"Shape":460,"Coordinates":[4.369776,51.83852],"Attributes":{"name":"Maria Kleine-Gartmanstraat","highway":"residential","maxspeed":"30"}},{"Shape":462,"Coordinates":[4.37021,51.83849],"Attributes":{"name":"Henriëtte Roland Holststraat","highway":"residential","maxspeed":"30"}},{"Shape":468,"Coordinates":[4.372942,51.83545],"Attributes":{"name":"Lange Groeneweg","highway":"residential","maxspeed":"30"}},{"Shape":472,"Coordinates":[4.370436,51.83859],"Attributes":{"name":"Henriëtte Roland Holststraat","highway":"residential","maxspeed":"30"}},{"Shape":479,"Coordinates":[4.37021,51.83849],"Attributes":{"name":"Henriëtte Roland Holststraat","highway":"residential","maxspeed":"30"}},{"Shape":481,"Coordinates":[4.369864,51.83901],"Attributes":{"name":"Geertruida Bosboom-Toussaintlaan","maxspeed":"50","highway":"tertiary"}},{"Shape":481,"Coordinates":[4.369776,51.83852],"Attributes":{"name":"Maria Kleine-Gartmanstraat","highway":"residential","maxspeed":"30"}},{"Shape":482,"Coordinates":[4.369893,51.83816],"Attributes":{"name":"Maria Tesselschadestraat","highway":"residential","maxspeed":"30"}},{"Shape":482,"Coordinates":[4.370308,51.83821],"Attributes":{"name":"Maria Tesselschadestraat","highway":"residential","maxspeed":"30"}},{"Shape":482,"Coordinates":[4.3704,51.837],"Attributes":{"name":"Geertruida Bosboom-Toussaintlaan","maxspeed":"50","highway":"tertiary"}},{"Shape":484,"Coordinates":[4.370177,51.83698],"Attributes":{"name":"Theo Mann-Bouwmeesterstraat","highway":"residential","maxspeed":"30"}},{"Shape":484,"Coordinates":[4.370606,51.8362],"Attributes":{"name":"Geertruida Bosboom-Toussaintlaan","maxspeed":"50","highway":"tertiary"}},{"Shape":485,"Coordinates":[4.370763,51.83647],"Attributes":{"name":"Else van der Banstraat","highway":"residential","maxspeed":"30"}},{"Shape":485,"Coordinates":[4.370445,51.83764],"Attributes":{"name":"Else van der Banstraat","highway":"residential","maxspeed":"30"}},{"Shape":485,"Coordinates":[4.372372,51.83723],"Attributes":{"name":"Theo Mann-Bouwmeesterstraat","highway":"residential","maxspeed":"30"}},{"Shape":487,"Coordinates":[4.37202,51.83661],"Attributes":{"name":"Annie van Hattemstraat","highway":"residential","maxspeed":"30"}},{"Shape":489,"Coordinates":[4.370678,51.83587],"Attributes":{"name":"Sientje Mesdag-van Houtenstraat","highway":"residential","maxspeed":"30"}},{"Shape":489,"Coordinates":[4.372729,51.83594],"Attributes":{"name":"Sientje Mesdag-van Houtenstraat","highway":"residential","maxspeed":"30"}},{"Shape":490,"Coordinates":[4.370724,51.83487],"Attributes":{"name":"Else van der Banstraat","highway":"residential","maxspeed":"30"}},{"Shape":490,"Coordinates":[4.3717,51.8353],"Attributes":{"name":"Lotte Beesestraat","highway":"residential","maxspeed":"30"}},{"Shape":492,"Coordinates":[4.37044,51.83441],"Attributes":{"name":"Else van der Banstraat","highway":"residential","maxspeed":"30"}},{"Shape":492,"Coordinates":[4.371654,51.83469],"Attributes":{"name":"Truus Schröderstraat","highway":"residential","maxspeed":"30"}},{"Shape":493,"Coordinates":[4.370315,51.83495],"Attributes":{"name":"Truus Schröderstraat","highway":"unclassified","maxspeed":"30"}},{"Shape":493,"Coordinates":[4.370679,51.83535],"Attributes":{"name":"Geertruida Bosboom-Toussaintlaan","maxspeed":"50","highway":"tertiary"}},{"Shape":495,"Coordinates":[4.369971,51.83395],"Attributes":{"name":"Belle van Zuylenstraat","highway":"residential","maxspeed":"30"}},{"Shape":495,"Coordinates":[4.367404,51.83212],"Attributes":{"name":"Geertruida Bosboom-Toussaintlaan","maxspeed":"50","highway":"tertiary"}},{"Shape":496,"Coordinates":[4.369088,51.83369],"Attributes":{"name":"Beb Vuykstraat","highway":"residential","maxspeed":"30"}},{"Shape":496,"Coordinates":[4.370059,51.83451],"Attributes":{"name":"Beb Vuykstraat","highway":"residential","maxspeed":"30"}},{"Shape":496,"Coordinates":[4.368752,51.83453],"Attributes":{"name":"Belle van Zuylenstraat","highway":"residential","maxspeed":"30"}},{"Shape":498,"Coordinates":[4.368303,51.83408],"Attributes":{"name":"Madelon Lulofsstraat","highway":"residential","maxspeed":"30"}},{"Shape":499,"Coordinates":[4.368081,51.83335],"Attributes":{"name":"Madelon Lulofsstraat","highway":"residential","maxspeed":"30"}},{"Shape":500,"Coordinates":[4.367285,51.83224],"Attributes":{"name":"Beb Vuykstraat","highway":"residential","maxspeed":"30"}},{"Shape":500,"Coordinates":[4.367129,51.83322],"Attributes":{"name":"Anke Servaesstraat","highway":"residential","maxspeed":"30"}},{"Shape":502,"Coordinates":[4.368437,51.83317],"Attributes":{"name":"Beb Vuykstraat","highway":"residential","maxspeed":"30"}},{"Shape":505,"Coordinates":[4.366681,51.83285],"Attributes":{"name":"Anke Servaesstraat","highway":"residential","maxspeed":"30"}},{"Shape":506,"Coordinates":[4.365999,51.83372],"Attributes":{"name":"Marie van Zeggelenstraat","highway":"residential","maxspeed":"30"}},{"Shape":506,"Coordinates":[4.367658,51.83384],"Attributes":{"name":"Madelon Lulofsstraat","highway":"residential","maxspeed":"30"}},{"Shape":508,"Coordinates":[4.366941,51.83331],"Attributes":{"name":"Anke Servaesstraat","highway":"residential","maxspeed":"30"}},{"Shape":509,"Coordinates":[4.365298,51.83384],"Attributes":{"name":"Marie van Zeggelenstraat","highway":"residential","maxspeed":"30"}},{"Shape":509,"Coordinates":[4.365887,51.8331],"Attributes":{"name":"Marie van Zeggelenstraat","highway":"residential","maxspeed":"30"}},{"Shape":512,"Coordinates":[4.365505,51.83278],"Attributes":{"name":"Marie van Zeggelenstraat","highway":"residential","maxspeed":"30"}},{"Shape":512,"Coordinates":[4.366334,51.83255],"Attributes":{"name":"Lucretia van Merkenstraat","highway":"residential","maxspeed":"30"}},{"Shape":513,"Coordinates":[4.36504,51.8335],"Attributes":{"name":"Marie van Zeggelenstraat","highway":"residential","maxspeed":"30"}},{"Shape":514,"Coordinates":[4.36375,51.83378],"Attributes":{"name":"Henriëtte van der Meijstraat","highway":"residential","maxspeed":"30"}},{"Shape":514,"Coordinates":[4.364484,51.83419],"Attributes":{"name":"Nan Holdert-Zuikerbergstraat","highway":"residential","maxspeed":"30"}},{"Shape":519,"Coordinates":[4.364598,51.83564],"Attributes":{"name":"Sientje Mesdag-van Houtenstraat","highway":"residential","maxspeed":"30"}},{"Shape":520,"Coordinates":[4.363294,51.83529],"Attributes":{"name":"Lizzy Ansinghstraat","highway":"unclassified","maxspeed":"30"}},{"Shape":521,"Coordinates":[4.362482,51.83507],"Attributes":{"name":"Lizzy Ansinghstraat","highway":"residential","maxspeed":"30"}},{"Shape":521,"Coordinates":[4.362459,51.83624],"Attributes":{"name":"Lizzy Ansinghstraat","highway":"residential","maxspeed":"30"}},{"Shape":522,"Coordinates":[4.362,51.83559],"Attributes":{"name":"Marie van Regteren Altenastraat","highway":"residential","maxspeed":"30"}},{"Shape":522,"Coordinates":[4.362269,51.83624],"Attributes":{"name":"Annie Romein-Verschoorlaan","maxspeed":"50","highway":"tertiary"}},{"Shape":525,"Coordinates":[4.362716,51.8344],"Attributes":{"name":"Annie Romein-Verschoorlaan","maxspeed":"50","highway":"tertiary"}},{"Shape":529,"Coordinates":[4.361445,51.8344],"Attributes":{"name":"Margaretha Roosenboomstraat","highway":"residential"}},{"Shape":530,"Coordinates":[4.361255,51.83418],"Attributes":{"name":"Hadewychplaats","highway":"service"}},{"Shape":532,"Coordinates":[4.36026,51.83197],"Attributes":{"name":"Drogendijk","highway":"unclassified","maxspeed":"30"}},{"Shape":532,"Coordinates":[4.360504,51.83558],"Attributes":{"name":"Drogendijk","highway":"unclassified","maxspeed":"30"}},{"Shape":533,"Coordinates":[4.359956,51.83451],"Attributes":{"name":"Clara Visserstraat","highway":"residential","maxspeed":"30"}},{"Shape":533,"Coordinates":[4.359355,51.83421],"Attributes":{"name":"Joke Smitlaan","maxspeed":"50","highway":"tertiary"}},{"Shape":540,"Coordinates":[4.359009,51.83457],"Attributes":{"name":"Annie Mankes-Zernikestraat","highway":"residential","maxspeed":"30"}},{"Shape":541,"Coordinates":[4.358304,51.83594],"Attributes":{"name":"Wilhelmina Bladergroenstraat","highway":"residential","maxspeed":"30"}},{"Shape":541,"Coordinates":[4.358029,51.83479],"Attributes":{"name":"Anna Storm-van der Chijsstraat","highway":"residential","maxspeed":"30"}},{"Shape":544,"Coordinates":[4.356453,51.83565],"Attributes":{"name":"Johanna Westerdijkstraat","highway":"residential","maxspeed":"30"}},{"Shape":545,"Coordinates":[4.356021,51.83622],"Attributes":{"name":"Lau Mazirelstraat","highway":"residential","maxspeed":"30"}},{"Shape":547,"Coordinates":[4.357479,51.83744],"Attributes":{"name":"Wilhelmina Bladergroenstraat","highway":"residential","maxspeed":"30"}},{"Shape":547,"Coordinates":[4.358421,51.83695],"Attributes":{"name":"Maria Rutgers-Hoitsemastraat","highway":"residential","maxspeed":"30"}},{"Shape":549,"Coordinates":[4.358305,51.83854],"Attributes":{"name":"Mary Zeldenrust-Noordanusstraat","highway":"residential","maxspeed":"30"}},{"Shape":549,"Coordinates":[4.358706,51.83696],"Attributes":{"name":"Maria Rutgers-Hoitsemastraat","highway":"residential","maxspeed":"30"}},{"Shape":553,"Coordinates":[4.360314,51.83701],"Attributes":{"name":"Maria Rutgers-Hoitsemastraat","highway":"residential","maxspeed":"30"}},{"Shape":554,"Coordinates":[4.360465,51.83755],"Attributes":{"name":"Liesbeth Tilanusstraat","highway":"residential","maxspeed":"30"}},{"Shape":555,"Coordinates":[4.36062,51.83812],"Attributes":{"name":"Cornelia de Langestraat","highway":"residential","maxspeed":"30"}},{"Shape":556,"Coordinates":[4.358305,51.83854],"Attributes":{"name":"Aletta Jacobsstraat","highway":"residential","maxspeed":"30"}},{"Shape":556,"Coordinates":[4.359298,51.83863],"Attributes":{"name":"Aletta Jacobsstraat","highway":"residential","maxspeed":"30"}},{"Shape":560,"Coordinates":[4.359249,51.83808],"Attributes":{"name":"Hélène Mercierstraat","highway":"residential","maxspeed":"30"}},{"Shape":561,"Coordinates":[4.358421,51.83695],"Attributes":{"name":"Mary Zeldenrust-Noordanusstraat","highway":"residential","maxspeed":"30"}},{"Shape":562,"Coordinates":[4.356521,51.83856],"Attributes":{"name":"Aletta Jacobsstraat","highway":"residential","maxspeed":"30"}},{"Shape":563,"Coordinates":[4.357479,51.83744],"Attributes":{"name":"Wilhelmina Bladergroenstraat","highway":"residential","maxspeed":"30"}},{"Shape":563,"Coordinates":[4.356625,51.83799],"Attributes":{"name":"Catharina van Tussenbroekstraat","highway":"residential","maxspeed":"30"}}]}