{"Shape":[[4.345713,51.83664],[4.345718,51.83652],[4.34587,51.83649],[4.346549,51.83651],[4.346541,51.83682],[4.347042,51.83683],[4.347059,51.8367],[4.347507,51.83672],[4.347641,51.83677],[4.347602,51.83712],[4.347749,51.83713],[4.347701,51.83753],[4.347504,51.83752],[4.347449,51.83807],[4.347294,51.83807],[4.346594,51.83804],[4.346175,51.83799],[4.346594,51.83804],[4.347294,51.83807],[4.347449,51.83807],[4.347504,51.83752],[4.347701,51.83753],[4.347749,51.83713],[4.347602,51.83712],[4.347641,51.83677],[4.347507,51.83672],[4.347059,51.8367],[4.347106,51.83609],[4.346705,51.83607],[4.346293,51.83607],[4.346341,51.83546],[4.346119,51.83549],[4.346109,51.83543],[4.346109,51.83542],[4.346076,51.83495],[4.345782,51.83484],[4.345465,51.83471],[4.345782,51.83484],[4.346076,51.83495],[4.346109,51.83543],[4.346119,51.83549],[4.346341,51.83546],[4.346293,51.83607],[4.345837,51.8361],[4.345559,51.83615],[4.345411,51.83616],[4.344921,51.83622],[4.34493,51.83625],[4.345014,51.83635],[4.345134,51.8369],[4.345144,51.83719],[4.345103,51.83748],[4.345008,51.83847],[4.344985,51.83865],[4.344918,51.8387],[4.344853,51.8387],[4.344879,51.83862],[4.344913,51.83823],[4.344919,51.83818],[4.344946,51.83795],[4.344953,51.83789],[4.344977,51.83763],[4.34499,51.83749],[4.345046,51.83723],[4.345054,51.83699],[4.344923,51.83636],[4.34493,51.83625],[4.344921,51.83622],[4.344693,51.83624],[4.344671,51.83625],[4.344011,51.83632],[4.343964,51.83632],[4.343637,51.83637],[4.343539,51.83638],[4.342509,51.83654],[4.342222,51.83656],[4.341315,51.83652],[4.341186,51.83651],[4.341172,51.83663],[4.341148,51.83683],[4.341219,51.83686],[4.341984,51.8369],[4.34205,51.83694],[4.342,51.8374],[4.341963,51.83809],[4.340995,51.83805],[4.340831,51.83805],[4.340995,51.83805],[4.341963,51.83809],[4.342,51.8374],[4.34205,51.83694],[4.341984,51.8369],[4.341219,51.83686],[4.341148,51.83683],[4.341186,51.83651],[4.339484,51.83644],[4.339431,51.83679],[4.338592,51.83676],[4.338504,51.83745],[4.338809,51.83746],[4.339479,51.83748],[4.33961,51.83749],[4.339479,51.83748],[4.338809,51.83746],[4.338504,51.83745],[4.338592,51.83676],[4.339431,51.83679],[4.339484,51.83644],[4.339491,51.83639],[4.339542,51.83587],[4.339551,51.83581],[4.339772,51.83569],[4.339551,51.83581],[4.339197,51.83577],[4.339065,51.83565],[4.338899,51.83554],[4.338775,51.83544],[4.338763,51.83543],[4.338775,51.83544],[4.338899,51.83554],[4.339065,51.83565],[4.339197,51.83577],[4.339551,51.83581],[4.339542,51.83587],[4.339491,51.83639],[4.339484,51.83644],[4.33786,51.83638],[4.33763,51.83636],[4.336397,51.83626],[4.336342,51.83686],[4.336166,51.83697],[4.335967,51.83701],[4.335168,51.83696],[4.334412,51.83688],[4.3342,51.83692],[4.334102,51.83704],[4.334082,51.83704],[4.334102,51.83704],[4.3342,51.83692],[4.334412,51.83688],[4.335168,51.83696],[4.335967,51.83701],[4.336166,51.83697],[4.336342,51.83686],[4.336829,51.83689],[4.336818,51.83698],[4.336829,51.83689],[4.336342,51.83686],[4.336397,51.83626],[4.336403,51.83621],[4.336479,51.83564],[4.336488,51.83555],[4.336479,51.83564],[4.336403,51.83621],[4.336397,51.83626],[4.33763,51.83636],[4.33786,51.83638],[4.337694,51.83784],[4.337731,51.83812],[4.337773,51.83822],[4.33783,51.83825],[4.337874,51.83828],[4.337902,51.83833],[4.337992,51.83835],[4.338016,51.83835],[4.338439,51.83842],[4.343559,51.83862],[4.344853,51.8387],[4.344918,51.8387],[4.344984,51.83874],[4.344983,51.83881],[4.344948,51.83896],[4.344821,51.83929],[4.344628,51.84029],[4.34461,51.84051],[4.344692,51.84129],[4.34469,51.84135],[4.344689,51.84147],[4.344956,51.84146],[4.345497,51.84148],[4.346251,51.84152],[4.347239,51.84156],[4.348428,51.8416],[4.348705,51.84158],[4.349051,51.84153],[4.349454,51.84143],[4.349549,51.8414],[4.349648,51.84134],[4.349666,51.84131],[4.349733,51.84125],[4.349779,51.84123],[4.349773,51.84107],[4.349725,51.84097],[4.349637,51.84082],[4.349562,51.84072],[4.349473,51.84055],[4.349343,51.84038],[4.349247,51.84026],[4.349227,51.84022],[4.349242,51.84018],[4.349291,51.84015],[4.349341,51.84015],[4.349291,51.84015],[4.349242,51.84018],[4.349227,51.84022],[4.349247,51.84026],[4.349343,51.84038],[4.349473,51.84055],[4.349562,51.84072],[4.349637,51.84082],[4.349725,51.84097],[4.349773,51.84107],[4.349949,51.8412],[4.350004,51.84121],[4.350057,51.84122],[4.350151,51.84123],[4.350306,51.84121],[4.351436,51.84094],[4.353651,51.84037],[4.355665,51.83982],[4.356448,51.83964],[4.356467,51.83959],[4.356505,51.83955],[4.356559,51.83953],[4.356528,51.83948],[4.356172,51.83889],[4.356095,51.83873],[4.356054,51.83867],[4.355865,51.83872],[4.355744,51.83854],[4.355865,51.83872],[4.356054,51.83867],[4.356521,51.83856],[4.356604,51.83854],[4.357304,51.83856],[4.357405,51.83851],[4.35744,51.83802],[4.3567,51.838],[4.35744,51.83802],[4.357405,51.83851],[4.357304,51.83856],[4.356604,51.83854],[4.356521,51.83856],[4.356054,51.83867],[4.356095,51.83873],[4.356225,51.83888],[4.356655,51.83944],[4.356703,51.8395],[4.356782,51.83951],[4.356853,51.83953],[4.356906,51.83957],[4.35694,51.83961],[4.356953,51.83965],[4.356946,51.83969],[4.356892,51.83976],[4.356812,51.8398],[4.356715,51.83981],[4.35661,51.8398],[4.356521,51.83977],[4.356156,51.83985],[4.354842,51.84018],[4.350435,51.84134],[4.35021,51.84141],[4.350195,51.84144],[4.350135,51.8415],[4.350092,51.84152],[4.35,51.84155],[4.349898,51.84155],[4.349844,51.84155],[4.349792,51.84153],[4.349615,51.84154],[4.349001,51.84167],[4.348555,51.84173],[4.348441,51.84174],[4.348005,51.84174],[4.347584,51.84173],[4.347215,51.84171],[4.346981,51.8417],[4.34621,51.84166],[4.345485,51.84163],[4.345028,51.84161],[4.344929,51.8416],[4.344674,51.8416],[4.344414,51.84153],[4.344432,51.84135],[4.344564,51.84029],[4.344642,51.83981],[4.344792,51.83901],[4.344853,51.8387],[4.344879,51.83862],[4.344913,51.83823],[4.344919,51.83818],[4.344953,51.83789],[4.344977,51.83763],[4.34499,51.83749],[4.345046,51.83723],[4.345054,51.83699],[4.344923,51.83636],[4.34493,51.83625],[4.344921,51.83622],[4.344803,51.83581],[4.344739,51.83556],[4.3446,51.835],[4.344673,51.8345],[4.344718,51.83396],[4.344743,51.83375],[4.344756,51.83363],[4.344779,51.83341],[4.344777,51.83344],[4.34482,51.83303],[4.345801,51.83301],[4.346057,51.83301],[4.346077,51.83331],[4.345498,51.83334],[4.34531,51.83342],[4.345284,51.83372],[4.345594,51.83374],[4.345992,51.83382],[4.346124,51.83386],[4.3471,51.8342],[4.34777,51.83447],[4.347791,51.83449],[4.3478,51.8345],[4.3479,51.835],[4.347898,51.83503],[4.347622,51.83522],[4.347584,51.8353],[4.347648,51.83539],[4.347904,51.83538],[4.348101,51.83549],[4.348205,51.83558],[4.348212,51.8357],[4.348288,51.8357],[4.348336,51.83586],[4.348238,51.83586],[4.348121,51.83586],[4.348073,51.83586],[4.348073,51.83619],[4.348951,51.83627],[4.34937,51.83632],[4.34959,51.83634],[4.349616,51.83646],[4.349553,51.8367],[4.349606,51.83677],[4.349553,51.8367],[4.349616,51.83646],[4.34959,51.83634],[4.349784,51.83622],[4.350083,51.83617],[4.350406,51.83611],[4.350539,51.83603],[4.350872,51.83581],[4.350615,51.83567],[4.350802,51.83552],[4.350646,51.83542],[4.3504,51.8353],[4.35,51.8351],[4.350009,51.83507],[4.35,51.8351],[4.3504,51.8353],[4.35,51.8356],[4.3496,51.8356],[4.349628,51.83571],[4.349722,51.83601],[4.349739,51.83612],[4.349784,51.83622],[4.34959,51.83634],[4.349616,51.83646],[4.349553,51.8367],[4.349653,51.83682],[4.350178,51.83722],[4.34981,51.83739],[4.3498,51.8374],[4.349785,51.83751],[4.349142,51.83776],[4.348413,51.83779],[4.349142,51.83776],[4.349785,51.83751],[4.3498,51.8374],[4.350178,51.83722],[4.349653,51.83682],[4.349553,51.8367],[4.349072,51.83671],[4.348907,51.83681],[4.348485,51.83678],[4.348508,51.83667],[4.348534,51.83654],[4.347543,51.83648],[4.347507,51.83672],[4.347059,51.8367],[4.347042,51.83683],[4.346541,51.83682],[4.346549,51.83651],[4.34587,51.83649],[4.345718,51.83652],[4.345713,51.83664]],"ShapeMeta":[{"Shape":0,"Attributes":{"profile":"car"}},{"Shape":3,"Attributes":{"name":"Baarsveen","highway":"residential","profile":"car","distance":"70.63561","time":"6.781019"}},{"Shape":4,"Attributes":{"name":"Baarsveen","highway":"unclassified","profile":"car","distance":"105.8356","time":"10.16022"}},{"Shape":6,"Attributes":{"name":"Baarsveen","highway":"unclassified","profile":"car","distance":"154.6356","time":"14.84502"}},{"Shape":7,"Attributes":{"name":"Baarsveen","highway":"unclassified","profile":"car","distance":"185.4356","time":"17.80182"}},{"Shape":10,"Attributes":{"name":"Baarsveen","highway":"unclassified","profile":"car","distance":"244.9356","time":"23.51382"}},{"Shape":14,"Attributes":{"name":"Baarsveen","highway":"unclassified","profile":"car","distance":"374.5356","time":"35.95542"}},{"Shape":16,"Attributes":{"name":"Baarsveen","highway":"unclassified","profile":"car","distance":"452.1356","time":"43.40502"}},{"Shape":18,"Attributes":{"name":"Baarsveen","highway":"unclassified","profile":"car","distance":"529.7356","time":"230.8546"}},{"Shape":22,"Attributes":{"name":"Baarsveen","highway":"unclassified","profile":"car","distance":"659.3356","time":"243.2962"}},{"Shape":25,"Attributes":{"name":"Baarsveen","highway":"unclassified","profile":"car","distance":"718.8356","time":"249.0082"}},{"Shape":26,"Attributes":{"name":"Baarsveen","highway":"unclassified","profile":"car","distance":"749.6356","time":"251.965"}},{"Shape":27,"Attributes":{"name":"Baarsveen","highway":"unclassified","profile":"car","distance":"817.1356","time":"258.445"}},{"Shape":29,"Attributes":{"name":"De Landmeter","highway":"unclassified","maxspeed":"30","profile":"car","distance":"873.0356","time":"267.389"}},{"Shape":30,"Attributes":{"name":"Snoekenveen","highway":"living_street","profile":"car","distance":"940.5356","time":"332.189"}},{"Shape":31,"Attributes":{"name":"Snoekenveen","highway":"living_street","profile":"car","distance":"956.1356","time":"347.165"}},{"Shape":33,"Attributes":{"name":"Snoekenveen","highway":"living_street","profile":"car","distance":"963.8","time":"354.5228"}},{"Shape":35,"Attributes":{"name":"Snoekenveen","highway":"living_street","profile":"car","distance":"1039.836","time":"607.517"}},{"Shape":36,"Attributes":{"name":"Snoekenveen","highway":"living_street","profile":"car","distance":"1065.832","time":"632.4732"}},{"Shape":37,"Attributes":{"name":"Snoekenveen","highway":"living_street","profile":"car","distance":"1091.828","time":"837.4295"}},{"Shape":40,"Attributes":{"name":"Snoekenveen","highway":"living_street","profile":"car","distance":"1175.528","time":"917.7815"}},{"Shape":41,"Attributes":{"name":"Snoekenveen","highway":"living_street","profile":"car","distance":"1191.128","time":"932.7575"}},{"Shape":42,"Attributes":{"name":"Snoekenveen","highway":"living_street","profile":"car","distance":"1258.628","time":"997.5575"}},{"Shape":44,"Attributes":{"name":"De Landmeter","highway":"unclassified","maxspeed":"30","profile":"car","distance":"1310.028","time":"1005.781"}},{"Shape":46,"Attributes":{"name":"De Landmeter","highway":"unclassified","maxspeed":"30","profile":"car","distance":"1354.528","time":"1012.902"}},{"Shape":47,"Attributes":{"name":"De Dijkgraaf","highway":"unclassified","profile":"car","distance":"1357.928","time":"1013.228"}},{"Shape":50,"Attributes":{"name":"De Dijkgraaf","highway":"tertiary","oneway":"yes","profile":"car","distance":"1464.228","time":"1020.517"}},{"Shape":53,"Attributes":{"name":"De Dijkgraaf","highway":"tertiary","oneway":"yes","profile":"car","distance":"1627.428","time":"1031.708"}},{"Shape":54,"Attributes":{"highway":"tertiary","oneway":"yes","profile":"car","distance":"1634.228","time":"1032.174"}},{"Shape":55,"Attributes":{"name":"Heemraadlaan","maxspeed":"50","highway":"secondary","profile":"car","distance":"1638.628","time":"1032.597"}},{"Shape":58,"Attributes":{"name":"De Dijkgraaf","maxspeed":"50","highway":"tertiary","oneway":"yes","profile":"car","distance":"1696.928","time":"1038.193"}},{"Shape":59,"Attributes":{"name":"De Dijkgraaf","highway":"tertiary","oneway":"yes","profile":"car","distance":"1722.015","time":"1039.914"}},{"Shape":62,"Attributes":{"name":"De Dijkgraaf","highway":"tertiary","oneway":"yes","profile":"car","distance":"1773.428","time":"1223.439"}},{"Shape":66,"Attributes":{"name":"De Dijkgraaf","highway":"tertiary","oneway":"yes","profile":"car","distance":"1912.128","time":"1232.95"}},{"Shape":67,"Attributes":{"name":"De Dijkgraaf","highway":"unclassified","profile":"car","distance":"1915.528","time":"1233.277"}},{"Shape":69,"Attributes":{"name":"De Landmeter","highway":"unclassified","maxspeed":"30","profile":"car","distance":"1932.918","time":"1236.059"}},{"Shape":70,"Attributes":{"name":"De Landmeter","highway":"unclassified","maxspeed":"30","profile":"car","distance":"1979.028","time":"1423.437"}},{"Shape":72,"Attributes":{"name":"De Landmeter","highway":"unclassified","maxspeed":"30","profile":"car","distance":"2005.428","time":"1427.661"}},{"Shape":77,"Attributes":{"name":"De Landmeter","highway":"unclassified","maxspeed":"30","profile":"car","distance":"2176.328","time":"1455.005"}},{"Shape":78,"Attributes":{"name":"Ottersveen","highway":"unclassified","profile":"car","distance":"2189.475","time":"1456.267"}},{"Shape":79,"Attributes":{"name":"Ottersveen","highway":"unclassified","profile":"car","distance":"2211.529","time":"1638.384"}},{"Shape":85,"Attributes":{"name":"Ottersveen","highway":"unclassified","profile":"car","distance":"2471.129","time":"1663.306"}},{"Shape":86,"Attributes":{"name":"Ottersveen","highway":"unclassified","profile":"car","distance":"2482.456","time":"1664.393"}},{"Shape":87,"Attributes":{"name":"Ottersveen","highway":"unclassified","profile":"car","distance":"2493.784","time":"1845.48"}},{"Shape":93,"Attributes":{"name":"Ottersveen","highway":"unclassified","profile":"car","distance":"2753.384","time":"1870.402"}},{"Shape":94,"Attributes":{"name":"Ottersveen","highway":"unclassified","profile":"car","distance":"2788.584","time":"1873.781"}},{"Shape":95,"Attributes":{"name":"De Landmeter","highway":"unclassified","maxspeed":"30","profile":"car","distance":"2905.684","time":"1892.517"}},{"Shape":96,"Attributes":{"name":"Ottersveen","highway":"unclassified","profile":"car","distance":"2944.384","time":"1896.232"}},{"Shape":99,"Attributes":{"name":"Ottersveen","highway":"unclassified","profile":"car","distance":"3100.184","time":"1911.189"}},{"Shape":100,"Attributes":{"name":"Ottersveen","highway":"unclassified","profile":"car","distance":"3146.184","time":"1915.605"}},{"Shape":101,"Attributes":{"name":"Ottersveen","highway":"unclassified","profile":"car","distance":"3155.285","time":"1916.479"}},{"Shape":102,"Attributes":{"name":"Ottersveen","highway":"unclassified","profile":"car","distance":"3164.386","time":"2097.353"}},{"Shape":103,"Attributes":{"name":"Ottersveen","highway":"unclassified","profile":"car","distance":"3210.386","time":"2101.769"}},{"Shape":106,"Attributes":{"name":"Ottersveen","highway":"unclassified","profile":"car","distance":"3366.187","time":"2116.726"}},{"Shape":107,"Attributes":{"name":"Ottersveen","highway":"unclassified","profile":"car","distance":"3404.886","time":"2120.441"}},{"Shape":110,"Attributes":{"name":"Kikkerveen","highway":"unclassified","profile":"car","distance":"3475.386","time":"2127.209"}},{"Shape":111,"Attributes":{"name":"Kikkerveen","highway":"unclassified","profile":"car","distance":"3495.621","time":"2129.151"}},{"Shape":112,"Attributes":{"name":"Kikkerveen","highway":"unclassified","profile":"car","distance":"3515.855","time":"2311.093"}},{"Shape":115,"Attributes":{"name":"Kikkerveen","highway":"unclassified","profile":"car","distance":"3573.055","time":"2316.584"}},{"Shape":116,"Attributes":{"name":"Kikkerveen","highway":"unclassified","profile":"car","distance":"3587.255","time":"2317.948"}},{"Shape":117,"Attributes":{"name":"Kikkerveen","highway":"unclassified","profile":"car","distance":"3588.618","time":"2318.079"}},{"Shape":118,"Attributes":{"name":"Kikkerveen","highway":"unclassified","profile":"car","distance":"3589.981","time":"2498.21"}},{"Shape":119,"Attributes":{"name":"Kikkerveen","highway":"unclassified","profile":"car","distance":"3604.181","time":"2499.573"}},{"Shape":122,"Attributes":{"name":"Kikkerveen","highway":"unclassified","profile":"car","distance":"3661.381","time":"2505.064"}},{"Shape":125,"Attributes":{"name":"Kikkerveen","highway":"unclassified","profile":"car","distance":"3731.881","time":"2511.832"}},{"Shape":126,"Attributes":{"name":"De Landmeter","highway":"unclassified","maxspeed":"30","profile":"car","distance":"3843.581","time":"2529.704"}},{"Shape":128,"Attributes":{"name":"De Landmeter","highway":"unclassified","maxspeed":"30","profile":"car","distance":"3944.981","time":"2545.928"}},{"Shape":129,"Attributes":{"name":"Beverveen","highway":"unclassified","profile":"car","distance":"4011.181","time":"2552.283"}},{"Shape":132,"Attributes":{"name":"Beverveen","highway":"unclassified","profile":"car","distance":"4098.181","time":"2560.635"}},{"Shape":134,"Attributes":{"name":"Beverveen","highway":"unclassified","profile":"car","distance":"4165.781","time":"2567.125"}},{"Shape":135,"Attributes":{"name":"Beverveen","highway":"unclassified","profile":"car","distance":"4181.281","time":"2568.613"}},{"Shape":136,"Attributes":{"highway":"residential","profile":"car","distance":"4182.879","time":"2568.767"}},{"Shape":137,"Attributes":{"highway":"residential","profile":"car","distance":"4184.477","time":"2748.92"}},{"Shape":138,"Attributes":{"name":"Beverveen","highway":"unclassified","profile":"car","distance":"4199.977","time":"2750.408"}},{"Shape":140,"Attributes":{"name":"Beverveen","highway":"unclassified","profile":"car","distance":"4267.577","time":"2756.898"}},{"Shape":143,"Attributes":{"name":"Beverveen","highway":"unclassified","profile":"car","distance":"4354.577","time":"2765.25"}},{"Shape":145,"Attributes":{"name":"Beverveen","highway":"unclassified","profile":"car","distance":"4398.083","time":"2769.427"}},{"Shape":147,"Attributes":{"name":"Beverveen","highway":"unclassified","profile":"car","distance":"4441.589","time":"2953.604"}},{"Shape":148,"Attributes":{"name":"Beverveen","highway":"unclassified","profile":"car","distance":"4507.79","time":"2959.959"}},{"Shape":151,"Attributes":{"name":"Kikkerveen","highway":"residential","profile":"car","distance":"4587.321","time":"2967.594"}},{"Shape":154,"Attributes":{"name":"Kikkerveen","highway":"residential","profile":"car","distance":"4666.852","time":"3155.229"}},{"Shape":156,"Attributes":{"name":"De Landmeter","highway":"unclassified","maxspeed":"30","profile":"car","distance":"4768.252","time":"3171.453"}},{"Shape":157,"Attributes":{"name":"De Waarsman","highway":"residential","profile":"car","distance":"4930.652","time":"3187.043"}},{"Shape":159,"Attributes":{"highway":"residential","oneway":"yes","profile":"car","distance":"4973.852","time":"3191.191"}},{"Shape":162,"Attributes":{"name":"Heemraadlaan","junction":"roundabout","highway":"secondary","profile":"car","distance":"4988.652","time":"3192.206"}},{"Shape":165,"Attributes":{"name":"Heemraadlaan","oneway":"yes","highway":"secondary","profile":"car","distance":"5027.052","time":"3194.839"}},{"Shape":167,"Attributes":{"name":"Heemraadlaan","maxspeed":"50","highway":"secondary","profile":"car","distance":"5468.752","time":"3237.242"}},{"Shape":168,"Attributes":{"name":"Heemraadlaan","maxspeed":"50","highway":"secondary","profile":"car","distance":"5473.152","time":"3237.664"}},{"Shape":169,"Attributes":{"name":"Heemraadlaan","maxspeed":"50","oneway":"yes","highway":"secondary","profile":"car","distance":"5479.552","time":"3238.279"}},{"Shape":176,"Attributes":{"name":"Schenkelweg","maxspeed":"50","oneway":"yes","highway":"secondary","profile":"car","distance":"5771.852","time":"3266.339"}},{"Shape":177,"Attributes":{"name":"Schenkelweg","maxspeed":"50","oneway":"yes","highway":"secondary","profile":"car","distance":"5784.952","time":"3267.597"}},{"Shape":179,"Attributes":{"name":"Maaswijkweg","maxspeed":"50","highway":"tertiary","oneway":"yes","profile":"car","distance":"5840.552","time":"3272.935"}},{"Shape":180,"Attributes":{"name":"Maaswijkweg","maxspeed":"50","highway":"tertiary","oneway":"yes","profile":"car","distance":"5892.452","time":"3277.917"}},{"Shape":181,"Attributes":{"name":"Maaswijkweg","maxspeed":"50","highway":"tertiary","oneway":"yes","profile":"car","distance":"5960.552","time":"3284.455"}},{"Shape":182,"Attributes":{"name":"Maaswijkweg","maxspeed":"50","highway":"tertiary","oneway":"yes","profile":"car","distance":"6042.252","time":"3292.298"}},{"Shape":187,"Attributes":{"name":"Maaswijkweg","maxspeed":"50","highway":"tertiary","oneway":"yes","profile":"car","distance":"6132.652","time":"3300.976"}},{"Shape":190,"Attributes":{"name":"Maaswijkweg","maxspeed":"50","highway":"tertiary","junction":"roundabout","profile":"car","distance":"6148.252","time":"3302.474"}},{"Shape":191,"Attributes":{"highway":"unclassified","oneway":"yes","profile":"car","distance":"6165.552","time":"3304.135"}},{"Shape":192,"Attributes":{"name":"Hürthstraat","highway":"living_street","profile":"car","distance":"6177.852","time":"3315.943"}},{"Shape":193,"Attributes":{"name":"Hürthstraat","highway":"living_street","profile":"car","distance":"6195.052","time":"3332.455"}},{"Shape":195,"Attributes":{"name":"Hürthstraat","highway":"living_street","profile":"car","distance":"6226.852","time":"3362.983"}},{"Shape":196,"Attributes":{"name":"Hürthstraat","highway":"living_street","profile":"car","distance":"6248.252","time":"3383.527"}},{"Shape":201,"Attributes":{"name":"Hürthstraat","highway":"living_street","profile":"car","distance":"6280.474","time":"3414.46"}},{"Shape":206,"Attributes":{"name":"Hürthstraat","highway":"living_street","profile":"car","distance":"6312.696","time":"3625.393"}},{"Shape":207,"Attributes":{"name":"Hürthstraat","highway":"living_street","profile":"car","distance":"6334.096","time":"3645.937"}},{"Shape":209,"Attributes":{"name":"Hürthstraat","highway":"living_street","profile":"car","distance":"6365.896","time":"3676.465"}},{"Shape":210,"Attributes":{"name":"Hürthstraat","highway":"living_street","profile":"car","distance":"6383.096","time":"3692.977"}},{"Shape":211,"Attributes":{"name":"Hürthstraat","highway":"living_street","profile":"car","distance":"6395.396","time":"3704.785"}},{"Shape":212,"Attributes":{"name":"Hürthstraat","highway":"unclassified","oneway":"yes","profile":"car","distance":"6414.196","time":"3706.59"}},{"Shape":214,"Attributes":{"name":"Maaswijkweg","maxspeed":"50","highway":"tertiary","junction":"roundabout","profile":"car","distance":"6421.796","time":"3707.319"}},{"Shape":220,"Attributes":{"name":"Maaswijkweg","maxspeed":"50","highway":"tertiary","oneway":"yes","profile":"car","distance":"6895.996","time":"3752.843"}},{"Shape":223,"Attributes":{"name":"Maaswijkweg","maxspeed":"50","highway":"tertiary","junction":"roundabout","profile":"car","distance":"6910.896","time":"3754.273"}},{"Shape":226,"Attributes":{"name":"Joke Smitlaan","maxspeed":"50","highway":"tertiary","oneway":"yes","profile":"car","distance":"7005.496","time":"3763.355"}},{"Shape":227,"Attributes":{"name":"Joke Smitlaan","maxspeed":"50","highway":"tertiary","profile":"car","distance":"7011.996","time":"3763.979"}},{"Shape":228,"Attributes":{"name":"Marga Klompéstraat","highway":"residential","maxspeed":"30","profile":"car","distance":"7025.996","time":"3766.219"}},{"Shape":229,"Attributes":{"name":"Suze Groenewegstraat","highway":"residential","maxspeed":"30","profile":"car","distance":"7048.405","time":"3769.804"}},{"Shape":230,"Attributes":{"name":"Suze Groenewegstraat","highway":"residential","maxspeed":"30","profile":"car","distance":"7070.814","time":"3953.389"}},{"Shape":231,"Attributes":{"name":"Marga Klompéstraat","highway":"residential","maxspeed":"30","profile":"car","distance":"7084.814","time":"3955.629"}},{"Shape":235,"Attributes":{"name":"Aletta Jacobsstraat","highway":"residential","maxspeed":"30","profile":"car","distance":"7182.614","time":"3971.277"}},{"Shape":236,"Attributes":{"name":"Wilhelmina Bladergroenstraat","highway":"residential","maxspeed":"30","profile":"car","distance":"7236.914","time":"3979.965"}},{"Shape":237,"Attributes":{"name":"Catharina van Tussenbroekstraat","highway":"residential","maxspeed":"30","profile":"car","distance":"7287.773","time":"3988.103"}},{"Shape":238,"Attributes":{"name":"Catharina van Tussenbroekstraat","highway":"residential","maxspeed":"30","profile":"car","distance":"7338.632","time":"4176.24"}},{"Shape":239,"Attributes":{"name":"Wilhelmina Bladergroenstraat","highway":"residential","maxspeed":"30","profile":"car","distance":"7392.932","time":"4184.929"}},{"Shape":243,"Attributes":{"name":"Aletta Jacobsstraat","highway":"residential","maxspeed":"30","profile":"car","distance":"7490.732","time":"4200.577"}},{"Shape":244,"Attributes":{"name":"Joke Smitlaan","maxspeed":"50","highway":"tertiary","profile":"car","distance":"7497.232","time":"4201.201"}},{"Shape":247,"Attributes":{"name":"Joke Smitlaan","maxspeed":"50","highway":"tertiary","oneway":"yes","profile":"car","distance":"7592.932","time":"4210.388"}},{"Shape":249,"Attributes":{"name":"Maaswijkweg","maxspeed":"50","highway":"tertiary","junction":"roundabout","profile":"car","distance":"7603.832","time":"4211.434"}},{"Shape":252,"Attributes":{"name":"Maaswijkweg","maxspeed":"50","highway":"tertiary","junction":"roundabout","profile":"car","distance":"7619.432","time":"4212.932"}},{"Shape":258,"Attributes":{"name":"Maaswijkweg","maxspeed":"50","highway":"tertiary","junction":"roundabout","profile":"car","distance":"7660.532","time":"4216.877"}},{"Shape":259,"Attributes":{"name":"Maaswijkweg","maxspeed":"50","highway":"tertiary","oneway":"yes","profile":"car","distance":"7687.232","time":"4219.44"}},{"Shape":262,"Attributes":{"name":"Maaswijkweg","maxspeed":"50","highway":"tertiary","oneway":"yes","profile":"car","distance":"8130.932","time":"4262.036"}},{"Shape":265,"Attributes":{"name":"Maaswijkweg","maxspeed":"50","highway":"tertiary","junction":"roundabout","profile":"car","distance":"8146.332","time":"4263.514"}},{"Shape":267,"Attributes":{"name":"Maaswijkweg","maxspeed":"50","highway":"tertiary","junction":"roundabout","profile":"car","distance":"8160.332","time":"4264.858"}},{"Shape":269,"Attributes":{"name":"Maaswijkweg","maxspeed":"50","highway":"tertiary","junction":"roundabout","profile":"car","distance":"8168.032","time":"4265.597"}},{"Shape":273,"Attributes":{"name":"Maaswijkweg","maxspeed":"50","highway":"tertiary","oneway":"yes","profile":"car","distance":"8264.332","time":"4274.842"}},{"Shape":276,"Attributes":{"name":"Maaswijkweg","maxspeed":"50","highway":"tertiary","oneway":"yes","profile":"car","distance":"8348.632","time":"4282.935"}},{"Shape":278,"Attributes":{"name":"Maaswijkweg","maxspeed":"50","highway":"tertiary","oneway":"yes","profile":"car","distance":"8417.732","time":"4289.568"}},{"Shape":279,"Attributes":{"name":"Maaswijkweg","maxspeed":"50","highway":"tertiary","oneway":"yes","profile":"car","distance":"8467.632","time":"4294.359"}},{"Shape":282,"Attributes":{"name":"Maaswijkweg","maxspeed":"50","highway":"tertiary","oneway":"yes","profile":"car","distance":"8523.432","time":"4299.716"}},{"Shape":283,"Attributes":{"name":"Maaswijkweg","maxspeed":"50","highway":"tertiary","oneway":"yes","profile":"car","distance":"8542.832","time":"4301.578"}},{"Shape":288,"Attributes":{"name":"Schenkelweg","maxspeed":"50","oneway":"yes","highway":"secondary","profile":"car","distance":"8859.432","time":"4331.972"}},{"Shape":291,"Attributes":{"name":"De Dijkgraaf","maxspeed":"50","highway":"tertiary","oneway":"yes","profile":"car","distance":"8917.732","time":"4337.568"}},{"Shape":294,"Attributes":{"name":"De Dijkgraaf","highway":"tertiary","oneway":"yes","profile":"car","distance":"8994.232","time":"4342.814"}},{"Shape":298,"Attributes":{"name":"De Dijkgraaf","highway":"tertiary","oneway":"yes","profile":"car","distance":"9132.932","time":"4352.325"}},{"Shape":299,"Attributes":{"name":"De Dijkgraaf","highway":"unclassified","profile":"car","distance":"9136.332","time":"4352.651"}},{"Shape":301,"Attributes":{"name":"De Dijkgraaf","highway":"tertiary","profile":"car","distance":"9211.191","time":"4357.785"}},{"Shape":303,"Attributes":{"name":"De Dijkgraaf","highway":"tertiary","profile":"car","distance":"9329.631","time":"4545.907"}},{"Shape":305,"Attributes":{"name":"De Dijkgraaf","highway":"tertiary","profile":"car","distance":"9413.331","time":"4551.646"}},{"Shape":307,"Attributes":{"name":"De Dijkgraaf","highway":"tertiary","profile":"car","distance":"9451.122","time":"4554.238"}},{"Shape":308,"Attributes":{"name":"De Dijkgraaf","highway":"tertiary","profile":"car","distance":"9454.52","time":"4734.47"}},{"Shape":309,"Attributes":{"name":"De Dijkgraaf","highway":"tertiary","profile":"car","distance":"9499.525","time":"4917.556"}},{"Shape":310,"Attributes":{"name":"De Ganzenjager","highway":"unclassified","maxspeed":"30","profile":"car","distance":"9566.926","time":"4928.34"}},{"Shape":311,"Attributes":{"name":"De Ganzenjager","highway":"unclassified","maxspeed":"30","profile":"car","distance":"9584.525","time":"4931.156"}},{"Shape":312,"Attributes":{"name":"Snoekenveen","highway":"living_street","profile":"car","distance":"9618.025","time":"4963.316"}},{"Shape":315,"Attributes":{"name":"Snoekenveen","highway":"living_street","profile":"car","distance":"9706.926","time":"5048.66"}},{"Shape":316,"Attributes":{"name":"Snoekenveen","highway":"living_street","profile":"car","distance":"9728.226","time":"5069.108"}},{"Shape":318,"Attributes":{"name":"Snoekenveen","highway":"living_street","profile":"car","distance":"9767.37","time":"5106.687"}},{"Shape":319,"Attributes":{"name":"Snoekenveen","highway":"living_street","profile":"car","distance":"9844.325","time":"5360.564"}},{"Shape":321,"Attributes":{"name":"Snoekenveen","highway":"living_street","profile":"car","distance":"9901.876","time":"5415.813"}},{"Shape":323,"Attributes":{"name":"Snoekenveen","highway":"living_street","profile":"car","distance":"9958.925","time":"5650.58"}},{"Shape":331,"Attributes":{"name":"Snoekenveen","highway":"living_street","profile":"car","distance":"10072.72","time":"5759.828"}},{"Shape":334,"Attributes":{"name":"Snoekenveen","highway":"living_street","profile":"car","distance":"10102.72","time":"5788.628"}},{"Shape":335,"Attributes":{"name":"Snoekenveen","highway":"living_street","profile":"car","distance":"10110.75","time":"5796.337"}},{"Shape":336,"Attributes":{"name":"Snoekenveen","highway":"living_street","profile":"car","distance":"10114.02","time":"5979.476"}},{"Shape":337,"Attributes":{"name":"Snoekenveen","highway":"living_street","profile":"car","distance":"10150.42","time":"6014.42"}},{"Shape":340,"Attributes":{"name":"De Landmeter","highway":"unclassified","maxspeed":"30","profile":"car","distance":"10256.12","time":"6031.332"}},{"Shape":342,"Attributes":{"name":"Baarsveen","highway":"unclassified","profile":"car","distance":"10296.42","time":"6035.201"}},{"Shape":343,"Attributes":{"name":"Baarsveen","highway":"unclassified","profile":"car","distance":"10304.47","time":"6035.974"}},{"Shape":344,"Attributes":{"name":"Baarsveen","highway":"unclassified","profile":"car","distance":"10312.52","time":"6216.747"}},{"Shape":346,"Attributes":{"name":"Baarsveen","highway":"unclassified","profile":"car","distance":"10352.82","time":"6220.616"}},{"Shape":347,"Attributes":{"name":"Snoekenveen","highway":"living_street","profile":"car","distance":"10371.52","time":"6238.568"}},{"Shape":348,"Attributes":{"name":"Snoekenveen","highway":"living_street","profile":"car","distance":"10392.97","time":"6259.157"}},{"Shape":350,"Attributes":{"name":"Snoekenveen","highway":"living_street","profile":"car","distance":"10428.52","time":"6473.289"}},{"Shape":354,"Attributes":{"name":"Snoekenveen","highway":"living_street","profile":"car","distance":"10522.32","time":"6563.336"}},{"Shape":355,"Attributes":{"name":"Snoekenveen","highway":"living_street","profile":"car","distance":"10543.62","time":"6583.784"}},{"Shape":357,"Attributes":{"name":"Snoekenveen","highway":"living_street","profile":"car","distance":"10582.59","time":"6621.192"}},{"Shape":359,"Attributes":{"name":"Snoekenveen","highway":"living_street","profile":"car","distance":"10621.56","time":"6838.6"}},{"Shape":361,"Attributes":{"name":"Snoekenveen","highway":"living_street","profile":"car","distance":"10692.36","time":"6906.568"}},{"Shape":362,"Attributes":{"name":"Snoekenveen","highway":"living_street","profile":"car","distance":"10704.76","time":"6918.472"}},{"Shape":363,"Attributes":{"name":"Snoekenveen","highway":"living_street","profile":"car","distance":"10737.96","time":"6950.344"}},{"Shape":364,"Attributes":{"name":"Snoekenveen","highway":"living_street","profile":"car","distance":"10751.06","time":"6962.92"}},{"Shape":365,"Attributes":{"name":"Snoekenveen","highway":"living_street","profile":"car","distance":"10762.46","time":"6973.864"}},{"Shape":366,"Attributes":{"name":"Snoekenveen","highway":"living_street","profile":"car","distance":"10781.16","time":"6991.816"}},{"Shape":368,"Attributes":{"name":"Baarsveen","highway":"unclassified","profile":"car","distance":"10821.46","time":"6995.685"}},{"Shape":369,"Attributes":{"name":"Baarsveen","highway":"unclassified","profile":"car","distance":"10836.66","time":"6997.144"}},{"Shape":370,"Attributes":{"name":"Baarsveen","highway":"unclassified","profile":"car","distance":"10893.26","time":"7002.578"}},{"Shape":371,"Attributes":{"name":"Baarsveen","highway":"unclassified","profile":"car","distance":"10925.4","time":"7005.664"}},{"Shape":375,"Attributes":{"name":"Baarsveen","highway":"unclassified","profile":"car","distance":"11041","time":"7196.762"}},{"Shape":379,"Attributes":{"name":"Baarsveen","highway":"unclassified","profile":"car","distance":"11188.75","time":"7390.946"}},{"Shape":380,"Attributes":{"name":"Baarsveen","highway":"unclassified","profile":"car","distance":"11245.35","time":"7396.38"}},{"Shape":381,"Attributes":{"name":"Baarsveen","highway":"unclassified","profile":"car","distance":"11260.55","time":"7397.839"}},{"Shape":384,"Attributes":{"name":"Baarsveen","highway":"unclassified","profile":"car","distance":"11338.55","time":"7405.327"}},{"Shape":385,"Attributes":{"name":"Baarsveen","highway":"unclassified","profile":"car","distance":"11351.3","time":"7406.551"}},{"Shape":388,"Attributes":{"name":"Baarsveen","highway":"unclassified","profile":"car","distance":"11461.55","time":"7597.135"}},{"Shape":389,"Attributes":{"name":"Baarsveen","highway":"unclassified","profile":"car","distance":"11492.35","time":"7600.091"}},{"Shape":391,"Attributes":{"name":"Baarsveen","highway":"unclassified","profile":"car","distance":"11541.15","time":"7604.776"}},{"Shape":392,"Attributes":{"name":"Baarsveen","highway":"unclassified","profile":"car","distance":"11576.35","time":"7608.155"}},{"Shape":395,"Attributes":{"name":"Baarsveen","highway":"residential","profile":"car","distance":"11646.98","time":"7614.937"}}],"Stops":[{"Shape":0,"Coordinates":[4.345778,51.83664],"Attributes":{"index":"196","distance":"0","time":"0","cost_time":"180","cost_weight":"100"}},{"Shape":16,"Coordinates":[4.346139,51.83786],"Attributes":{"index":"86","distance":"452.1356","time":"43.40502","cost_time":"180","cost_weight":"100"}},{"Shape":33,"Coordinates":[4.346167,51.83542],"Attributes":{"index":"189","distance":"963.8","time":"354.5228","cost_time":"180","cost_weight":"100"}},{"Shape":36,"Coordinates":[4.345472,51.83469],"Attributes":{"index":"190","distance":"1065.832","time":"632.4732","cost_time":"180","cost_weight":"100"}},{"Shape":59,"Coordinates":[4.344913,51.83796],"Attributes":{"index":"87","distance":"1722.015","time":"1039.914","cost_time":"180","cost_weight":"100"}},{"Shape":69,"Coordinates":[4.344687,51.83638],"Attributes":{"index":"84","distance":"1932.918","time":"1236.059","cost_time":"180","cost_weight":"100"}},{"Shape":78,"Coordinates":[4.341222,51.83664],"Attributes":{"index":"66","distance":"2189.475","time":"1456.267","cost_time":"180","cost_weight":"100"}},{"Shape":86,"Coordinates":[4.34083,51.83808],"Attributes":{"index":"188","distance":"2482.456","time":"1664.393","cost_time":"180","cost_weight":"100"}},{"Shape":101,"Coordinates":[4.339611,51.83747],"Attributes":{"index":"187","distance":"3155.285","time":"1916.479","cost_time":"180","cost_weight":"100"}},{"Shape":111,"Coordinates":[4.339806,51.83575],"Attributes":{"index":"185","distance":"3495.621","time":"2129.151","cost_time":"180","cost_weight":"100"}},{"Shape":117,"Coordinates":[4.338806,51.83539],"Attributes":{"index":"186","distance":"3588.618","time":"2318.079","cost_time":"180","cost_weight":"100"}},{"Shape":136,"Coordinates":[4.334083,51.83703],"Attributes":{"index":"210","distance":"4182.879","time":"2568.767","cost_time":"180","cost_weight":"100"}},{"Shape":145,"Coordinates":[4.33672,51.83697],"Attributes":{"index":"184","distance":"4398.083","time":"2769.427","cost_time":"180","cost_weight":"100"}},{"Shape":151,"Coordinates":[4.336583,51.83556],"Attributes":{"index":"183","distance":"4587.321","time":"2967.594","cost_time":"180","cost_weight":"100"}},{"Shape":201,"Coordinates":[4.349341,51.84015],"Attributes":{"index":"111","distance":"6280.474","time":"3414.46","cost_time":"180","cost_weight":"100"}},{"Shape":229,"Coordinates":[4.3558,51.8385],"Attributes":{"index":"112","distance":"7048.405","time":"3769.804","cost_time":"180","cost_weight":"100"}},{"Shape":237,"Coordinates":[4.3567,51.838],"Attributes":{"index":"117","distance":"7287.773","time":"3988.103","cost_time":"180","cost_weight":"100"}},{"Shape":301,"Coordinates":[4.3446,51.83559],"Attributes":{"index":"67","distance":"9211.191","time":"4357.785","cost_time":"180","cost_weight":"100"}},{"Shape":307,"Coordinates":[4.344754,51.83341],"Attributes":{"index":"69","distance":"9451.122","time":"4554.238","cost_time":"180","cost_weight":"100"}},{"Shape":308,"Coordinates":[4.344751,51.83344],"Attributes":{"index":"68","distance":"9454.52","time":"4734.47","cost_time":"180","cost_weight":"100"}},{"Shape":318,"Coordinates":[4.346129,51.83385],"Attributes":{"index":"47","distance":"9767.37","time":"5106.687","cost_time":"180","cost_weight":"100"}},{"Shape":321,"Coordinates":[4.347809,51.83447],"Attributes":{"index":"48","distance":"9901.876","time":"5415.813","cost_time":"180","cost_weight":"100"}},{"Shape":335,"Coordinates":[4.34812,51.8359],"Attributes":{"index":"191","distance":"10110.75","time":"5796.337","cost_time":"180","cost_weight":"100"}},{"Shape":343,"Coordinates":[4.349556,51.83681],"Attributes":{"index":"195","distance":"10304.47","time":"6035.974","cost_time":"180","cost_weight":"100"}},{"Shape":348,"Coordinates":[4.350083,51.83617],"Attributes":{"index":"192","distance":"10392.97","time":"6259.157","cost_time":"180","cost_weight":"100"}},{"Shape":357,"Coordinates":[4.349972,51.83506],"Attributes":{"index":"49","distance":"10582.59","time":"6621.192","cost_time":"180","cost_weight":"100"}},{"Shape":371,"Coordinates":[4.349903,51.83759],"Attributes":{"index":"194","distance":"10925.4","time":"7005.664","cost_time":"180","cost_weight":"100"}},{"Shape":375,"Coordinates":[4.348336,51.83776],"Attributes":{"index":"193","distance":"11041","time":"7196.762","cost_time":"180","cost_weight":"100"}},{"Shape":385,"Coordinates":[4.34747,51.83646],"Attributes":{"index":"85","distance":"11351.3","time":"7406.551","cost_time":"180","cost_weight":"100"}},{"Shape":395,"Coordinates":[4.345778,51.83664],"Attributes":{"index":"196","distance":"11646.98","time":"7614.937","cost_time":"180","cost_weight":"100"}}],"Branches":[{"Shape":3,"Coordinates":[4.346567,51.83616],"Attributes":{"name":"Baarsveen","highway":"unclassified"}},{"Shape":4,"Coordinates":[4.346519,51.83699],"Attributes":{"name":"Baarsveen","highway":"unclassified"}},{"Shape":6,"Coordinates":[4.347106,51.83609],"Attributes":{"name":"Baarsveen","highway":"unclassified"}},{"Shape":7,"Coordinates":[4.347543,51.83648],"Attributes":{"name":"Baarsveen","highway":"unclassified"}},{"Shape":10,"Coordinates":[4.3484,51.83716],"Attributes":{"name":"Baarsveen","highway":"unclassified"}},{"Shape":14,"Coordinates":[4.3473,51.8383],"Attributes":{"name":"Baarsveen","highway":"unclassified"}},{"Shape":18,"Coordinates":[4.3473,51.8383],"Attributes":{"name":"Baarsveen","highway":"unclassified"}},{"Shape":22,"Coordinates":[4.3484,51.83716],"Attributes":{"name":"Baarsveen","highway":"unclassified"}},{"Shape":25,"Coordinates":[4.347543,51.83648],"Attributes":{"name":"Baarsveen","highway":"unclassified"}},{"Shape":26,"Coordinates":[4.347042,51.83683],"Attributes":{"name":"Baarsveen","highway":"unclassified"}},{"Shape":27,"Coordinates":[4.347182,51.8361],"Attributes":{"name":"De Landmeter","highway":"unclassified","maxspeed":"30"}},{"Shape":29,"Coordinates":[4.345837,51.8361],"Attributes":{"name":"De Landmeter","highway":"unclassified","maxspeed":"30"}},{"Shape":30,"Coordinates":[4.347056,51.83545],"Attributes":{"name":"Snoekenveen","highway":"living_street"}},{"Shape":31,"Coordinates":[4.346109,51.83543],"Attributes":{"name":"Snoekenveen","highway":"living_street"}},{"Shape":31,"Coordinates":[4.345914,51.83551],"Attributes":{"name":"Snoekenveen","highway":"living_street"}},{"Shape":35,"Coordinates":[4.346094,51.83451],"Attributes":{"name":"Snoekenveen","highway":"living_street"}},{"Shape":35,"Coordinates":[4.345425,51.83469],"Attributes":{"name":"Snoekenveen","highway":"living_street"}},{"Shape":37,"Coordinates":[4.346094,51.83451],"Attributes":{"name":"Snoekenveen","highway":"living_street"}},{"Shape":40,"Coordinates":[4.345914,51.83551],"Attributes":{"name":"Snoekenveen","highway":"living_street"}},{"Shape":41,"Coordinates":[4.347056,51.83545],"Attributes":{"name":"Snoekenveen","highway":"living_street"}},{"Shape":42,"Coordinates":[4.346705,51.83607],"Attributes":{"name":"De Landmeter","highway":"unclassified","maxspeed":"30"}},{"Shape":44,"Coordinates":[4.345562,51.8363],"Attributes":{"highway":"service"}},{"Shape":46,"Coordinates":[4.344693,51.83624],"Attributes":{"name":"De Landmeter","highway":"unclassified","maxspeed":"30"}},{"Shape":46,"Coordinates":[4.3446,51.835],"Attributes":{"name":"De Dijkgraaf","highway":"tertiary"}},{"Shape":47,"Coordinates":[4.345046,51.83723],"Attributes":{"name":"De Dijkgraaf","highway":"tertiary","oneway":"yes"}},{"Shape":53,"Coordinates":[4.344984,51.83874],"Attributes":{"name":"Schenkelweg","maxspeed":"50","highway":"tertiary","oneway":"yes"}},{"Shape":54,"Coordinates":[4.344984,51.83874],"Attributes":{"name":"Heemraadlaan","maxspeed":"50","oneway":"yes","highway":"secondary"}},{"Shape":55,"Coordinates":[4.343559,51.83862],"Attributes":{"name":"Heemraadlaan","maxspeed":"50","highway":"secondary"}},{"Shape":55,"Coordinates":[4.344432,51.84135],"Attributes":{"name":"Schenkelweg","maxspeed":"50","oneway":"yes","highway":"secondary"}},{"Shape":58,"Coordinates":[4.344953,51.83789],"Attributes":{"name":"De Dijkgraaf","highway":"tertiary","oneway":"yes"}},{"Shape":62,"Coordinates":[4.344841,51.83751],"Attributes":{"name":"Wezelveen","highway":"unclassified"}},{"Shape":66,"Coordinates":[4.345014,51.83635],"Attributes":{"name":"De Dijkgraaf","highway":"tertiary","oneway":"yes"}},{"Shape":67,"Coordinates":[4.344693,51.83624],"Attributes":{"name":"De Landmeter","highway":"unclassified","maxspeed":"30"}},{"Shape":67,"Coordinates":[4.3446,51.835],"Attributes":{"name":"De Dijkgraaf","highway":"tertiary"}},{"Shape":67,"Coordinates":[4.345411,51.83616],"Attributes":{"name":"De Landmeter","highway":"unclassified","maxspeed":"30"}},{"Shape":70,"Coordinates":[4.343804,51.83553],"Attributes":{"name":"Vlinderveen","highway":"residential"}},{"Shape":72,"Coordinates":[4.34376,51.8366],"Attributes":{"name":"Wezelveen","highway":"unclassified"}},{"Shape":77,"Coordinates":[4.339484,51.83644],"Attributes":{"name":"De Landmeter","highway":"unclassified","maxspeed":"30"}},{"Shape":77,"Coordinates":[4.341148,51.83683],"Attributes":{"name":"Ottersveen","highway":"unclassified"}},{"Shape":79,"Coordinates":[4.341059,51.83691],"Attributes":{"name":"Ottersveen","highway":"unclassified"}},{"Shape":85,"Coordinates":[4.340202,51.83803],"Attributes":{"name":"Ottersveen","highway":"unclassified"}},{"Shape":85,"Coordinates":[4.341008,51.83789],"Attributes":{"name":"Ottersveen","highway":"unclassified"}},{"Shape":87,"Coordinates":[4.341008,51.83789],"Attributes":{"name":"Ottersveen","highway":"unclassified"}},{"Shape":93,"Coordinates":[4.341059,51.83691],"Attributes":{"name":"Ottersveen","highway":"unclassified"}},{"Shape":94,"Coordinates":[4.341315,51.83652],"Attributes":{"name":"De Landmeter","highway":"unclassified","maxspeed":"30"}},{"Shape":95,"Coordinates":[4.339542,51.83587],"Attributes":{"name":"Kikkerveen","highway":"unclassified"}},{"Shape":95,"Coordinates":[4.33786,51.83638],"Attributes":{"name":"De Landmeter","highway":"unclassified","maxspeed":"30"}},{"Shape":96,"Coordinates":[4.34001,51.83681],"Attributes":{"name":"Ottersveen","highway":"unclassified"}},{"Shape":96,"Coordinates":[4.33941,51.83691],"Attributes":{"name":"Ottersveen","highway":"unclassified"}},{"Shape":99,"Coordinates":[4.338794,51.83761],"Attributes":{"name":"Ottersveen","highway":"unclassified"}},{"Shape":100,"Coordinates":[4.3397,51.8375],"Attributes":{"name":"Ottersveen","highway":"unclassified"}},{"Shape":100,"Coordinates":[4.339489,51.83737],"Attributes":{"name":"Ottersveen","highway":"unclassified"}},{"Shape":102,"Coordinates":[4.339489,51.83737],"Attributes":{"name":"Ottersveen","highway":"unclassified"}},{"Shape":103,"Coordinates":[4.338794,51.83761],"Attributes":{"name":"Ottersveen","highway":"unclassified"}},{"Shape":106,"Coordinates":[4.34001,51.83681],"Attributes":{"name":"Ottersveen","highway":"unclassified"}},{"Shape":106,"Coordinates":[4.33941,51.83691],"Attributes":{"name":"Ottersveen","highway":"unclassified"}},{"Shape":107,"Coordinates":[4.33786,51.83638],"Attributes":{"name":"De Landmeter","highway":"unclassified","maxspeed":"30"}},{"Shape":107,"Coordinates":[4.341186,51.83651],"Attributes":{"name":"De Landmeter","highway":"unclassified","maxspeed":"30"}},{"Shape":110,"Coordinates":[4.339065,51.83565],"Attributes":{"name":"Kikkerveen","highway":"unclassified"}},{"Shape":110,"Coordinates":[4.339928,51.8356],"Attributes":{"name":"Kikkerveen","highway":"unclassified"}},{"Shape":112,"Coordinates":[4.339542,51.83587],"Attributes":{"name":"Kikkerveen","highway":"unclassified"}},{"Shape":115,"Coordinates":[4.338566,51.83571],"Attributes":{"name":"Kikkerveen","highway":"unclassified"}},{"Shape":116,"Coordinates":[4.338705,51.83538],"Attributes":{"name":"Kikkerveen","highway":"unclassified"}},{"Shape":119,"Coordinates":[4.338566,51.83571],"Attributes":{"name":"Kikkerveen","highway":"unclassified"}},{"Shape":122,"Coordinates":[4.339928,51.8356],"Attributes":{"name":"Kikkerveen","highway":"unclassified"}},{"Shape":125,"Coordinates":[4.339431,51.83679],"Attributes":{"name":"Ottersveen","highway":"unclassified"}},{"Shape":125,"Coordinates":[4.341186,51.83651],"Attributes":{"name":"De Landmeter","highway":"unclassified","maxspeed":"30"}},{"Shape":126,"Coordinates":[4.337694,51.83784],"Attributes":{"name":"De Waarsman","highway":"residential"}},{"Shape":128,"Coordinates":[4.335287,51.83616],"Attributes":{"name":"De Landmeter","highway":"unclassified","maxspeed":"30"}},{"Shape":128,"Coordinates":[4.336479,51.83564],"Attributes":{"name":"Kikkerveen","highway":"residential"}},{"Shape":129,"Coordinates":[4.336829,51.83689],"Attributes":{"name":"Beverveen","highway":"unclassified"}},{"Shape":132,"Coordinates":[4.335125,51.83722],"Attributes":{"name":"Beverveen","highway":"residential"}},{"Shape":134,"Coordinates":[4.333993,51.83689],"Attributes":{"highway":"residential"}},{"Shape":135,"Coordinates":[4.333991,51.83757],"Attributes":{"name":"Beverveen","highway":"unclassified"}},{"Shape":135,"Coordinates":[4.334,51.837],"Attributes":{"highway":"residential"}},{"Shape":137,"Coordinates":[4.333991,51.83757],"Attributes":{"name":"Beverveen","highway":"unclassified"}},{"Shape":138,"Coordinates":[4.333993,51.83689],"Attributes":{"highway":"residential"}},{"Shape":140,"Coordinates":[4.335125,51.83722],"Attributes":{"name":"Beverveen","highway":"residential"}},{"Shape":143,"Coordinates":[4.336397,51.83626],"Attributes":{"name":"Beverveen","highway":"unclassified"}},{"Shape":143,"Coordinates":[4.336829,51.83689],"Attributes":{"name":"Beverveen","highway":"unclassified"}},{"Shape":147,"Coordinates":[4.336166,51.83697],"Attributes":{"name":"Beverveen","highway":"unclassified"}},{"Shape":148,"Coordinates":[4.335287,51.83616],"Attributes":{"name":"De Landmeter","highway":"unclassified","maxspeed":"30"}},{"Shape":148,"Coordinates":[4.33763,51.83636],"Attributes":{"name":"De Landmeter","highway":"unclassified","maxspeed":"30"}},{"Shape":148,"Coordinates":[4.336479,51.83564],"Attributes":{"name":"Kikkerveen","highway":"residential"}},{"Shape":154,"Coordinates":[4.335287,51.83616],"Attributes":{"name":"De Landmeter","highway":"unclassified","maxspeed":"30"}},{"Shape":154,"Coordinates":[4.336342,51.83686],"Attributes":{"name":"Beverveen","highway":"unclassified"}},{"Shape":156,"Coordinates":[4.339484,51.83644],"Attributes":{"name":"De Landmeter","highway":"unclassified","maxspeed":"30"}},{"Shape":157,"Coordinates":[4.337609,51.83812],"Attributes":{"highway":"residential","oneway":"yes"}},{"Shape":159,"Coordinates":[4.337631,51.8382],"Attributes":{"name":"Heemraadlaan","junction":"roundabout","highway":"secondary"}},{"Shape":162,"Coordinates":[4.33791,51.83837],"Attributes":{"name":"Heemraadlaan","junction":"roundabout","highway":"secondary"}},{"Shape":165,"Coordinates":[4.338009,51.83842],"Attributes":{"name":"Heemraadlaan","oneway":"yes","highway":"secondary"}},{"Shape":167,"Coordinates":[4.344432,51.84135],"Attributes":{"name":"Schenkelweg","maxspeed":"50","oneway":"yes","highway":"secondary"}},{"Shape":167,"Coordinates":[4.344879,51.83862],"Attributes":{"name":"De Dijkgraaf","maxspeed":"50","highway":"tertiary","oneway":"yes"}},{"Shape":168,"Coordinates":[4.344985,51.83865],"Attributes":{"highway":"tertiary","oneway":"yes"}},{"Shape":169,"Coordinates":[4.344985,51.83865],"Attributes":{"name":"Schenkelweg","maxspeed":"50","highway":"tertiary","oneway":"yes"}},{"Shape":177,"Coordinates":[4.344674,51.8416],"Attributes":{"name":"Schenkelweg","maxspeed":"50","oneway":"yes","highway":"secondary"}},{"Shape":177,"Coordinates":[4.344414,51.84153],"Attributes":{"name":"Maaswijkweg","maxspeed":"50","highway":"tertiary","oneway":"yes"}},{"Shape":179,"Coordinates":[4.345485,51.84163],"Attributes":{"name":"Florianusstraat","highway":"service"}},{"Shape":180,"Coordinates":[4.346291,51.84145],"Attributes":{"highway":"unclassified"}},{"Shape":180,"Coordinates":[4.34621,51.84166],"Attributes":{"highway":"unclassified"}},{"Shape":181,"Coordinates":[4.347215,51.84171],"Attributes":{"highway":"service"}},{"Shape":182,"Coordinates":[4.348441,51.84174],"Attributes":{"highway":"unclassified"}},{"Shape":187,"Coordinates":[4.349741,51.84151],"Attributes":{"name":"Maaswijkweg","maxspeed":"50","highway":"tertiary","junction":"roundabout"}},{"Shape":190,"Coordinates":[4.349833,51.84121],"Attributes":{"name":"Maaswijkweg","maxspeed":"50","highway":"tertiary","junction":"roundabout"}},{"Shape":191,"Coordinates":[4.349949,51.8412],"Attributes":{"name":"Hürthstraat","highway":"unclassified","oneway":"yes"}},{"Shape":192,"Coordinates":[4.349835,51.84094],"Attributes":{"name":"Hürthstraat","highway":"living_street"}},{"Shape":193,"Coordinates":[4.349546,51.84083],"Attributes":{"name":"Thetfordstraat","highway":"living_street"}},{"Shape":195,"Coordinates":[4.349468,51.84029],"Attributes":{"name":"Hürthstraat","highway":"living_street"}},{"Shape":196,"Coordinates":[4.349247,51.84026],"Attributes":{"name":"Hürthstraat","highway":"living_street"}},{"Shape":207,"Coordinates":[4.349468,51.84029],"Attributes":{"name":"Hürthstraat","highway":"living_street"}},{"Shape":209,"Coordinates":[4.349546,51.84083],"Attributes":{"name":"Thetfordstraat","highway":"living_street"}},{"Shape":210,"Coordinates":[4.349835,51.84094],"Attributes":{"name":"Hürthstraat","highway":"living_street"}},{"Shape":211,"Coordinates":[4.349779,51.84123],"Attributes":{"highway":"unclassified","oneway":"yes"}},{"Shape":212,"Coordinates":[4.349833,51.84121],"Attributes":{"name":"Maaswijkweg","maxspeed":"50","highway":"tertiary","junction":"roundabout"}},{"Shape":214,"Coordinates":[4.350117,51.84124],"Attributes":{"name":"Maaswijkweg","maxspeed":"50","highway":"tertiary","junction":"roundabout"}},{"Shape":220,"Coordinates":[4.356475,51.83973],"Attributes":{"name":"Maaswijkweg","maxspeed":"50","highway":"tertiary","junction":"roundabout"}},{"Shape":223,"Coordinates":[4.356627,51.8395],"Attributes":{"name":"Maaswijkweg","maxspeed":"50","highway":"tertiary","junction":"roundabout"}},{"Shape":226,"Coordinates":[4.356225,51.83888],"Attributes":{"name":"Joke Smitlaan","maxspeed":"50","highway":"tertiary","oneway":"yes"}},{"Shape":227,"Coordinates":[4.356521,51.83856],"Attributes":{"name":"Aletta Jacobsstraat","highway":"residential","maxspeed":"30"}},{"Shape":227,"Coordinates":[4.355722,51.83817],"Attributes":{"name":"Joke Smitlaan","maxspeed":"50","highway":"tertiary"}},{"Shape":228,"Coordinates":[4.355413,51.83882],"Attributes":{"name":"Marga Klompéstraat","highway":"residential","maxspeed":"30"}},{"Shape":228,"Coordinates":[4.355442,51.83807],"Attributes":{"name":"Suze Groenewegstraat","highway":"residential","maxspeed":"30"}},{"Shape":230,"Coordinates":[4.355413,51.83882],"Attributes":{"name":"Marga Klompéstraat","highway":"residential","maxspeed":"30"}},{"Shape":231,"Coordinates":[4.355722,51.83817],"Attributes":{"name":"Joke Smitlaan","maxspeed":"50","highway":"tertiary"}},{"Shape":231,"Coordinates":[4.356095,51.83873],"Attributes":{"name":"Joke Smitlaan","maxspeed":"50","highway":"tertiary"}},{"Shape":235,"Coordinates":[4.358305,51.83854],"Attributes":{"name":"Aletta Jacobsstraat","highway":"residential","maxspeed":"30"}},{"Shape":236,"Coordinates":[4.357479,51.83744],"Attributes":{"name":"Wilhelmina Bladergroenstraat","highway":"residential","maxspeed":"30"}},{"Shape":236,"Coordinates":[4.356625,51.83799],"Attributes":{"name":"Catharina van Tussenbroekstraat","highway":"residential","maxspeed":"30"}},{"Shape":238,"Coordinates":[4.357479,51.83744],"Attributes":{"name":"Wilhelmina Bladergroenstraat","highway":"residential","maxspeed":"30"}},{"Shape":239,"Coordinates":[4.358305,51.83854],"Attributes":{"name":"Aletta Jacobsstraat","highway":"residential","maxspeed":"30"}},{"Shape":243,"Coordinates":[4.355865,51.83872],"Attributes":{"name":"Marga Klompéstraat","highway":"residential","maxspeed":"30"}},{"Shape":243,"Coordinates":[4.355722,51.83817],"Attributes":{"name":"Joke Smitlaan","maxspeed":"50","highway":"tertiary"}},{"Shape":244,"Coordinates":[4.356528,51.83948],"Attributes":{"name":"Joke Smitlaan","maxspeed":"50","highway":"tertiary","oneway":"yes"}},{"Shape":247,"Coordinates":[4.356627,51.8395],"Attributes":{"name":"Maaswijkweg","maxspeed":"50","highway":"tertiary","junction":"roundabout"}},{"Shape":249,"Coordinates":[4.35768,51.83932],"Attributes":{"name":"Maaswijkweg","maxspeed":"50","highway":"tertiary","oneway":"yes"}},{"Shape":252,"Coordinates":[4.358794,51.83924],"Attributes":{"name":"Maaswijkweg","maxspeed":"50","highway":"tertiary","oneway":"yes"}},{"Shape":258,"Coordinates":[4.356475,51.83973],"Attributes":{"name":"Maaswijkweg","maxspeed":"50","highway":"tertiary","junction":"roundabout"}},{"Shape":259,"Coordinates":[4.35493,51.84024],"Attributes":{"highway":"service"}},{"Shape":262,"Coordinates":[4.350117,51.84124],"Attributes":{"name":"Maaswijkweg","maxspeed":"50","highway":"tertiary","junction":"roundabout"}},{"Shape":265,"Coordinates":[4.350068,51.8416],"Attributes":{"highway":"unclassified","maxspeed":"50","oneway":"yes"}},{"Shape":267,"Coordinates":[4.350018,51.84171],"Attributes":{"name":"Rivierlaan","highway":"unclassified","maxspeed":"50","oneway":"yes"}},{"Shape":269,"Coordinates":[4.349741,51.84151],"Attributes":{"name":"Maaswijkweg","maxspeed":"50","highway":"tertiary","junction":"roundabout"}},{"Shape":273,"Coordinates":[4.348428,51.8416],"Attributes":{"highway":"unclassified"}},{"Shape":273,"Coordinates":[4.34844,51.84183],"Attributes":{"highway":"unclassified"}},{"Shape":276,"Coordinates":[4.347239,51.84156],"Attributes":{"highway":"service"}},{"Shape":276,"Coordinates":[4.347233,51.84179],"Attributes":{"highway":"service"}},{"Shape":278,"Coordinates":[4.346251,51.84152],"Attributes":{"highway":"unclassified"}},{"Shape":278,"Coordinates":[4.346198,51.84174],"Attributes":{"highway":"unclassified"}},{"Shape":279,"Coordinates":[4.345497,51.84148],"Attributes":{"name":"Florianusstraat","highway":"service"}},{"Shape":279,"Coordinates":[4.345477,51.8417],"Attributes":{"name":"Florianusstraat","highway":"service"}},{"Shape":282,"Coordinates":[4.344689,51.84147],"Attributes":{"name":"Schenkelweg","maxspeed":"50","oneway":"yes","highway":"secondary"}},{"Shape":282,"Coordinates":[4.344577,51.84244],"Attributes":{"name":"Schenkelweg","maxspeed":"50","oneway":"yes","highway":"secondary"}},{"Shape":283,"Coordinates":[4.344689,51.84147],"Attributes":{"name":"Maaswijkweg","maxspeed":"50","highway":"tertiary","oneway":"yes"}},{"Shape":283,"Coordinates":[4.344388,51.84169],"Attributes":{"name":"Schenkelweg","maxspeed":"50","oneway":"yes","highway":"secondary"}},{"Shape":288,"Coordinates":[4.343559,51.83862],"Attributes":{"name":"Heemraadlaan","maxspeed":"50","highway":"secondary"}},{"Shape":288,"Coordinates":[4.344918,51.8387],"Attributes":{"name":"Heemraadlaan","maxspeed":"50","highway":"secondary"}},{"Shape":294,"Coordinates":[4.344841,51.83751],"Attributes":{"name":"Wezelveen","highway":"unclassified"}},{"Shape":298,"Coordinates":[4.345014,51.83635],"Attributes":{"name":"De Dijkgraaf","highway":"tertiary","oneway":"yes"}},{"Shape":299,"Coordinates":[4.344693,51.83624],"Attributes":{"name":"De Landmeter","highway":"unclassified","maxspeed":"30"}},{"Shape":299,"Coordinates":[4.3446,51.835],"Attributes":{"name":"De Dijkgraaf","highway":"tertiary"}},{"Shape":299,"Coordinates":[4.345411,51.83616],"Attributes":{"name":"De Landmeter","highway":"unclassified","maxspeed":"30"}},{"Shape":303,"Coordinates":[4.344503,51.83449],"Attributes":{"name":"Vlinderveen","highway":"residential"}},{"Shape":305,"Coordinates":[4.344296,51.8336],"Attributes":{"highway":"service"}},{"Shape":305,"Coordinates":[4.344756,51.83363],"Attributes":{"name":"De Dijkgraaf","highway":"tertiary"}},{"Shape":309,"Coordinates":[4.34476,51.83287],"Attributes":{"name":"De Dijkgraaf","highway":"tertiary"}},{"Shape":310,"Coordinates":[4.345811,51.8327],"Attributes":{"name":"Karperveen","highway":"unclassified"}},{"Shape":311,"Coordinates":[4.346771,51.83299],"Attributes":{"name":"De Ganzenjager","highway":"unclassified","maxspeed":"30"}},{"Shape":312,"Coordinates":[4.3469,51.8333],"Attributes":{"name":"Snoekenveen","highway":"living_street"}},{"Shape":316,"Coordinates":[4.345992,51.83382],"Attributes":{"name":"Snoekenveen","highway":"living_street"}},{"Shape":319,"Coordinates":[4.34777,51.83447],"Attributes":{"name":"Snoekenveen","highway":"living_street"}},{"Shape":331,"Coordinates":[4.34768,51.8357],"Attributes":{"name":"Snoekenveen","highway":"living_street"}},{"Shape":334,"Coordinates":[4.348073,51.83586],"Attributes":{"name":"Snoekenveen","highway":"living_street"}},{"Shape":336,"Coordinates":[4.34768,51.8357],"Attributes":{"name":"Snoekenveen","highway":"living_street"}},{"Shape":337,"Coordinates":[4.347182,51.8361],"Attributes":{"name":"De Landmeter","highway":"unclassified","maxspeed":"30"}},{"Shape":340,"Coordinates":[4.349784,51.83622],"Attributes":{"name":"Snoekenveen","highway":"living_street"}},{"Shape":342,"Coordinates":[4.349653,51.83682],"Attributes":{"name":"Baarsveen","highway":"unclassified"}},{"Shape":342,"Coordinates":[4.348907,51.83681],"Attributes":{"name":"Baarsveen","highway":"unclassified"}},{"Shape":344,"Coordinates":[4.348907,51.83681],"Attributes":{"name":"Baarsveen","highway":"unclassified"}},{"Shape":346,"Coordinates":[4.348951,51.83627],"Attributes":{"name":"De Landmeter","highway":"unclassified","maxspeed":"30"}},{"Shape":347,"Coordinates":[4.350406,51.83611],"Attributes":{"name":"Snoekenveen","highway":"living_street"}},{"Shape":347,"Coordinates":[4.349739,51.83612],"Attributes":{"name":"Snoekenveen","highway":"living_street"}},{"Shape":354,"Coordinates":[4.349291,51.83452],"Attributes":{"name":"Snoekenveen","highway":"living_street"}},{"Shape":355,"Coordinates":[4.349522,51.8348],"Attributes":{"name":"Snoekenveen","highway":"living_street"}},{"Shape":355,"Coordinates":[4.35,51.8356],"Attributes":{"name":"Snoekenveen","highway":"living_street"}},{"Shape":359,"Coordinates":[4.350646,51.83542],"Attributes":{"name":"Snoekenveen","highway":"living_street"}},{"Shape":361,"Coordinates":[4.349284,51.8356],"Attributes":{"name":"Snoekenveen","highway":"living_street"}},{"Shape":362,"Coordinates":[4.349355,51.83574],"Attributes":{"name":"Snoekenveen","highway":"living_street"}},{"Shape":364,"Coordinates":[4.34936,51.83616],"Attributes":{"name":"Snoekenveen","highway":"living_street"}},{"Shape":365,"Coordinates":[4.350406,51.83611],"Attributes":{"name":"Snoekenveen","highway":"living_street"}},{"Shape":366,"Coordinates":[4.348951,51.83627],"Attributes":{"name":"De Landmeter","highway":"unclassified","maxspeed":"30"}},{"Shape":368,"Coordinates":[4.348907,51.83681],"Attributes":{"name":"Baarsveen","highway":"unclassified"}},{"Shape":369,"Coordinates":[4.350094,51.83665],"Attributes":{"name":"Baarsveen","highway":"unclassified"}},{"Shape":370,"Coordinates":[4.3498,51.8374],"Attributes":{"name":"Baarsveen","highway":"unclassified"}},{"Shape":370,"Coordinates":[4.350549,51.83707],"Attributes":{"name":"Baarsveen","highway":"unclassified"}},{"Shape":370,"Coordinates":[4.350449,51.83746],"Attributes":{"name":"Baarsveen","highway":"unclassified"}},{"Shape":379,"Coordinates":[4.350549,51.83707],"Attributes":{"name":"Baarsveen","highway":"unclassified"}},{"Shape":379,"Coordinates":[4.350449,51.83746],"Attributes":{"name":"Baarsveen","highway":"unclassified"}},{"Shape":380,"Coordinates":[4.350094,51.83665],"Attributes":{"name":"Baarsveen","highway":"unclassified"}},{"Shape":381,"Coordinates":[4.349616,51.83646],"Attributes":{"name":"Baarsveen","highway":"unclassified"}},{"Shape":384,"Coordinates":[4.347543,51.83648],"Attributes":{"name":"Baarsveen","highway":"unclassified"}},{"Shape":384,"Coordinates":[4.3484,51.83716],"Attributes":{"name":"Baarsveen","highway":"unclassified"}},{"Shape":388,"Coordinates":[4.347641,51.83677],"Attributes":{"name":"Baarsveen","highway":"unclassified"}},{"Shape":389,"Coordinates":[4.347106,51.83609],"Attributes":{"name":"Baarsveen","highway":"unclassified"}},{"Shape":391,"Coordinates":[4.346519,51.83699],"Attributes":{"name":"Baarsveen","highway":"unclassified"}},{"Shape":392,"Coordinates":[4.346567,51.83616],"Attributes":{"name":"Baarsveen","highway":"unclassified"}},{"Shape":392,"Coordinates":[4.34587,51.83649],"Attributes":{"name":"Baarsveen","highway":"residential"}}]}