{"Shape":[[4.33733,51.84451],[4.33736,51.84454],[4.337123,51.84464],[4.336959,51.8447],[4.33693,51.84472],[4.336197,51.84502],[4.335715,51.84522],[4.335527,51.8453],[4.335109,51.84489],[4.334772,51.84456],[4.334689,51.84449],[4.33406,51.84476],[4.333834,51.84485],[4.33357,51.84496],[4.333456,51.84501],[4.3331,51.8447],[4.332345,51.84402],[4.332991,51.84376],[4.332345,51.84402],[4.3331,51.8447],[4.333456,51.84501],[4.33348,51.845],[4.33357,51.84496],[4.334485,51.84576],[4.334764,51.84564],[4.334864,51.84559],[4.335527,51.8453],[4.335715,51.84522],[4.336032,51.84509],[4.335715,51.84522],[4.335527,51.8453],[4.335109,51.84489],[4.334772,51.84456],[4.334689,51.84449],[4.33406,51.84476],[4.333834,51.84485],[4.33357,51.84496],[4.333456,51.84501],[4.333418,51.84504],[4.33327,51.84508],[4.333675,51.84537],[4.334105,51.84568],[4.334311,51.84584],[4.334589,51.84608],[4.335206,51.84665],[4.33528,51.84671],[4.33539,51.8468],[4.335445,51.84685],[4.335573,51.84696],[4.3357,51.84708],[4.335877,51.84722],[4.335976,51.84728],[4.33611,51.84735],[4.336409,51.84748],[4.336638,51.84756],[4.336847,51.84761],[4.337088,51.84768],[4.337388,51.84776],[4.338058,51.84794],[4.338166,51.84797],[4.338386,51.84801],[4.338574,51.84804],[4.338907,51.84808],[4.33898,51.84809],[4.339411,51.84814],[4.339949,51.84815],[4.339942,51.84821],[4.339941,51.84828],[4.339931,51.84838],[4.342422,51.84838],[4.342572,51.84838],[4.3428,51.8485],[4.343182,51.84875],[4.343457,51.84892],[4.343237,51.84914],[4.34311,51.84925],[4.34225,51.84966],[4.342212,51.84968],[4.34225,51.84966],[4.34311,51.84925],[4.343237,51.84914],[4.343457,51.84892],[4.34341,51.84889],[4.343182,51.84875],[4.3428,51.8485],[4.342572,51.84838],[4.342422,51.84838],[4.339931,51.84838],[4.339941,51.84828],[4.339942,51.84821],[4.339718,51.84821],[4.339446,51.8482],[4.338929,51.84819],[4.33885,51.84818],[4.338763,51.84817],[4.338435,51.84813],[4.338263,51.84808],[4.338108,51.84803],[4.337734,51.84794],[4.337349,51.84785],[4.337033,51.84776],[4.336783,51.84769],[4.336349,51.84756],[4.336016,51.84742],[4.335873,51.84734],[4.335759,51.84726],[4.335579,51.84713],[4.335454,51.84701],[4.335348,51.8469],[4.335173,51.84698],[4.33511,51.84701],[4.334812,51.84714],[4.334324,51.84732],[4.333602,51.84757],[4.333279,51.84769],[4.332897,51.8478],[4.332326,51.84809],[4.331856,51.84834],[4.331668,51.84846],[4.331352,51.84873],[4.33128,51.8488],[4.33132,51.84882],[4.331369,51.84888],[4.331368,51.84894],[4.331348,51.84897],[4.331888,51.84911],[4.332486,51.84933],[4.332723,51.84946],[4.332773,51.84948],[4.333046,51.84968],[4.33317,51.84978],[4.333248,51.84985],[4.333157,51.8499],[4.33298,51.84998],[4.332641,51.8501],[4.332226,51.85023],[4.332108,51.85028],[4.332148,51.85034],[4.332422,51.85058],[4.332453,51.85065],[4.332321,51.85073],[4.332001,51.85083],[4.331883,51.8507],[4.331703,51.85074],[4.331474,51.8508],[4.331285,51.85085],[4.331474,51.8508],[4.331703,51.85074],[4.331883,51.8507],[4.332001,51.85083],[4.332321,51.85073],[4.332453,51.85065],[4.332422,51.85058],[4.332148,51.85034],[4.332108,51.85028],[4.331715,51.85038],[4.331677,51.85033],[4.331636,51.85027],[4.33103,51.85031],[4.331636,51.85027],[4.331677,51.85033],[4.331715,51.85038],[4.331476,51.85044],[4.331225,51.85048],[4.330701,51.85053],[4.330697,51.85058],[4.33073,51.85077],[4.330822,51.8509],[4.330999,51.85117],[4.331004,51.85118],[4.330822,51.8509],[4.33073,51.85077],[4.330697,51.85058],[4.330701,51.85053],[4.33042,51.85056],[4.329352,51.85061],[4.329322,51.85065],[4.329141,51.8509],[4.328942,51.85114],[4.328838,51.85121],[4.32871,51.85123],[4.328696,51.85123],[4.328696,51.85123],[4.328696,51.85123],[4.328838,51.85121],[4.328942,51.85114],[4.329141,51.8509],[4.329322,51.85065],[4.329352,51.85061],[4.329329,51.85047],[4.329352,51.85061],[4.329581,51.85059],[4.329352,51.85061],[4.329322,51.85065],[4.329141,51.8509],[4.328942,51.85114],[4.328838,51.85121],[4.328696,51.85123],[4.328546,51.85124],[4.328413,51.85122],[4.328269,51.85118],[4.328048,51.85108],[4.32791,51.85096],[4.327793,51.8508],[4.32772,51.85061],[4.327698,51.85055],[4.327627,51.85034],[4.327489,51.85014],[4.327439,51.85012],[4.327358,51.85014],[4.327279,51.85016],[4.326955,51.84972],[4.326699,51.84947],[4.3267,51.84941],[4.326747,51.84937],[4.32674,51.84935],[4.326747,51.84937],[4.3267,51.84941],[4.326699,51.84947],[4.326955,51.84972],[4.327279,51.85016],[4.327358,51.85014],[4.327439,51.85012],[4.327489,51.85014],[4.327627,51.85034],[4.327698,51.85055],[4.32772,51.85061],[4.327793,51.8508],[4.32791,51.85096],[4.328048,51.85108],[4.328269,51.85118],[4.328413,51.85122],[4.328546,51.85124],[4.32847,51.85144],[4.328449,51.85148],[4.328104,51.85183],[4.328173,51.85185],[4.328633,51.85201],[4.3291,51.8522],[4.33009,51.85262],[4.330145,51.85265],[4.330255,51.85269],[4.330449,51.85274],[4.330648,51.85275],[4.330738,51.85278],[4.330772,51.85279],[4.330915,51.85284],[4.330986,51.85272],[4.331422,51.85225],[4.332001,51.85176],[4.332529,51.85142],[4.332928,51.8512],[4.33375,51.85076],[4.33386,51.8507],[4.334012,51.85062],[4.333867,51.85051],[4.333309,51.85004],[4.33326,51.85001],[4.333179,51.84999],[4.33298,51.84998],[4.332641,51.8501],[4.332226,51.85023],[4.332183,51.8502],[4.332135,51.84998],[4.332183,51.8502],[4.332226,51.85023],[4.332641,51.8501],[4.332908,51.84991],[4.333076,51.84983],[4.332958,51.84973],[4.332677,51.84953],[4.332369,51.84938],[4.33193,51.84922],[4.331503,51.84909],[4.331293,51.84901],[4.331227,51.84903],[4.331153,51.84904],[4.33108,51.84903],[4.331021,51.84912],[4.330998,51.84916],[4.331021,51.84912],[4.33108,51.84903],[4.331018,51.849],[4.330974,51.84897],[4.330954,51.84892],[4.330959,51.84888],[4.330841,51.84883],[4.330301,51.84855],[4.330193,51.84849],[4.330126,51.84853],[4.329433,51.84902],[4.32921,51.84918],[4.329226,51.84929],[4.329252,51.84946],[4.329259,51.84946],[4.329252,51.84946],[4.32921,51.84918],[4.329433,51.84902],[4.330126,51.84853],[4.330193,51.84849],[4.329443,51.84808],[4.32872,51.84771],[4.328626,51.84762],[4.328483,51.84769],[4.327596,51.84834],[4.327425,51.84844],[4.327215,51.84851],[4.326477,51.84868],[4.326209,51.84875],[4.326143,51.84877],[4.326109,51.84878],[4.326077,51.84879],[4.325401,51.84909],[4.325277,51.84913],[4.325092,51.84913],[4.324899,51.84908],[4.324706,51.84899],[4.324555,51.84892],[4.324349,51.84882],[4.324225,51.84877],[4.322913,51.84838],[4.321963,51.84825],[4.321599,51.84818],[4.321369,51.84812],[4.321151,51.84805],[4.321066,51.84811],[4.321002,51.84816],[4.3208,51.84833],[4.320451,51.84859],[4.319454,51.84935],[4.319144,51.84961],[4.318772,51.84988],[4.318758,51.84992],[4.318635,51.85003],[4.318421,51.85029],[4.318295,51.85054],[4.318264,51.85056],[4.318069,51.85106],[4.317905,51.85147],[4.317861,51.85158],[4.317808,51.8517],[4.317775,51.85178],[4.317684,51.85196],[4.317599,51.85212],[4.317521,51.8523],[4.317275,51.85261],[4.317192,51.85284],[4.317157,51.85292],[4.317067,51.85312],[4.317019,51.85323],[4.316827,51.85366],[4.316722,51.8539],[4.316459,51.8545],[4.316307,51.85448],[4.315477,51.85431],[4.315199,51.85427],[4.315067,51.85454],[4.31471,51.85528],[4.314587,51.85526],[4.31471,51.85528],[4.315199,51.85427],[4.315477,51.85431],[4.315622,51.85399],[4.315617,51.854],[4.315956,51.85327],[4.315232,51.85314],[4.314386,51.85291],[4.314612,51.85265],[4.314917,51.85229],[4.315,51.8522],[4.317132,51.85259],[4.317275,51.85261],[4.317325,51.85233],[4.317343,51.85227],[4.317437,51.85209],[4.317519,51.85193],[4.317684,51.85196],[4.317936,51.85201],[4.318954,51.85219],[4.319805,51.85235],[4.320251,51.85243],[4.321268,51.85262],[4.321321,51.85263],[4.321667,51.8527],[4.322911,51.85293],[4.323774,51.8531],[4.324452,51.85324],[4.325118,51.85337],[4.325302,51.85341],[4.325373,51.85328],[4.325553,51.85301],[4.325679,51.85267],[4.325161,51.85257],[4.324966,51.85254],[4.324816,51.85252],[4.324779,51.85251],[4.324724,51.8525],[4.324084,51.85237],[4.323496,51.8523],[4.323434,51.85226],[4.32341,51.85223],[4.323465,51.85203],[4.323463,51.85185],[4.323457,51.85166],[4.323302,51.85097],[4.323481,51.85092],[4.323934,51.8508],[4.324201,51.85075],[4.324437,51.85071],[4.324591,51.85072],[4.324603,51.85044],[4.324648,51.85028],[4.324717,51.85025],[4.324599,51.84996],[4.32446,51.84978],[4.324599,51.84996],[4.324717,51.85025],[4.324648,51.85028],[4.324603,51.85044],[4.324591,51.85072],[4.324437,51.85071],[4.324201,51.85075],[4.323934,51.8508],[4.323775,51.85063],[4.323048,51.84929],[4.323685,51.84901],[4.323937,51.8489],[4.324225,51.84877],[4.324349,51.84882],[4.324555,51.84892],[4.324706,51.84899],[4.324899,51.84908],[4.324858,51.84915],[4.324908,51.84934],[4.325124,51.84966],[4.325201,51.84978],[4.325124,51.84966],[4.324908,51.84934],[4.324858,51.84915],[4.324899,51.84908],[4.325092,51.84913],[4.325277,51.84913],[4.325401,51.84909],[4.326077,51.84879],[4.326109,51.84878],[4.326143,51.84877],[4.326209,51.84875],[4.326477,51.84868],[4.327215,51.84851],[4.327252,51.8485],[4.327425,51.84844],[4.327596,51.84834],[4.328483,51.84769],[4.328626,51.84762],[4.32875,51.8476],[4.32889,51.84764],[4.328991,51.84769],[4.329321,51.84789],[4.329386,51.84793],[4.329487,51.84799],[4.329535,51.84801],[4.3303,51.8484],[4.3304,51.84846],[4.330956,51.84875],[4.331035,51.8488],[4.331092,51.84879],[4.331221,51.84879],[4.33128,51.8488],[4.331352,51.84873],[4.331668,51.84846],[4.331856,51.84834],[4.332326,51.84809],[4.332897,51.8478],[4.333105,51.84767],[4.33334,51.84756],[4.334251,51.84725],[4.334736,51.84706],[4.33496,51.84697],[4.33504,51.84694],[4.335099,51.84692],[4.335281,51.84685],[4.33539,51.8468],[4.335524,51.84675],[4.335579,51.84673],[4.335611,51.84668],[4.335656,51.84656],[4.335763,51.8465],[4.335908,51.84644],[4.336365,51.84625],[4.336816,51.84605],[4.337243,51.84587],[4.337677,51.84568],[4.337641,51.8456],[4.337658,51.84554],[4.337641,51.8456],[4.337677,51.84568],[4.338938,51.84515],[4.339327,51.84499],[4.339438,51.84496],[4.339592,51.84492],[4.339438,51.84496],[4.339325,51.84485],[4.339207,51.84473],[4.338476,51.84408],[4.33842,51.8441],[4.337861,51.84433],[4.33736,51.84454],[4.33733,51.84451]],"ShapeMeta":[{"Shape":0,"Attributes":{"profile":"car"}},{"Shape":1,"Attributes":{"name":"Kleermaker","highway":"residential","profile":"car","distance":"3.748377","time":"0.3598442"}},{"Shape":2,"Attributes":{"name":"Veerman","highway":"residential","maxspeed":"30","profile":"car","distance":"23.64838","time":"3.543844"}},{"Shape":3,"Attributes":{"name":"Veerman","highway":"residential","maxspeed":"30","profile":"car","distance":"36.94838","time":"5.671844"}},{"Shape":4,"Attributes":{"name":"Veerman","highway":"residential","maxspeed":"30","profile":"car","distance":"39.44838","time":"6.071844"}},{"Shape":6,"Attributes":{"name":"Veerman","highway":"residential","maxspeed":"30","profile":"car","distance":"139.9484","time":"22.15184"}},{"Shape":7,"Attributes":{"name":"Veerman","highway":"residential","maxspeed":"30","profile":"car","distance":"155.3484","time":"24.61584"}},{"Shape":9,"Attributes":{"name":"Wagenmaker","highway":"residential","profile":"car","distance":"252.2484","time":"33.91824"}},{"Shape":10,"Attributes":{"name":"Wagenmaker","highway":"residential","profile":"car","distance":"262.4484","time":"34.89744"}},{"Shape":11,"Attributes":{"name":"Barbier","highway":"residential","profile":"car","distance":"315.0484","time":"219.947"}},{"Shape":12,"Attributes":{"name":"Barbier","highway":"residential","profile":"car","distance":"333.8484","time":"221.7518"}},{"Shape":13,"Attributes":{"name":"Barbier","highway":"residential","profile":"car","distance":"355.7484","time":"223.8542"}},{"Shape":14,"Attributes":{"name":"Barbier","highway":"residential","profile":"car","distance":"365.2484","time":"224.7662"}},{"Shape":17,"Attributes":{"name":"Schrijnwerker","highway":"residential","profile":"car","distance":"552.4313","time":"242.7358"}},{"Shape":20,"Attributes":{"name":"Schrijnwerker","highway":"residential","profile":"car","distance":"739.6142","time":"440.7054"}},{"Shape":21,"Attributes":{"name":"Barbier","highway":"residential","profile":"car","distance":"741.6422","time":"440.9001"}},{"Shape":22,"Attributes":{"name":"Barbier","highway":"residential","profile":"car","distance":"749.1142","time":"621.6173"}},{"Shape":23,"Attributes":{"name":"Wolwever","maxspeed":"30","highway":"living_street","profile":"car","distance":"857.7142","time":"638.9933"}},{"Shape":24,"Attributes":{"name":"Veerman","highway":"residential","maxspeed":"30","profile":"car","distance":"881.3259","time":"642.7712"}},{"Shape":26,"Attributes":{"name":"Veerman","highway":"residential","maxspeed":"30","profile":"car","distance":"945.7142","time":"833.0733"}},{"Shape":27,"Attributes":{"name":"Veerman","highway":"residential","maxspeed":"30","profile":"car","distance":"961.1143","time":"835.5373"}},{"Shape":28,"Attributes":{"name":"Veerman","highway":"residential","maxspeed":"30","profile":"car","distance":"987.5983","time":"839.7748"}},{"Shape":29,"Attributes":{"name":"Veerman","highway":"residential","maxspeed":"30","profile":"car","distance":"1014.082","time":"1024.012"}},{"Shape":30,"Attributes":{"name":"Veerman","highway":"residential","maxspeed":"30","profile":"car","distance":"1029.482","time":"1026.476"}},{"Shape":32,"Attributes":{"name":"Wagenmaker","highway":"residential","profile":"car","distance":"1126.382","time":"1035.779"}},{"Shape":33,"Attributes":{"name":"Wagenmaker","highway":"residential","profile":"car","distance":"1136.582","time":"1036.758"}},{"Shape":34,"Attributes":{"name":"Barbier","highway":"residential","profile":"car","distance":"1189.182","time":"1041.808"}},{"Shape":35,"Attributes":{"name":"Barbier","highway":"residential","profile":"car","distance":"1207.982","time":"1043.612"}},{"Shape":36,"Attributes":{"name":"Barbier","highway":"residential","profile":"car","distance":"1229.882","time":"1045.715"}},{"Shape":37,"Attributes":{"name":"Barbier","highway":"residential","profile":"car","distance":"1239.382","time":"1046.627"}},{"Shape":39,"Attributes":{"name":"Barbier","highway":"residential","profile":"car","distance":"1254.382","time":"1048.067"}},{"Shape":40,"Attributes":{"name":"Ruwaard van Puttenweg","maxspeed":"50","highway":"tertiary","oneway":"yes","profile":"car","distance":"1296.982","time":"1052.156"}},{"Shape":41,"Attributes":{"name":"Ruwaard van Puttenweg","maxspeed":"50","highway":"tertiary","oneway":"yes","profile":"car","distance":"1341.882","time":"1056.467"}},{"Shape":43,"Attributes":{"name":"Ruwaard van Puttenweg","maxspeed":"50","highway":"tertiary","oneway":"yes","profile":"car","distance":"1398.082","time":"1061.862"}},{"Shape":46,"Attributes":{"name":"Ruwaard van Puttenweg","maxspeed":"50","highway":"tertiary","oneway":"yes","profile":"car","distance":"1494.982","time":"1071.164"}},{"Shape":47,"Attributes":{"name":"Ruwaard van Puttenweg","maxspeed":"50","highway":"tertiary","oneway":"yes","profile":"car","distance":"1501.282","time":"1071.769"}},{"Shape":48,"Attributes":{"name":"Ruwaard van Puttenweg","maxspeed":"50","highway":"tertiary","oneway":"yes","profile":"car","distance":"1516.682","time":"1073.248"}},{"Shape":51,"Attributes":{"name":"Ruwaard van Puttenweg","maxspeed":"50","highway":"tertiary","oneway":"yes","profile":"car","distance":"1561.582","time":"1077.558"}},{"Shape":54,"Attributes":{"name":"Ruwaard van Puttenweg","maxspeed":"50","highway":"tertiary","oneway":"yes","profile":"car","distance":"1616.782","time":"1082.857"}},{"Shape":55,"Attributes":{"name":"Ruwaard van Puttenweg","maxspeed":"50","highway":"tertiary","oneway":"yes","profile":"car","distance":"1632.482","time":"1084.365"}},{"Shape":57,"Attributes":{"name":"Ruwaard van Puttenweg","maxspeed":"50","highway":"tertiary","oneway":"yes","profile":"car","distance":"1672.882","time":"1088.243"}},{"Shape":60,"Attributes":{"name":"Ruwaard van Puttenweg","maxspeed":"50","highway":"tertiary","oneway":"yes","profile":"car","distance":"1746.982","time":"1095.356"}},{"Shape":61,"Attributes":{"name":"Ruwaard van Puttenweg","maxspeed":"50","highway":"tertiary","oneway":"yes","profile":"car","distance":"1760.282","time":"1096.633"}},{"Shape":63,"Attributes":{"name":"Donaulaan","highway":"unclassified","maxspeed":"50","oneway":"yes","profile":"car","distance":"1788.682","time":"1099.36"}},{"Shape":65,"Attributes":{"name":"Donaulaan","highway":"unclassified","maxspeed":"50","oneway":"yes","profile":"car","distance":"1855.782","time":"1105.801"}},{"Shape":66,"Attributes":{"name":"Oude Maasweg","highway":"unclassified","profile":"car","distance":"1862.082","time":"1106.406"}},{"Shape":68,"Attributes":{"name":"Oude Maasweg","highway":"unclassified","profile":"car","distance":"1881.182","time":"1108.24"}},{"Shape":72,"Attributes":{"name":"Theemsweg","highway":"residential","profile":"car","distance":"2121.582","time":"1131.318"}},{"Shape":73,"Attributes":{"name":"Groenoord","highway":"residential","profile":"car","distance":"2147.782","time":"1133.833"}},{"Shape":74,"Attributes":{"name":"Groenoord","highway":"residential","profile":"car","distance":"2176.582","time":"1136.598"}},{"Shape":77,"Attributes":{"name":"Groenoord","highway":"residential","profile":"car","distance":"2269.626","time":"1145.53"}},{"Shape":80,"Attributes":{"name":"Groenoord","highway":"residential","profile":"car","distance":"2362.67","time":"1334.462"}},{"Shape":81,"Attributes":{"name":"Groenoord","highway":"residential","profile":"car","distance":"2391.47","time":"1337.227"}},{"Shape":82,"Attributes":{"name":"Groenoord","highway":"residential","profile":"car","distance":"2395.928","time":"1337.655"}},{"Shape":83,"Attributes":{"name":"Groenoord","highway":"residential","profile":"car","distance":"2417.67","time":"1519.742"}},{"Shape":87,"Attributes":{"name":"Theemsweg","highway":"residential","profile":"car","distance":"2658.07","time":"1542.821"}},{"Shape":89,"Attributes":{"name":"Oude Maasweg","highway":"unclassified","profile":"car","distance":"2677.17","time":"1544.654"}},{"Shape":90,"Attributes":{"name":"Donaulaan","highway":"unclassified","maxspeed":"50","oneway":"yes","profile":"car","distance":"2692.57","time":"1546.133"}},{"Shape":92,"Attributes":{"name":"Donaulaan","highway":"unclassified","maxspeed":"50","oneway":"yes","profile":"car","distance":"2746.77","time":"1551.336"}},{"Shape":95,"Attributes":{"name":"Donaulaan","highway":"unclassified","maxspeed":"50","oneway":"yes","profile":"car","distance":"2781.37","time":"1554.657"}},{"Shape":96,"Attributes":{"maxspeed":"50","oneway":"yes","highway":"tertiary_link","profile":"car","distance":"2794.27","time":"1555.896"}},{"Shape":97,"Attributes":{"name":"Ruwaard van Puttenweg","maxspeed":"50","highway":"tertiary","oneway":"yes","profile":"car","distance":"2806.17","time":"1557.038"}},{"Shape":98,"Attributes":{"name":"Ruwaard van Puttenweg","maxspeed":"50","highway":"tertiary","oneway":"yes","profile":"car","distance":"2833.77","time":"1559.688"}},{"Shape":101,"Attributes":{"name":"Ruwaard van Puttenweg","maxspeed":"50","highway":"tertiary","oneway":"yes","profile":"car","distance":"2904.969","time":"1566.523"}},{"Shape":104,"Attributes":{"name":"Ruwaard van Puttenweg","maxspeed":"50","highway":"tertiary","oneway":"yes","profile":"car","distance":"2978.97","time":"1573.627"}},{"Shape":107,"Attributes":{"name":"Ruwaard van Puttenweg","maxspeed":"50","highway":"tertiary","oneway":"yes","profile":"car","distance":"3025.47","time":"1578.091"}},{"Shape":108,"Attributes":{"name":"Ruwaard van Puttenweg","maxspeed":"50","highway":"tertiary","oneway":"yes","profile":"car","distance":"3040.07","time":"1579.493"}},{"Shape":111,"Attributes":{"name":"Centrumlaan","highway":"residential","maxspeed":"50","oneway":"yes","profile":"car","distance":"3085.57","time":"1583.861"}},{"Shape":113,"Attributes":{"name":"Centrumlaan","highway":"residential","maxspeed":"50","oneway":"yes","profile":"car","distance":"3181.669","time":"1593.086"}},{"Shape":115,"Attributes":{"name":"Centrumlaan","highway":"residential","maxspeed":"50","oneway":"yes","profile":"car","distance":"3236.47","time":"1598.347"}},{"Shape":116,"Attributes":{"name":"Centrumlaan","highway":"residential","maxspeed":"50","profile":"car","distance":"3286.97","time":"1603.195"}},{"Shape":120,"Attributes":{"name":"Centrumlaan","highway":"residential","maxspeed":"50","profile":"car","distance":"3394.57","time":"1613.525"}},{"Shape":124,"Attributes":{"name":"Centrumrotonde","highway":"unclassified","maxspeed":"50","oneway":"yes","junction":"roundabout","profile":"car","distance":"3416.17","time":"1615.598"}},{"Shape":127,"Attributes":{"name":"Doctor J M den Uyllaan","highway":"unclassified","maxspeed":"50","oneway":"yes","profile":"car","distance":"3525.472","time":"1626.091"}},{"Shape":130,"Attributes":{"name":"Doctor J M den Uyllaan","highway":"unclassified","maxspeed":"50","oneway":"yes","profile":"car","distance":"3573.27","time":"1810.68"}},{"Shape":131,"Attributes":{"name":"Doctor J M den Uyllaan","highway":"unclassified","maxspeed":"50","oneway":"yes","profile":"car","distance":"3582.57","time":"1811.572"}},{"Shape":132,"Attributes":{"name":"Gorsstraat","highway":"residential","oneway":"yes","profile":"car","distance":"3590.37","time":"1812.321"}},{"Shape":133,"Attributes":{"name":"Gorsstraat","highway":"residential","oneway":"yes","profile":"car","distance":"3605.669","time":"1813.79"}},{"Shape":134,"Attributes":{"name":"Gorsstraat","highway":"residential","oneway":"yes","profile":"car","distance":"3632.57","time":"1816.372"}},{"Shape":135,"Attributes":{"name":"Gorsstraat","highway":"residential","maxspeed":"30","profile":"car","distance":"3664.669","time":"1821.508"}},{"Shape":136,"Attributes":{"name":"Gorsstraat","highway":"residential","maxspeed":"30","profile":"car","distance":"3673.969","time":"1822.996"}},{"Shape":138,"Attributes":{"name":"Kolkplein","highway":"service","profile":"car","distance":"3713.969","time":"1829.396"}},{"Shape":139,"Attributes":{"name":"Kolkplein","highway":"service","profile":"car","distance":"3722.669","time":"1830.788"}},{"Shape":142,"Attributes":{"name":"Damstraat","highway":"service","profile":"car","distance":"3775.57","time":"1839.252"}},{"Shape":143,"Attributes":{"name":"Damstraat","highway":"service","profile":"car","distance":"3788.669","time":"1841.348"}},{"Shape":144,"Attributes":{"name":"Damstraat","highway":"service","profile":"car","distance":"3805.57","time":"1844.052"}},{"Shape":145,"Attributes":{"name":"Damstraat","highway":"service","profile":"car","distance":"3819.469","time":"1846.276"}},{"Shape":146,"Attributes":{"name":"Damstraat","highway":"service","profile":"car","distance":"3833.369","time":"2028.5"}},{"Shape":147,"Attributes":{"name":"Damstraat","highway":"service","profile":"car","distance":"3850.269","time":"2031.204"}},{"Shape":148,"Attributes":{"name":"Damstraat","highway":"service","profile":"car","distance":"3863.369","time":"2033.3"}},{"Shape":151,"Attributes":{"name":"Damstraat","highway":"service","profile":"car","distance":"3916.269","time":"2041.764"}},{"Shape":152,"Attributes":{"name":"Kolkplein","highway":"service","profile":"car","distance":"3924.969","time":"2043.156"}},{"Shape":154,"Attributes":{"name":"Kolkplein","highway":"service","profile":"car","distance":"3964.969","time":"2049.556"}},{"Shape":155,"Attributes":{"name":"Gorsstraat","highway":"residential","maxspeed":"30","profile":"car","distance":"3994.369","time":"2054.26"}},{"Shape":158,"Attributes":{"highway":"service","profile":"car","distance":"4050.069","time":"2063.172"}},{"Shape":161,"Attributes":{"highway":"service","profile":"car","distance":"4105.769","time":"2252.084"}},{"Shape":164,"Attributes":{"name":"Gorsstraat","highway":"residential","maxspeed":"30","profile":"car","distance":"4177.569","time":"2263.572"}},{"Shape":168,"Attributes":{"name":"Gorsstraat","highway":"residential","profile":"car","distance":"4252.5","time":"2270.765"}},{"Shape":169,"Attributes":{"name":"Gorsstraat","highway":"residential","profile":"car","distance":"4253.347","time":"2450.847"}},{"Shape":173,"Attributes":{"name":"Gorsstraat","highway":"residential","profile":"car","distance":"4329.125","time":"2638.122"}},{"Shape":174,"Attributes":{"name":"Gorsstraat","highway":"residential","maxspeed":"30","profile":"car","distance":"4348.525","time":"2641.226"}},{"Shape":175,"Attributes":{"name":"Gorsstraat","highway":"residential","maxspeed":"30","profile":"car","distance":"4422.125","time":"2653.002"}},{"Shape":177,"Attributes":{"name":"Noordkade","highway":"residential","maxspeed":"30","profile":"car","distance":"4457.825","time":"2658.714"}},{"Shape":178,"Attributes":{"name":"Noordkade","highway":"residential","maxspeed":"30","profile":"car","distance":"4488.125","time":"2663.562"}},{"Shape":179,"Attributes":{"name":"Noordkade","highway":"residential","maxspeed":"30","profile":"car","distance":"4498.225","time":"2665.177"}},{"Shape":180,"Attributes":{"name":"Noordkade","highway":"residential","maxspeed":"30","profile":"car","distance":"4507.401","time":"2666.646"}},{"Shape":182,"Attributes":{"name":"Noordkade","highway":"residential","maxspeed":"30","profile":"car","distance":"4508.348","time":"2846.798"}},{"Shape":184,"Attributes":{"name":"Noordkade","highway":"residential","maxspeed":"30","profile":"car","distance":"4518.471","time":"3028.418"}},{"Shape":185,"Attributes":{"name":"Noordkade","highway":"residential","maxspeed":"30","profile":"car","distance":"4528.571","time":"3030.034"}},{"Shape":186,"Attributes":{"name":"Noordkade","highway":"residential","maxspeed":"30","profile":"car","distance":"4558.871","time":"3034.882"}},{"Shape":188,"Attributes":{"name":"Noordkade","highway":"residential","maxspeed":"30","profile":"car","distance":"4594.571","time":"3040.594"}},{"Shape":189,"Attributes":{"highway":"service","profile":"car","distance":"4609.476","time":"3042.979"}},{"Shape":190,"Attributes":{"highway":"service","profile":"car","distance":"4624.381","time":"3225.364"}},{"Shape":191,"Attributes":{"name":"Gorsstraat","highway":"residential","maxspeed":"30","profile":"car","distance":"4640.186","time":"3227.893"}},{"Shape":192,"Attributes":{"name":"Gorsstraat","highway":"residential","maxspeed":"30","profile":"car","distance":"4655.991","time":"3590.422"}},{"Shape":194,"Attributes":{"name":"Noordkade","highway":"residential","maxspeed":"30","profile":"car","distance":"4691.691","time":"3596.134"}},{"Shape":195,"Attributes":{"name":"Noordkade","highway":"residential","maxspeed":"30","profile":"car","distance":"4721.991","time":"3600.982"}},{"Shape":196,"Attributes":{"name":"Noordkade","highway":"residential","maxspeed":"30","profile":"car","distance":"4732.091","time":"3602.598"}},{"Shape":198,"Attributes":{"name":"Noordkade","highway":"residential","maxspeed":"30","profile":"car","distance":"4752.491","time":"3605.862"}},{"Shape":204,"Attributes":{"name":"Oostkade","highway":"residential","profile":"car","distance":"4849.291","time":"3615.155"}},{"Shape":208,"Attributes":{"name":"Oostkade","highway":"residential","profile":"car","distance":"4908.291","time":"3620.819"}},{"Shape":210,"Attributes":{"name":"Kaaistraat","highway":"residential","profile":"car","distance":"4920.291","time":"3621.971"}},{"Shape":215,"Attributes":{"name":"Rademacherstraat","highway":"service","profile":"car","distance":"5022.011","time":"3638.246"}},{"Shape":220,"Attributes":{"name":"Rademacherstraat","highway":"service","profile":"car","distance":"5123.731","time":"3834.521"}},{"Shape":222,"Attributes":{"name":"Kaaistraat","highway":"residential","profile":"car","distance":"5135.731","time":"3835.673"}},{"Shape":226,"Attributes":{"name":"Oostkade","highway":"residential","profile":"car","distance":"5194.731","time":"3841.337"}},{"Shape":232,"Attributes":{"name":"Oostkade","highway":"residential","profile":"car","distance":"5291.531","time":"3850.63"}},{"Shape":233,"Attributes":{"bridge":"yes","name":"Noordkade","highway":"residential","maxspeed":"30","profile":"car","distance":"5314.131","time":"3854.246"}},{"Shape":234,"Attributes":{"name":"Noordkade","highway":"residential","maxspeed":"30","profile":"car","distance":"5319.331","time":"3855.078"}},{"Shape":235,"Attributes":{"name":"Noordkade","highway":"residential","maxspeed":"30","profile":"car","distance":"5364.231","time":"3862.262"}},{"Shape":239,"Attributes":{"name":"Noordeinde","highway":"residential","oneway":"yes","profile":"car","distance":"5526.931","time":"3877.881"}},{"Shape":240,"Attributes":{"name":"Noordeinde","highway":"residential","profile":"car","distance":"5531.5","time":"3878.32"}},{"Shape":241,"Attributes":{"name":"Noordeinde","highway":"residential","profile":"car","distance":"5540.531","time":"4059.187"}},{"Shape":242,"Attributes":{"name":"Noordeinde","highway":"residential","profile":"car","distance":"5554.731","time":"4060.55"}},{"Shape":245,"Attributes":{"name":"Noordeinde","highway":"residential","profile":"car","distance":"5578.131","time":"4062.797"}},{"Shape":246,"Attributes":{"name":"Noordeinde","highway":"unclassified","profile":"car","distance":"5589.131","time":"4063.853"}},{"Shape":250,"Attributes":{"name":"Schenkelweg","maxspeed":"50","oneway":"yes","highway":"secondary","profile":"car","distance":"5783.331","time":"4082.496"}},{"Shape":252,"Attributes":{"name":"Schenkelweg","maxspeed":"50","oneway":"yes","highway":"secondary","profile":"car","distance":"5895.031","time":"4093.219"}},{"Shape":254,"Attributes":{"name":"Schenkelweg","maxspeed":"50","oneway":"yes","highway":"secondary","profile":"car","distance":"5918.831","time":"4095.504"}},{"Shape":255,"Attributes":{"name":"Doctor J M den Uyllaan","highway":"unclassified","maxspeed":"50","oneway":"yes","profile":"car","distance":"5934.631","time":"4097.021"}},{"Shape":256,"Attributes":{"name":"Doctor J M den Uyllaan","highway":"unclassified","maxspeed":"50","oneway":"yes","profile":"car","distance":"5999.331","time":"4103.232"}},{"Shape":259,"Attributes":{"name":"Doctor J M den Uyllaan","highway":"residential","oneway":"yes","profile":"car","distance":"6023.531","time":"4105.555"}},{"Shape":260,"Attributes":{"name":"Gorsstraat","highway":"residential","oneway":"yes","profile":"car","distance":"6050.431","time":"4108.137"}},{"Shape":261,"Attributes":{"name":"Gorsstraat","highway":"residential","maxspeed":"30","profile":"car","distance":"6082.531","time":"4113.273"}},{"Shape":263,"Attributes":{"name":"Gorsstraat","highway":"service","profile":"car","distance":"6111.63","time":"4117.929"}},{"Shape":265,"Attributes":{"name":"Gorsstraat","highway":"service","profile":"car","distance":"6140.729","time":"4302.585"}},{"Shape":266,"Attributes":{"name":"Gorsstraat","highway":"residential","maxspeed":"30","profile":"car","distance":"6172.829","time":"4307.721"}},{"Shape":267,"Attributes":{"name":"Gorsstraat","highway":"residential","oneway":"yes","profile":"car","distance":"6200.429","time":"4310.371"}},{"Shape":268,"Attributes":{"name":"Gorsstraat","highway":"residential","oneway":"yes","profile":"car","distance":"6215.529","time":"4311.82"}},{"Shape":274,"Attributes":{"name":"Doctor J M den Uyllaan","highway":"unclassified","maxspeed":"50","oneway":"yes","profile":"car","distance":"6369.829","time":"4326.633"}},{"Shape":277,"Attributes":{"name":"Centrumrotonde","highway":"unclassified","maxspeed":"50","oneway":"yes","junction":"roundabout","profile":"car","distance":"6385.029","time":"4328.092"}},{"Shape":279,"Attributes":{"highway":"service","profile":"car","distance":"6400.914","time":"4330.634"}},{"Shape":281,"Attributes":{"highway":"service","profile":"car","distance":"6416.799","time":"4513.175"}},{"Shape":285,"Attributes":{"name":"Centrumrotonde","highway":"unclassified","maxspeed":"50","oneway":"yes","junction":"roundabout","profile":"car","distance":"6437.199","time":"4515.134"}},{"Shape":288,"Attributes":{"name":"Raadhuislaan","highway":"unclassified","maxspeed":"50","oneway":"yes","profile":"car","distance":"6505.399","time":"4521.681"}},{"Shape":289,"Attributes":{"name":"H de Lintweg","highway":"residential","profile":"car","distance":"6511.899","time":"4522.305"}},{"Shape":291,"Attributes":{"name":"H de Lintweg","highway":"residential","profile":"car","distance":"6607.899","time":"4531.521"}},{"Shape":292,"Attributes":{"name":"H de Lintweg","highway":"unclassified","profile":"car","distance":"6619.363","time":"4532.622"}},{"Shape":293,"Attributes":{"name":"H de Lintweg","highway":"unclassified","profile":"car","distance":"6638.899","time":"4714.498"}},{"Shape":294,"Attributes":{"name":"D. Losstraat","highway":"residential","profile":"car","distance":"6639.392","time":"4714.545"}},{"Shape":295,"Attributes":{"name":"D. Losstraat","highway":"residential","profile":"car","distance":"6639.885","time":"4894.592"}},{"Shape":296,"Attributes":{"name":"H de Lintweg","highway":"unclassified","profile":"car","distance":"6670.885","time":"4897.568"}},{"Shape":298,"Attributes":{"name":"H de Lintweg","highway":"residential","profile":"car","distance":"6766.885","time":"4906.784"}},{"Shape":299,"Attributes":{"name":"H de Lintweg","highway":"residential","profile":"car","distance":"6773.385","time":"4907.408"}},{"Shape":302,"Attributes":{"name":"Raadhuislaan","highway":"unclassified","maxspeed":"50","oneway":"yes","profile":"car","distance":"6918.085","time":"4921.299"}},{"Shape":309,"Attributes":{"name":"Marrewijklaan","highway":"unclassified","maxspeed":"30","profile":"car","distance":"7136.885","time":"4956.308"}},{"Shape":310,"Attributes":{"name":"Marrewijklaan","highway":"unclassified","maxspeed":"30","profile":"car","distance":"7139.285","time":"4956.691"}},{"Shape":315,"Attributes":{"name":"Marrewijklaan","highway":"unclassified","maxspeed":"30","profile":"car","distance":"7235.885","time":"4972.147"}},{"Shape":318,"Attributes":{"name":"Vredehofplein","highway":"unclassified","profile":"car","distance":"7283.385","time":"4976.708"}},{"Shape":319,"Attributes":{"name":"Vredehofplein","highway":"unclassified","profile":"car","distance":"7293.685","time":"4977.696"}},{"Shape":321,"Attributes":{"name":"Vredehofstraat","highway":"unclassified","profile":"car","distance":"7460.485","time":"4993.709"}},{"Shape":324,"Attributes":{"name":"Vredehofstraat","highway":"unclassified","profile":"car","distance":"7520.785","time":"4999.498"}},{"Shape":326,"Attributes":{"name":"Hekelingseweg","highway":"tertiary","oneway":"yes","profile":"car","distance":"7537.085","time":"5000.616"}},{"Shape":327,"Attributes":{"bridge":"yes","name":"Hekelingseweg","highway":"tertiary","oneway":"yes","profile":"car","distance":"7560.685","time":"5002.234"}},{"Shape":330,"Attributes":{"name":"Hekelingseweg","highway":"tertiary","oneway":"yes","profile":"car","distance":"7742.385","time":"5014.693"}},{"Shape":331,"Attributes":{"name":"Hekelingseweg","highway":"tertiary","oneway":"yes","profile":"car","distance":"7781.885","time":"5017.402"}},{"Shape":336,"Attributes":{"highway":"tertiary","oneway":"yes","profile":"car","distance":"7866.585","time":"5023.21"}},{"Shape":337,"Attributes":{"name":"Hekelingseweg","highway":"tertiary","oneway":"yes","profile":"car","distance":"7923.685","time":"5027.125"}},{"Shape":340,"Attributes":{"name":"Hekelingseweg","maxspeed":"50","highway":"tertiary","oneway":"yes","profile":"car","distance":"7996.285","time":"5034.095"}},{"Shape":342,"Attributes":{"name":"Hekelingseweg","maxspeed":"50","highway":"tertiary","oneway":"yes","profile":"car","distance":"8027.085","time":"5037.052"}},{"Shape":343,"Attributes":{"name":"Groene Kruisweg","maxspeed":"50","highway":"tertiary","oneway":"yes","profile":"car","distance":"8045.785","time":"5038.847"}},{"Shape":345,"Attributes":{"name":"Winston Churchilllaan","maxspeed":"50","highway":"tertiary","oneway":"yes","profile":"car","distance":"8104.685","time":"5044.501"}},{"Shape":348,"Attributes":{"name":"Winston Churchilllaan","maxspeed":"50","highway":"tertiary","profile":"car","distance":"8163.285","time":"5050.127"}},{"Shape":350,"Attributes":{"name":"Winston Churchilllaan","maxspeed":"50","highway":"tertiary","profile":"car","distance":"8225.69","time":"5056.118"}},{"Shape":352,"Attributes":{"name":"Winston Churchilllaan","maxspeed":"50","highway":"tertiary","profile":"car","distance":"8321.985","time":"5245.362"}},{"Shape":354,"Attributes":{"name":"A M de Jongstraat","highway":"unclassified","maxspeed":"30","profile":"car","distance":"8392.785","time":"5256.69"}},{"Shape":355,"Attributes":{"name":"A M de Jongstraat","highway":"unclassified","maxspeed":"30","profile":"car","distance":"8412.285","time":"5259.811"}},{"Shape":356,"Attributes":{"name":"Slauerhoffstraat","highway":"residential","maxspeed":"30","profile":"car","distance":"8444.165","time":"5264.911"}},{"Shape":358,"Attributes":{"name":"Slauerhoffstraat","highway":"residential","maxspeed":"30","profile":"car","distance":"8538.721","time":"5460.04"}},{"Shape":360,"Attributes":{"name":"Slauerhoffstraat","highway":"residential","maxspeed":"30","profile":"car","distance":"8665.155","time":"5660.27"}},{"Shape":361,"Attributes":{"name":"A M de Jongstraat","highway":"unclassified","maxspeed":"30","profile":"car","distance":"8684.655","time":"5663.39"}},{"Shape":362,"Attributes":{"name":"Herman Gorterstraat","highway":"residential","maxspeed":"30","profile":"car","distance":"8720.871","time":"5669.184"}},{"Shape":363,"Attributes":{"name":"Herman Gorterstraat","highway":"residential","maxspeed":"30","profile":"car","distance":"8722.229","time":"5849.401"}},{"Shape":364,"Attributes":{"name":"Herman Gorterstraat","highway":"residential","maxspeed":"30","profile":"car","distance":"8806.871","time":"6042.944"}},{"Shape":365,"Attributes":{"name":"P A de Genestetstraat","highway":"residential","maxspeed":"30","profile":"car","distance":"8858.672","time":"6051.232"}},{"Shape":366,"Attributes":{"bridge":"yes","name":"P A de Genestetstraat","highway":"residential","maxspeed":"30","profile":"car","distance":"8922.271","time":"6241.408"}},{"Shape":368,"Attributes":{"name":"Vondelsingel","highway":"unclassified","maxspeed":"30","profile":"car","distance":"8999.215","time":"6253.719"}},{"Shape":369,"Attributes":{"name":"Vondelsingel","highway":"unclassified","maxspeed":"30","profile":"car","distance":"9011.271","time":"6435.648"}},{"Shape":371,"Attributes":{"name":"Schiekampsingel","highway":"unclassified","maxspeed":"30","profile":"car","distance":"9174.071","time":"6461.696"}},{"Shape":372,"Attributes":{"name":"Winston Churchilllaan","maxspeed":"50","highway":"tertiary","oneway":"yes","profile":"car","distance":"9205.571","time":"6464.72"}},{"Shape":374,"Attributes":{"name":"Winston Churchilllaan","maxspeed":"50","highway":"tertiary","oneway":"yes","profile":"car","distance":"9232.972","time":"6467.351"}},{"Shape":375,"Attributes":{"name":"Groene Kruisweg","maxspeed":"50","highway":"tertiary","oneway":"yes","profile":"car","distance":"9251.571","time":"6469.136"}},{"Shape":376,"Attributes":{"name":"Groene Kruisweg","oneway":"yes","highway":"primary","maxspeed":"80","profile":"car","distance":"9263.372","time":"6469.844"}},{"Shape":377,"Attributes":{"name":"Groene Kruisweg","oneway":"yes","highway":"primary","maxspeed":"80","profile":"car","distance":"9281.271","time":"6470.918"}},{"Shape":380,"Attributes":{"name":"Groene Kruisweg","oneway":"yes","highway":"primary","maxspeed":"80","profile":"car","distance":"9447.172","time":"6480.873"}},{"Shape":383,"Attributes":{"name":"Groene Kruisweg","oneway":"yes","highway":"primary","maxspeed":"80","profile":"car","distance":"9548.972","time":"6486.98"}},{"Shape":385,"Attributes":{"name":"Groene Kruisweg","oneway":"yes","highway":"primary","maxspeed":"80","profile":"car","distance":"9700.371","time":"6496.064"}},{"Shape":388,"Attributes":{"name":"Groene Kruisweg","oneway":"yes","highway":"primary","maxspeed":"80","profile":"car","distance":"9810.771","time":"6502.688"}},{"Shape":390,"Attributes":{"name":"Stationsstraat","highway":"unclassified","oneway":"yes","profile":"car","distance":"9858.871","time":"6507.306"}},{"Shape":391,"Attributes":{"name":"Stationsstraat","highway":"unclassified","profile":"car","distance":"9897.571","time":"6511.021"}},{"Shape":392,"Attributes":{"name":"Jan Campertlaan","highway":"residential","profile":"car","distance":"9934.672","time":"6514.583"}},{"Shape":393,"Attributes":{"name":"Jan Campertlaan","highway":"residential","profile":"car","distance":"9948.472","time":"6515.908"}},{"Shape":394,"Attributes":{"name":"Jan Campertlaan","highway":"residential","profile":"car","distance":"9959.127","time":"6516.931"}},{"Shape":396,"Attributes":{"name":"Jan Campertlaan","highway":"residential","profile":"car","distance":"9965.672","time":"6697.56"}},{"Shape":403,"Attributes":{"name":"Jan Campertlaan","highway":"residential","profile":"car","distance":"10126.27","time":"6712.977"}},{"Shape":404,"Attributes":{"name":"Koningin Julianaplein","highway":"residential","profile":"car","distance":"10203.77","time":"6720.417"}},{"Shape":405,"Attributes":{"name":"Boezembocht","highway":"residential","profile":"car","distance":"10217.17","time":"6721.704"}},{"Shape":406,"Attributes":{"bridge":"yes","name":"Boezembocht","highway":"residential","profile":"car","distance":"10250.87","time":"6724.938"}},{"Shape":409,"Attributes":{"name":"Zijlstraat","highway":"residential","profile":"car","distance":"10297.57","time":"6729.422"}},{"Shape":412,"Attributes":{"name":"Kerkring","highway":"service","profile":"car","distance":"10352.07","time":"6738.142"}},{"Shape":413,"Attributes":{"name":"Markt","highway":"service","maxspeed":"20","profile":"car","distance":"10384.87","time":"6746.014"}},{"Shape":414,"Attributes":{"name":"Kees de Groenplein","highway":"residential","profile":"car","distance":"10407.35","time":"6748.172"}},{"Shape":415,"Attributes":{"name":"Kees de Groenplein","highway":"residential","profile":"car","distance":"10429.83","time":"6930.33"}},{"Shape":416,"Attributes":{"name":"Markt","highway":"service","maxspeed":"20","profile":"car","distance":"10462.63","time":"6938.202"}},{"Shape":419,"Attributes":{"name":"Kerkring","highway":"service","profile":"car","distance":"10517.13","time":"6946.922"}},{"Shape":422,"Attributes":{"name":"Zijlstraat","highway":"residential","profile":"car","distance":"10563.83","time":"6951.405"}},{"Shape":424,"Attributes":{"name":"Vierambachtenkade Zuidzijde","highway":"residential","profile":"car","distance":"10743.63","time":"6968.666"}},{"Shape":425,"Attributes":{"name":"Karel Doormanstraat","highway":"residential","maxspeed":"30","profile":"car","distance":"10797.22","time":"6977.24"}},{"Shape":427,"Attributes":{"name":"Karel Doormanstraat","highway":"residential","maxspeed":"30","profile":"car","distance":"10842.93","time":"7164.554"}},{"Shape":428,"Attributes":{"name":"Vredehofplein","highway":"unclassified","profile":"car","distance":"10853.23","time":"7165.543"}},{"Shape":431,"Attributes":{"name":"Vredehofplein","highway":"unclassified","profile":"car","distance":"10900.73","time":"7170.103"}},{"Shape":435,"Attributes":{"name":"Eerste Heulbrugstraat","highway":"unclassified","maxspeed":"30","profile":"car","distance":"10983.53","time":"7183.351"}},{"Shape":439,"Attributes":{"name":"Eerste Heulbrugstraat","highway":"unclassified","maxspeed":"30","profile":"car","distance":"11066.33","time":"7376.599"}},{"Shape":444,"Attributes":{"name":"Marrewijklaan","highway":"unclassified","maxspeed":"30","profile":"car","distance":"11162.93","time":"7392.055"}},{"Shape":445,"Attributes":{"name":"Marrewijklaan","highway":"unclassified","maxspeed":"30","profile":"car","distance":"11165.33","time":"7392.439"}},{"Shape":449,"Attributes":{"name":"Marrewijklaan","highway":"unclassified","maxspeed":"30","profile":"car","distance":"11247.51","time":"7405.587"}},{"Shape":453,"Attributes":{"name":"Marrewijklaan","highway":"unclassified","maxspeed":"30","profile":"car","distance":"11384.13","time":"7607.446"}},{"Shape":456,"Attributes":{"name":"Raadhuislaan","highway":"unclassified","maxspeed":"50","oneway":"yes","profile":"car","distance":"11412.13","time":"7610.134"}},{"Shape":458,"Attributes":{"name":"Raadhuislaan","highway":"unclassified","maxspeed":"50","oneway":"yes","profile":"car","distance":"11449.93","time":"7613.763"}},{"Shape":461,"Attributes":{"name":"Raadhuislaan","highway":"unclassified","maxspeed":"50","oneway":"yes","profile":"car","distance":"11531.83","time":"7621.625"}},{"Shape":464,"Attributes":{"name":"Raadhuislaan","highway":"unclassified","maxspeed":"50","oneway":"yes","profile":"car","distance":"11599.43","time":"7628.115"}},{"Shape":467,"Attributes":{"name":"Centrumrotonde","highway":"unclassified","maxspeed":"50","oneway":"yes","junction":"roundabout","profile":"car","distance":"11617.23","time":"7629.824"}},{"Shape":471,"Attributes":{"name":"Centrumlaan","highway":"residential","maxspeed":"50","profile":"car","distance":"11724.83","time":"7640.154"}},{"Shape":472,"Attributes":{"name":"Centrumlaan","highway":"residential","maxspeed":"50","profile":"car","distance":"11775.33","time":"7645.001"}},{"Shape":474,"Attributes":{"name":"Centrumlaan","highway":"unclassified","maxspeed":"50","oneway":"yes","profile":"car","distance":"11815.63","time":"7648.871"}},{"Shape":476,"Attributes":{"name":"Centrumlaan","highway":"residential","maxspeed":"50","oneway":"yes","profile":"car","distance":"11926.43","time":"7659.507"}},{"Shape":479,"Attributes":{"name":"Centrumlaan","highway":"unclassified","maxspeed":"50","oneway":"yes","profile":"car","distance":"11956.33","time":"7662.377"}},{"Shape":480,"Attributes":{"name":"Centrumlaan","highway":"unclassified","maxspeed":"50","oneway":"yes","profile":"car","distance":"11970.93","time":"7663.779"}},{"Shape":481,"Attributes":{"name":"Ruwaard van Puttenweg","highway":"unclassified","maxspeed":"50","oneway":"yes","profile":"car","distance":"11979.93","time":"7664.643"}},{"Shape":483,"Attributes":{"name":"Groenewoudlaan","highway":"unclassified","maxspeed":"50","oneway":"yes","profile":"car","distance":"11995.43","time":"7666.131"}},{"Shape":487,"Attributes":{"name":"Groenewoudlaan","highway":"residential","profile":"car","distance":"12036.83","time":"7670.105"}},{"Shape":488,"Attributes":{"name":"Groenewoudlaan","highway":"residential","profile":"car","distance":"12074.43","time":"7673.715"}},{"Shape":489,"Attributes":{"name":"Groenewoudlaan","highway":"residential","profile":"car","distance":"12112.13","time":"7677.334"}},{"Shape":490,"Attributes":{"name":"Groenewoudlaan","highway":"residential","profile":"car","distance":"12147.53","time":"7680.733"}},{"Shape":491,"Attributes":{"name":"Groenewoudlaan","highway":"residential","profile":"car","distance":"12184.13","time":"7684.247"}},{"Shape":493,"Attributes":{"name":"Griendwerker","highway":"living_street","profile":"car","distance":"12200.67","time":"7700.123"}},{"Shape":495,"Attributes":{"name":"Griendwerker","highway":"living_street","profile":"car","distance":"12217.21","time":"7896"}},{"Shape":496,"Attributes":{"name":"Groenewoudlaan","highway":"residential","profile":"car","distance":"12322.21","time":"7906.079"}},{"Shape":498,"Attributes":{"name":"Groenewoudlaan","highway":"residential","profile":"car","distance":"12362.61","time":"7909.958"}},{"Shape":499,"Attributes":{"name":"Groenewoudlaan","highway":"residential","profile":"car","distance":"12374.06","time":"7911.058"}},{"Shape":500,"Attributes":{"name":"Groenewoudlaan","highway":"residential","profile":"car","distance":"12385.52","time":"8092.158"}},{"Shape":502,"Attributes":{"name":"Hoepelmaker","highway":"residential","maxspeed":"30","profile":"car","distance":"12415.12","time":"8096.894"}},{"Shape":503,"Attributes":{"name":"Hoepelmaker","highway":"residential","maxspeed":"30","profile":"car","distance":"12503.62","time":"8111.054"}},{"Shape":504,"Attributes":{"name":"Veerman","highway":"residential","maxspeed":"30","profile":"car","distance":"12507.92","time":"8111.742"}},{"Shape":505,"Attributes":{"name":"Veerman","highway":"residential","maxspeed":"30","profile":"car","distance":"12554.42","time":"8119.182"}},{"Shape":506,"Attributes":{"name":"Veerman","highway":"residential","maxspeed":"30","profile":"car","distance":"12595.42","time":"8125.742"}},{"Shape":507,"Attributes":{"name":"Kleermaker","highway":"residential","profile":"car","distance":"12599.16","time":"8126.102"}}],"Stops":[{"Shape":0,"Coordinates":[4.33736,51.84447],"Attributes":{"index":"175","distance":"0","time":"0","cost_time":"180"}},{"Shape":10,"Coordinates":[4.33475,51.84447],"Attributes":{"index":"178","distance":"262.4484","time":"34.89744","cost_time":"180"}},{"Shape":17,"Coordinates":[4.333,51.84378],"Attributes":{"index":"180","distance":"552.4313","time":"242.7358","cost_time":"180"}},{"Shape":21,"Coordinates":[4.3335,51.84505],"Attributes":{"index":"179","distance":"741.6422","time":"440.9001","cost_time":"180"}},{"Shape":24,"Coordinates":[4.334778,51.84566],"Attributes":{"index":"177","distance":"881.3259","time":"642.7712","cost_time":"180"}},{"Shape":28,"Coordinates":[4.336056,51.84514],"Attributes":{"index":"176","distance":"987.5983","time":"839.7748","cost_time":"180"}},{"Shape":77,"Coordinates":[4.342278,51.84978],"Attributes":{"index":"171","distance":"2269.626","time":"1145.53","cost_time":"180"}},{"Shape":82,"Coordinates":[4.343444,51.84883],"Attributes":{"index":"172","distance":"2395.928","time":"1337.655","cost_time":"180"}},{"Shape":127,"Coordinates":[4.332752,51.8494],"Attributes":{"index":"169","distance":"3525.472","time":"1626.091","cost_time":"180"}},{"Shape":145,"Coordinates":[4.331289,51.85082],"Attributes":{"index":"36","distance":"3819.469","time":"1846.276","cost_time":"180"}},{"Shape":158,"Coordinates":[4.33099,51.85031],"Attributes":{"index":"37","distance":"4050.069","time":"2063.172","cost_time":"180"}},{"Shape":168,"Coordinates":[4.330974,51.85119],"Attributes":{"index":"34","distance":"4252.5","time":"2270.765","cost_time":"180"}},{"Shape":169,"Coordinates":[4.330963,51.8512],"Attributes":{"index":"35","distance":"4253.347","time":"2450.847","cost_time":"180"}},{"Shape":180,"Coordinates":[4.32871,51.85124],"Attributes":{"index":"30","distance":"4507.401","time":"2666.646","cost_time":"180"}},{"Shape":182,"Coordinates":[4.328699,51.85125],"Attributes":{"index":"29","distance":"4508.348","time":"2846.798","cost_time":"180"}},{"Shape":189,"Coordinates":[4.329404,51.85046],"Attributes":{"index":"31","distance":"4609.476","time":"3042.979","cost_time":"180"}},{"Shape":191,"Coordinates":[4.32958,51.85055],"Attributes":{"index":"33","distance":"4640.186","time":"3227.893","cost_time":"180"}},{"Shape":191,"Coordinates":[4.32958,51.85055],"Attributes":{"index":"32","distance":"4640.186","time":"3407.893","cost_time":"180"}},{"Shape":215,"Coordinates":[4.32662,51.84939],"Attributes":{"index":"28","distance":"5022.011","time":"3638.246","cost_time":"180"}},{"Shape":240,"Coordinates":[4.33011,51.85273],"Attributes":{"index":"2","distance":"5531.5","time":"3878.32","cost_time":"180"}},{"Shape":263,"Coordinates":[4.33203,51.85001],"Attributes":{"index":"170","distance":"6111.63","time":"4117.929","cost_time":"180"}},{"Shape":279,"Coordinates":[4.330801,51.84913],"Attributes":{"index":"1","distance":"6400.914","time":"4330.634","cost_time":"180"}},{"Shape":292,"Coordinates":[4.329151,51.84929],"Attributes":{"index":"168","distance":"6619.363","time":"4532.622","cost_time":"180"}},{"Shape":294,"Coordinates":[4.32926,51.84949],"Attributes":{"index":"167","distance":"6639.392","time":"4714.545","cost_time":"180"}},{"Shape":350,"Coordinates":[4.316804,51.85365],"Attributes":{"index":"3","distance":"8225.69","time":"5056.118","cost_time":"180"}},{"Shape":356,"Coordinates":[4.315077,51.85455],"Attributes":{"index":"5","distance":"8444.165","time":"5264.911","cost_time":"180"}},{"Shape":358,"Coordinates":[4.314584,51.8553],"Attributes":{"index":"6","distance":"8538.721","time":"5460.04","cost_time":"180"}},{"Shape":362,"Coordinates":[4.315493,51.85392],"Attributes":{"index":"24","distance":"8720.871","time":"5669.184","cost_time":"180"}},{"Shape":363,"Coordinates":[4.315526,51.85396],"Attributes":{"index":"25","distance":"8722.229","time":"5849.401","cost_time":"180"}},{"Shape":365,"Coordinates":[4.315224,51.85316],"Attributes":{"index":"23","distance":"8858.672","time":"6051.232","cost_time":"180"}},{"Shape":368,"Coordinates":[4.314861,51.85225],"Attributes":{"index":"22","distance":"8999.215","time":"6253.719","cost_time":"180"}},{"Shape":394,"Coordinates":[4.32483,51.85242],"Attributes":{"index":"26","distance":"9959.127","time":"6516.931","cost_time":"180"}},{"Shape":414,"Coordinates":[4.324408,51.84981],"Attributes":{"index":"27","distance":"10407.35","time":"6748.172","cost_time":"180"}},{"Shape":425,"Coordinates":[4.323657,51.84894],"Attributes":{"index":"165","distance":"10797.22","time":"6977.24","cost_time":"180"}},{"Shape":435,"Coordinates":[4.325234,51.8498],"Attributes":{"index":"166","distance":"10983.53","time":"7183.351","cost_time":"180"}},{"Shape":449,"Coordinates":[4.327262,51.84854],"Attributes":{"index":"0","distance":"11247.51","time":"7405.587","cost_time":"180"}},{"Shape":493,"Coordinates":[4.33772,51.84556],"Attributes":{"index":"173","distance":"12200.67","time":"7700.123","cost_time":"180"}},{"Shape":499,"Coordinates":[4.339583,51.84489],"Attributes":{"index":"174","distance":"12374.06","time":"7911.058","cost_time":"180"}},{"Shape":507,"Coordinates":[4.33736,51.84447],"Attributes":{"index":"175","distance":"12599.16","time":"8126.102","cost_time":"180"}}],"Branches":[{"Shape":1,"Coordinates":[4.337861,51.84433],"Attributes":{"name":"Veerman","highway":"residential","maxspeed":"30"}},{"Shape":2,"Coordinates":[4.336798,51.84434],"Attributes":{"highway":"service"}},{"Shape":3,"Coordinates":[4.336691,51.84447],"Attributes":{"highway":"residential"}},{"Shape":4,"Coordinates":[4.336847,51.84505],"Attributes":{"name":"Rietsnijder","highway":"residential"}},{"Shape":6,"Coordinates":[4.335997,51.84548],"Attributes":{"name":"Sluiswachter","highway":"residential"}},{"Shape":7,"Coordinates":[4.334864,51.84559],"Attributes":{"name":"Veerman","highway":"residential","maxspeed":"30"}},{"Shape":9,"Coordinates":[4.335389,51.8443],"Attributes":{"name":"Schoenmaker","highway":"residential"}},{"Shape":10,"Coordinates":[4.33406,51.84476],"Attributes":{"name":"Barbier","highway":"residential"}},{"Shape":10,"Coordinates":[4.334604,51.8444],"Attributes":{"name":"Wagenmaker","highway":"residential"}},{"Shape":11,"Coordinates":[4.334484,51.84515],"Attributes":{"highway":"residential"}},{"Shape":12,"Coordinates":[4.333607,51.84463],"Attributes":{"name":"Hoefsmid","highway":"residential"}},{"Shape":13,"Coordinates":[4.334485,51.84576],"Attributes":{"name":"Wolwever","maxspeed":"30","highway":"living_street"}},{"Shape":14,"Coordinates":[4.333418,51.84504],"Attributes":{"name":"Barbier","highway":"residential"}},{"Shape":14,"Coordinates":[4.332345,51.84402],"Attributes":{"name":"Schrijnwerker","highway":"residential"}},{"Shape":20,"Coordinates":[4.33357,51.84496],"Attributes":{"name":"Barbier","highway":"residential"}},{"Shape":20,"Coordinates":[4.333418,51.84504],"Attributes":{"name":"Barbier","highway":"residential"}},{"Shape":22,"Coordinates":[4.333834,51.84485],"Attributes":{"name":"Barbier","highway":"residential"}},{"Shape":23,"Coordinates":[4.334864,51.84559],"Attributes":{"name":"Veerman","highway":"residential","maxspeed":"30"}},{"Shape":26,"Coordinates":[4.335109,51.84489],"Attributes":{"name":"Wagenmaker","highway":"residential"}},{"Shape":27,"Coordinates":[4.336197,51.84502],"Attributes":{"name":"Veerman","highway":"residential","maxspeed":"30"}},{"Shape":27,"Coordinates":[4.335997,51.84548],"Attributes":{"name":"Sluiswachter","highway":"residential"}},{"Shape":29,"Coordinates":[4.335997,51.84548],"Attributes":{"name":"Sluiswachter","highway":"residential"}},{"Shape":30,"Coordinates":[4.334864,51.84559],"Attributes":{"name":"Veerman","highway":"residential","maxspeed":"30"}},{"Shape":32,"Coordinates":[4.335389,51.8443],"Attributes":{"name":"Schoenmaker","highway":"residential"}},{"Shape":33,"Coordinates":[4.334604,51.8444],"Attributes":{"name":"Wagenmaker","highway":"residential"}},{"Shape":34,"Coordinates":[4.334484,51.84515],"Attributes":{"highway":"residential"}},{"Shape":35,"Coordinates":[4.333607,51.84463],"Attributes":{"name":"Hoefsmid","highway":"residential"}},{"Shape":36,"Coordinates":[4.334485,51.84576],"Attributes":{"name":"Wolwever","maxspeed":"30","highway":"living_street"}},{"Shape":37,"Coordinates":[4.332345,51.84402],"Attributes":{"name":"Schrijnwerker","highway":"residential"}},{"Shape":39,"Coordinates":[4.333194,51.84512],"Attributes":{"name":"Barbier","highway":"residential"}},{"Shape":39,"Coordinates":[4.332789,51.84468],"Attributes":{"name":"Ruwaard van Puttenweg","maxspeed":"50","highway":"tertiary","oneway":"yes"}},{"Shape":41,"Coordinates":[4.334116,51.84582],"Attributes":{"highway":"service","motorcar":"no","maxspeed":"50","oneway":"yes"}},{"Shape":46,"Coordinates":[4.335524,51.84675],"Attributes":{"name":"Groenewoudlaan","highway":"unclassified","maxspeed":"50","oneway":"yes"}},{"Shape":46,"Coordinates":[4.335281,51.84685],"Attributes":{"name":"Ruwaard van Puttenweg","highway":"unclassified","maxspeed":"50","oneway":"yes"}},{"Shape":47,"Coordinates":[4.335348,51.8469],"Attributes":{"name":"Centrumlaan","highway":"residential","maxspeed":"50","oneway":"yes"}},{"Shape":47,"Coordinates":[4.335526,51.8468],"Attributes":{"name":"Groenewoudlaan","highway":"unclassified","maxspeed":"50","oneway":"yes"}},{"Shape":48,"Coordinates":[4.335531,51.84682],"Attributes":{"name":"Groenewoudlaan","highway":"unclassified","maxspeed":"50","oneway":"yes"}},{"Shape":54,"Coordinates":[4.336709,51.84756],"Attributes":{"name":"Mackaystraat","highway":"unclassified","oneway":"yes"}},{"Shape":55,"Coordinates":[4.336963,51.84753],"Attributes":{"highway":"unclassified","oneway":"yes"}},{"Shape":55,"Coordinates":[4.336783,51.84769],"Attributes":{"highway":"unclassified","oneway":"yes"}},{"Shape":55,"Coordinates":[4.336869,51.8475],"Attributes":{"highway":"residential","oneway":"yes"}},{"Shape":60,"Coordinates":[4.338558,51.84791],"Attributes":{"name":"Schenkelweg","maxspeed":"50","oneway":"yes","highway":"secondary"}},{"Shape":60,"Coordinates":[4.338263,51.84808],"Attributes":{"name":"Schenkelweg","maxspeed":"50","oneway":"yes","highway":"secondary"}},{"Shape":61,"Coordinates":[4.338435,51.84813],"Attributes":{"name":"Schenkelweg","maxspeed":"50","oneway":"yes","highway":"secondary"}},{"Shape":61,"Coordinates":[4.338772,51.84791],"Attributes":{"name":"Schenkelweg","maxspeed":"50","oneway":"yes","highway":"secondary"}},{"Shape":63,"Coordinates":[4.338826,51.84789],"Attributes":{"name":"Donaulaan","highway":"unclassified","oneway":"yes"}},{"Shape":65,"Coordinates":[4.33994,51.84805],"Attributes":{"name":"Seinestraat","highway":"residential"}},{"Shape":65,"Coordinates":[4.340119,51.84816],"Attributes":{"name":"Donaulaan","highway":"unclassified","maxspeed":"50","oneway":"yes"}},{"Shape":66,"Coordinates":[4.340665,51.84819],"Attributes":{"name":"Donaulaan","highway":"unclassified","maxspeed":"50","oneway":"yes"}},{"Shape":66,"Coordinates":[4.339718,51.84821],"Attributes":{"name":"Donaulaan","highway":"unclassified","maxspeed":"50","oneway":"yes"}},{"Shape":68,"Coordinates":[4.339931,51.84852],"Attributes":{"name":"Oude Maasweg","highway":"unclassified","maxspeed":"30"}},{"Shape":72,"Coordinates":[4.342772,51.84898],"Attributes":{"name":"Theemsweg","highway":"residential"}},{"Shape":73,"Coordinates":[4.342339,51.84996],"Attributes":{"name":"Groenoord","highway":"residential"}},{"Shape":74,"Coordinates":[4.34311,51.84925],"Attributes":{"name":"Groenoord","highway":"residential"}},{"Shape":81,"Coordinates":[4.342339,51.84996],"Attributes":{"name":"Groenoord","highway":"residential"}},{"Shape":81,"Coordinates":[4.343182,51.84875],"Attributes":{"name":"Groenoord","highway":"residential"}},{"Shape":83,"Coordinates":[4.342772,51.84898],"Attributes":{"name":"Theemsweg","highway":"residential"}},{"Shape":87,"Coordinates":[4.339931,51.84852],"Attributes":{"name":"Oude Maasweg","highway":"unclassified","maxspeed":"30"}},{"Shape":89,"Coordinates":[4.340665,51.84819],"Attributes":{"name":"Donaulaan","highway":"unclassified","maxspeed":"50","oneway":"yes"}},{"Shape":89,"Coordinates":[4.339949,51.84815],"Attributes":{"name":"Oude Maasweg","highway":"unclassified"}},{"Shape":95,"Coordinates":[4.338152,51.84832],"Attributes":{"name":"Schenkelweg","maxspeed":"50","oneway":"yes","highway":"secondary"}},{"Shape":95,"Coordinates":[4.338574,51.84804],"Attributes":{"name":"Schenkelweg","maxspeed":"50","oneway":"yes","highway":"secondary"}},{"Shape":96,"Coordinates":[4.338102,51.8482],"Attributes":{"name":"Schenkelweg","maxspeed":"50","oneway":"yes","highway":"secondary"}},{"Shape":96,"Coordinates":[4.338386,51.84801],"Attributes":{"name":"Schenkelweg","maxspeed":"50","oneway":"yes","highway":"secondary"}},{"Shape":98,"Coordinates":[4.337877,51.84804],"Attributes":{"name":"Ruwaard van Puttenweg","maxspeed":"50","highway":"tertiary","oneway":"yes"}},{"Shape":101,"Coordinates":[4.336847,51.84761],"Attributes":{"highway":"unclassified","oneway":"yes"}},{"Shape":101,"Coordinates":[4.336725,51.84777],"Attributes":{"name":"Van Hogendorpstraat","highway":"residential"}},{"Shape":108,"Coordinates":[4.335445,51.84685],"Attributes":{"name":"Centrumlaan","highway":"residential","maxspeed":"50","oneway":"yes"}},{"Shape":108,"Coordinates":[4.335281,51.84685],"Attributes":{"name":"Ruwaard van Puttenweg","maxspeed":"50","highway":"tertiary","oneway":"yes"}},{"Shape":111,"Coordinates":[4.334736,51.84706],"Attributes":{"highway":"service","motorcar":"no","maxspeed":"50","oneway":"yes"}},{"Shape":115,"Coordinates":[4.333105,51.84767],"Attributes":{"name":"Centrumlaan","highway":"unclassified","maxspeed":"50","oneway":"yes"}},{"Shape":115,"Coordinates":[4.332804,51.84774],"Attributes":{"highway":"living_street"}},{"Shape":120,"Coordinates":[4.331092,51.84879],"Attributes":{"name":"Centrumrotonde","highway":"unclassified","maxspeed":"50","oneway":"yes","junction":"roundabout"}},{"Shape":124,"Coordinates":[4.331888,51.84911],"Attributes":{"name":"Doctor J M den Uyllaan","highway":"unclassified","maxspeed":"50","oneway":"yes"}},{"Shape":124,"Coordinates":[4.331324,51.849],"Attributes":{"name":"Centrumrotonde","highway":"unclassified","maxspeed":"50","oneway":"yes","junction":"roundabout"}},{"Shape":130,"Coordinates":[4.333076,51.84983],"Attributes":{"name":"Thorbeckelaan","highway":"residential","oneway":"yes"}},{"Shape":130,"Coordinates":[4.333339,51.8497],"Attributes":{"name":"Thorbeckelaan","highway":"residential","oneway":"yes"}},{"Shape":131,"Coordinates":[4.333386,51.84996],"Attributes":{"name":"Doctor J M den Uyllaan","highway":"unclassified","maxspeed":"50","oneway":"yes"}},{"Shape":131,"Coordinates":[4.333412,51.84977],"Attributes":{"name":"Thorbeckelaan","highway":"residential","oneway":"yes"}},{"Shape":132,"Coordinates":[4.333288,51.85],"Attributes":{"name":"Doctor J M den Uyllaan","highway":"unclassified","maxspeed":"50","oneway":"yes"}},{"Shape":132,"Coordinates":[4.333076,51.84983],"Attributes":{"name":"Doctor J M den Uyllaan","highway":"unclassified","maxspeed":"50","oneway":"yes"}},{"Shape":133,"Coordinates":[4.33326,51.85001],"Attributes":{"name":"Doctor J M den Uyllaan","highway":"residential","oneway":"yes"}},{"Shape":134,"Coordinates":[4.332908,51.84991],"Attributes":{"name":"Gorsstraat","highway":"residential","oneway":"yes"}},{"Shape":135,"Coordinates":[4.332121,51.84992],"Attributes":{"name":"Gorsstraat","highway":"service"}},{"Shape":136,"Coordinates":[4.331715,51.85038],"Attributes":{"name":"Gorsstraat","highway":"residential","maxspeed":"30"}},{"Shape":138,"Coordinates":[4.33256,51.85069],"Attributes":{"highway":"service"}},{"Shape":138,"Coordinates":[4.332849,51.85039],"Attributes":{"name":"Kolkplein","highway":"service"}},{"Shape":139,"Coordinates":[4.332464,51.85073],"Attributes":{"name":"Kolkplein","highway":"service"}},{"Shape":143,"Coordinates":[4.331811,51.85091],"Attributes":{"name":"Damstraat","highway":"service"}},{"Shape":144,"Coordinates":[4.331656,51.85102],"Attributes":{"name":"Damstraat","highway":"service"}},{"Shape":145,"Coordinates":[4.331455,51.8511],"Attributes":{"name":"Damstraat","highway":"service"}},{"Shape":146,"Coordinates":[4.331656,51.85102],"Attributes":{"name":"Damstraat","highway":"service"}},{"Shape":147,"Coordinates":[4.331811,51.85091],"Attributes":{"name":"Damstraat","highway":"service"}},{"Shape":151,"Coordinates":[4.332464,51.85073],"Attributes":{"name":"Kolkplein","highway":"service"}},{"Shape":152,"Coordinates":[4.33256,51.85069],"Attributes":{"highway":"service"}},{"Shape":152,"Coordinates":[4.332849,51.85039],"Attributes":{"name":"Kolkplein","highway":"service"}},{"Shape":154,"Coordinates":[4.332226,51.85023],"Attributes":{"name":"Gorsstraat","highway":"residential","maxspeed":"30"}},{"Shape":155,"Coordinates":[4.331476,51.85044],"Attributes":{"name":"Gorsstraat","highway":"residential","maxspeed":"30"}},{"Shape":161,"Coordinates":[4.332108,51.85028],"Attributes":{"name":"Gorsstraat","highway":"residential","maxspeed":"30"}},{"Shape":164,"Coordinates":[4.330697,51.85058],"Attributes":{"name":"Gorsstraat","highway":"residential"}},{"Shape":164,"Coordinates":[4.33042,51.85056],"Attributes":{"name":"Gorsstraat","highway":"residential","maxspeed":"30"}},{"Shape":173,"Coordinates":[4.331476,51.85044],"Attributes":{"name":"Gorsstraat","highway":"residential","maxspeed":"30"}},{"Shape":174,"Coordinates":[4.330422,51.85063],"Attributes":{"highway":"service"}},{"Shape":175,"Coordinates":[4.32928,51.85018],"Attributes":{"highway":"service"}},{"Shape":177,"Coordinates":[4.329021,51.85089],"Attributes":{"highway":"track"}},{"Shape":179,"Coordinates":[4.328696,51.85123],"Attributes":{"name":"Noordkade","highway":"residential","maxspeed":"30"}},{"Shape":186,"Coordinates":[4.329021,51.85089],"Attributes":{"highway":"track"}},{"Shape":188,"Coordinates":[4.32928,51.85018],"Attributes":{"highway":"service"}},{"Shape":188,"Coordinates":[4.33042,51.85056],"Attributes":{"name":"Gorsstraat","highway":"residential","maxspeed":"30"}},{"Shape":190,"Coordinates":[4.33042,51.85056],"Attributes":{"name":"Gorsstraat","highway":"residential","maxspeed":"30"}},{"Shape":190,"Coordinates":[4.329322,51.85065],"Attributes":{"name":"Noordkade","highway":"residential","maxspeed":"30"}},{"Shape":192,"Coordinates":[4.32928,51.85018],"Attributes":{"highway":"service"}},{"Shape":194,"Coordinates":[4.329021,51.85089],"Attributes":{"highway":"track"}},{"Shape":198,"Coordinates":[4.32847,51.85144],"Attributes":{"bridge":"yes","name":"Noordkade","highway":"residential","maxspeed":"30"}},{"Shape":204,"Coordinates":[4.328226,51.85054],"Attributes":{"name":"Erfstraat","highway":"service"}},{"Shape":210,"Coordinates":[4.327125,51.85024],"Attributes":{"name":"Kaaistraat","highway":"service","motorcar":"no"}},{"Shape":210,"Coordinates":[4.326575,51.84929],"Attributes":{"name":"Rademacherstraat","highway":"service"}},{"Shape":220,"Coordinates":[4.327125,51.85024],"Attributes":{"name":"Kaaistraat","highway":"service","motorcar":"no"}},{"Shape":226,"Coordinates":[4.328226,51.85054],"Attributes":{"name":"Erfstraat","highway":"service"}},{"Shape":232,"Coordinates":[4.328696,51.85123],"Attributes":{"name":"Noordkade","highway":"residential","maxspeed":"30"}},{"Shape":234,"Coordinates":[4.328666,51.85151],"Attributes":{"name":"Gorsstraat","highway":"residential"}},{"Shape":235,"Coordinates":[4.326832,51.85148],"Attributes":{"name":"Noordeinde","highway":"residential","maxspeed":"30","oneway":"yes"}},{"Shape":239,"Coordinates":[4.330255,51.85269],"Attributes":{"name":"Noordeinde","highway":"residential"}},{"Shape":239,"Coordinates":[4.330135,51.85258],"Attributes":{"highway":"service"}},{"Shape":242,"Coordinates":[4.330135,51.85258],"Attributes":{"highway":"service"}},{"Shape":246,"Coordinates":[4.331012,51.85288],"Attributes":{"name":"Noordeinde","highway":"unclassified"}},{"Shape":246,"Coordinates":[4.330812,51.85296],"Attributes":{"name":"Schenkelweg","maxspeed":"50","oneway":"yes","highway":"secondary"}},{"Shape":254,"Coordinates":[4.334111,51.8507],"Attributes":{"name":"Elementenweg","highway":"unclassified","oneway":"yes"}},{"Shape":254,"Coordinates":[4.334143,51.85055],"Attributes":{"name":"Schenkelweg","maxspeed":"50","oneway":"yes","highway":"secondary"}},{"Shape":256,"Coordinates":[4.333288,51.85],"Attributes":{"name":"Doctor J M den Uyllaan","highway":"unclassified","maxspeed":"50","oneway":"yes"}},{"Shape":259,"Coordinates":[4.333157,51.8499],"Attributes":{"name":"Gorsstraat","highway":"residential","oneway":"yes"}},{"Shape":260,"Coordinates":[4.332908,51.84991],"Attributes":{"name":"Gorsstraat","highway":"residential","oneway":"yes"}},{"Shape":261,"Coordinates":[4.332108,51.85028],"Attributes":{"name":"Gorsstraat","highway":"residential","maxspeed":"30"}},{"Shape":261,"Coordinates":[4.332121,51.84992],"Attributes":{"name":"Gorsstraat","highway":"service"}},{"Shape":265,"Coordinates":[4.332108,51.85028],"Attributes":{"name":"Gorsstraat","highway":"residential","maxspeed":"30"}},{"Shape":266,"Coordinates":[4.33298,51.84998],"Attributes":{"name":"Gorsstraat","highway":"residential","oneway":"yes"}},{"Shape":268,"Coordinates":[4.33317,51.84978],"Attributes":{"name":"Thorbeckelaan","highway":"residential","oneway":"yes"}},{"Shape":268,"Coordinates":[4.333157,51.8499],"Attributes":{"name":"Doctor J M den Uyllaan","highway":"unclassified","maxspeed":"50","oneway":"yes"}},{"Shape":274,"Coordinates":[4.331324,51.849],"Attributes":{"name":"Centrumrotonde","highway":"unclassified","maxspeed":"50","oneway":"yes","junction":"roundabout"}},{"Shape":277,"Coordinates":[4.331018,51.849],"Attributes":{"name":"Centrumrotonde","highway":"unclassified","maxspeed":"50","oneway":"yes","junction":"roundabout"}},{"Shape":277,"Coordinates":[4.331021,51.84912],"Attributes":{"highway":"service"}},{"Shape":281,"Coordinates":[4.331227,51.84903],"Attributes":{"name":"Centrumrotonde","highway":"unclassified","maxspeed":"50","oneway":"yes","junction":"roundabout"}},{"Shape":285,"Coordinates":[4.330987,51.84884],"Attributes":{"name":"Centrumrotonde","highway":"unclassified","maxspeed":"50","oneway":"yes","junction":"roundabout"}},{"Shape":288,"Coordinates":[4.3303,51.8484],"Attributes":{"name":"Raadhuislaan","highway":"residential"}},{"Shape":288,"Coordinates":[4.329443,51.84808],"Attributes":{"name":"Raadhuislaan","highway":"unclassified","maxspeed":"50","oneway":"yes"}},{"Shape":288,"Coordinates":[4.330005,51.84834],"Attributes":{"highway":"service","oneway":"yes"}},{"Shape":291,"Coordinates":[4.329252,51.84946],"Attributes":{"name":"H de Lintweg","highway":"unclassified"}},{"Shape":293,"Coordinates":[4.329809,51.84943],"Attributes":{"name":"D. Losstraat","highway":"residential"}},{"Shape":299,"Coordinates":[4.3303,51.8484],"Attributes":{"name":"Raadhuislaan","highway":"residential"}},{"Shape":299,"Coordinates":[4.330841,51.84883],"Attributes":{"name":"Raadhuislaan","highway":"unclassified","maxspeed":"50","oneway":"yes"}},{"Shape":299,"Coordinates":[4.330005,51.84834],"Attributes":{"highway":"service","oneway":"yes"}},{"Shape":302,"Coordinates":[4.328319,51.84733],"Attributes":{"name":"Breestraat","highway":"residential"}},{"Shape":302,"Coordinates":[4.32875,51.8476],"Attributes":{"name":"Raadhuislaan","highway":"unclassified","maxspeed":"50","oneway":"yes"}},{"Shape":309,"Coordinates":[4.325887,51.84866],"Attributes":{"highway":"service","oneway":"yes"}},{"Shape":310,"Coordinates":[4.326085,51.84877],"Attributes":{"highway":"service","oneway":"yes"}},{"Shape":315,"Coordinates":[4.324858,51.84915],"Attributes":{"name":"Eerste Heulbrugstraat","highway":"unclassified","maxspeed":"30"}},{"Shape":318,"Coordinates":[4.32476,51.84822],"Attributes":{"name":"Groene Kruisstraat","highway":"residential","maxspeed":"30"}},{"Shape":319,"Coordinates":[4.323937,51.8489],"Attributes":{"name":"Karel Doormanstraat","highway":"residential","maxspeed":"30"}},{"Shape":324,"Coordinates":[4.321324,51.84792],"Attributes":{"name":"Hekelingseweg","highway":"tertiary","oneway":"yes"}},{"Shape":324,"Coordinates":[4.321056,51.84801],"Attributes":{"name":"Vredehofstraat","highway":"unclassified"}},{"Shape":331,"Coordinates":[4.31871,51.8499],"Attributes":{"name":"Hekelingseweg","highway":"tertiary","oneway":"yes"}},{"Shape":336,"Coordinates":[4.318252,51.85053],"Attributes":{"name":"Hekelingseweg","highway":"tertiary","oneway":"yes"}},{"Shape":340,"Coordinates":[4.317807,51.85178],"Attributes":{"maxspeed":"50","oneway":"yes","highway":"tertiary_link"}},{"Shape":340,"Coordinates":[4.317756,51.8516],"Attributes":{"highway":"service","motorcar":"no","oneway":"yes"}},{"Shape":342,"Coordinates":[4.317519,51.85193],"Attributes":{"name":"Groene Kruisweg","oneway":"yes","highway":"primary","maxspeed":"80"}},{"Shape":342,"Coordinates":[4.317936,51.85201],"Attributes":{"name":"Groene Kruisweg","oneway":"yes","highway":"primary","maxspeed":"80"}},{"Shape":343,"Coordinates":[4.317437,51.85209],"Attributes":{"name":"Groene Kruisweg","oneway":"yes","highway":"primary","maxspeed":"80"}},{"Shape":343,"Coordinates":[4.317867,51.85217],"Attributes":{"name":"Groene Kruisweg","oneway":"yes","highway":"primary","maxspeed":"80"}},{"Shape":345,"Coordinates":[4.317132,51.85259],"Attributes":{"name":"Schiekampsingel","highway":"unclassified","maxspeed":"30"}},{"Shape":345,"Coordinates":[4.317325,51.85233],"Attributes":{"name":"Winston Churchilllaan","maxspeed":"50","highway":"tertiary","oneway":"yes"}},{"Shape":348,"Coordinates":[4.317206,51.85315],"Attributes":{"name":"Hoogwerfsingel","highway":"residential","maxspeed":"30"}},{"Shape":348,"Coordinates":[4.317019,51.85323],"Attributes":{"name":"Winston Churchilllaan","maxspeed":"50","highway":"tertiary"}},{"Shape":348,"Coordinates":[4.3169,51.8531],"Attributes":{"name":"Hoogwerfsingel","highway":"unclassified","maxspeed":"30"}},{"Shape":352,"Coordinates":[4.316312,51.85477],"Attributes":{"name":"Winston Churchilllaan","maxspeed":"50","highway":"tertiary"}},{"Shape":354,"Coordinates":[4.315956,51.85327],"Attributes":{"name":"Herman Gorterstraat","highway":"residential","maxspeed":"30"}},{"Shape":355,"Coordinates":[4.314414,51.85413],"Attributes":{"name":"A M de Jongstraat","highway":"unclassified","maxspeed":"30"}},{"Shape":355,"Coordinates":[4.31471,51.85528],"Attributes":{"name":"Slauerhoffstraat","highway":"residential","maxspeed":"30"}},{"Shape":360,"Coordinates":[4.314414,51.85413],"Attributes":{"name":"A M de Jongstraat","highway":"unclassified","maxspeed":"30"}},{"Shape":361,"Coordinates":[4.316307,51.85448],"Attributes":{"name":"A M de Jongstraat","highway":"unclassified","maxspeed":"30"}},{"Shape":361,"Coordinates":[4.315956,51.85327],"Attributes":{"name":"Herman Gorterstraat","highway":"residential","maxspeed":"30"}},{"Shape":364,"Coordinates":[4.31624,51.85332],"Attributes":{"name":"P A de Genestetstraat","highway":"residential","maxspeed":"30"}},{"Shape":365,"Coordinates":[4.315467,51.85257],"Attributes":{"name":"Potgieterstraat","highway":"residential","maxspeed":"30"}},{"Shape":365,"Coordinates":[4.314386,51.85291],"Attributes":{"bridge":"yes","name":"P A de Genestetstraat","highway":"residential","maxspeed":"30"}},{"Shape":366,"Coordinates":[4.314612,51.85265],"Attributes":{"name":"Vondelsingel","highway":"unclassified","maxspeed":"30"}},{"Shape":366,"Coordinates":[4.314265,51.85306],"Attributes":{"name":"Vondelsingel","highway":"unclassified","maxspeed":"30"}},{"Shape":369,"Coordinates":[4.314054,51.85204],"Attributes":{"name":"Schiekampsingel","highway":"unclassified","maxspeed":"30"}},{"Shape":371,"Coordinates":[4.317521,51.8523],"Attributes":{"name":"Winston Churchilllaan","maxspeed":"50","highway":"tertiary","oneway":"yes"}},{"Shape":371,"Coordinates":[4.317192,51.85284],"Attributes":{"name":"Winston Churchilllaan","maxspeed":"50","highway":"tertiary"}},{"Shape":374,"Coordinates":[4.317599,51.85212],"Attributes":{"name":"Groene Kruisweg","oneway":"yes","highway":"primary","maxspeed":"80"}},{"Shape":374,"Coordinates":[4.317168,51.85205],"Attributes":{"name":"Groene Kruisweg","oneway":"yes","highway":"primary","maxspeed":"80"}},{"Shape":375,"Coordinates":[4.317256,51.85188],"Attributes":{"oneway":"yes","highway":"primary","maxspeed":"80"}},{"Shape":375,"Coordinates":[4.317613,51.85175],"Attributes":{"name":"Hekelingseweg","maxspeed":"50","highway":"tertiary","oneway":"yes"}},{"Shape":376,"Coordinates":[4.317599,51.85212],"Attributes":{"name":"Groene Kruisweg","maxspeed":"50","highway":"tertiary","oneway":"yes"}},{"Shape":376,"Coordinates":[4.317775,51.85178],"Attributes":{"name":"Hekelingseweg","maxspeed":"50","highway":"tertiary","oneway":"yes"}},{"Shape":377,"Coordinates":[4.317807,51.85178],"Attributes":{"maxspeed":"50","oneway":"yes","highway":"tertiary_link"}},{"Shape":383,"Coordinates":[4.321598,51.85284],"Attributes":{"name":"Groene Kruisweg","highway":"unclassified"}},{"Shape":383,"Coordinates":[4.321734,51.8526],"Attributes":{"highway":"unclassified"}},{"Shape":388,"Coordinates":[4.325532,51.85347],"Attributes":{"name":"Groene Kruisweg","oneway":"yes","highway":"primary","maxspeed":"80"}},{"Shape":388,"Coordinates":[4.325237,51.85355],"Attributes":{"name":"Groene Kruisweg","highway":"unclassified","maxspeed":"50","oneway":"yes"}},{"Shape":390,"Coordinates":[4.326985,51.8535],"Attributes":{"name":"Molenpad","highway":"unclassified"}},{"Shape":390,"Coordinates":[4.325558,51.85328],"Attributes":{"name":"Stationsstraat","highway":"unclassified","oneway":"yes"}},{"Shape":391,"Coordinates":[4.327268,51.853],"Attributes":{"name":"Molenstraat","highway":"unclassified"}},{"Shape":391,"Coordinates":[4.325869,51.8523],"Attributes":{"name":"Stationsstraat","highway":"unclassified"}},{"Shape":392,"Coordinates":[4.324963,51.85303],"Attributes":{"name":"Jan Campertlaan","highway":"living_street"}},{"Shape":393,"Coordinates":[4.324779,51.85251],"Attributes":{"name":"Jan Campertlaan","highway":"residential"}},{"Shape":393,"Coordinates":[4.324734,51.85259],"Attributes":{"highway":"service"}},{"Shape":396,"Coordinates":[4.324697,51.85258],"Attributes":{"highway":"service"}},{"Shape":403,"Coordinates":[4.3233,51.85164],"Attributes":{"name":"Koningin Julianaplein","highway":"residential"}},{"Shape":404,"Coordinates":[4.322676,51.85029],"Attributes":{"name":"Koningin Wilhelminalaan","highway":"residential","maxspeed":"30"}},{"Shape":404,"Coordinates":[4.323012,51.85111],"Attributes":{"name":"Koningin Julianaplein","highway":"residential"}},{"Shape":406,"Coordinates":[4.323775,51.85063],"Attributes":{"name":"Vierambachtenkade Zuidzijde","highway":"residential"}},{"Shape":409,"Coordinates":[4.32465,51.85072],"Attributes":{"name":"Zijlstraat","highway":"residential"}},{"Shape":412,"Coordinates":[4.325409,51.85007],"Attributes":{"name":"Kerkring","highway":"service"}},{"Shape":413,"Coordinates":[4.324211,51.84945],"Attributes":{"name":"Kees de Groenplein","highway":"residential"}},{"Shape":416,"Coordinates":[4.325409,51.85007],"Attributes":{"name":"Kerkring","highway":"service"}},{"Shape":419,"Coordinates":[4.32465,51.85072],"Attributes":{"name":"Zijlstraat","highway":"residential"}},{"Shape":422,"Coordinates":[4.323481,51.85092],"Attributes":{"bridge":"yes","name":"Boezembocht","highway":"residential"}},{"Shape":424,"Coordinates":[4.322751,51.84942],"Attributes":{"bridge":"yes","name":"Karel Doormanstraat","highway":"residential","maxspeed":"30"}},{"Shape":424,"Coordinates":[4.323937,51.8489],"Attributes":{"name":"Karel Doormanstraat","highway":"residential","maxspeed":"30"}},{"Shape":427,"Coordinates":[4.322913,51.84838],"Attributes":{"name":"Vredehofstraat","highway":"unclassified"}},{"Shape":428,"Coordinates":[4.32476,51.84822],"Attributes":{"name":"Groene Kruisstraat","highway":"residential","maxspeed":"30"}},{"Shape":431,"Coordinates":[4.326077,51.84879],"Attributes":{"name":"Marrewijklaan","highway":"unclassified","maxspeed":"30"}},{"Shape":439,"Coordinates":[4.324555,51.84892],"Attributes":{"name":"Vredehofplein","highway":"unclassified"}},{"Shape":444,"Coordinates":[4.326085,51.84877],"Attributes":{"highway":"service","oneway":"yes"}},{"Shape":445,"Coordinates":[4.328483,51.84769],"Attributes":{"name":"Marrewijklaan","highway":"unclassified","maxspeed":"30"}},{"Shape":445,"Coordinates":[4.325887,51.84866],"Attributes":{"highway":"service","oneway":"yes"}},{"Shape":453,"Coordinates":[4.328319,51.84733],"Attributes":{"name":"Breestraat","highway":"residential"}},{"Shape":453,"Coordinates":[4.329443,51.84808],"Attributes":{"name":"Raadhuislaan","highway":"unclassified","maxspeed":"50","oneway":"yes"}},{"Shape":456,"Coordinates":[4.32904,51.84766],"Attributes":{"highway":"service"}},{"Shape":458,"Coordinates":[4.329443,51.84789],"Attributes":{"highway":"service"}},{"Shape":461,"Coordinates":[4.330193,51.84849],"Attributes":{"name":"Raadhuislaan","highway":"residential"}},{"Shape":461,"Coordinates":[4.329726,51.84819],"Attributes":{"highway":"service","oneway":"yes"}},{"Shape":464,"Coordinates":[4.330987,51.84884],"Attributes":{"name":"Centrumrotonde","highway":"unclassified","maxspeed":"50","oneway":"yes","junction":"roundabout"}},{"Shape":467,"Coordinates":[4.33132,51.84882],"Attributes":{"name":"Centrumrotonde","highway":"unclassified","maxspeed":"50","oneway":"yes","junction":"roundabout"}},{"Shape":472,"Coordinates":[4.332804,51.84774],"Attributes":{"highway":"living_street"}},{"Shape":472,"Coordinates":[4.333279,51.84769],"Attributes":{"name":"Centrumlaan","highway":"residential","maxspeed":"50","oneway":"yes"}},{"Shape":474,"Coordinates":[4.333535,51.84745],"Attributes":{"highway":"service","motorcar":"no","maxspeed":"50","oneway":"yes"}},{"Shape":476,"Coordinates":[4.334669,51.84701],"Attributes":{"highway":"service","motorcar":"no","maxspeed":"50","oneway":"yes"}},{"Shape":476,"Coordinates":[4.334812,51.84714],"Attributes":{"highway":"service","motorcar":"no","maxspeed":"50","oneway":"yes"}},{"Shape":479,"Coordinates":[4.335145,51.84689],"Attributes":{"name":"Centrumlaan","highway":"unclassified","maxspeed":"50","oneway":"yes"}},{"Shape":480,"Coordinates":[4.335177,51.84675],"Attributes":{"name":"Ruwaard van Puttenweg","maxspeed":"50","highway":"tertiary","oneway":"yes"}},{"Shape":480,"Coordinates":[4.335348,51.8469],"Attributes":{"name":"Ruwaard van Puttenweg","maxspeed":"50","highway":"tertiary","oneway":"yes"}},{"Shape":481,"Coordinates":[4.335445,51.84685],"Attributes":{"name":"Ruwaard van Puttenweg","maxspeed":"50","highway":"tertiary","oneway":"yes"}},{"Shape":481,"Coordinates":[4.335206,51.84665],"Attributes":{"name":"Ruwaard van Puttenweg","maxspeed":"50","highway":"tertiary","oneway":"yes"}},{"Shape":483,"Coordinates":[4.335551,51.84678],"Attributes":{"name":"Groenewoudlaan","highway":"unclassified","maxspeed":"50","oneway":"yes"}},{"Shape":487,"Coordinates":[4.335887,51.84615],"Attributes":{"name":"Beurtschipper","highway":"living_street"}},{"Shape":488,"Coordinates":[4.335981,51.84612],"Attributes":{"highway":"living_street"}},{"Shape":489,"Coordinates":[4.3368,51.8458],"Attributes":{"name":"Rietsnijder","highway":"living_street"}},{"Shape":490,"Coordinates":[4.3368,51.8458],"Attributes":{"highway":"living_street"}},{"Shape":491,"Coordinates":[4.337641,51.8456],"Attributes":{"name":"Griendwerker","highway":"living_street"}},{"Shape":491,"Coordinates":[4.338938,51.84515],"Attributes":{"name":"Groenewoudlaan","highway":"residential"}},{"Shape":495,"Coordinates":[4.337243,51.84587],"Attributes":{"name":"Groenewoudlaan","highway":"residential"}},{"Shape":496,"Coordinates":[4.339006,51.8452],"Attributes":{"highway":"service"}},{"Shape":498,"Coordinates":[4.339325,51.84485],"Attributes":{"name":"Hoepelmaker","highway":"residential","maxspeed":"30"}},{"Shape":498,"Coordinates":[4.341301,51.84442],"Attributes":{"name":"Groenewoudlaan","highway":"residential"}},{"Shape":500,"Coordinates":[4.339327,51.84499],"Attributes":{"name":"Groenewoudlaan","highway":"residential"}},{"Shape":502,"Coordinates":[4.33939,51.84475],"Attributes":{"name":"Hoepelmaker","highway":"residential"}},{"Shape":503,"Coordinates":[4.338379,51.84396],"Attributes":{"name":"Hoepelmaker","highway":"residential","maxspeed":"30"}},{"Shape":503,"Coordinates":[4.338624,51.84371],"Attributes":{"name":"Veerman","highway":"residential","maxspeed":"30"}},{"Shape":505,"Coordinates":[4.337762,51.84473],"Attributes":{"name":"Griendwerker","highway":"residential"}},{"Shape":506,"Coordinates":[4.337123,51.84464],"Attributes":{"name":"Veerman","highway":"residential","maxspeed":"30"}},{"Shape":506,"Coordinates":[4.33704,51.84424],"Attributes":{"name":"Kleermaker","highway":"residential"}}]}