{"Shape":[[4.343954,51.8521],[4.344532,51.85169],[4.344573,51.85167],[4.34355,51.85109],[4.342261,51.85032],[4.341409,51.84985],[4.340407,51.84923],[4.339965,51.84892],[4.339923,51.84883],[4.339904,51.84874],[4.339931,51.84852],[4.339931,51.84838],[4.339941,51.84828],[4.339942,51.84821],[4.339949,51.84815],[4.33994,51.84805],[4.339946,51.84796],[4.339936,51.84761],[4.339959,51.84753],[4.340288,51.84734],[4.340586,51.84752],[4.341333,51.84753],[4.340586,51.84752],[4.340288,51.84734],[4.339959,51.84753],[4.339936,51.84761],[4.339946,51.84796],[4.33994,51.84805],[4.339949,51.84815],[4.339942,51.84821],[4.339941,51.84828],[4.339931,51.84838],[4.342422,51.84838],[4.342572,51.84838],[4.3428,51.8485],[4.343182,51.84875],[4.343457,51.84892],[4.343237,51.84914],[4.34311,51.84925],[4.34225,51.84966],[4.342212,51.84968],[4.34225,51.84966],[4.34311,51.84925],[4.343237,51.84914],[4.343457,51.84892],[4.34341,51.84889],[4.343182,51.84875],[4.3428,51.8485],[4.342572,51.84838],[4.342422,51.84838],[4.339931,51.84838],[4.339941,51.84828],[4.339942,51.84821],[4.339718,51.84821],[4.339446,51.8482],[4.338929,51.84819],[4.33885,51.84818],[4.338763,51.84817],[4.338435,51.84813],[4.338263,51.84808],[4.338386,51.84801],[4.338558,51.84791],[4.342889,51.84501],[4.34327,51.84469],[4.343646,51.84427],[4.343978,51.84378],[4.344173,51.84333],[4.344306,51.84261],[4.344324,51.84243],[4.344196,51.84242],[4.3431,51.84237],[4.343118,51.84227],[4.343182,51.84167],[4.343195,51.84157],[4.343297,51.84085],[4.343392,51.83969],[4.3434,51.8396],[4.342182,51.83953],[4.341702,51.8395],[4.341178,51.83948],[4.340808,51.83946],[4.340692,51.83946],[4.340141,51.83944],[4.339907,51.83942],[4.33916,51.83938],[4.339021,51.83937],[4.3389,51.83937],[4.33777,51.83931],[4.337754,51.83931],[4.337546,51.8393],[4.337562,51.83916],[4.337589,51.83892],[4.337539,51.83852],[4.337474,51.83849],[4.337389,51.83842],[4.337382,51.83839],[4.337375,51.83837],[4.337385,51.83832],[4.337407,51.83829],[4.337417,51.83828],[4.337511,51.83822],[4.337559,51.83821],[4.337609,51.83812],[4.337694,51.83784],[4.33786,51.83638],[4.33763,51.83636],[4.336397,51.83626],[4.336403,51.83621],[4.336479,51.83564],[4.336488,51.83555],[4.336479,51.83564],[4.336403,51.83621],[4.336397,51.83626],[4.336342,51.83686],[4.336829,51.83689],[4.336818,51.83698],[4.336829,51.83689],[4.336342,51.83686],[4.336166,51.83697],[4.335967,51.83701],[4.335168,51.83696],[4.334412,51.83688],[4.3342,51.83692],[4.334102,51.83704],[4.334082,51.83704],[4.334102,51.83704],[4.333991,51.83757],[4.333906,51.83763],[4.333788,51.83767],[4.333152,51.83767],[4.332994,51.83764],[4.332922,51.83754],[4.332922,51.83744],[4.333139,51.83637],[4.333388,51.83621],[4.333409,51.83619],[4.333683,51.83601],[4.333858,51.83577],[4.334031,51.83526],[4.3343,51.83469],[4.33426,51.8345],[4.334218,51.83438],[4.334131,51.8344],[4.334218,51.83438],[4.334064,51.834],[4.334106,51.83392],[4.33427,51.83384],[4.334579,51.83381],[4.33519,51.83389],[4.335461,51.83391],[4.335491,51.83371],[4.335445,51.83354],[4.33526,51.83353],[4.334939,51.83347],[4.334557,51.83341],[4.334476,51.83343],[4.334097,51.83339],[4.33392,51.83337],[4.333775,51.83335],[4.332844,51.83318],[4.332567,51.83327],[4.332406,51.83332],[4.332323,51.83335],[4.332323,51.83339],[4.332324,51.83349],[4.332049,51.83412],[4.332065,51.83416],[4.331853,51.83471],[4.331827,51.83475],[4.331853,51.83471],[4.332065,51.83416],[4.3317,51.8341],[4.331111,51.83401],[4.330556,51.83393],[4.330347,51.83371],[4.330239,51.83369],[4.329821,51.83363],[4.3293,51.8338],[4.32932,51.83382],[4.3293,51.8338],[4.329077,51.83386],[4.328655,51.83343],[4.327865,51.83331],[4.327848,51.83337],[4.327865,51.83331],[4.328073,51.83275],[4.328074,51.83275],[4.328253,51.83225],[4.328337,51.83201],[4.3285,51.8319],[4.328874,51.83178],[4.3291,51.8317],[4.329056,51.83165],[4.3291,51.8317],[4.32934,51.83195],[4.329796,51.83218],[4.329892,51.83223],[4.330235,51.8326],[4.329892,51.83223],[4.329796,51.83218],[4.32934,51.83195],[4.3291,51.8317],[4.329037,51.83162],[4.3285,51.83105],[4.328415,51.83091],[4.328416,51.8307],[4.328413,51.83059],[4.328411,51.83041],[4.328394,51.83027],[4.327511,51.83031],[4.327499,51.83029],[4.327511,51.83031],[4.328394,51.83027],[4.328411,51.83041],[4.328413,51.83059],[4.328416,51.8307],[4.328415,51.83091],[4.3285,51.83105],[4.329037,51.83162],[4.329659,51.8314],[4.329551,51.83128],[4.329659,51.8314],[4.3302,51.832],[4.330325,51.83191],[4.330521,51.83184],[4.330766,51.83175],[4.33112,51.83216],[4.331113,51.83216],[4.33112,51.83216],[4.330766,51.83175],[4.331029,51.83165],[4.331104,51.83163],[4.332265,51.8318],[4.333242,51.83197],[4.3333,51.832],[4.333368,51.83207],[4.33347,51.83219],[4.333301,51.83263],[4.333081,51.83269],[4.332894,51.83266],[4.333081,51.83269],[4.332867,51.83306],[4.33286,51.8331],[4.332828,51.83313],[4.333331,51.83319],[4.333804,51.83327],[4.333944,51.83329],[4.334132,51.83332],[4.334222,51.83334],[4.334557,51.83341],[4.334939,51.83347],[4.33526,51.83353],[4.335445,51.83354],[4.335537,51.83351],[4.335601,51.83341],[4.335699,51.83327],[4.335924,51.83292],[4.335856,51.8329],[4.335924,51.83292],[4.336067,51.83267],[4.336157,51.83268],[4.3368,51.8328],[4.3373,51.8332],[4.3377,51.833],[4.337743,51.83298],[4.3377,51.833],[4.3373,51.8332],[4.33692,51.83342],[4.336526,51.83363],[4.336365,51.83371],[4.336218,51.83369],[4.336365,51.83371],[4.336526,51.83363],[4.33692,51.83342],[4.3373,51.8332],[4.3368,51.8328],[4.336157,51.83268],[4.336067,51.83267],[4.33653,51.83193],[4.336393,51.83191],[4.33653,51.83193],[4.336637,51.83176],[4.336734,51.8316],[4.336813,51.83154],[4.336943,51.83153],[4.337406,51.83154],[4.338023,51.83157],[4.338042,51.83144],[4.338076,51.83113],[4.338113,51.83086],[4.338116,51.83082],[4.338126,51.83069],[4.338081,51.83066],[4.338033,51.83063],[4.337961,51.83051],[4.338021,51.83002],[4.338505,51.83004],[4.338021,51.83002],[4.337961,51.83051],[4.338033,51.83063],[4.338081,51.83066],[4.338126,51.83069],[4.338116,51.83082],[4.338113,51.83086],[4.33811,51.83088],[4.338112,51.83087],[4.338076,51.83113],[4.338042,51.83144],[4.338023,51.83157],[4.338902,51.8316],[4.338892,51.83189],[4.338902,51.8316],[4.339423,51.83163],[4.340044,51.83164],[4.340175,51.83165],[4.340238,51.83165],[4.340427,51.83166],[4.340846,51.83168],[4.341269,51.8317],[4.341538,51.83173],[4.34169,51.83173],[4.3417,51.83166],[4.34175,51.8311],[4.341763,51.83101],[4.34177,51.83098],[4.341774,51.83094],[4.34177,51.83098],[4.341763,51.83101],[4.34175,51.8311],[4.3417,51.83166],[4.34169,51.83173],[4.342601,51.83176],[4.3432,51.8318],[4.343556,51.83182],[4.343637,51.83183],[4.344021,51.83184],[4.344309,51.83186],[4.34448,51.8322],[4.344522,51.83229],[4.344665,51.8326],[4.3447,51.8327],[4.34476,51.83287],[4.34482,51.83303],[4.344756,51.83363],[4.344743,51.83375],[4.344718,51.83396],[4.344673,51.8345],[4.344503,51.83449],[4.343701,51.83445],[4.3437,51.8351],[4.343709,51.83514],[4.3437,51.8351],[4.343701,51.83445],[4.343574,51.8339],[4.343701,51.83445],[4.344503,51.83449],[4.344673,51.8345],[4.3446,51.835],[4.344803,51.83581],[4.344921,51.83622],[4.34493,51.83625],[4.345014,51.83635],[4.345134,51.8369],[4.345144,51.83719],[4.345103,51.83748],[4.345008,51.83847],[4.344985,51.83865],[4.344984,51.83874],[4.344983,51.83881],[4.344948,51.83896],[4.344821,51.83929],[4.344628,51.84029],[4.34461,51.84051],[4.344692,51.84129],[4.34469,51.84135],[4.344689,51.84147],[4.344674,51.8416],[4.344577,51.84244],[4.344548,51.84262],[4.344509,51.84287],[4.344375,51.84331],[4.344097,51.84385],[4.343863,51.84421],[4.343716,51.8444],[4.34342,51.8447],[4.343206,51.84489],[4.343266,51.84497],[4.343728,51.84517],[4.343934,51.84529],[4.343998,51.84533],[4.344689,51.84575],[4.345017,51.84597],[4.345543,51.84628],[4.345771,51.84614],[4.345543,51.84628],[4.345017,51.84597],[4.344689,51.84575],[4.344969,51.84557],[4.344975,51.84557],[4.344969,51.84557],[4.344689,51.84575],[4.343998,51.84533],[4.343934,51.84529],[4.343448,51.84536],[4.3431,51.8456],[4.342484,51.84601],[4.342767,51.84619],[4.343916,51.84694],[4.343941,51.84697],[4.344029,51.84711],[4.344078,51.8472],[4.344829,51.8472],[4.344827,51.84712],[4.344827,51.84711],[4.344827,51.84712],[4.344829,51.8472],[4.344078,51.8472],[4.3439,51.8473],[4.343564,51.84751],[4.342893,51.84793],[4.342482,51.84818],[4.341807,51.84818],[4.341011,51.84818],[4.340665,51.84819],[4.34012,51.84821],[4.339942,51.84821],[4.339941,51.84828],[4.339931,51.84838],[4.339931,51.84852],[4.339904,51.84874],[4.339923,51.84883],[4.339965,51.84892],[4.340407,51.84923],[4.341409,51.84985],[4.342261,51.85032],[4.34355,51.85109],[4.344573,51.85167],[4.344532,51.85169],[4.343739,51.85225],[4.343447,51.85246],[4.343039,51.85276],[4.342986,51.8528],[4.342385,51.85323],[4.342306,51.85329],[4.342105,51.85348],[4.341425,51.85414],[4.342306,51.85329],[4.342986,51.8528],[4.343447,51.85246],[4.343739,51.85225],[4.343954,51.8521]],"ShapeMeta":[{"Shape":0,"Attributes":{"profile":"car"}},{"Shape":2,"Attributes":{"name":"Hongerlandsedijk","highway":"residential","maxspeed":"30","profile":"car","distance":"63.95689","time":"10.2331"}},{"Shape":6,"Attributes":{"name":"Oude Maasweg","highway":"unclassified","maxspeed":"30","profile":"car","distance":"458.1569","time":"73.3051"}},{"Shape":9,"Attributes":{"name":"Oude Maasweg","highway":"unclassified","maxspeed":"30","profile":"car","distance":"524.2569","time":"83.8811"}},{"Shape":10,"Attributes":{"name":"Oude Maasweg","highway":"unclassified","maxspeed":"30","profile":"car","distance":"548.8569","time":"87.8171"}},{"Shape":11,"Attributes":{"name":"Oude Maasweg","highway":"unclassified","maxspeed":"30","profile":"car","distance":"564.0569","time":"90.2491"}},{"Shape":13,"Attributes":{"name":"Oude Maasweg","highway":"unclassified","profile":"car","distance":"583.1569","time":"92.0827"}},{"Shape":14,"Attributes":{"name":"Oude Maasweg","highway":"unclassified","profile":"car","distance":"589.4569","time":"92.6875"}},{"Shape":15,"Attributes":{"name":"Seinestraat","highway":"residential","profile":"car","distance":"600.8569","time":"93.7819"}},{"Shape":19,"Attributes":{"name":"Seinestraat","highway":"residential","maxspeed":"30","profile":"car","distance":"689.5569","time":"107.9739"}},{"Shape":21,"Attributes":{"name":"Rhônestraat","highway":"residential","maxspeed":"30","profile":"car","distance":"769.735","time":"120.8024"}},{"Shape":23,"Attributes":{"name":"Rhônestraat","highway":"residential","maxspeed":"30","profile":"car","distance":"849.9131","time":"313.6309"}},{"Shape":27,"Attributes":{"name":"Seinestraat","highway":"residential","maxspeed":"30","profile":"car","distance":"938.6131","time":"327.8229"}},{"Shape":28,"Attributes":{"name":"Seinestraat","highway":"residential","profile":"car","distance":"950.0131","time":"328.9173"}},{"Shape":29,"Attributes":{"name":"Oude Maasweg","highway":"unclassified","profile":"car","distance":"956.3131","time":"329.5221"}},{"Shape":31,"Attributes":{"name":"Oude Maasweg","highway":"unclassified","profile":"car","distance":"975.4131","time":"331.3557"}},{"Shape":35,"Attributes":{"name":"Theemsweg","highway":"residential","profile":"car","distance":"1215.813","time":"354.4341"}},{"Shape":36,"Attributes":{"name":"Groenoord","highway":"residential","profile":"car","distance":"1242.013","time":"356.9493"}},{"Shape":37,"Attributes":{"name":"Groenoord","highway":"residential","profile":"car","distance":"1270.813","time":"359.7141"}},{"Shape":40,"Attributes":{"name":"Groenoord","highway":"residential","profile":"car","distance":"1363.857","time":"368.6463"}},{"Shape":43,"Attributes":{"name":"Groenoord","highway":"residential","profile":"car","distance":"1456.901","time":"557.5785"}},{"Shape":44,"Attributes":{"name":"Groenoord","highway":"residential","profile":"car","distance":"1485.701","time":"560.3433"}},{"Shape":45,"Attributes":{"name":"Groenoord","highway":"residential","profile":"car","distance":"1490.159","time":"560.7713"}},{"Shape":46,"Attributes":{"name":"Groenoord","highway":"residential","profile":"car","distance":"1511.901","time":"742.8585"}},{"Shape":50,"Attributes":{"name":"Theemsweg","highway":"residential","profile":"car","distance":"1752.301","time":"765.9369"}},{"Shape":52,"Attributes":{"name":"Oude Maasweg","highway":"unclassified","profile":"car","distance":"1771.401","time":"767.7705"}},{"Shape":53,"Attributes":{"name":"Donaulaan","highway":"unclassified","maxspeed":"50","oneway":"yes","profile":"car","distance":"1786.801","time":"769.2489"}},{"Shape":55,"Attributes":{"name":"Donaulaan","highway":"unclassified","maxspeed":"50","oneway":"yes","profile":"car","distance":"1841.001","time":"774.4521"}},{"Shape":58,"Attributes":{"name":"Donaulaan","highway":"unclassified","maxspeed":"50","oneway":"yes","profile":"car","distance":"1875.601","time":"777.7737"}},{"Shape":59,"Attributes":{"maxspeed":"50","oneway":"yes","highway":"tertiary_link","profile":"car","distance":"1888.501","time":"779.0121"}},{"Shape":60,"Attributes":{"name":"Schenkelweg","maxspeed":"50","oneway":"yes","highway":"secondary","profile":"car","distance":"1900.101","time":"780.1257"}},{"Shape":68,"Attributes":{"name":"Schenkelweg","maxspeed":"50","oneway":"yes","highway":"secondary","profile":"car","distance":"2664.701","time":"853.5273"}},{"Shape":70,"Attributes":{"name":"Eikenlaan","highway":"unclassified","maxspeed":"50","profile":"car","distance":"2748.901","time":"861.6105"}},{"Shape":72,"Attributes":{"name":"Iepenlaan","highway":"unclassified","profile":"car","distance":"2827.101","time":"869.1177"}},{"Shape":73,"Attributes":{"name":"Iepenlaan","highway":"unclassified","profile":"car","distance":"2838.164","time":"870.1797"}},{"Shape":74,"Attributes":{"name":"Iepenlaan","highway":"unclassified","profile":"car","distance":"2919.001","time":"1057.94"}},{"Shape":75,"Attributes":{"name":"Iepenlaan","highway":"unclassified","profile":"car","distance":"3047.616","time":"1070.287"}},{"Shape":76,"Attributes":{"name":"Iepenlaan","highway":"unclassified","profile":"car","distance":"3057.801","time":"1251.265"}},{"Shape":77,"Attributes":{"name":"Hazelaarstraat","highway":"unclassified","profile":"car","distance":"3141.801","time":"1259.329"}},{"Shape":78,"Attributes":{"name":"Hazelaarstraat","highway":"unclassified","profile":"car","distance":"3174.901","time":"1262.506"}},{"Shape":79,"Attributes":{"name":"Hazelaarstraat","highway":"unclassified","profile":"car","distance":"3210.901","time":"1265.962"}},{"Shape":80,"Attributes":{"name":"Hazelaarstraat","highway":"unclassified","profile":"car","distance":"3236.378","time":"1268.408"}},{"Shape":82,"Attributes":{"name":"Hazelaarstraat","highway":"unclassified","profile":"car","distance":"3282.301","time":"1452.817"}},{"Shape":83,"Attributes":{"name":"Hazelaarstraat","highway":"unclassified","profile":"car","distance":"3298.401","time":"1454.362"}},{"Shape":84,"Attributes":{"name":"Hazelaarstraat","highway":"unclassified","profile":"car","distance":"3349.901","time":"1459.306"}},{"Shape":85,"Attributes":{"name":"Hazelaarstraat","highway":"unclassified","profile":"car","distance":"3359.501","time":"1460.228"}},{"Shape":86,"Attributes":{"name":"Hazelaarstraat","highway":"unclassified","profile":"car","distance":"3367.801","time":"1461.025"}},{"Shape":87,"Attributes":{"name":"Hazelaarstraat","highway":"unclassified","profile":"car","distance":"3445.601","time":"1468.493"}},{"Shape":88,"Attributes":{"name":"Hazelaarstraat","highway":"unclassified","profile":"car","distance":"3446.755","time":"1468.604"}},{"Shape":89,"Attributes":{"name":"Hazelaarstraat","highway":"unclassified","profile":"car","distance":"3461.001","time":"1649.972"}},{"Shape":90,"Attributes":{"name":"Beukenlaan","highway":"unclassified","profile":"car","distance":"3476.301","time":"1651.44"}},{"Shape":91,"Attributes":{"name":"Beukenlaan","highway":"unclassified","profile":"car","distance":"3503.001","time":"1654.004"}},{"Shape":92,"Attributes":{"highway":"unclassified","oneway":"yes","profile":"car","distance":"3548.001","time":"1658.324"}},{"Shape":95,"Attributes":{"name":"Heemraadlaan","junction":"roundabout","highway":"secondary","profile":"car","distance":"3566.301","time":"1659.578"}},{"Shape":98,"Attributes":{"name":"Heemraadlaan","junction":"roundabout","highway":"secondary","profile":"car","distance":"3578.101","time":"1660.388"}},{"Shape":101,"Attributes":{"name":"Heemraadlaan","junction":"roundabout","highway":"secondary","profile":"car","distance":"3592.201","time":"1661.354"}},{"Shape":103,"Attributes":{"highway":"residential","oneway":"yes","profile":"car","distance":"3634.801","time":"1665.444"}},{"Shape":104,"Attributes":{"name":"De Waarsman","highway":"residential","profile":"car","distance":"3797.201","time":"1681.035"}},{"Shape":106,"Attributes":{"name":"De Landmeter","highway":"unclassified","maxspeed":"30","profile":"car","distance":"3898.601","time":"1697.259"}},{"Shape":109,"Attributes":{"name":"Kikkerveen","highway":"residential","profile":"car","distance":"3978.132","time":"1704.894"}},{"Shape":112,"Attributes":{"name":"Kikkerveen","highway":"residential","profile":"car","distance":"4057.663","time":"1892.529"}},{"Shape":113,"Attributes":{"name":"Beverveen","highway":"unclassified","profile":"car","distance":"4123.863","time":"1898.884"}},{"Shape":115,"Attributes":{"name":"Beverveen","highway":"unclassified","profile":"car","distance":"4167.37","time":"1903.061"}},{"Shape":117,"Attributes":{"name":"Beverveen","highway":"unclassified","profile":"car","distance":"4210.876","time":"2087.238"}},{"Shape":120,"Attributes":{"name":"Beverveen","highway":"unclassified","profile":"car","distance":"4297.876","time":"2095.59"}},{"Shape":122,"Attributes":{"name":"Beverveen","highway":"unclassified","profile":"car","distance":"4365.477","time":"2102.079"}},{"Shape":123,"Attributes":{"name":"Beverveen","highway":"unclassified","profile":"car","distance":"4380.977","time":"2103.567"}},{"Shape":124,"Attributes":{"highway":"residential","profile":"car","distance":"4382.575","time":"2103.721"}},{"Shape":125,"Attributes":{"highway":"residential","profile":"car","distance":"4384.173","time":"2283.874"}},{"Shape":126,"Attributes":{"name":"Beverveen","highway":"unclassified","profile":"car","distance":"4442.773","time":"2289.5"}},{"Shape":128,"Attributes":{"name":"Beverveen","highway":"unclassified","profile":"car","distance":"4461.374","time":"2291.286"}},{"Shape":134,"Attributes":{"name":"Beverveen","highway":"unclassified","profile":"car","distance":"4684.474","time":"2312.703"}},{"Shape":135,"Attributes":{"name":"Beverveen","highway":"unclassified","profile":"car","distance":"4686.558","time":"2312.903"}},{"Shape":139,"Attributes":{"name":"Beverveen","highway":"unclassified","profile":"car","distance":"4868.074","time":"2510.329"}},{"Shape":141,"Attributes":{"name":"Beverveen","highway":"unclassified","profile":"car","distance":"4902.874","time":"2513.669"}},{"Shape":142,"Attributes":{"highway":"residential","profile":"car","distance":"4909.378","time":"2514.294"}},{"Shape":143,"Attributes":{"highway":"residential","profile":"car","distance":"4915.882","time":"2694.918"}},{"Shape":148,"Attributes":{"name":"Beverveen","highway":"unclassified","profile":"car","distance":"5047.583","time":"2707.562"}},{"Shape":149,"Attributes":{"name":"Beverveen","highway":"unclassified","profile":"car","distance":"5066.282","time":"2709.357"}},{"Shape":151,"Attributes":{"name":"De Schouw","highway":"unclassified","maxspeed":"30","profile":"car","distance":"5107.282","time":"2715.917"}},{"Shape":154,"Attributes":{"name":"De Schouw","highway":"tertiary","profile":"car","distance":"5170.282","time":"2720.237"}},{"Shape":157,"Attributes":{"name":"De Schouw","maxspeed":"50","highway":"tertiary","oneway":"yes","profile":"car","distance":"5214.882","time":"2724.518"}},{"Shape":158,"Attributes":{"name":"Gaard","maxspeed":"50","highway":"tertiary","oneway":"yes","profile":"car","distance":"5225.182","time":"2725.507"}},{"Shape":159,"Attributes":{"name":"Gaard","maxspeed":"50","highway":"tertiary","oneway":"yes","profile":"car","distance":"5291.682","time":"2731.891"}},{"Shape":162,"Attributes":{"name":"Gaard","highway":"tertiary","oneway":"yes","profile":"car","distance":"5332.382","time":"2734.682"}},{"Shape":163,"Attributes":{"name":"Appelgaard","highway":"unclassified","profile":"car","distance":"5335.76","time":"2735.006"}},{"Shape":164,"Attributes":{"name":"Appelgaard","highway":"unclassified","profile":"car","distance":"5347.582","time":"2916.141"}},{"Shape":165,"Attributes":{"name":"Appelgaard","highway":"unclassified","profile":"car","distance":"5419.982","time":"2923.092"}},{"Shape":166,"Attributes":{"name":"Appelgaard","highway":"unclassified","profile":"car","distance":"5424.682","time":"2923.543"}},{"Shape":167,"Attributes":{"name":"Appelgaard","highway":"unclassified","profile":"car","distance":"5487.382","time":"2929.562"}},{"Shape":168,"Attributes":{"name":"Appelgaard","highway":"unclassified","profile":"car","distance":"5492.43","time":"2930.046"}},{"Shape":169,"Attributes":{"name":"Appelgaard","highway":"unclassified","profile":"car","distance":"5497.479","time":"3110.531"}},{"Shape":170,"Attributes":{"name":"Appelgaard","highway":"unclassified","profile":"car","distance":"5560.178","time":"3116.55"}},{"Shape":173,"Attributes":{"name":"Mandarijngaard","highway":"unclassified","profile":"car","distance":"5667.079","time":"3126.812"}},{"Shape":174,"Attributes":{"name":"Perzikgaard","highway":"unclassified","profile":"car","distance":"5694.778","time":"3129.471"}},{"Shape":175,"Attributes":{"name":"Perzikgaard","highway":"unclassified","profile":"car","distance":"5702.409","time":"3130.204"}},{"Shape":177,"Attributes":{"name":"Perzikgaard","highway":"unclassified","profile":"car","distance":"5772.878","time":"3316.969"}},{"Shape":178,"Attributes":{"name":"Frambozengaard","highway":"unclassified","profile":"car","distance":"5775.47","time":"3317.218"}},{"Shape":179,"Attributes":{"name":"Frambozengaard","highway":"unclassified","profile":"car","distance":"5778.062","time":"3497.467"}},{"Shape":180,"Attributes":{"name":"Perzikgaard","highway":"unclassified","profile":"car","distance":"5794.662","time":"3499.061"}},{"Shape":182,"Attributes":{"name":"Frambozengaard","highway":"unclassified","profile":"car","distance":"5906.362","time":"3509.784"}},{"Shape":183,"Attributes":{"name":"Bessengaard","highway":"unclassified","profile":"car","distance":"5912.402","time":"3510.364"}},{"Shape":184,"Attributes":{"name":"Bessengaard","highway":"unclassified","profile":"car","distance":"5918.442","time":"3690.944"}},{"Shape":186,"Attributes":{"name":"Bessengaard","highway":"unclassified","profile":"car","distance":"5982.823","time":"3697.125"}},{"Shape":187,"Attributes":{"name":"Bessengaard","highway":"unclassified","profile":"car","distance":"6039.743","time":"3882.589"}},{"Shape":190,"Attributes":{"name":"Bessengaard","highway":"unclassified","profile":"car","distance":"6112.543","time":"3889.578"}},{"Shape":191,"Attributes":{"name":"Bessengaard","highway":"unclassified","profile":"car","distance":"6130.243","time":"3891.277"}},{"Shape":192,"Attributes":{"name":"Gaard","highway":"tertiary","profile":"car","distance":"6136.887","time":"3891.733"}},{"Shape":193,"Attributes":{"name":"Gaard","highway":"tertiary","profile":"car","distance":"6143.531","time":"4072.188"}},{"Shape":196,"Attributes":{"name":"Gaard","highway":"tertiary","profile":"car","distance":"6225.131","time":"4077.784"}},{"Shape":197,"Attributes":{"name":"Gaard","highway":"tertiary","profile":"car","distance":"6272.202","time":"4081.012"}},{"Shape":198,"Attributes":{"name":"Gaard","highway":"tertiary","profile":"car","distance":"6319.273","time":"4264.24"}},{"Shape":201,"Attributes":{"name":"Gaard","highway":"tertiary","profile":"car","distance":"6400.873","time":"4269.835"}},{"Shape":202,"Attributes":{"name":"Gaard","highway":"tertiary","profile":"car","distance":"6410.373","time":"4270.487"}},{"Shape":206,"Attributes":{"name":"Gaard","highway":"tertiary","profile":"car","distance":"6536.673","time":"4279.147"}},{"Shape":207,"Attributes":{"bridge":"yes","name":"Gaard","highway":"tertiary","profile":"car","distance":"6555.673","time":"4280.45"}},{"Shape":208,"Attributes":{"name":"Wijngaard","maxspeed":"30","highway":"tertiary","profile":"car","distance":"6572.173","time":"4283.09"}},{"Shape":210,"Attributes":{"name":"Rieslinggaard","highway":"unclassified","profile":"car","distance":"6634.821","time":"4289.104"}},{"Shape":212,"Attributes":{"name":"Rieslinggaard","highway":"unclassified","profile":"car","distance":"6697.469","time":"4475.118"}},{"Shape":213,"Attributes":{"name":"Wijngaard","maxspeed":"30","highway":"tertiary","profile":"car","distance":"6713.969","time":"4477.758"}},{"Shape":214,"Attributes":{"bridge":"yes","name":"Gaard","highway":"tertiary","profile":"car","distance":"6732.969","time":"4479.061"}},{"Shape":218,"Attributes":{"name":"Gaard","highway":"tertiary","profile":"car","distance":"6859.269","time":"4487.722"}},{"Shape":219,"Attributes":{"name":"Druivengaard","highway":"unclassified","profile":"car","distance":"6908.569","time":"4492.455"}},{"Shape":220,"Attributes":{"highway":"unclassified","profile":"car","distance":"6924.056","time":"4493.941"}},{"Shape":221,"Attributes":{"highway":"unclassified","profile":"car","distance":"6939.543","time":"4675.428"}},{"Shape":222,"Attributes":{"name":"Druivengaard","highway":"unclassified","profile":"car","distance":"7015.743","time":"4682.743"}},{"Shape":225,"Attributes":{"name":"Olijfgaard","highway":"unclassified","profile":"car","distance":"7064.043","time":"4687.379"}},{"Shape":227,"Attributes":{"name":"Pruimengaard","highway":"unclassified","profile":"car","distance":"7116.064","time":"4692.374"}},{"Shape":229,"Attributes":{"name":"Pruimengaard","highway":"unclassified","profile":"car","distance":"7168.085","time":"4877.368"}},{"Shape":230,"Attributes":{"name":"Olijfgaard","highway":"unclassified","profile":"car","distance":"7189.485","time":"4879.422"}},{"Shape":232,"Attributes":{"name":"Olijfgaard","highway":"unclassified","profile":"car","distance":"7277.285","time":"4887.851"}},{"Shape":234,"Attributes":{"name":"Olijfgaard","highway":"unclassified","profile":"car","distance":"7352.185","time":"4895.042"}},{"Shape":235,"Attributes":{"name":"Kersengaard","highway":"unclassified","profile":"car","distance":"7361.668","time":"4895.952"}},{"Shape":238,"Attributes":{"name":"Kersengaard","highway":"unclassified","profile":"car","distance":"7442.885","time":"5083.749"}},{"Shape":239,"Attributes":{"name":"Sinaasappelgaard","highway":"unclassified","profile":"car","distance":"7456.137","time":"5085.021"}},{"Shape":240,"Attributes":{"name":"Sinaasappelgaard","highway":"unclassified","profile":"car","distance":"7469.39","time":"5266.293"}},{"Shape":241,"Attributes":{"name":"Kersengaard","highway":"unclassified","profile":"car","distance":"7512.59","time":"5270.44"}},{"Shape":243,"Attributes":{"highway":"unclassified","profile":"car","distance":"7521.29","time":"5271.276"}},{"Shape":245,"Attributes":{"name":"Gaard","maxspeed":"50","highway":"tertiary","oneway":"yes","profile":"car","distance":"7590.29","time":"5277.899"}},{"Shape":246,"Attributes":{"name":"Gaard","maxspeed":"50","highway":"tertiary","oneway":"yes","profile":"car","distance":"7599.99","time":"5278.831"}},{"Shape":249,"Attributes":{"name":"De Schouw","maxspeed":"50","highway":"tertiary","oneway":"yes","profile":"car","distance":"7644.09","time":"5283.064"}},{"Shape":252,"Attributes":{"name":"De Schouw","highway":"tertiary","profile":"car","distance":"7707.09","time":"5287.384"}},{"Shape":254,"Attributes":{"name":"De Schouw","highway":"tertiary","profile":"car","distance":"7725.89","time":"5288.673"}},{"Shape":256,"Attributes":{"name":"De Schouw","highway":"tertiary","profile":"car","distance":"7785.29","time":"5292.747"}},{"Shape":257,"Attributes":{"name":"Egelveen","highway":"residential","profile":"car","distance":"7790.086","time":"5293.207"}},{"Shape":258,"Attributes":{"name":"Egelveen","highway":"residential","profile":"car","distance":"7794.882","time":"5473.667"}},{"Shape":259,"Attributes":{"name":"De Schouw","highway":"tertiary","profile":"car","distance":"7824.082","time":"5475.67"}},{"Shape":262,"Attributes":{"name":"Salamanderveen","highway":"residential","profile":"car","distance":"7932.482","time":"5486.076"}},{"Shape":263,"Attributes":{"name":"Salamanderveen","highway":"residential","profile":"car","distance":"7967.682","time":"5489.456"}},{"Shape":264,"Attributes":{"name":"Salamanderveen","highway":"residential","profile":"car","distance":"7971.593","time":"5489.831"}},{"Shape":265,"Attributes":{"name":"Salamanderveen","highway":"residential","profile":"car","distance":"7975.504","time":"5670.207"}},{"Shape":266,"Attributes":{"name":"Salamanderveen","highway":"residential","profile":"car","distance":"8010.704","time":"5673.586"}},{"Shape":268,"Attributes":{"name":"Salamanderveen","highway":"residential","profile":"car","distance":"8081.904","time":"5680.421"}},{"Shape":269,"Attributes":{"name":"Salamanderveen","highway":"residential","profile":"car","distance":"8096.104","time":"5681.784"}},{"Shape":270,"Attributes":{"name":"Salamanderveen","highway":"residential","profile":"car","distance":"8106.25","time":"5682.758"}},{"Shape":271,"Attributes":{"name":"Salamanderveen","highway":"residential","profile":"car","distance":"8116.396","time":"5863.732"}},{"Shape":272,"Attributes":{"name":"Salamanderveen","highway":"residential","profile":"car","distance":"8130.597","time":"5865.095"}},{"Shape":274,"Attributes":{"name":"Salamanderveen","highway":"residential","profile":"car","distance":"8201.797","time":"5871.93"}},{"Shape":277,"Attributes":{"name":"Salamanderveen","highway":"residential","profile":"car","distance":"8310.196","time":"5882.337"}},{"Shape":278,"Attributes":{"name":"De Schouw","highway":"tertiary","profile":"car","distance":"8397.996","time":"5888.357"}},{"Shape":279,"Attributes":{"name":"Egelveen","highway":"unclassified","profile":"car","distance":"8407.697","time":"5889.289"}},{"Shape":280,"Attributes":{"name":"Egelveen","highway":"unclassified","profile":"car","distance":"8417.397","time":"6070.22"}},{"Shape":285,"Attributes":{"name":"De Schouw","highway":"tertiary","profile":"car","distance":"8505.998","time":"6076.296"}},{"Shape":286,"Attributes":{"name":"De Schouw","highway":"tertiary","profile":"car","distance":"8548.498","time":"6079.21"}},{"Shape":287,"Attributes":{"name":"Krekelveen","highway":"residential","profile":"car","distance":"8562.897","time":"6080.592"}},{"Shape":290,"Attributes":{"name":"Krekelveen","highway":"residential","profile":"car","distance":"8631.298","time":"6087.159"}},{"Shape":291,"Attributes":{"name":"Krekelveen","highway":"residential","profile":"car","distance":"8646.098","time":"6088.58"}},{"Shape":293,"Attributes":{"name":"Krekelveen","highway":"residential","profile":"car","distance":"8655.098","time":"6089.444"}},{"Shape":295,"Attributes":{"name":"Krekelveen","highway":"residential","profile":"car","distance":"8724.397","time":"6096.096"}},{"Shape":296,"Attributes":{"name":"Krekelveen","highway":"residential","profile":"car","distance":"8757.781","time":"6099.301"}},{"Shape":297,"Attributes":{"name":"Krekelveen","highway":"residential","profile":"car","distance":"8791.165","time":"6282.505"}},{"Shape":299,"Attributes":{"name":"Krekelveen","highway":"residential","profile":"car","distance":"8860.465","time":"6289.158"}},{"Shape":301,"Attributes":{"name":"Krekelveen","highway":"residential","profile":"car","distance":"8869.465","time":"6290.022"}},{"Shape":302,"Attributes":{"name":"Krekelveen","highway":"residential","profile":"car","distance":"8884.265","time":"6291.443"}},{"Shape":304,"Attributes":{"name":"Krekelveen","highway":"residential","profile":"car","distance":"8891.055","time":"6292.095"}},{"Shape":305,"Attributes":{"name":"Krekelveen","highway":"residential","profile":"car","distance":"8892.745","time":"6472.257"}},{"Shape":307,"Attributes":{"name":"Krekelveen","highway":"residential","profile":"car","distance":"8956.046","time":"6658.333"}},{"Shape":308,"Attributes":{"name":"Krekelveen","highway":"residential","profile":"car","distance":"8970.445","time":"6659.716"}},{"Shape":309,"Attributes":{"name":"De Schouw","highway":"tertiary","profile":"car","distance":"9030.945","time":"6663.865"}},{"Shape":310,"Attributes":{"name":"Slakkenveen","highway":"unclassified","profile":"car","distance":"9062.688","time":"6666.912"}},{"Shape":311,"Attributes":{"name":"Slakkenveen","highway":"unclassified","profile":"car","distance":"9094.432","time":"6849.959"}},{"Shape":314,"Attributes":{"name":"De Schouw","highway":"tertiary","profile":"car","distance":"9182.032","time":"6855.966"}},{"Shape":316,"Attributes":{"name":"De Schouw","highway":"tertiary","profile":"car","distance":"9199.332","time":"6857.153"}},{"Shape":320,"Attributes":{"name":"De Schouw","highway":"tertiary","profile":"car","distance":"9286.432","time":"6863.125"}},{"Shape":321,"Attributes":{"name":"Libelleveen","highway":"residential","profile":"car","distance":"9294.432","time":"6863.893"}},{"Shape":323,"Attributes":{"name":"Libelleveen","highway":"residential","profile":"car","distance":"9367.032","time":"6870.863"}},{"Shape":324,"Attributes":{"name":"Libelleveen","highway":"residential","profile":"car","distance":"9370.032","time":"6871.151"}},{"Shape":325,"Attributes":{"name":"Libelleveen","highway":"residential","profile":"car","distance":"9374.67","time":"6871.596"}},{"Shape":326,"Attributes":{"name":"Libelleveen","highway":"residential","profile":"car","distance":"9379.308","time":"7232.042"}},{"Shape":327,"Attributes":{"name":"Libelleveen","highway":"residential","profile":"car","distance":"9382.308","time":"7232.33"}},{"Shape":329,"Attributes":{"name":"Libelleveen","highway":"residential","profile":"car","distance":"9454.908","time":"7239.299"}},{"Shape":330,"Attributes":{"name":"Libelleveen","highway":"residential","profile":"car","distance":"9462.908","time":"7240.067"}},{"Shape":331,"Attributes":{"name":"De Schouw","highway":"tertiary","profile":"car","distance":"9525.607","time":"7244.366"}},{"Shape":332,"Attributes":{"name":"De Schouw","highway":"tertiary","profile":"car","distance":"9566.908","time":"7247.198"}},{"Shape":333,"Attributes":{"name":"De Schouw","highway":"tertiary","profile":"car","distance":"9591.408","time":"7248.878"}},{"Shape":335,"Attributes":{"name":"De Schouw","highway":"tertiary","profile":"car","distance":"9623.408","time":"7251.073"}},{"Shape":336,"Attributes":{"name":"De Schouw","highway":"tertiary","profile":"car","distance":"9643.308","time":"7252.438"}},{"Shape":338,"Attributes":{"name":"De Dijkgraaf","highway":"tertiary","profile":"car","distance":"9692.607","time":"7255.818"}},{"Shape":339,"Attributes":{"name":"De Dijkgraaf","highway":"tertiary","profile":"car","distance":"9728.708","time":"7258.293"}},{"Shape":341,"Attributes":{"name":"De Dijkgraaf","highway":"tertiary","profile":"car","distance":"9759.107","time":"7260.378"}},{"Shape":342,"Attributes":{"name":"De Dijkgraaf","highway":"tertiary","profile":"car","distance":"9778.208","time":"7261.688"}},{"Shape":344,"Attributes":{"name":"De Dijkgraaf","highway":"tertiary","profile":"car","distance":"9857.607","time":"7267.132"}},{"Shape":346,"Attributes":{"name":"De Dijkgraaf","highway":"tertiary","profile":"car","distance":"9941.308","time":"7272.872"}},{"Shape":347,"Attributes":{"name":"Vlinderveen","highway":"residential","profile":"car","distance":"9952.908","time":"7273.985"}},{"Shape":348,"Attributes":{"name":"Vlinderveen","highway":"residential","profile":"car","distance":"10008.11","time":"7279.284"}},{"Shape":350,"Attributes":{"name":"Vlinderveen","highway":"residential","profile":"car","distance":"10084.46","time":"7286.614"}},{"Shape":352,"Attributes":{"name":"Vlinderveen","highway":"residential","profile":"car","distance":"10160.81","time":"7473.944"}},{"Shape":353,"Attributes":{"name":"Vlinderveen","highway":"residential","maxspeed":"50","profile":"car","distance":"10222.51","time":"7479.867"}},{"Shape":354,"Attributes":{"name":"Vlinderveen","highway":"residential","maxspeed":"50","profile":"car","distance":"10284.21","time":"7665.791"}},{"Shape":355,"Attributes":{"name":"Vlinderveen","highway":"residential","profile":"car","distance":"10339.41","time":"7671.089"}},{"Shape":356,"Attributes":{"name":"Vlinderveen","highway":"residential","profile":"car","distance":"10351.01","time":"7672.203"}},{"Shape":359,"Attributes":{"name":"De Dijkgraaf","highway":"tertiary","profile":"car","distance":"10544.31","time":"7685.458"}},{"Shape":360,"Attributes":{"name":"De Dijkgraaf","highway":"unclassified","profile":"car","distance":"10547.71","time":"7685.785"}},{"Shape":363,"Attributes":{"name":"De Dijkgraaf","highway":"tertiary","oneway":"yes","profile":"car","distance":"10654.01","time":"7693.074"}},{"Shape":366,"Attributes":{"name":"De Dijkgraaf","highway":"tertiary","oneway":"yes","profile":"car","distance":"10817.21","time":"7704.265"}},{"Shape":367,"Attributes":{"name":"Schenkelweg","maxspeed":"50","highway":"tertiary","oneway":"yes","profile":"car","distance":"10826.91","time":"7705.196"}},{"Shape":374,"Attributes":{"name":"Schenkelweg","maxspeed":"50","oneway":"yes","highway":"secondary","profile":"car","distance":"11119.21","time":"7733.256"}},{"Shape":375,"Attributes":{"name":"Schenkelweg","maxspeed":"50","oneway":"yes","highway":"secondary","profile":"car","distance":"11132.31","time":"7734.514"}},{"Shape":376,"Attributes":{"name":"Schenkelweg","maxspeed":"50","oneway":"yes","highway":"secondary","profile":"car","distance":"11147.11","time":"7735.935"}},{"Shape":377,"Attributes":{"name":"Schenkelweg","maxspeed":"50","oneway":"yes","highway":"secondary","profile":"car","distance":"11240.61","time":"7744.911"}},{"Shape":385,"Attributes":{"name":"Schenkelweg","maxspeed":"50","oneway":"yes","highway":"secondary","profile":"car","distance":"11533.01","time":"7772.981"}},{"Shape":388,"Attributes":{"name":"Rijnlaan","highway":"unclassified","maxspeed":"30","oneway":"yes","profile":"car","distance":"11600.41","time":"7783.765"}},{"Shape":390,"Attributes":{"name":"Rijnlaan","highway":"unclassified","maxspeed":"30","profile":"car","distance":"11673.11","time":"7795.397"}},{"Shape":391,"Attributes":{"name":"Rijnlaan","highway":"unclassified","maxspeed":"30","profile":"car","distance":"11707.01","time":"7800.821"}},{"Shape":392,"Attributes":{"name":"Rijnlaan","highway":"unclassified","maxspeed":"30","profile":"car","distance":"11756.51","time":"7808.741"}},{"Shape":393,"Attributes":{"name":"Ahrstraat","highway":"residential","maxspeed":"30","profile":"car","distance":"11778.53","time":"7812.264"}},{"Shape":394,"Attributes":{"name":"Ahrstraat","highway":"residential","maxspeed":"30","profile":"car","distance":"11800.55","time":"7995.787"}},{"Shape":395,"Attributes":{"name":"Rijnlaan","highway":"unclassified","maxspeed":"30","profile":"car","distance":"11850.05","time":"8003.707"}},{"Shape":396,"Attributes":{"name":"Rijnlaan","highway":"unclassified","maxspeed":"30","profile":"car","distance":"11883.95","time":"8009.131"}},{"Shape":398,"Attributes":{"name":"Neckarstraat","highway":"residential","maxspeed":"30","profile":"car","distance":"11911.57","time":"8013.55"}},{"Shape":400,"Attributes":{"name":"Neckarstraat","highway":"residential","maxspeed":"30","profile":"car","distance":"11939.19","time":"8197.969"}},{"Shape":402,"Attributes":{"name":"Rijnlaan","highway":"unclassified","maxspeed":"30","profile":"car","distance":"12011.89","time":"8209.602"}},{"Shape":404,"Attributes":{"name":"Ebrostraat","highway":"residential","maxspeed":"30","profile":"car","distance":"12081.79","time":"8220.785"}},{"Shape":405,"Attributes":{"name":"Ebrostraat","highway":"residential","maxspeed":"30","profile":"car","distance":"12143.79","time":"8230.705"}},{"Shape":409,"Attributes":{"name":"Elbestraat","highway":"residential","maxspeed":"30","profile":"car","distance":"12307.69","time":"8436.929"}},{"Shape":410,"Attributes":{"name":"Elbestraat","highway":"residential","profile":"car","distance":"12317.99","time":"8437.918"}},{"Shape":411,"Attributes":{"name":"Donaulaan","highway":"unclassified","maxspeed":"50","profile":"car","distance":"12369.49","time":"8442.862"}},{"Shape":413,"Attributes":{"name":"Donaulaan","highway":"residential","profile":"car","distance":"12380.08","time":"8443.878"}},{"Shape":415,"Attributes":{"name":"Donaulaan","highway":"residential","profile":"car","distance":"12390.67","time":"8624.895"}},{"Shape":416,"Attributes":{"name":"Donaulaan","highway":"unclassified","maxspeed":"50","profile":"car","distance":"12442.17","time":"8629.838"}},{"Shape":418,"Attributes":{"name":"Donaulaan","highway":"unclassified","maxspeed":"50","profile":"car","distance":"12491.47","time":"8634.571"}},{"Shape":419,"Attributes":{"name":"Donaulaan","highway":"unclassified","maxspeed":"50","profile":"car","distance":"12556.97","time":"8640.859"}},{"Shape":421,"Attributes":{"name":"Donaulaan","highway":"unclassified","maxspeed":"50","profile":"car","distance":"12642.47","time":"8649.067"}},{"Shape":422,"Attributes":{"name":"Donaulaan","highway":"unclassified","maxspeed":"50","profile":"car","distance":"12697.17","time":"8654.318"}},{"Shape":425,"Attributes":{"name":"Donaulaan","highway":"unclassified","maxspeed":"50","oneway":"yes","profile":"car","distance":"12770.67","time":"8661.374"}},{"Shape":427,"Attributes":{"name":"Oude Maasweg","highway":"unclassified","profile":"car","distance":"12789.77","time":"8663.208"}},{"Shape":428,"Attributes":{"name":"Oude Maasweg","highway":"unclassified","maxspeed":"30","profile":"car","distance":"12804.97","time":"8665.64"}},{"Shape":429,"Attributes":{"name":"Oude Maasweg","highway":"unclassified","maxspeed":"30","profile":"car","distance":"12829.57","time":"8669.576"}},{"Shape":432,"Attributes":{"name":"Oude Maasweg","highway":"unclassified","maxspeed":"30","profile":"car","distance":"12895.67","time":"8680.151"}},{"Shape":436,"Attributes":{"name":"Oude Maasweg","highway":"unclassified","maxspeed":"30","profile":"car","distance":"13289.87","time":"8743.224"}},{"Shape":439,"Attributes":{"name":"Hongerlandsedijk","highway":"residential","maxspeed":"30","profile":"car","distance":"13407.27","time":"8762.008"}},{"Shape":440,"Attributes":{"name":"Hongerlandsedijk","highway":"residential","maxspeed":"30","profile":"car","distance":"13450.93","time":"8768.994"}},{"Shape":442,"Attributes":{"name":"Hongerlandsedijk","highway":"residential","maxspeed":"30","profile":"car","distance":"13519.78","time":"8960.011"}},{"Shape":444,"Attributes":{"name":"Hongerlandsedijk","highway":"residential","maxspeed":"30","profile":"car","distance":"13553.85","time":"9145.462"}},{"Shape":445,"Attributes":{"name":"Hongerlandsedijk","highway":"residential","maxspeed":"30","profile":"car","distance":"13640.75","time":"9339.366"}},{"Shape":448,"Attributes":{"name":"Hongerlandsedijk","highway":"residential","maxspeed":"30","profile":"car","distance":"13874.24","time":"9556.725"}},{"Shape":450,"Attributes":{"name":"Hongerlandsedijk","highway":"residential","maxspeed":"30","profile":"car","distance":"13927.68","time":"9565.275"}}],"Stops":[{"Shape":0,"Coordinates":[4.343845,51.85194],"Attributes":{"index":"42","distance":"0","time":"0","cost_time":"180"}},{"Shape":21,"Coordinates":[4.341333,51.8475],"Attributes":{"index":"43","distance":"769.735","time":"120.8024","cost_time":"180"}},{"Shape":40,"Coordinates":[4.342278,51.84978],"Attributes":{"index":"171","distance":"1363.857","time":"368.6463","cost_time":"180"}},{"Shape":45,"Coordinates":[4.343444,51.84883],"Attributes":{"index":"172","distance":"1490.159","time":"560.7713","cost_time":"180"}},{"Shape":73,"Coordinates":[4.343278,51.84158],"Attributes":{"index":"62","distance":"2838.164","time":"870.1797","cost_time":"180"}},{"Shape":75,"Coordinates":[4.3435,51.83969],"Attributes":{"index":"63","distance":"3047.616","time":"1070.287","cost_time":"180"}},{"Shape":80,"Coordinates":[4.340806,51.8395],"Attributes":{"index":"64","distance":"3236.378","time":"1268.408","cost_time":"180"}},{"Shape":88,"Coordinates":[4.33775,51.83939],"Attributes":{"index":"65","distance":"3446.755","time":"1468.604","cost_time":"180"}},{"Shape":109,"Coordinates":[4.336583,51.83556],"Attributes":{"index":"183","distance":"3978.132","time":"1704.894","cost_time":"180"}},{"Shape":115,"Coordinates":[4.33672,51.83697],"Attributes":{"index":"184","distance":"4167.37","time":"1903.061","cost_time":"180"}},{"Shape":124,"Coordinates":[4.334083,51.83703],"Attributes":{"index":"210","distance":"4382.575","time":"2103.721","cost_time":"180"}},{"Shape":135,"Coordinates":[4.33339,51.83617],"Attributes":{"index":"209","distance":"4686.558","time":"2312.903","cost_time":"180"}},{"Shape":142,"Coordinates":[4.33414,51.83444],"Attributes":{"index":"211","distance":"4909.378","time":"2514.294","cost_time":"180"}},{"Shape":163,"Coordinates":[4.332386,51.83339],"Attributes":{"index":"221","distance":"5335.76","time":"2735.006","cost_time":"180"}},{"Shape":168,"Coordinates":[4.331861,51.83478],"Attributes":{"index":"220","distance":"5492.43","time":"2930.046","cost_time":"180"}},{"Shape":175,"Coordinates":[4.33025,51.83364],"Attributes":{"index":"219","distance":"5702.409","time":"3130.204","cost_time":"180"}},{"Shape":178,"Coordinates":[4.329278,51.83386],"Attributes":{"index":"218","distance":"5775.47","time":"3317.218","cost_time":"180"}},{"Shape":183,"Coordinates":[4.32775,51.83333],"Attributes":{"index":"217","distance":"5912.402","time":"3510.364","cost_time":"180"}},{"Shape":186,"Coordinates":[4.328,51.83272],"Attributes":{"index":"216","distance":"5982.823","time":"3697.125","cost_time":"180"}},{"Shape":192,"Coordinates":[4.32902,51.83168],"Attributes":{"index":"223","distance":"6136.887","time":"3891.733","cost_time":"180"}},{"Shape":197,"Coordinates":[4.330139,51.8327],"Attributes":{"index":"222","distance":"6272.202","time":"4081.012","cost_time":"180"}},{"Shape":210,"Coordinates":[4.327444,51.83033],"Attributes":{"index":"224","distance":"6634.821","time":"4289.104","cost_time":"180"}},{"Shape":220,"Coordinates":[4.329583,51.83125],"Attributes":{"index":"215","distance":"6924.056","time":"4493.941","cost_time":"180"}},{"Shape":227,"Coordinates":[4.331139,51.83225],"Attributes":{"index":"214","distance":"7116.064","time":"4692.374","cost_time":"180"}},{"Shape":235,"Coordinates":[4.33342,51.83203],"Attributes":{"index":"213","distance":"7361.668","time":"4895.952","cost_time":"180"}},{"Shape":239,"Coordinates":[4.3329,51.83263],"Attributes":{"index":"212","distance":"7456.137","time":"5085.021","cost_time":"180"}},{"Shape":257,"Coordinates":[4.335861,51.83286],"Attributes":{"index":"208","distance":"7790.086","time":"5293.207","cost_time":"180"}},{"Shape":264,"Coordinates":[4.337722,51.83294],"Attributes":{"index":"207","distance":"7971.593","time":"5489.831","cost_time":"180"}},{"Shape":270,"Coordinates":[4.336222,51.83364],"Attributes":{"index":"206","distance":"8106.25","time":"5682.758","cost_time":"180"}},{"Shape":279,"Coordinates":[4.336389,51.83194],"Attributes":{"index":"205","distance":"8407.697","time":"5889.289","cost_time":"180"}},{"Shape":296,"Coordinates":[4.33851,51.82996],"Attributes":{"index":"204","distance":"8757.781","time":"6099.301","cost_time":"180"}},{"Shape":304,"Coordinates":[4.338167,51.83089],"Attributes":{"index":"202","distance":"8891.055","time":"6292.095","cost_time":"180"}},{"Shape":305,"Coordinates":[4.338156,51.83088],"Attributes":{"index":"203","distance":"8892.745","time":"6472.257","cost_time":"180"}},{"Shape":310,"Coordinates":[4.338998,51.8319],"Attributes":{"index":"77","distance":"9062.688","time":"6666.912","cost_time":"180"}},{"Shape":325,"Coordinates":[4.34175,51.83094],"Attributes":{"index":"76","distance":"9374.67","time":"6871.596","cost_time":"180"}},{"Shape":325,"Coordinates":[4.34175,51.83094],"Attributes":{"index":"75","distance":"9374.67","time":"7051.596","cost_time":"180"}},{"Shape":350,"Coordinates":[4.343699,51.83514],"Attributes":{"index":"83","distance":"10084.46","time":"7286.614","cost_time":"180"}},{"Shape":353,"Coordinates":[4.343568,51.83381],"Attributes":{"index":"82","distance":"10222.51","time":"7479.867","cost_time":"180"}},{"Shape":393,"Coordinates":[4.34575,51.84611],"Attributes":{"index":"44","distance":"11778.53","time":"7812.264","cost_time":"180"}},{"Shape":398,"Coordinates":[4.344944,51.84552],"Attributes":{"index":"88","distance":"11911.57","time":"8013.55","cost_time":"180"}},{"Shape":405,"Coordinates":[4.342411,51.84598],"Attributes":{"index":"89","distance":"12143.79","time":"8230.705","cost_time":"180"}},{"Shape":413,"Coordinates":[4.3449,51.84711],"Attributes":{"index":"90","distance":"12380.08","time":"8443.878","cost_time":"180"}},{"Shape":440,"Coordinates":[4.342957,51.85265],"Attributes":{"index":"41","distance":"13450.93","time":"8768.994","cost_time":"180"}},{"Shape":442,"Coordinates":[4.342323,51.85313],"Attributes":{"index":"40","distance":"13519.78","time":"8960.011","cost_time":"180"}},{"Shape":444,"Coordinates":[4.342041,51.85342],"Attributes":{"index":"39","distance":"13553.85","time":"9145.462","cost_time":"180"}},{"Shape":445,"Coordinates":[4.341386,51.8541],"Attributes":{"index":"38","distance":"13640.75","time":"9339.366","cost_time":"180"}},{"Shape":450,"Coordinates":[4.343845,51.85194],"Attributes":{"index":"42","distance":"13927.68","time":"9565.275","cost_time":"180"}}],"Branches":[{"Shape":2,"Coordinates":[4.344673,51.8516],"Attributes":{"name":"Hongerlandsedijk","highway":"residential","maxspeed":"30"}},{"Shape":6,"Coordinates":[4.340312,51.84929],"Attributes":{"name":"Adriaan Prinslaan","highway":"residential"}},{"Shape":9,"Coordinates":[4.339995,51.84884],"Attributes":{"name":"Groenoordweg","highway":"service","oneway":"yes"}},{"Shape":10,"Coordinates":[4.338933,51.84872],"Attributes":{"name":"Groenoordweg","highway":"service"}},{"Shape":11,"Coordinates":[4.342422,51.84838],"Attributes":{"name":"Theemsweg","highway":"residential"}},{"Shape":13,"Coordinates":[4.340665,51.84819],"Attributes":{"name":"Donaulaan","highway":"unclassified","maxspeed":"50","oneway":"yes"}},{"Shape":13,"Coordinates":[4.339718,51.84821],"Attributes":{"name":"Donaulaan","highway":"unclassified","maxspeed":"50","oneway":"yes"}},{"Shape":14,"Coordinates":[4.339411,51.84814],"Attributes":{"name":"Donaulaan","highway":"unclassified","maxspeed":"50","oneway":"yes"}},{"Shape":14,"Coordinates":[4.340119,51.84816],"Attributes":{"name":"Donaulaan","highway":"unclassified","maxspeed":"50","oneway":"yes"}},{"Shape":15,"Coordinates":[4.340098,51.84805],"Attributes":{"name":"Donaulaan","highway":"residential","maxspeed":"30"}},{"Shape":19,"Coordinates":[4.340586,51.84752],"Attributes":{"name":"Rhônestraat","highway":"residential","maxspeed":"30"}},{"Shape":19,"Coordinates":[4.341131,51.8468],"Attributes":{"name":"Seinestraat","highway":"residential","maxspeed":"30"}},{"Shape":23,"Coordinates":[4.341131,51.8468],"Attributes":{"name":"Seinestraat","highway":"residential","maxspeed":"30"}},{"Shape":27,"Coordinates":[4.340098,51.84805],"Attributes":{"name":"Donaulaan","highway":"residential","maxspeed":"30"}},{"Shape":28,"Coordinates":[4.339411,51.84814],"Attributes":{"name":"Donaulaan","highway":"unclassified","maxspeed":"50","oneway":"yes"}},{"Shape":28,"Coordinates":[4.340119,51.84816],"Attributes":{"name":"Donaulaan","highway":"unclassified","maxspeed":"50","oneway":"yes"}},{"Shape":29,"Coordinates":[4.340665,51.84819],"Attributes":{"name":"Donaulaan","highway":"unclassified","maxspeed":"50","oneway":"yes"}},{"Shape":29,"Coordinates":[4.339718,51.84821],"Attributes":{"name":"Donaulaan","highway":"unclassified","maxspeed":"50","oneway":"yes"}},{"Shape":31,"Coordinates":[4.339931,51.84852],"Attributes":{"name":"Oude Maasweg","highway":"unclassified","maxspeed":"30"}},{"Shape":35,"Coordinates":[4.342772,51.84898],"Attributes":{"name":"Theemsweg","highway":"residential"}},{"Shape":36,"Coordinates":[4.342339,51.84996],"Attributes":{"name":"Groenoord","highway":"residential"}},{"Shape":37,"Coordinates":[4.34311,51.84925],"Attributes":{"name":"Groenoord","highway":"residential"}},{"Shape":44,"Coordinates":[4.342339,51.84996],"Attributes":{"name":"Groenoord","highway":"residential"}},{"Shape":44,"Coordinates":[4.343182,51.84875],"Attributes":{"name":"Groenoord","highway":"residential"}},{"Shape":46,"Coordinates":[4.342772,51.84898],"Attributes":{"name":"Theemsweg","highway":"residential"}},{"Shape":50,"Coordinates":[4.339931,51.84852],"Attributes":{"name":"Oude Maasweg","highway":"unclassified","maxspeed":"30"}},{"Shape":52,"Coordinates":[4.340665,51.84819],"Attributes":{"name":"Donaulaan","highway":"unclassified","maxspeed":"50","oneway":"yes"}},{"Shape":52,"Coordinates":[4.339949,51.84815],"Attributes":{"name":"Oude Maasweg","highway":"unclassified"}},{"Shape":58,"Coordinates":[4.338152,51.84832],"Attributes":{"name":"Schenkelweg","maxspeed":"50","oneway":"yes","highway":"secondary"}},{"Shape":58,"Coordinates":[4.338574,51.84804],"Attributes":{"name":"Schenkelweg","maxspeed":"50","oneway":"yes","highway":"secondary"}},{"Shape":59,"Coordinates":[4.338108,51.84803],"Attributes":{"name":"Ruwaard van Puttenweg","maxspeed":"50","highway":"tertiary","oneway":"yes"}},{"Shape":59,"Coordinates":[4.338102,51.8482],"Attributes":{"name":"Schenkelweg","maxspeed":"50","oneway":"yes","highway":"secondary"}},{"Shape":60,"Coordinates":[4.338574,51.84804],"Attributes":{"name":"Ruwaard van Puttenweg","maxspeed":"50","highway":"tertiary","oneway":"yes"}},{"Shape":60,"Coordinates":[4.338058,51.84794],"Attributes":{"name":"Ruwaard van Puttenweg","maxspeed":"50","highway":"tertiary","oneway":"yes"}},{"Shape":68,"Coordinates":[4.344577,51.84244],"Attributes":{"name":"Eikenlaan","highway":"unclassified","maxspeed":"50"}},{"Shape":68,"Coordinates":[4.344388,51.84169],"Attributes":{"name":"Schenkelweg","maxspeed":"50","oneway":"yes","highway":"secondary"}},{"Shape":70,"Coordinates":[4.341797,51.84233],"Attributes":{"name":"Eikenlaan","highway":"unclassified","maxspeed":"50"}},{"Shape":70,"Coordinates":[4.343092,51.84245],"Attributes":{"name":"Iepenlaan","highway":"unclassified"}},{"Shape":72,"Coordinates":[4.343297,51.84085],"Attributes":{"name":"Iepenlaan","highway":"unclassified"}},{"Shape":72,"Coordinates":[4.342354,51.84164],"Attributes":{"name":"Sparrenstraat","highway":"unclassified"}},{"Shape":74,"Coordinates":[4.3434,51.8396],"Attributes":{"name":"Iepenlaan","highway":"unclassified"}},{"Shape":74,"Coordinates":[4.3423,51.8408],"Attributes":{"name":"Moerbeistraat","highway":"unclassified"}},{"Shape":76,"Coordinates":[4.343476,51.83908],"Attributes":{"name":"Iepenlaan","highway":"unclassified"}},{"Shape":77,"Coordinates":[4.342202,51.83932],"Attributes":{"name":"Pijnboomstraat","highway":"unclassified"}},{"Shape":78,"Coordinates":[4.341717,51.84002],"Attributes":{"name":"Populierenstraat","highway":"unclassified"}},{"Shape":79,"Coordinates":[4.340692,51.83946],"Attributes":{"name":"Hazelaarstraat","highway":"unclassified"}},{"Shape":79,"Coordinates":[4.3412,51.8392],"Attributes":{"name":"Ribesstraat","highway":"unclassified"}},{"Shape":82,"Coordinates":[4.340167,51.83923],"Attributes":{"name":"Peppelstraat","highway":"unclassified"}},{"Shape":83,"Coordinates":[4.339814,51.84035],"Attributes":{"name":"Ligusterstraat","highway":"unclassified"}},{"Shape":84,"Coordinates":[4.339184,51.83907],"Attributes":{"highway":"service"}},{"Shape":86,"Coordinates":[4.338934,51.83969],"Attributes":{"name":"Lindenstraat","highway":"unclassified"}},{"Shape":87,"Coordinates":[4.337546,51.8393],"Attributes":{"name":"Hazelaarstraat","highway":"unclassified"}},{"Shape":87,"Coordinates":[4.337781,51.83917],"Attributes":{"highway":"service"}},{"Shape":89,"Coordinates":[4.337487,51.83948],"Attributes":{"name":"Beukenlaan","highway":"unclassified"}},{"Shape":90,"Coordinates":[4.337781,51.83917],"Attributes":{"highway":"service"}},{"Shape":91,"Coordinates":[4.337621,51.83881],"Attributes":{"highway":"unclassified","oneway":"yes"}},{"Shape":92,"Coordinates":[4.337617,51.83853],"Attributes":{"name":"Heemraadlaan","junction":"roundabout","highway":"secondary"}},{"Shape":95,"Coordinates":[4.337263,51.83838],"Attributes":{"name":"Heemraadlaan","oneway":"yes","highway":"secondary"}},{"Shape":98,"Coordinates":[4.337266,51.8383],"Attributes":{"name":"Heemraadlaan","maxspeed":"50","oneway":"yes","highway":"secondary"}},{"Shape":101,"Coordinates":[4.337631,51.8382],"Attributes":{"name":"Heemraadlaan","junction":"roundabout","highway":"secondary"}},{"Shape":103,"Coordinates":[4.337731,51.83812],"Attributes":{"highway":"residential","oneway":"yes"}},{"Shape":104,"Coordinates":[4.339484,51.83644],"Attributes":{"name":"De Landmeter","highway":"unclassified","maxspeed":"30"}},{"Shape":106,"Coordinates":[4.335287,51.83616],"Attributes":{"name":"De Landmeter","highway":"unclassified","maxspeed":"30"}},{"Shape":106,"Coordinates":[4.336342,51.83686],"Attributes":{"name":"Beverveen","highway":"unclassified"}},{"Shape":106,"Coordinates":[4.336479,51.83564],"Attributes":{"name":"Kikkerveen","highway":"residential"}},{"Shape":112,"Coordinates":[4.335287,51.83616],"Attributes":{"name":"De Landmeter","highway":"unclassified","maxspeed":"30"}},{"Shape":112,"Coordinates":[4.33763,51.83636],"Attributes":{"name":"De Landmeter","highway":"unclassified","maxspeed":"30"}},{"Shape":113,"Coordinates":[4.336166,51.83697],"Attributes":{"name":"Beverveen","highway":"unclassified"}},{"Shape":113,"Coordinates":[4.336829,51.83689],"Attributes":{"name":"Beverveen","highway":"unclassified"}},{"Shape":117,"Coordinates":[4.336397,51.83626],"Attributes":{"name":"Beverveen","highway":"unclassified"}},{"Shape":120,"Coordinates":[4.335125,51.83722],"Attributes":{"name":"Beverveen","highway":"residential"}},{"Shape":122,"Coordinates":[4.333993,51.83689],"Attributes":{"highway":"residential"}},{"Shape":123,"Coordinates":[4.333991,51.83757],"Attributes":{"name":"Beverveen","highway":"unclassified"}},{"Shape":123,"Coordinates":[4.334,51.837],"Attributes":{"highway":"residential"}},{"Shape":125,"Coordinates":[4.3342,51.83692],"Attributes":{"name":"Beverveen","highway":"unclassified"}},{"Shape":126,"Coordinates":[4.334013,51.83768],"Attributes":{"name":"Beverveen","highway":"residential"}},{"Shape":128,"Coordinates":[4.333955,51.8377],"Attributes":{"name":"Beverveen","highway":"residential"}},{"Shape":134,"Coordinates":[4.333683,51.83601],"Attributes":{"name":"Beverveen","highway":"unclassified"}},{"Shape":134,"Coordinates":[4.33362,51.83623],"Attributes":{"name":"Beverveen","highway":"residential"}},{"Shape":139,"Coordinates":[4.333956,51.8345],"Attributes":{"highway":"residential"}},{"Shape":141,"Coordinates":[4.334064,51.834],"Attributes":{"name":"Beverveen","highway":"unclassified"}},{"Shape":141,"Coordinates":[4.333999,51.83444],"Attributes":{"highway":"residential"}},{"Shape":143,"Coordinates":[4.33426,51.8345],"Attributes":{"name":"Beverveen","highway":"unclassified"}},{"Shape":148,"Coordinates":[4.335221,51.83417],"Attributes":{"name":"Beverveen","highway":"residential"}},{"Shape":149,"Coordinates":[4.335306,51.83533],"Attributes":{"name":"De Schouw","highway":"unclassified","maxspeed":"30"}},{"Shape":151,"Coordinates":[4.335537,51.83351],"Attributes":{"name":"De Schouw","highway":"tertiary"}},{"Shape":154,"Coordinates":[4.334132,51.83332],"Attributes":{"name":"De Schouw","maxspeed":"50","highway":"tertiary","oneway":"yes"}},{"Shape":157,"Coordinates":[4.333944,51.83329],"Attributes":{"name":"Hekelingseweg","maxspeed":"50","oneway":"yes","highway":"secondary"}},{"Shape":157,"Coordinates":[4.333879,51.83347],"Attributes":{"name":"Hekelingseweg","maxspeed":"50","oneway":"yes","highway":"secondary"}},{"Shape":158,"Coordinates":[4.333726,51.83347],"Attributes":{"name":"Hekelingseweg","maxspeed":"50","oneway":"yes","highway":"secondary"}},{"Shape":158,"Coordinates":[4.333804,51.83327],"Attributes":{"name":"Hekelingseweg","maxspeed":"50","oneway":"yes","highway":"secondary"}},{"Shape":159,"Coordinates":[4.332828,51.83313],"Attributes":{"highway":"unclassified"}},{"Shape":162,"Coordinates":[4.332333,51.8333],"Attributes":{"name":"Appelgaard","highway":"unclassified"}},{"Shape":162,"Coordinates":[4.332324,51.83349],"Attributes":{"name":"Appelgaard","highway":"unclassified"}},{"Shape":162,"Coordinates":[4.331619,51.83324],"Attributes":{"name":"Gaard","highway":"tertiary","oneway":"yes"}},{"Shape":164,"Coordinates":[4.331431,51.83334],"Attributes":{"name":"Bramengaard","highway":"unclassified"}},{"Shape":164,"Coordinates":[4.332502,51.83352],"Attributes":{"name":"Bramengaard","highway":"unclassified"}},{"Shape":165,"Coordinates":[4.332714,51.83422],"Attributes":{"name":"Mandarijngaard","highway":"unclassified"}},{"Shape":166,"Coordinates":[4.331111,51.83401],"Attributes":{"name":"Mandarijngaard","highway":"unclassified"}},{"Shape":167,"Coordinates":[4.331757,51.83487],"Attributes":{"name":"Appelgaard","highway":"unclassified"}},{"Shape":167,"Coordinates":[4.332874,51.83489],"Attributes":{"name":"Amandelgaard","highway":"unclassified"}},{"Shape":169,"Coordinates":[4.332874,51.83489],"Attributes":{"name":"Amandelgaard","highway":"unclassified"}},{"Shape":170,"Coordinates":[4.332049,51.83412],"Attributes":{"name":"Appelgaard","highway":"unclassified"}},{"Shape":173,"Coordinates":[4.3295,51.8343],"Attributes":{"name":"Mandarijngaard","highway":"unclassified"}},{"Shape":174,"Coordinates":[4.330527,51.83335],"Attributes":{"name":"Perzikgaard","highway":"unclassified"}},{"Shape":174,"Coordinates":[4.329821,51.83363],"Attributes":{"name":"Perzikgaard","highway":"unclassified"}},{"Shape":177,"Coordinates":[4.3295,51.834],"Attributes":{"name":"Frambozengaard","highway":"unclassified"}},{"Shape":177,"Coordinates":[4.329077,51.83386],"Attributes":{"name":"Perzikgaard","highway":"unclassified"}},{"Shape":179,"Coordinates":[4.329821,51.83363],"Attributes":{"name":"Perzikgaard","highway":"unclassified"}},{"Shape":182,"Coordinates":[4.328073,51.83275],"Attributes":{"name":"Bessengaard","highway":"unclassified"}},{"Shape":182,"Coordinates":[4.327685,51.8339],"Attributes":{"name":"Bessengaard","highway":"unclassified"}},{"Shape":184,"Coordinates":[4.328073,51.83275],"Attributes":{"name":"Bessengaard","highway":"unclassified"}},{"Shape":184,"Coordinates":[4.328655,51.83343],"Attributes":{"name":"Frambozengaard","highway":"unclassified"}},{"Shape":187,"Coordinates":[4.328922,51.83235],"Attributes":{"name":"Dadelgaard","highway":"residential"}},{"Shape":190,"Coordinates":[4.3284,51.8312],"Attributes":{"name":"Bessengaard","highway":"unclassified"}},{"Shape":191,"Coordinates":[4.329037,51.83162],"Attributes":{"name":"Gaard","highway":"tertiary"}},{"Shape":191,"Coordinates":[4.32934,51.83195],"Attributes":{"name":"Gaard","highway":"tertiary"}},{"Shape":193,"Coordinates":[4.328874,51.83178],"Attributes":{"name":"Bessengaard","highway":"unclassified"}},{"Shape":196,"Coordinates":[4.330264,51.83263],"Attributes":{"name":"Gaard","highway":"tertiary"}},{"Shape":196,"Coordinates":[4.3302,51.832],"Attributes":{"name":"Olijfgaard","highway":"unclassified"}},{"Shape":198,"Coordinates":[4.3302,51.832],"Attributes":{"name":"Olijfgaard","highway":"unclassified"}},{"Shape":201,"Coordinates":[4.328874,51.83178],"Attributes":{"name":"Bessengaard","highway":"unclassified"}},{"Shape":202,"Coordinates":[4.329659,51.8314],"Attributes":{"name":"Druivengaard","highway":"unclassified"}},{"Shape":208,"Coordinates":[4.3284,51.8299],"Attributes":{"name":"Wijngaard","maxspeed":"30","highway":"tertiary"}},{"Shape":208,"Coordinates":[4.327422,51.83019],"Attributes":{"name":"Rieslinggaard","highway":"unclassified"}},{"Shape":212,"Coordinates":[4.3284,51.8299],"Attributes":{"name":"Wijngaard","maxspeed":"30","highway":"tertiary"}},{"Shape":218,"Coordinates":[4.3291,51.8317],"Attributes":{"name":"Gaard","highway":"tertiary"}},{"Shape":219,"Coordinates":[4.3302,51.832],"Attributes":{"name":"Druivengaard","highway":"unclassified"}},{"Shape":219,"Coordinates":[4.329504,51.83123],"Attributes":{"highway":"unclassified"}},{"Shape":221,"Coordinates":[4.329037,51.83162],"Attributes":{"name":"Druivengaard","highway":"unclassified"}},{"Shape":222,"Coordinates":[4.329892,51.83223],"Attributes":{"name":"Olijfgaard","highway":"unclassified"}},{"Shape":225,"Coordinates":[4.331029,51.83165],"Attributes":{"name":"Olijfgaard","highway":"unclassified"}},{"Shape":225,"Coordinates":[4.33112,51.83216],"Attributes":{"name":"Pruimengaard","highway":"unclassified"}},{"Shape":229,"Coordinates":[4.330521,51.83184],"Attributes":{"name":"Olijfgaard","highway":"unclassified"}},{"Shape":230,"Coordinates":[4.33073,51.83136],"Attributes":{"name":"Rozebottelgaard","highway":"unclassified"}},{"Shape":232,"Coordinates":[4.332158,51.83204],"Attributes":{"name":"Ananasgaard","highway":"unclassified"}},{"Shape":234,"Coordinates":[4.33347,51.83219],"Attributes":{"name":"Kersengaard","highway":"unclassified"}},{"Shape":234,"Coordinates":[4.334117,51.83096],"Attributes":{"name":"Kersengaard","highway":"unclassified"}},{"Shape":238,"Coordinates":[4.332867,51.83306],"Attributes":{"name":"Kersengaard","highway":"unclassified"}},{"Shape":238,"Coordinates":[4.332611,51.83261],"Attributes":{"name":"Sinaasappelgaard","highway":"unclassified"}},{"Shape":240,"Coordinates":[4.33347,51.83219],"Attributes":{"name":"Kersengaard","highway":"unclassified"}},{"Shape":241,"Coordinates":[4.3325,51.833],"Attributes":{"name":"Meloengaard","highway":"unclassified"}},{"Shape":243,"Coordinates":[4.332844,51.83318],"Attributes":{"highway":"unclassified"}},{"Shape":243,"Coordinates":[4.332612,51.83319],"Attributes":{"name":"Gaard","highway":"tertiary","oneway":"yes"}},{"Shape":245,"Coordinates":[4.333775,51.83335],"Attributes":{"name":"Hekelingseweg","maxspeed":"50","oneway":"yes","highway":"secondary"}},{"Shape":245,"Coordinates":[4.333855,51.83318],"Attributes":{"name":"Hekelingseweg","maxspeed":"50","oneway":"yes","highway":"secondary"}},{"Shape":246,"Coordinates":[4.334135,51.83279],"Attributes":{"name":"Hekelingseweg","maxspeed":"50","oneway":"yes","highway":"secondary"}},{"Shape":246,"Coordinates":[4.33392,51.83337],"Attributes":{"name":"Hekelingseweg","maxspeed":"50","oneway":"yes","highway":"secondary"}},{"Shape":249,"Coordinates":[4.334476,51.83343],"Attributes":{"name":"De Schouw","maxspeed":"50","highway":"tertiary","oneway":"yes"}},{"Shape":252,"Coordinates":[4.335491,51.83371],"Attributes":{"name":"De Schouw","highway":"unclassified","maxspeed":"30"}},{"Shape":256,"Coordinates":[4.335757,51.83289],"Attributes":{"name":"Egelveen","highway":"residential"}},{"Shape":256,"Coordinates":[4.336067,51.83267],"Attributes":{"name":"De Schouw","highway":"tertiary"}},{"Shape":258,"Coordinates":[4.335699,51.83327],"Attributes":{"name":"De Schouw","highway":"tertiary"}},{"Shape":259,"Coordinates":[4.33653,51.83193],"Attributes":{"name":"De Schouw","highway":"tertiary"}},{"Shape":262,"Coordinates":[4.33692,51.83342],"Attributes":{"name":"Salamanderveen","highway":"residential"}},{"Shape":263,"Coordinates":[4.337951,51.83286],"Attributes":{"name":"Salamanderveen","highway":"residential"}},{"Shape":263,"Coordinates":[4.337975,51.83323],"Attributes":{"name":"Salamanderveen","highway":"residential"}},{"Shape":263,"Coordinates":[4.337576,51.8329],"Attributes":{"name":"Salamanderveen","highway":"residential"}},{"Shape":265,"Coordinates":[4.337975,51.83323],"Attributes":{"name":"Salamanderveen","highway":"residential"}},{"Shape":265,"Coordinates":[4.337576,51.8329],"Attributes":{"name":"Salamanderveen","highway":"residential"}},{"Shape":266,"Coordinates":[4.336157,51.83268],"Attributes":{"name":"Salamanderveen","highway":"residential"}},{"Shape":268,"Coordinates":[4.336102,51.83356],"Attributes":{"name":"Salamanderveen","highway":"residential"}},{"Shape":269,"Coordinates":[4.336394,51.83376],"Attributes":{"highway":"residential"}},{"Shape":269,"Coordinates":[4.336147,51.83369],"Attributes":{"name":"Salamanderveen","highway":"residential"}},{"Shape":271,"Coordinates":[4.336394,51.83376],"Attributes":{"highway":"residential"}},{"Shape":272,"Coordinates":[4.336102,51.83356],"Attributes":{"name":"Salamanderveen","highway":"residential"}},{"Shape":274,"Coordinates":[4.3377,51.833],"Attributes":{"name":"Salamanderveen","highway":"residential"}},{"Shape":277,"Coordinates":[4.335924,51.83292],"Attributes":{"name":"De Schouw","highway":"tertiary"}},{"Shape":278,"Coordinates":[4.336281,51.83189],"Attributes":{"name":"Egelveen","highway":"unclassified"}},{"Shape":278,"Coordinates":[4.336637,51.83176],"Attributes":{"name":"De Schouw","highway":"tertiary"}},{"Shape":280,"Coordinates":[4.336067,51.83267],"Attributes":{"name":"De Schouw","highway":"tertiary"}},{"Shape":285,"Coordinates":[4.337401,51.83184],"Attributes":{"name":"De Schouw","highway":"unclassified"}},{"Shape":286,"Coordinates":[4.338031,51.83185],"Attributes":{"name":"Slakkenveen","highway":"unclassified"}},{"Shape":286,"Coordinates":[4.338902,51.8316],"Attributes":{"name":"De Schouw","highway":"tertiary"}},{"Shape":287,"Coordinates":[4.337332,51.83141],"Attributes":{"highway":"service"}},{"Shape":290,"Coordinates":[4.33849,51.83083],"Attributes":{"highway":"service"}},{"Shape":291,"Coordinates":[4.338507,51.83071],"Attributes":{"highway":"residential"}},{"Shape":293,"Coordinates":[4.337138,51.83059],"Attributes":{"name":"Krekelveen","highway":"residential"}},{"Shape":295,"Coordinates":[4.338007,51.82982],"Attributes":{"name":"Krekelveen","highway":"residential"}},{"Shape":295,"Coordinates":[4.338577,51.83005],"Attributes":{"name":"Krekelveen","highway":"residential"}},{"Shape":297,"Coordinates":[4.338007,51.82982],"Attributes":{"name":"Krekelveen","highway":"residential"}},{"Shape":299,"Coordinates":[4.337138,51.83059],"Attributes":{"name":"Krekelveen","highway":"residential"}},{"Shape":301,"Coordinates":[4.338507,51.83071],"Attributes":{"highway":"residential"}},{"Shape":302,"Coordinates":[4.338076,51.83113],"Attributes":{"name":"Krekelveen","highway":"residential"}},{"Shape":302,"Coordinates":[4.33849,51.83083],"Attributes":{"highway":"service"}},{"Shape":307,"Coordinates":[4.337332,51.83141],"Attributes":{"highway":"service"}},{"Shape":308,"Coordinates":[4.338031,51.83185],"Attributes":{"name":"Slakkenveen","highway":"unclassified"}},{"Shape":308,"Coordinates":[4.337406,51.83154],"Attributes":{"name":"De Schouw","highway":"tertiary"}},{"Shape":309,"Coordinates":[4.338921,51.83149],"Attributes":{"name":"Krekelveen","highway":"residential"}},{"Shape":309,"Coordinates":[4.338891,51.83193],"Attributes":{"name":"Slakkenveen","highway":"unclassified"}},{"Shape":309,"Coordinates":[4.339423,51.83163],"Attributes":{"name":"De Schouw","highway":"tertiary"}},{"Shape":311,"Coordinates":[4.338921,51.83149],"Attributes":{"name":"Krekelveen","highway":"residential"}},{"Shape":311,"Coordinates":[4.338023,51.83157],"Attributes":{"name":"De Schouw","highway":"tertiary"}},{"Shape":314,"Coordinates":[4.340168,51.83175],"Attributes":{"name":"Slakkenveen","highway":"residential"}},{"Shape":316,"Coordinates":[4.340446,51.83154],"Attributes":{"name":"Krekelveen","highway":"residential"}},{"Shape":320,"Coordinates":[4.341681,51.83179],"Attributes":{"name":"Vlinderveen","highway":"residential"}},{"Shape":320,"Coordinates":[4.342601,51.83176],"Attributes":{"name":"De Schouw","highway":"tertiary"}},{"Shape":321,"Coordinates":[4.342101,51.83168],"Attributes":{"name":"Libelleveen","highway":"residential"}},{"Shape":323,"Coordinates":[4.341442,51.83099],"Attributes":{"name":"Krekelveen","highway":"service"}},{"Shape":324,"Coordinates":[4.34178,51.83086],"Attributes":{"name":"Libelleveen","highway":"residential"}},{"Shape":324,"Coordinates":[4.342244,51.83104],"Attributes":{"name":"Libelleveen","highway":"residential"}},{"Shape":326,"Coordinates":[4.342244,51.83104],"Attributes":{"name":"Libelleveen","highway":"residential"}},{"Shape":327,"Coordinates":[4.341442,51.83099],"Attributes":{"name":"Krekelveen","highway":"service"}},{"Shape":329,"Coordinates":[4.342101,51.83168],"Attributes":{"name":"Libelleveen","highway":"residential"}},{"Shape":330,"Coordinates":[4.341681,51.83179],"Attributes":{"name":"Vlinderveen","highway":"residential"}},{"Shape":330,"Coordinates":[4.340846,51.83168],"Attributes":{"name":"De Schouw","highway":"tertiary"}},{"Shape":331,"Coordinates":[4.342602,51.8317],"Attributes":{"name":"Libelleveen","highway":"residential"}},{"Shape":331,"Coordinates":[4.342609,51.83184],"Attributes":{"name":"Vlinderveen","highway":"residential"}},{"Shape":332,"Coordinates":[4.34324,51.83169],"Attributes":{"name":"Libelleveen","highway":"residential"}},{"Shape":333,"Coordinates":[4.343548,51.8319],"Attributes":{"name":"Vlinderveen","highway":"residential"}},{"Shape":335,"Coordinates":[4.344018,51.83194],"Attributes":{"highway":"service"}},{"Shape":336,"Coordinates":[4.344396,51.83177],"Attributes":{"name":"Libelleveen","highway":"residential"}},{"Shape":338,"Coordinates":[4.34429,51.83226],"Attributes":{"highway":"service"}},{"Shape":339,"Coordinates":[4.345283,51.83249],"Attributes":{"name":"Karperveen","highway":"residential"}},{"Shape":341,"Coordinates":[4.344642,51.83287],"Attributes":{"highway":"service"}},{"Shape":342,"Coordinates":[4.345801,51.83301],"Attributes":{"name":"De Ganzenjager","highway":"unclassified","maxspeed":"30"}},{"Shape":344,"Coordinates":[4.344296,51.8336],"Attributes":{"highway":"service"}},{"Shape":346,"Coordinates":[4.3446,51.835],"Attributes":{"name":"De Dijkgraaf","highway":"tertiary"}},{"Shape":347,"Coordinates":[4.34443,51.83492],"Attributes":{"name":"Vlinderveen","highway":"residential"}},{"Shape":348,"Coordinates":[4.343574,51.8339],"Attributes":{"name":"Vlinderveen","highway":"residential","maxspeed":"50"}},{"Shape":348,"Coordinates":[4.34251,51.83415],"Attributes":{"name":"Vlinderveen","highway":"residential"}},{"Shape":348,"Coordinates":[4.3437,51.8351],"Attributes":{"name":"Vlinderveen","highway":"residential"}},{"Shape":352,"Coordinates":[4.34251,51.83415],"Attributes":{"name":"Vlinderveen","highway":"residential"}},{"Shape":352,"Coordinates":[4.344503,51.83449],"Attributes":{"name":"Vlinderveen","highway":"residential"}},{"Shape":354,"Coordinates":[4.34251,51.83415],"Attributes":{"name":"Vlinderveen","highway":"residential"}},{"Shape":354,"Coordinates":[4.3437,51.8351],"Attributes":{"name":"Vlinderveen","highway":"residential"}},{"Shape":355,"Coordinates":[4.34443,51.83492],"Attributes":{"name":"Vlinderveen","highway":"residential"}},{"Shape":356,"Coordinates":[4.344718,51.83396],"Attributes":{"name":"De Dijkgraaf","highway":"tertiary"}},{"Shape":359,"Coordinates":[4.344693,51.83624],"Attributes":{"name":"De Landmeter","highway":"unclassified","maxspeed":"30"}},{"Shape":359,"Coordinates":[4.345411,51.83616],"Attributes":{"name":"De Landmeter","highway":"unclassified","maxspeed":"30"}},{"Shape":360,"Coordinates":[4.345046,51.83723],"Attributes":{"name":"De Dijkgraaf","highway":"tertiary","oneway":"yes"}},{"Shape":366,"Coordinates":[4.344918,51.8387],"Attributes":{"highway":"tertiary","oneway":"yes"}},{"Shape":367,"Coordinates":[4.344918,51.8387],"Attributes":{"name":"Heemraadlaan","maxspeed":"50","oneway":"yes","highway":"secondary"}},{"Shape":375,"Coordinates":[4.344414,51.84153],"Attributes":{"name":"Maaswijkweg","maxspeed":"50","highway":"tertiary","oneway":"yes"}},{"Shape":375,"Coordinates":[4.344956,51.84146],"Attributes":{"name":"Maaswijkweg","maxspeed":"50","highway":"tertiary","oneway":"yes"}},{"Shape":376,"Coordinates":[4.345028,51.84161],"Attributes":{"name":"Maaswijkweg","maxspeed":"50","highway":"tertiary","oneway":"yes"}},{"Shape":376,"Coordinates":[4.344414,51.84153],"Attributes":{"name":"Maaswijkweg","maxspeed":"50","highway":"tertiary","oneway":"yes"}},{"Shape":377,"Coordinates":[4.344788,51.84246],"Attributes":{"name":"Florianusstraat","highway":"unclassified"}},{"Shape":377,"Coordinates":[4.344324,51.84243],"Attributes":{"name":"Eikenlaan","highway":"unclassified","maxspeed":"50"}},{"Shape":385,"Coordinates":[4.34303,51.84502],"Attributes":{"name":"Schenkelweg","maxspeed":"50","oneway":"yes","highway":"secondary"}},{"Shape":388,"Coordinates":[4.343195,51.84504],"Attributes":{"name":"Rijnlaan","highway":"unclassified","maxspeed":"30","oneway":"yes"}},{"Shape":388,"Coordinates":[4.345677,51.84443],"Attributes":{"name":"Mainstraat","highway":"living_street"}},{"Shape":388,"Coordinates":[4.343448,51.84536],"Attributes":{"name":"Ebrostraat","highway":"residential","maxspeed":"30"}},{"Shape":390,"Coordinates":[4.346008,51.84494],"Attributes":{"name":"Neckarstraat","highway":"residential","maxspeed":"30"}},{"Shape":391,"Coordinates":[4.344657,51.84619],"Attributes":{"name":"Rijnlaan","highway":"residential","maxspeed":"30"}},{"Shape":392,"Coordinates":[4.346048,51.84661],"Attributes":{"name":"Rijnlaan","highway":"unclassified","maxspeed":"30"}},{"Shape":392,"Coordinates":[4.346868,51.84547],"Attributes":{"name":"Ahrstraat","highway":"residential","maxspeed":"30"}},{"Shape":394,"Coordinates":[4.346048,51.84661],"Attributes":{"name":"Rijnlaan","highway":"unclassified","maxspeed":"30"}},{"Shape":395,"Coordinates":[4.344657,51.84619],"Attributes":{"name":"Rijnlaan","highway":"residential","maxspeed":"30"}},{"Shape":396,"Coordinates":[4.343998,51.84533],"Attributes":{"name":"Rijnlaan","highway":"unclassified","maxspeed":"30"}},{"Shape":396,"Coordinates":[4.346008,51.84494],"Attributes":{"name":"Neckarstraat","highway":"residential","maxspeed":"30"}},{"Shape":400,"Coordinates":[4.345017,51.84597],"Attributes":{"name":"Rijnlaan","highway":"unclassified","maxspeed":"30"}},{"Shape":402,"Coordinates":[4.343195,51.84504],"Attributes":{"name":"Rijnlaan","highway":"unclassified","maxspeed":"30","oneway":"yes"}},{"Shape":402,"Coordinates":[4.345677,51.84443],"Attributes":{"name":"Mainstraat","highway":"living_street"}},{"Shape":402,"Coordinates":[4.343266,51.84497],"Attributes":{"name":"Rijnlaan","highway":"unclassified","maxspeed":"30","oneway":"yes"}},{"Shape":404,"Coordinates":[4.343414,51.8458],"Attributes":{"name":"Weserstraat","highway":"residential","maxspeed":"30"}},{"Shape":405,"Coordinates":[4.342767,51.84619],"Attributes":{"name":"Elbestraat","highway":"residential","maxspeed":"30"}},{"Shape":405,"Coordinates":[4.3418,51.8464],"Attributes":{"name":"Ebrostraat","highway":"residential","maxspeed":"30"}},{"Shape":410,"Coordinates":[4.3439,51.8473],"Attributes":{"name":"Donaulaan","highway":"unclassified","maxspeed":"50"}},{"Shape":411,"Coordinates":[4.345974,51.8472],"Attributes":{"name":"Donaulaan","highway":"unclassified","maxspeed":"50"}},{"Shape":411,"Coordinates":[4.344827,51.84712],"Attributes":{"name":"Donaulaan","highway":"residential"}},{"Shape":415,"Coordinates":[4.345974,51.8472],"Attributes":{"name":"Donaulaan","highway":"unclassified","maxspeed":"50"}},{"Shape":416,"Coordinates":[4.344029,51.84711],"Attributes":{"name":"Elbestraat","highway":"residential"}},{"Shape":418,"Coordinates":[4.342113,51.8466],"Attributes":{"name":"Oderstraat","highway":"residential","maxspeed":"30"}},{"Shape":419,"Coordinates":[4.342543,51.8477],"Attributes":{"name":"Seinestraat","highway":"residential"}},{"Shape":421,"Coordinates":[4.341806,51.84806],"Attributes":{"name":"Loirestraat","highway":"residential"}},{"Shape":422,"Coordinates":[4.340119,51.84816],"Attributes":{"name":"Donaulaan","highway":"unclassified","maxspeed":"50","oneway":"yes"}},{"Shape":425,"Coordinates":[4.339718,51.84821],"Attributes":{"name":"Donaulaan","highway":"unclassified","maxspeed":"50","oneway":"yes"}},{"Shape":425,"Coordinates":[4.339949,51.84815],"Attributes":{"name":"Oude Maasweg","highway":"unclassified"}},{"Shape":427,"Coordinates":[4.342422,51.84838],"Attributes":{"name":"Theemsweg","highway":"residential"}},{"Shape":428,"Coordinates":[4.338933,51.84872],"Attributes":{"name":"Groenoordweg","highway":"service"}},{"Shape":429,"Coordinates":[4.339995,51.84884],"Attributes":{"name":"Groenoordweg","highway":"service","oneway":"yes"}},{"Shape":432,"Coordinates":[4.340312,51.84929],"Attributes":{"name":"Adriaan Prinslaan","highway":"residential"}},{"Shape":436,"Coordinates":[4.344673,51.8516],"Attributes":{"name":"Hongerlandsedijk","highway":"residential","maxspeed":"30"}},{"Shape":439,"Coordinates":[4.341385,51.85418],"Attributes":{"name":"Hongerlandsedijk","highway":"residential","maxspeed":"30"}},{"Shape":448,"Coordinates":[4.343739,51.85225],"Attributes":{"name":"Hongerlandsedijk","highway":"residential","maxspeed":"30"}}]}