{"Shape":[[4.368117,51.83483],[4.367445,51.83514],[4.367056,51.83533],[4.367049,51.83558],[4.367046,51.8357],[4.366899,51.83581],[4.366675,51.83588],[4.366416,51.83591],[4.366209,51.83587],[4.365995,51.83579],[4.365858,51.83567],[4.365098,51.83566],[4.364598,51.83564],[4.3645,51.8348],[4.364818,51.83464],[4.3645,51.8348],[4.364598,51.83564],[4.363756,51.83563],[4.363647,51.83459],[4.363661,51.83393],[4.363647,51.83459],[4.363756,51.83563],[4.363699,51.83563],[4.363351,51.83562],[4.363294,51.83529],[4.363256,51.83514],[4.362886,51.83512],[4.362876,51.8352],[4.362886,51.83512],[4.363256,51.83514],[4.363294,51.83529],[4.363351,51.83562],[4.362383,51.8356],[4.362183,51.8356],[4.362207,51.83537],[4.362295,51.83504],[4.36259,51.83456],[4.362716,51.8344],[4.362961,51.83414],[4.363196,51.83397],[4.363072,51.8339],[4.362954,51.83384],[4.362914,51.83384],[4.362954,51.83384],[4.363072,51.8339],[4.363196,51.83397],[4.362961,51.83414],[4.362716,51.8344],[4.36259,51.83456],[4.362263,51.83449],[4.36189,51.8344],[4.361663,51.83434],[4.36149,51.8343],[4.361216,51.83426],[4.360715,51.83423],[4.360428,51.83422],[4.359982,51.83422],[4.359963,51.83443],[4.359956,51.83451],[4.360041,51.83551],[4.360006,51.83558],[4.359909,51.83559],[4.359545,51.83559],[4.359371,51.83561],[4.358798,51.83573],[4.358778,51.83574],[4.358304,51.83594],[4.357912,51.83622],[4.357645,51.83656],[4.357581,51.83673],[4.357536,51.83692],[4.357599,51.83693],[4.358421,51.83695],[4.358706,51.83696],[4.359236,51.83698],[4.359298,51.83698],[4.359346,51.83698],[4.359304,51.83751],[4.359249,51.83808],[4.359207,51.83857],[4.359298,51.83863],[4.359503,51.83864],[4.359298,51.83863],[4.359207,51.83857],[4.358305,51.83854],[4.357405,51.83851],[4.35744,51.83802],[4.3567,51.838],[4.35744,51.83802],[4.357405,51.83851],[4.357304,51.83856],[4.356604,51.83854],[4.356521,51.83856],[4.356054,51.83867],[4.356095,51.83873],[4.356225,51.83888],[4.356655,51.83944],[4.356703,51.8395],[4.356782,51.83951],[4.356853,51.83953],[4.356906,51.83957],[4.35694,51.83961],[4.356953,51.83965],[4.356946,51.83969],[4.356892,51.83976],[4.356812,51.8398],[4.356715,51.83981],[4.35661,51.8398],[4.356521,51.83977],[4.356156,51.83985],[4.354842,51.84018],[4.350435,51.84134],[4.35021,51.84141],[4.350195,51.84144],[4.350135,51.8415],[4.350092,51.84152],[4.35,51.84155],[4.349898,51.84155],[4.349844,51.84155],[4.349792,51.84153],[4.349615,51.84154],[4.349001,51.84167],[4.348555,51.84173],[4.348441,51.84174],[4.348005,51.84174],[4.347584,51.84173],[4.347215,51.84171],[4.346981,51.8417],[4.34621,51.84166],[4.345485,51.84163],[4.345028,51.84161],[4.344929,51.8416],[4.344674,51.8416],[4.344577,51.84244],[4.344324,51.84243],[4.344196,51.84242],[4.3431,51.84237],[4.341797,51.84233],[4.341792,51.84205],[4.341781,51.84156],[4.341779,51.84149],[4.341752,51.8411],[4.341745,51.84101],[4.341725,51.84043],[4.340582,51.84039],[4.341725,51.84043],[4.341721,51.84012],[4.341717,51.84002],[4.341702,51.8395],[4.341178,51.83948],[4.340808,51.83946],[4.340692,51.83946],[4.340141,51.83944],[4.339907,51.83942],[4.33916,51.83938],[4.339021,51.83937],[4.3389,51.83937],[4.33777,51.83931],[4.337754,51.83931],[4.337546,51.8393],[4.337487,51.83948],[4.337436,51.83996],[4.337417,51.84014],[4.3374,51.8403],[4.3365,51.84026],[4.336594,51.83946],[4.335732,51.83942],[4.334751,51.8394],[4.333807,51.83936],[4.333582,51.83935],[4.333807,51.83936],[4.333503,51.83999],[4.3336,51.8401],[4.333495,51.84114],[4.333225,51.84113],[4.332782,51.84111],[4.33277,51.84121],[4.332782,51.84111],[4.333225,51.84113],[4.333495,51.84114],[4.3336,51.8401],[4.334604,51.84016],[4.334864,51.84017],[4.3356,51.8402],[4.3365,51.84026],[4.336461,51.84077],[4.336423,51.84115],[4.336461,51.84077],[4.3365,51.84026],[4.3374,51.8403],[4.337399,51.84031],[4.337197,51.84212],[4.337291,51.84212],[4.337842,51.84216],[4.338156,51.84217],[4.339045,51.84222],[4.339289,51.84223],[4.339945,51.84225],[4.340382,51.84227],[4.340587,51.84228],[4.340659,51.84235],[4.3408,51.8425],[4.341088,51.84246],[4.341383,51.84253],[4.341501,51.84252],[4.341383,51.84253],[4.341088,51.84246],[4.3408,51.8425],[4.340659,51.84235],[4.340587,51.84228],[4.340803,51.84229],[4.341797,51.84233],[4.3431,51.84237],[4.343118,51.84227],[4.343182,51.84167],[4.343195,51.84157],[4.343297,51.84085],[4.343392,51.83969],[4.343297,51.84085],[4.343182,51.84167],[4.343118,51.84227],[4.3431,51.84237],[4.343092,51.84245],[4.343,51.8427],[4.343132,51.84274],[4.343118,51.84284],[4.343132,51.84274],[4.343,51.8427],[4.343092,51.84245],[4.3431,51.84237],[4.344196,51.84242],[4.344324,51.84243],[4.344388,51.84169],[4.344414,51.84153],[4.344689,51.84147],[4.344956,51.84146],[4.345497,51.84148],[4.346251,51.84152],[4.347239,51.84156],[4.348428,51.8416],[4.348705,51.84158],[4.349051,51.84153],[4.349454,51.84143],[4.349549,51.8414],[4.349648,51.84134],[4.349666,51.84131],[4.349733,51.84125],[4.349779,51.84123],[4.349773,51.84107],[4.349725,51.84097],[4.349637,51.84082],[4.349562,51.84072],[4.349473,51.84055],[4.349343,51.84038],[4.349247,51.84026],[4.349227,51.84022],[4.349242,51.84018],[4.349291,51.84015],[4.349341,51.84015],[4.349291,51.84015],[4.349242,51.84018],[4.349227,51.84022],[4.349247,51.84026],[4.349343,51.84038],[4.349473,51.84055],[4.349562,51.84072],[4.349637,51.84082],[4.349725,51.84097],[4.349773,51.84107],[4.349949,51.8412],[4.350004,51.84121],[4.350057,51.84122],[4.350151,51.84123],[4.350306,51.84121],[4.351436,51.84094],[4.353651,51.84037],[4.355665,51.83982],[4.356448,51.83964],[4.356467,51.83959],[4.356505,51.83955],[4.356559,51.83953],[4.356528,51.83948],[4.356172,51.83889],[4.356095,51.83873],[4.356054,51.83867],[4.355865,51.83872],[4.355744,51.83854],[4.355442,51.83807],[4.355262,51.83775],[4.355149,51.83741],[4.355262,51.83775],[4.355442,51.83807],[4.354567,51.83827],[4.354502,51.83861],[4.354394,51.83879],[4.354266,51.83889],[4.353954,51.83899],[4.353641,51.83902],[4.353499,51.83899],[4.353641,51.83902],[4.353954,51.83899],[4.354266,51.83889],[4.354394,51.83879],[4.354502,51.83861],[4.354567,51.83827],[4.354431,51.83799],[4.354358,51.83789],[4.354114,51.83788],[4.353674,51.83787],[4.353401,51.83786],[4.3535,51.83787],[4.353249,51.83786],[4.353267,51.83731],[4.352183,51.83727],[4.35223,51.83674],[4.352281,51.83624],[4.352559,51.83624],[4.3527,51.83624],[4.353416,51.83625],[4.354496,51.83628],[4.354723,51.8363],[4.355241,51.83632],[4.355292,51.83623],[4.355379,51.83607],[4.355661,51.83566],[4.356078,51.83521],[4.355773,51.83496],[4.355624,51.83485],[4.35489,51.83435],[4.354307,51.83396],[4.354263,51.83387],[4.354132,51.83377],[4.353737,51.83353],[4.353667,51.83348],[4.35358,51.83342],[4.353667,51.83348],[4.353737,51.83353],[4.354132,51.83377],[4.354263,51.83387],[4.354307,51.83396],[4.354862,51.83434],[4.35489,51.83435],[4.355624,51.83485],[4.354878,51.83525],[4.354701,51.83535],[4.3546,51.83545],[4.354561,51.83556],[4.354558,51.8356],[4.354561,51.83556],[4.3546,51.83545],[4.354701,51.83535],[4.354878,51.83525],[4.355624,51.83485],[4.355773,51.83496],[4.35603,51.8348],[4.356064,51.83468],[4.356438,51.83448],[4.35656,51.83442],[4.356722,51.83442],[4.357036,51.83429],[4.357344,51.83449],[4.357435,51.83458],[4.35772,51.83448],[4.358244,51.83437],[4.358519,51.8343],[4.358867,51.83425],[4.359239,51.83422],[4.359233,51.8341],[4.359243,51.83399],[4.3593,51.8334],[4.359339,51.8329],[4.359152,51.83241],[4.359224,51.83157],[4.358534,51.83154],[4.358211,51.83153],[4.358202,51.83168],[4.358144,51.83232],[4.357605,51.83242],[4.357409,51.83244],[4.357197,51.83241],[4.3567,51.8323],[4.356502,51.83228],[4.3567,51.8323],[4.357197,51.83241],[4.357409,51.83244],[4.357605,51.83242],[4.358144,51.83232],[4.358191,51.8318],[4.358144,51.83232],[4.357605,51.83242],[4.357409,51.83244],[4.357197,51.83241],[4.3567,51.8323],[4.356392,51.83227],[4.356239,51.83227],[4.356162,51.83229],[4.356112,51.83237],[4.355743,51.83256],[4.355162,51.83287],[4.355031,51.83289],[4.354982,51.83286],[4.354829,51.83276],[4.354083,51.83223],[4.354129,51.83141],[4.354129,51.83141],[4.354129,51.83141],[4.354083,51.83223],[4.354829,51.83276],[4.354982,51.83286],[4.355031,51.83289],[4.355329,51.8331],[4.35606,51.83361],[4.35673,51.83325],[4.357482,51.83284],[4.3575,51.83284],[4.358464,51.83288],[4.359339,51.8329],[4.3593,51.8334],[4.359233,51.8341],[4.359239,51.83422],[4.359355,51.83421],[4.359982,51.83422],[4.360428,51.83422],[4.360715,51.83423],[4.361216,51.83426],[4.36149,51.8343],[4.361445,51.8344],[4.361368,51.83445],[4.361287,51.83451],[4.361287,51.83468],[4.361362,51.83472],[4.361629,51.83485],[4.36163,51.83494],[4.361629,51.83485],[4.361362,51.83472],[4.361287,51.83468],[4.361287,51.83451],[4.361368,51.83445],[4.361445,51.8344],[4.36149,51.8343],[4.361663,51.83434],[4.36189,51.8344],[4.362263,51.83449],[4.36259,51.83456],[4.362295,51.83504],[4.362207,51.83537],[4.362183,51.8356],[4.362249,51.83609],[4.362183,51.8356],[4.362,51.83559],[4.36209,51.83628],[4.362113,51.83641],[4.362199,51.83688],[4.362391,51.8378],[4.362199,51.83688],[4.362395,51.83686],[4.362588,51.83685],[4.362637,51.83716],[4.362693,51.83744],[4.362755,51.83772],[4.362759,51.83774],[4.362813,51.83805],[4.362897,51.83831],[4.362933,51.83848],[4.363002,51.83858],[4.36314,51.83867],[4.363311,51.83872],[4.363814,51.83873],[4.364505,51.83876],[4.364714,51.83876],[4.36481,51.83882],[4.366362,51.83887],[4.367903,51.83892],[4.366362,51.83887],[4.36481,51.83882],[4.364714,51.83876],[4.364704,51.83848],[4.36464,51.83818],[4.364522,51.83761],[4.365499,51.83763],[4.365944,51.83764],[4.365939,51.8376],[4.365883,51.83719],[4.365823,51.83672],[4.36506,51.8367],[4.365064,51.8366],[4.365098,51.83566],[4.365858,51.83567],[4.365995,51.83579],[4.366209,51.83587],[4.366416,51.83591],[4.366599,51.83589],[4.366675,51.83588],[4.366899,51.83581],[4.367046,51.8357],[4.367727,51.83575],[4.367617,51.8368],[4.368389,51.83685],[4.368356,51.83699],[4.368389,51.83685],[4.368972,51.8369],[4.370177,51.83698],[4.370326,51.83643],[4.370457,51.83588],[4.370326,51.83643],[4.370177,51.83698],[4.370038,51.8376],[4.370005,51.83772],[4.369893,51.83816],[4.370094,51.83818],[4.36999,51.83858],[4.370255,51.83857],[4.370311,51.83854],[4.370436,51.83859],[4.370712,51.83867],[4.37106,51.83872],[4.371407,51.83873],[4.3717,51.83871],[4.372097,51.83863],[4.372175,51.83837],[4.372507,51.8371],[4.372175,51.83837],[4.372097,51.83863],[4.3717,51.83871],[4.371407,51.83873],[4.371304,51.83873],[4.37106,51.83872],[4.370712,51.83867],[4.370436,51.83859],[4.370311,51.83854],[4.370255,51.83857],[4.36999,51.83858],[4.370094,51.83818],[4.370241,51.83762],[4.3704,51.837],[4.370615,51.83702],[4.370728,51.8366],[4.370763,51.83647],[4.370826,51.8362],[4.370903,51.83588],[4.370893,51.83534],[4.370876,51.83529],[4.370724,51.83487],[4.370527,51.83491],[4.370261,51.83447],[4.369798,51.83403],[4.369626,51.83411],[4.369594,51.83409],[4.369088,51.83369],[4.368303,51.83408],[4.367658,51.83384],[4.367596,51.83383],[4.366846,51.83372],[4.365999,51.83372],[4.365982,51.83362],[4.365999,51.83372],[4.366846,51.83372],[4.366941,51.83331],[4.367129,51.83322],[4.367483,51.83282],[4.367792,51.83266],[4.367764,51.83264],[4.367792,51.83266],[4.368437,51.83317],[4.369088,51.83369],[4.369626,51.83411],[4.369798,51.83403],[4.369971,51.83395],[4.369474,51.83356],[4.369341,51.83345],[4.368838,51.83305],[4.368187,51.83253],[4.368289,51.83248],[4.368187,51.83253],[4.368838,51.83305],[4.369474,51.83356],[4.369971,51.83395],[4.369798,51.83403],[4.370261,51.83447],[4.370527,51.83491],[4.370679,51.83535],[4.370678,51.83587],[4.370462,51.83586],[4.368702,51.83578],[4.367727,51.83575],[4.367046,51.8357],[4.367049,51.83558],[4.367056,51.83533],[4.367445,51.83514],[4.368117,51.83483]],"ShapeMeta":[{"Shape":0,"Attributes":{"profile":"car"}},{"Shape":4,"Attributes":{"name":"Martina Kramersstraat","highway":"residential","maxspeed":"30","profile":"car","distance":"133.3608","time":"21.33772"}},{"Shape":7,"Attributes":{"name":"Sientje Mesdag-van Houtenstraat","highway":"residential","maxspeed":"30","profile":"car","distance":"184.0608","time":"29.44972"}},{"Shape":10,"Attributes":{"name":"Sientje Mesdag-van Houtenstraat","highway":"residential","maxspeed":"30","profile":"car","distance":"232.7608","time":"37.24172"}},{"Shape":11,"Attributes":{"name":"Sientje Mesdag-van Houtenstraat","highway":"residential","maxspeed":"30","profile":"car","distance":"284.9608","time":"45.59372"}},{"Shape":12,"Attributes":{"name":"Sientje Mesdag-van Houtenstraat","highway":"residential","maxspeed":"30","profile":"car","distance":"319.2608","time":"51.08172"}},{"Shape":14,"Attributes":{"name":"Harriët Freezerstraat","highway":"residential","maxspeed":"30","profile":"car","distance":"441.4865","time":"70.63783"}},{"Shape":16,"Attributes":{"name":"Harriët Freezerstraat","highway":"residential","maxspeed":"30","profile":"car","distance":"563.7122","time":"90.19394"}},{"Shape":17,"Attributes":{"name":"Sientje Mesdag-van Houtenstraat","highway":"residential","maxspeed":"30","profile":"car","distance":"621.5122","time":"99.44194"}},{"Shape":19,"Attributes":{"name":"Henriëtte van der Meijstraat","highway":"residential","maxspeed":"30","profile":"car","distance":"810.9449","time":"129.7512"}},{"Shape":21,"Attributes":{"name":"Henriëtte van der Meijstraat","highway":"residential","maxspeed":"30","profile":"car","distance":"1000.378","time":"160.0604"}},{"Shape":22,"Attributes":{"name":"Sientje Mesdag-van Houtenstraat","highway":"residential","maxspeed":"30","profile":"car","distance":"1004.249","time":"160.6798"}},{"Shape":23,"Attributes":{"name":"Sientje Mesdag-van Houtenstraat","highway":"residential","maxspeed":"30","profile":"car","distance":"1028.178","time":"164.5084"}},{"Shape":24,"Attributes":{"name":"Lizzy Ansinghstraat","highway":"unclassified","maxspeed":"30","profile":"car","distance":"1065.678","time":"170.5084"}},{"Shape":25,"Attributes":{"name":"Lizzy Ansinghstraat","highway":"unclassified","maxspeed":"30","profile":"car","distance":"1082.378","time":"173.1804"}},{"Shape":27,"Attributes":{"name":"Lizzy Ansinghstraat","highway":"unclassified","maxspeed":"30","profile":"car","distance":"1115.898","time":"178.5436"}},{"Shape":29,"Attributes":{"name":"Lizzy Ansinghstraat","highway":"unclassified","maxspeed":"30","profile":"car","distance":"1149.418","time":"183.9068"}},{"Shape":30,"Attributes":{"name":"Lizzy Ansinghstraat","highway":"unclassified","maxspeed":"30","profile":"car","distance":"1166.118","time":"186.5788"}},{"Shape":31,"Attributes":{"name":"Lizzy Ansinghstraat","highway":"unclassified","maxspeed":"30","profile":"car","distance":"1203.618","time":"192.5788"}},{"Shape":32,"Attributes":{"name":"Sientje Mesdag-van Houtenstraat","highway":"residential","maxspeed":"30","profile":"car","distance":"1270.118","time":"203.2188"}},{"Shape":33,"Attributes":{"name":"Sientje Mesdag-van Houtenstraat","highway":"residential","maxspeed":"30","profile":"car","distance":"1283.818","time":"205.4108"}},{"Shape":36,"Attributes":{"name":"Annie Romein-Verschoorlaan","maxspeed":"50","highway":"tertiary","profile":"car","distance":"1403.018","time":"216.854"}},{"Shape":37,"Attributes":{"name":"Annie Romein-Verschoorlaan","maxspeed":"50","highway":"tertiary","profile":"car","distance":"1423.518","time":"218.822"}},{"Shape":39,"Attributes":{"name":"Annie Romein-Verschoorlaan","maxspeed":"50","highway":"tertiary","profile":"car","distance":"1481.818","time":"224.4188"}},{"Shape":41,"Attributes":{"name":"Hadewychplaats","highway":"service","profile":"car","distance":"1503.518","time":"227.8908"}},{"Shape":42,"Attributes":{"name":"Ida Gerhardtplein","highway":"service","profile":"car","distance":"1506.258","time":"228.3291"}},{"Shape":43,"Attributes":{"name":"Ida Gerhardtplein","highway":"service","profile":"car","distance":"1508.998","time":"228.7675"}},{"Shape":45,"Attributes":{"name":"Hadewychplaats","highway":"service","profile":"car","distance":"1530.698","time":"232.2395"}},{"Shape":47,"Attributes":{"name":"Annie Romein-Verschoorlaan","maxspeed":"50","highway":"tertiary","profile":"car","distance":"1588.998","time":"237.8363"}},{"Shape":48,"Attributes":{"name":"Annie Romein-Verschoorlaan","maxspeed":"50","highway":"tertiary","profile":"car","distance":"1609.498","time":"239.8042"}},{"Shape":51,"Attributes":{"name":"Joke Smitlaan","maxspeed":"50","highway":"tertiary","profile":"car","distance":"1677.898","time":"246.3707"}},{"Shape":52,"Attributes":{"name":"Joke Smitlaan","maxspeed":"50","highway":"tertiary","profile":"car","distance":"1690.298","time":"247.5611"}},{"Shape":53,"Attributes":{"name":"Joke Smitlaan","maxspeed":"50","highway":"tertiary","profile":"car","distance":"1709.698","time":"249.4234"}},{"Shape":55,"Attributes":{"name":"Joke Smitlaan","maxspeed":"50","highway":"tertiary","profile":"car","distance":"1763.998","time":"254.6362"}},{"Shape":56,"Attributes":{"name":"Joke Smitlaan","maxspeed":"50","highway":"tertiary","profile":"car","distance":"1794.598","time":"257.5739"}},{"Shape":57,"Attributes":{"name":"Clara Visserstraat","highway":"residential","maxspeed":"30","profile":"car","distance":"1818.374","time":"261.3781"}},{"Shape":60,"Attributes":{"name":"Clara Visserstraat","highway":"residential","maxspeed":"30","profile":"car","distance":"1946.098","time":"281.8139"}},{"Shape":63,"Attributes":{"name":"Wilhelmina Bladergroenstraat","highway":"residential","maxspeed":"30","profile":"car","distance":"1989.898","time":"288.8219"}},{"Shape":64,"Attributes":{"name":"Wilhelmina Bladergroenstraat","highway":"residential","maxspeed":"30","profile":"car","distance":"2031.598","time":"295.4939"}},{"Shape":65,"Attributes":{"name":"Wilhelmina Bladergroenstraat","highway":"residential","maxspeed":"30","profile":"car","distance":"2033.194","time":"295.7493"}},{"Shape":67,"Attributes":{"name":"Wilhelmina Bladergroenstraat","highway":"residential","maxspeed":"30","profile":"car","distance":"2114.098","time":"308.6939"}},{"Shape":68,"Attributes":{"name":"Wilhelmina Bladergroenstraat","highway":"residential","maxspeed":"30","profile":"car","distance":"2155.598","time":"315.3339"}},{"Shape":70,"Attributes":{"name":"Wilhelmina Bladergroenstraat","highway":"residential","maxspeed":"30","profile":"car","distance":"2196.598","time":"321.8939"}},{"Shape":71,"Attributes":{"name":"Maria Rutgers-Hoitsemastraat","highway":"residential","maxspeed":"30","profile":"car","distance":"2200.942","time":"322.589"}},{"Shape":72,"Attributes":{"name":"Maria Rutgers-Hoitsemastraat","highway":"residential","maxspeed":"30","profile":"car","distance":"2257.498","time":"331.6379"}},{"Shape":75,"Attributes":{"name":"Maria Rutgers-Hoitsemastraat","highway":"residential","maxspeed":"30","profile":"car","distance":"2317.778","time":"341.2827"}},{"Shape":76,"Attributes":{"name":"Maria Rutgers-Hoitsemastraat","highway":"residential","maxspeed":"30","profile":"car","distance":"2321.098","time":"341.8139"}},{"Shape":77,"Attributes":{"name":"Hélène Mercierstraat","highway":"residential","maxspeed":"30","profile":"car","distance":"2380.098","time":"351.2539"}},{"Shape":78,"Attributes":{"name":"Hélène Mercierstraat","highway":"residential","maxspeed":"30","profile":"car","distance":"2443.398","time":"361.3819"}},{"Shape":79,"Attributes":{"name":"Hélène Mercierstraat","highway":"residential","maxspeed":"30","profile":"car","distance":"2498.098","time":"370.1339"}},{"Shape":81,"Attributes":{"name":"Aletta Jacobsstraat","highway":"residential","maxspeed":"30","profile":"car","distance":"2521.099","time":"373.8141"}},{"Shape":83,"Attributes":{"name":"Aletta Jacobsstraat","highway":"residential","maxspeed":"30","profile":"car","distance":"2544.1","time":"377.4942"}},{"Shape":84,"Attributes":{"name":"Aletta Jacobsstraat","highway":"residential","maxspeed":"30","profile":"car","distance":"2606.2","time":"387.4302"}},{"Shape":85,"Attributes":{"name":"Aletta Jacobsstraat","highway":"residential","maxspeed":"30","profile":"car","distance":"2668","time":"397.3182"}},{"Shape":86,"Attributes":{"name":"Wilhelmina Bladergroenstraat","highway":"residential","maxspeed":"30","profile":"car","distance":"2722.3","time":"406.0062"}},{"Shape":87,"Attributes":{"name":"Catharina van Tussenbroekstraat","highway":"residential","maxspeed":"30","profile":"car","distance":"2773.159","time":"414.1436"}},{"Shape":88,"Attributes":{"name":"Catharina van Tussenbroekstraat","highway":"residential","maxspeed":"30","profile":"car","distance":"2824.018","time":"422.281"}},{"Shape":89,"Attributes":{"name":"Wilhelmina Bladergroenstraat","highway":"residential","maxspeed":"30","profile":"car","distance":"2878.318","time":"430.969"}},{"Shape":93,"Attributes":{"name":"Aletta Jacobsstraat","highway":"residential","maxspeed":"30","profile":"car","distance":"2976.118","time":"446.617"}},{"Shape":94,"Attributes":{"name":"Joke Smitlaan","maxspeed":"50","highway":"tertiary","profile":"car","distance":"2982.618","time":"447.241"}},{"Shape":97,"Attributes":{"name":"Joke Smitlaan","maxspeed":"50","highway":"tertiary","oneway":"yes","profile":"car","distance":"3078.318","time":"456.4282"}},{"Shape":99,"Attributes":{"name":"Maaswijkweg","maxspeed":"50","highway":"tertiary","junction":"roundabout","profile":"car","distance":"3089.218","time":"457.4746"}},{"Shape":102,"Attributes":{"name":"Maaswijkweg","maxspeed":"50","highway":"tertiary","junction":"roundabout","profile":"car","distance":"3104.818","time":"458.9722"}},{"Shape":108,"Attributes":{"name":"Maaswijkweg","maxspeed":"50","highway":"tertiary","junction":"roundabout","profile":"car","distance":"3145.918","time":"462.9178"}},{"Shape":109,"Attributes":{"name":"Maaswijkweg","maxspeed":"50","highway":"tertiary","oneway":"yes","profile":"car","distance":"3172.618","time":"465.481"}},{"Shape":112,"Attributes":{"name":"Maaswijkweg","maxspeed":"50","highway":"tertiary","oneway":"yes","profile":"car","distance":"3616.318","time":"508.0762"}},{"Shape":115,"Attributes":{"name":"Maaswijkweg","maxspeed":"50","highway":"tertiary","junction":"roundabout","profile":"car","distance":"3631.718","time":"509.5546"}},{"Shape":117,"Attributes":{"name":"Maaswijkweg","maxspeed":"50","highway":"tertiary","junction":"roundabout","profile":"car","distance":"3645.718","time":"510.8986"}},{"Shape":119,"Attributes":{"name":"Maaswijkweg","maxspeed":"50","highway":"tertiary","junction":"roundabout","profile":"car","distance":"3653.418","time":"511.6378"}},{"Shape":123,"Attributes":{"name":"Maaswijkweg","maxspeed":"50","highway":"tertiary","oneway":"yes","profile":"car","distance":"3749.718","time":"520.8826"}},{"Shape":126,"Attributes":{"name":"Maaswijkweg","maxspeed":"50","highway":"tertiary","oneway":"yes","profile":"car","distance":"3834.018","time":"528.9754"}},{"Shape":128,"Attributes":{"name":"Maaswijkweg","maxspeed":"50","highway":"tertiary","oneway":"yes","profile":"car","distance":"3903.118","time":"535.609"}},{"Shape":129,"Attributes":{"name":"Maaswijkweg","maxspeed":"50","highway":"tertiary","oneway":"yes","profile":"car","distance":"3953.018","time":"540.3994"}},{"Shape":132,"Attributes":{"name":"Maaswijkweg","maxspeed":"50","highway":"tertiary","oneway":"yes","profile":"car","distance":"4008.818","time":"545.7562"}},{"Shape":133,"Attributes":{"name":"Schenkelweg","maxspeed":"50","oneway":"yes","highway":"secondary","profile":"car","distance":"4102.318","time":"554.7322"}},{"Shape":134,"Attributes":{"name":"Eikenlaan","highway":"unclassified","maxspeed":"50","profile":"car","distance":"4119.818","time":"556.4122"}},{"Shape":136,"Attributes":{"name":"Eikenlaan","highway":"unclassified","maxspeed":"50","profile":"car","distance":"4204.018","time":"564.4954"}},{"Shape":137,"Attributes":{"name":"Eikenlaan","highway":"unclassified","maxspeed":"50","profile":"car","distance":"4293.618","time":"573.097"}},{"Shape":138,"Attributes":{"name":"Populierenstraat","highway":"unclassified","profile":"car","distance":"4324.118","time":"576.025"}},{"Shape":139,"Attributes":{"name":"Populierenstraat","highway":"unclassified","profile":"car","distance":"4379.193","time":"581.3122"}},{"Shape":140,"Attributes":{"name":"Populierenstraat","highway":"unclassified","profile":"car","distance":"4386.818","time":"582.0442"}},{"Shape":143,"Attributes":{"name":"Populierenstraat","highway":"unclassified","profile":"car","distance":"4504.718","time":"593.3626"}},{"Shape":144,"Attributes":{"name":"Wilgenstraat","highway":"unclassified","profile":"car","distance":"4583.352","time":"600.9114"}},{"Shape":145,"Attributes":{"name":"Wilgenstraat","highway":"unclassified","profile":"car","distance":"4661.986","time":"608.4602"}},{"Shape":148,"Attributes":{"name":"Populierenstraat","highway":"unclassified","profile":"car","distance":"4764.586","time":"618.3098"}},{"Shape":149,"Attributes":{"name":"Hazelaarstraat","highway":"unclassified","profile":"car","distance":"4800.586","time":"621.7658"}},{"Shape":150,"Attributes":{"name":"Hazelaarstraat","highway":"unclassified","profile":"car","distance":"4826.063","time":"624.2116"}},{"Shape":152,"Attributes":{"name":"Hazelaarstraat","highway":"unclassified","profile":"car","distance":"4871.986","time":"628.6202"}},{"Shape":153,"Attributes":{"name":"Hazelaarstraat","highway":"unclassified","profile":"car","distance":"4888.086","time":"630.1658"}},{"Shape":154,"Attributes":{"name":"Hazelaarstraat","highway":"unclassified","profile":"car","distance":"4939.586","time":"635.1099"}},{"Shape":155,"Attributes":{"name":"Hazelaarstraat","highway":"unclassified","profile":"car","distance":"4949.187","time":"636.0314"}},{"Shape":156,"Attributes":{"name":"Hazelaarstraat","highway":"unclassified","profile":"car","distance":"4957.486","time":"636.8282"}},{"Shape":157,"Attributes":{"name":"Hazelaarstraat","highway":"unclassified","profile":"car","distance":"5035.286","time":"644.2971"}},{"Shape":158,"Attributes":{"name":"Hazelaarstraat","highway":"unclassified","profile":"car","distance":"5036.44","time":"644.4078"}},{"Shape":159,"Attributes":{"name":"Hazelaarstraat","highway":"unclassified","profile":"car","distance":"5050.686","time":"645.7754"}},{"Shape":161,"Attributes":{"name":"Beukenlaan","highway":"unclassified","profile":"car","distance":"5124.086","time":"652.8218"}},{"Shape":162,"Attributes":{"name":"Beukenlaan","highway":"unclassified","profile":"car","distance":"5143.986","time":"654.7322"}},{"Shape":163,"Attributes":{"name":"Beukenlaan","highway":"unclassified","profile":"car","distance":"5162.186","time":"656.4794"}},{"Shape":164,"Attributes":{"name":"Kastanjestraat","highway":"unclassified","profile":"car","distance":"5224.186","time":"662.4314"}},{"Shape":165,"Attributes":{"name":"Essenstraat","highway":"unclassified","profile":"car","distance":"5312.986","time":"670.9562"}},{"Shape":166,"Attributes":{"name":"Abelenstraat","highway":"unclassified","profile":"car","distance":"5372.286","time":"676.649"}},{"Shape":167,"Attributes":{"name":"Abelenstraat","highway":"unclassified","profile":"car","distance":"5439.686","time":"683.1194"}},{"Shape":168,"Attributes":{"name":"Abelenstraat","highway":"unclassified","profile":"car","distance":"5504.586","time":"689.3498"}},{"Shape":169,"Attributes":{"name":"Abelenstraat","highway":"unclassified","profile":"car","distance":"5520.053","time":"690.8347"}},{"Shape":170,"Attributes":{"name":"Abelenstraat","highway":"unclassified","profile":"car","distance":"5535.521","time":"692.3196"}},{"Shape":172,"Attributes":{"name":"De Olmen","highway":"unclassified","profile":"car","distance":"5622.12","time":"700.6332"}},{"Shape":173,"Attributes":{"name":"De Olmen","highway":"unclassified","profile":"car","distance":"5738.12","time":"711.7692"}},{"Shape":174,"Attributes":{"name":"Esdoornstraat","highway":"unclassified","profile":"car","distance":"5756.62","time":"713.5452"}},{"Shape":175,"Attributes":{"name":"Esdoornstraat","highway":"unclassified","profile":"car","distance":"5787.12","time":"716.4731"}},{"Shape":176,"Attributes":{"name":"De Wingerd","highway":"unclassified","profile":"car","distance":"5799.017","time":"717.6152"}},{"Shape":177,"Attributes":{"name":"De Wingerd","highway":"unclassified","profile":"car","distance":"5810.914","time":"718.7573"}},{"Shape":178,"Attributes":{"name":"Esdoornstraat","highway":"unclassified","profile":"car","distance":"5841.414","time":"721.6852"}},{"Shape":179,"Attributes":{"name":"Esdoornstraat","highway":"unclassified","profile":"car","distance":"5859.914","time":"723.4612"}},{"Shape":180,"Attributes":{"name":"De Olmen","highway":"unclassified","profile":"car","distance":"5975.914","time":"734.5972"}},{"Shape":181,"Attributes":{"name":"Kastanjestraat","highway":"unclassified","profile":"car","distance":"6045.114","time":"741.2404"}},{"Shape":182,"Attributes":{"name":"Kastanjestraat","highway":"unclassified","profile":"car","distance":"6062.988","time":"742.9564"}},{"Shape":183,"Attributes":{"name":"Kastanjestraat","highway":"unclassified","profile":"car","distance":"6113.613","time":"747.8165"}},{"Shape":184,"Attributes":{"name":"Kastanjestraat","highway":"unclassified","profile":"car","distance":"6175.713","time":"753.7781"}},{"Shape":185,"Attributes":{"name":"Essenstraat","highway":"unclassified","profile":"car","distance":"6233.013","time":"759.2789"}},{"Shape":186,"Attributes":{"name":"Essenstraat","highway":"unclassified","profile":"car","distance":"6275.461","time":"763.3538"}},{"Shape":187,"Attributes":{"name":"Essenstraat","highway":"unclassified","profile":"car","distance":"6317.909","time":"767.4288"}},{"Shape":188,"Attributes":{"name":"Essenstraat","highway":"unclassified","profile":"car","distance":"6375.208","time":"772.9296"}},{"Shape":189,"Attributes":{"name":"Kastanjestraat","highway":"unclassified","profile":"car","distance":"6437.208","time":"778.8816"}},{"Shape":190,"Attributes":{"name":"Beukenlaan","highway":"unclassified","profile":"car","distance":"6438.48","time":"779.0037"}},{"Shape":191,"Attributes":{"name":"Beukenlaan","highway":"unclassified","profile":"car","distance":"6639.508","time":"798.3024"}},{"Shape":192,"Attributes":{"name":"Eikenlaan","highway":"unclassified","maxspeed":"50","profile":"car","distance":"6646.008","time":"798.9265"}},{"Shape":193,"Attributes":{"name":"Eikenlaan","highway":"service","maxspeed":"50","profile":"car","distance":"6684.008","time":"802.5745"}},{"Shape":194,"Attributes":{"name":"Eikenlaan","highway":"unclassified","maxspeed":"50","profile":"car","distance":"6705.608","time":"804.648"}},{"Shape":195,"Attributes":{"name":"Eikenlaan","highway":"unclassified","maxspeed":"50","profile":"car","distance":"6766.808","time":"810.5233"}},{"Shape":196,"Attributes":{"name":"Eikenlaan","highway":"unclassified","maxspeed":"50","profile":"car","distance":"6783.553","time":"812.1307"}},{"Shape":199,"Attributes":{"name":"Eikenlaan","highway":"unclassified","maxspeed":"50","profile":"car","distance":"6872.908","time":"820.7087"}},{"Shape":201,"Attributes":{"name":"Cederstraat","highway":"unclassified","profile":"car","distance":"6901.108","time":"823.416"}},{"Shape":204,"Attributes":{"name":"Cederstraat","highway":"unclassified","profile":"car","distance":"6950.736","time":"828.1802"}},{"Shape":207,"Attributes":{"name":"Cederstraat","highway":"unclassified","profile":"car","distance":"7000.364","time":"832.9445"}},{"Shape":209,"Attributes":{"name":"Cederstraat","highway":"unclassified","profile":"car","distance":"7028.564","time":"835.6517"}},{"Shape":210,"Attributes":{"name":"Eikenlaan","highway":"unclassified","maxspeed":"50","profile":"car","distance":"7043.364","time":"837.0725"}},{"Shape":211,"Attributes":{"name":"Eikenlaan","highway":"unclassified","maxspeed":"50","profile":"car","distance":"7111.764","time":"843.6389"}},{"Shape":212,"Attributes":{"name":"Eikenlaan","highway":"unclassified","maxspeed":"50","profile":"car","distance":"7201.364","time":"852.2405"}},{"Shape":214,"Attributes":{"name":"Iepenlaan","highway":"unclassified","profile":"car","distance":"7279.564","time":"859.7477"}},{"Shape":215,"Attributes":{"name":"Iepenlaan","highway":"unclassified","profile":"car","distance":"7290.627","time":"860.8097"}},{"Shape":216,"Attributes":{"name":"Iepenlaan","highway":"unclassified","profile":"car","distance":"7371.464","time":"868.5701"}},{"Shape":217,"Attributes":{"name":"Iepenlaan","highway":"unclassified","profile":"car","distance":"7500.079","time":"880.9171"}},{"Shape":218,"Attributes":{"name":"Iepenlaan","highway":"unclassified","profile":"car","distance":"7628.694","time":"893.2642"}},{"Shape":219,"Attributes":{"name":"Iepenlaan","highway":"unclassified","profile":"car","distance":"7720.594","time":"902.0865"}},{"Shape":221,"Attributes":{"name":"Iepenlaan","highway":"unclassified","profile":"car","distance":"7798.794","time":"909.5938"}},{"Shape":223,"Attributes":{"name":"Iepenlaan","highway":"unclassified","profile":"car","distance":"7835.994","time":"913.1649"}},{"Shape":225,"Attributes":{"name":"Iepenlaan","highway":"service","profile":"car","distance":"7857.288","time":"916.5719"}},{"Shape":227,"Attributes":{"name":"Iepenlaan","highway":"service","profile":"car","distance":"7878.582","time":"919.9789"}},{"Shape":229,"Attributes":{"name":"Iepenlaan","highway":"unclassified","profile":"car","distance":"7915.782","time":"923.55"}},{"Shape":231,"Attributes":{"name":"Eikenlaan","highway":"unclassified","maxspeed":"50","profile":"car","distance":"7999.981","time":"931.6332"}},{"Shape":233,"Attributes":{"name":"Schenkelweg","maxspeed":"50","oneway":"yes","highway":"secondary","profile":"car","distance":"8099.382","time":"941.1757"}},{"Shape":234,"Attributes":{"name":"Maaswijkweg","maxspeed":"50","highway":"tertiary","oneway":"yes","profile":"car","distance":"8119.582","time":"943.1149"}},{"Shape":236,"Attributes":{"name":"Maaswijkweg","maxspeed":"50","highway":"tertiary","oneway":"yes","profile":"car","distance":"8175.182","time":"948.4525"}},{"Shape":237,"Attributes":{"name":"Maaswijkweg","maxspeed":"50","highway":"tertiary","oneway":"yes","profile":"car","distance":"8227.082","time":"953.4349"}},{"Shape":238,"Attributes":{"name":"Maaswijkweg","maxspeed":"50","highway":"tertiary","oneway":"yes","profile":"car","distance":"8295.182","time":"959.9725"}},{"Shape":239,"Attributes":{"name":"Maaswijkweg","maxspeed":"50","highway":"tertiary","oneway":"yes","profile":"car","distance":"8376.882","time":"967.8157"}},{"Shape":244,"Attributes":{"name":"Maaswijkweg","maxspeed":"50","highway":"tertiary","oneway":"yes","profile":"car","distance":"8467.281","time":"976.4941"}},{"Shape":247,"Attributes":{"name":"Maaswijkweg","maxspeed":"50","highway":"tertiary","junction":"roundabout","profile":"car","distance":"8482.882","time":"977.9916"}},{"Shape":248,"Attributes":{"highway":"unclassified","oneway":"yes","profile":"car","distance":"8500.182","time":"979.6525"}},{"Shape":249,"Attributes":{"name":"Hürthstraat","highway":"living_street","profile":"car","distance":"8512.481","time":"991.4604"}},{"Shape":250,"Attributes":{"name":"Hürthstraat","highway":"living_street","profile":"car","distance":"8529.682","time":"1007.972"}},{"Shape":252,"Attributes":{"name":"Hürthstraat","highway":"living_street","profile":"car","distance":"8561.481","time":"1038.5"}},{"Shape":253,"Attributes":{"name":"Hürthstraat","highway":"living_street","profile":"car","distance":"8582.882","time":"1059.044"}},{"Shape":258,"Attributes":{"name":"Hürthstraat","highway":"living_street","profile":"car","distance":"8615.104","time":"1089.978"}},{"Shape":263,"Attributes":{"name":"Hürthstraat","highway":"living_street","profile":"car","distance":"8647.325","time":"1120.911"}},{"Shape":264,"Attributes":{"name":"Hürthstraat","highway":"living_street","profile":"car","distance":"8668.726","time":"1141.455"}},{"Shape":266,"Attributes":{"name":"Hürthstraat","highway":"living_street","profile":"car","distance":"8700.525","time":"1171.983"}},{"Shape":267,"Attributes":{"name":"Hürthstraat","highway":"living_street","profile":"car","distance":"8717.726","time":"1188.495"}},{"Shape":268,"Attributes":{"name":"Hürthstraat","highway":"living_street","profile":"car","distance":"8730.025","time":"1200.303"}},{"Shape":269,"Attributes":{"name":"Hürthstraat","highway":"unclassified","oneway":"yes","profile":"car","distance":"8748.825","time":"1202.108"}},{"Shape":271,"Attributes":{"name":"Maaswijkweg","maxspeed":"50","highway":"tertiary","junction":"roundabout","profile":"car","distance":"8756.426","time":"1202.838"}},{"Shape":277,"Attributes":{"name":"Maaswijkweg","maxspeed":"50","highway":"tertiary","oneway":"yes","profile":"car","distance":"9230.625","time":"1248.361"}},{"Shape":280,"Attributes":{"name":"Maaswijkweg","maxspeed":"50","highway":"tertiary","junction":"roundabout","profile":"car","distance":"9245.525","time":"1249.791"}},{"Shape":283,"Attributes":{"name":"Joke Smitlaan","maxspeed":"50","highway":"tertiary","oneway":"yes","profile":"car","distance":"9340.125","time":"1258.873"}},{"Shape":284,"Attributes":{"name":"Joke Smitlaan","maxspeed":"50","highway":"tertiary","profile":"car","distance":"9346.625","time":"1259.497"}},{"Shape":285,"Attributes":{"name":"Marga Klompéstraat","highway":"residential","maxspeed":"30","profile":"car","distance":"9360.625","time":"1261.737"}},{"Shape":286,"Attributes":{"name":"Suze Groenewegstraat","highway":"residential","maxspeed":"30","profile":"car","distance":"9383.034","time":"1265.322"}},{"Shape":287,"Attributes":{"name":"Suze Groenewegstraat","highway":"residential","maxspeed":"30","profile":"car","distance":"9439.125","time":"1274.297"}},{"Shape":289,"Attributes":{"name":"Suze Groenewegstraat","highway":"residential","maxspeed":"30","profile":"car","distance":"9514.454","time":"1286.349"}},{"Shape":291,"Attributes":{"name":"Suze Groenewegstraat","highway":"residential","maxspeed":"30","profile":"car","distance":"9589.783","time":"1298.402"}},{"Shape":292,"Attributes":{"name":"Johanna Engwirda-Agricolastraat","highway":"residential","maxspeed":"30","profile":"car","distance":"9654.083","time":"1308.69"}},{"Shape":298,"Attributes":{"name":"Johanna Engwirda-Agricolastraat","highway":"residential","maxspeed":"30","profile":"car","distance":"9783.388","time":"1329.378"}},{"Shape":304,"Attributes":{"name":"Johanna Engwirda-Agricolastraat","highway":"residential","maxspeed":"30","profile":"car","distance":"9912.692","time":"1350.067"}},{"Shape":307,"Attributes":{"name":"Johanna Engwirda-Agricolastraat","highway":"residential","maxspeed":"30","profile":"car","distance":"9974.292","time":"1359.923"}},{"Shape":308,"Attributes":{"name":"Johanna Engwirda-Agricolastraat","highway":"residential","maxspeed":"30","profile":"car","distance":"10004.49","time":"1364.755"}},{"Shape":309,"Attributes":{"name":"Johanna Engwirda-Agricolastraat","highway":"residential","maxspeed":"30","profile":"car","distance":"10023.25","time":"1367.756"}},{"Shape":310,"Attributes":{"name":"Johanna Engwirda-Agricolastraat","highway":"residential","maxspeed":"30","profile":"car","distance":"10030.06","time":"1368.846"}},{"Shape":311,"Attributes":{"name":"Johanna Engwirda-Agricolastraat","highway":"residential","maxspeed":"30","profile":"car","distance":"10047.32","time":"1371.607"}},{"Shape":312,"Attributes":{"name":"Carry Pothuis-Smitstraat","highway":"residential","maxspeed":"30","profile":"car","distance":"10108.82","time":"1381.447"}},{"Shape":314,"Attributes":{"name":"Wilhelmina Hofman-Pootstraat","highway":"residential","maxspeed":"30","profile":"car","distance":"10242.02","time":"1402.759"}},{"Shape":316,"Attributes":{"name":"Wilhelmina Druckerstraat","highway":"residential","maxspeed":"30","profile":"car","distance":"10317.22","time":"1414.791"}},{"Shape":317,"Attributes":{"name":"Wilhelmina Druckerstraat","highway":"residential","maxspeed":"30","profile":"car","distance":"10326.91","time":"1416.342"}},{"Shape":319,"Attributes":{"name":"Wilhelmina Druckerstraat","highway":"residential","maxspeed":"30","profile":"car","distance":"10450.32","time":"1436.087"}},{"Shape":320,"Attributes":{"name":"Wilhelmina Druckerstraat","highway":"residential","maxspeed":"30","profile":"car","distance":"10465.92","time":"1438.583"}},{"Shape":321,"Attributes":{"name":"Wilhelmina Druckerstraat","highway":"residential","maxspeed":"30","profile":"car","distance":"10501.62","time":"1444.295"}},{"Shape":322,"Attributes":{"name":"Mina Krusemanstraat","highway":"residential","maxspeed":"30","profile":"car","distance":"10512.34","time":"1446.011"}},{"Shape":325,"Attributes":{"name":"Mina Krusemanstraat","highway":"residential","maxspeed":"30","profile":"car","distance":"10638.52","time":"1466.199"}},{"Shape":326,"Attributes":{"name":"Maria Doorman-Kielstrastraat","highway":"residential","maxspeed":"30","profile":"car","distance":"10673.02","time":"1471.719"}},{"Shape":327,"Attributes":{"name":"Maria Doorman-Kielstrastraat","highway":"residential","maxspeed":"30","profile":"car","distance":"10689.02","time":"1474.279"}},{"Shape":329,"Attributes":{"name":"Maria Doorman-Kielstrastraat","highway":"residential","maxspeed":"30","profile":"car","distance":"10822.62","time":"1495.655"}},{"Shape":331,"Attributes":{"name":"Maria Doorman-Kielstrastraat","highway":"residential","maxspeed":"30","profile":"car","distance":"10847.12","time":"1499.575"}},{"Shape":332,"Attributes":{"name":"Maria Doorman-Kielstrastraat","highway":"residential","maxspeed":"30","profile":"car","distance":"10885.12","time":"1505.655"}},{"Shape":334,"Attributes":{"name":"Willemijn Posthumusstraat","highway":"residential","maxspeed":"30","profile":"car","distance":"10901.59","time":"1508.292"}},{"Shape":336,"Attributes":{"name":"Willemijn Posthumusstraat","highway":"residential","maxspeed":"30","profile":"car","distance":"10918.07","time":"1510.928"}},{"Shape":337,"Attributes":{"name":"Maria Doorman-Kielstrastraat","highway":"residential","maxspeed":"30","profile":"car","distance":"10956.07","time":"1517.008"}},{"Shape":339,"Attributes":{"name":"Maria Doorman-Kielstrastraat","highway":"residential","maxspeed":"30","profile":"car","distance":"10980.57","time":"1520.928"}},{"Shape":340,"Attributes":{"name":"Maria Doorman-Kielstrastraat","highway":"residential","maxspeed":"30","profile":"car","distance":"11037.01","time":"1529.959"}},{"Shape":342,"Attributes":{"name":"Maria Doorman-Kielstrastraat","highway":"residential","maxspeed":"30","profile":"car","distance":"11114.17","time":"1542.304"}},{"Shape":343,"Attributes":{"name":"Roosje Vosstraat","highway":"residential","maxspeed":"30","profile":"car","distance":"11181.97","time":"1553.152"}},{"Shape":344,"Attributes":{"name":"Roosje Vosstraat","highway":"residential","maxspeed":"30","profile":"car","distance":"11198.37","time":"1555.776"}},{"Shape":347,"Attributes":{"name":"Roosje Vosstraat","highway":"residential","maxspeed":"30","profile":"car","distance":"11228.46","time":"1560.591"}},{"Shape":350,"Attributes":{"name":"Roosje Vosstraat","highway":"residential","maxspeed":"30","profile":"car","distance":"11258.55","time":"1565.406"}},{"Shape":351,"Attributes":{"name":"Roosje Vosstraat","highway":"residential","maxspeed":"30","profile":"car","distance":"11274.95","time":"1568.03"}},{"Shape":352,"Attributes":{"name":"Roosje Vosstraat","highway":"residential","maxspeed":"30","profile":"car","distance":"11342.75","time":"1578.878"}},{"Shape":353,"Attributes":{"name":"Maria Doorman-Kielstrastraat","highway":"residential","maxspeed":"30","profile":"car","distance":"11358.75","time":"1581.438"}},{"Shape":356,"Attributes":{"highway":"residential","maxspeed":"30","profile":"car","distance":"11431.23","time":"1593.034"}},{"Shape":359,"Attributes":{"highway":"residential","maxspeed":"30","profile":"car","distance":"11479.56","time":"1600.766"}},{"Shape":360,"Attributes":{"name":"Etty Hillesumstraat","highway":"residential","maxspeed":"30","profile":"car","distance":"11510.36","time":"1605.694"}},{"Shape":361,"Attributes":{"name":"Etty Hillesumstraat","highway":"residential","maxspeed":"30","profile":"car","distance":"11522.26","time":"1607.598"}},{"Shape":363,"Attributes":{"name":"Joke Smitlaan","maxspeed":"50","highway":"tertiary","oneway":"yes","profile":"car","distance":"11582.86","time":"1613.416"}},{"Shape":366,"Attributes":{"name":"Joke Smitlaan","maxspeed":"50","highway":"tertiary","profile":"car","distance":"11653.36","time":"1620.184"}},{"Shape":367,"Attributes":{"name":"Anne Frankstraat","highway":"residential","maxspeed":"30","profile":"car","distance":"11666.46","time":"1622.28"}},{"Shape":368,"Attributes":{"name":"Anne Frankstraat","highway":"residential","maxspeed":"30","profile":"car","distance":"11678.35","time":"1624.183"}},{"Shape":370,"Attributes":{"name":"Anne Frankstraat","highway":"residential","maxspeed":"30","profile":"car","distance":"11800.25","time":"1643.688"}},{"Shape":372,"Attributes":{"name":"Anne Frankstraat","highway":"residential","maxspeed":"30","profile":"car","distance":"11949.05","time":"1667.496"}},{"Shape":373,"Attributes":{"name":"Anne Frankstraat","highway":"residential","maxspeed":"30","profile":"car","distance":"11996.55","time":"1675.096"}},{"Shape":374,"Attributes":{"name":"Anne Frankstraat","highway":"residential","maxspeed":"30","profile":"car","distance":"12018.75","time":"1678.648"}},{"Shape":375,"Attributes":{"name":"Petronella Brugsmastraat","highway":"residential","maxspeed":"30","profile":"car","distance":"12035.25","time":"1681.288"}},{"Shape":381,"Attributes":{"name":"Petronella Brugsmastraat","highway":"residential","maxspeed":"30","profile":"car","distance":"12224.09","time":"1711.501"}},{"Shape":387,"Attributes":{"name":"Petronella Brugsmastraat","highway":"residential","maxspeed":"30","profile":"car","distance":"12399.33","time":"1739.54"}},{"Shape":395,"Attributes":{"name":"Petronella Brugsmastraat","highway":"residential","maxspeed":"30","profile":"car","distance":"12598.64","time":"1771.43"}},{"Shape":397,"Attributes":{"name":"Mien Sneevliet-Draaijerstraat","highway":"residential","maxspeed":"30","oneway":"yes","profile":"car","distance":"12641.04","time":"1778.214"}},{"Shape":399,"Attributes":{"name":"Mien Sneevliet-Draaijerstraat","highway":"residential","maxspeed":"30","oneway":"yes","profile":"car","distance":"12703.04","time":"1788.134"}},{"Shape":400,"Attributes":{"name":"Etty Hillesumstraat","highway":"residential","maxspeed":"30","profile":"car","distance":"12708.04","time":"1788.934"}},{"Shape":404,"Attributes":{"name":"Etty Hillesumstraat","highway":"residential","maxspeed":"30","profile":"car","distance":"12892.52","time":"1818.45"}},{"Shape":408,"Attributes":{"name":"Etty Hillesumstraat","highway":"residential","maxspeed":"30","profile":"car","distance":"13077","time":"1847.966"}},{"Shape":409,"Attributes":{"name":"Etty Hillesumstraat","highway":"residential","maxspeed":"30","profile":"car","distance":"13082","time":"1848.766"}},{"Shape":410,"Attributes":{"name":"Etty Hillesumstraat","highway":"residential","maxspeed":"30","profile":"car","distance":"13112.7","time":"1853.678"}},{"Shape":411,"Attributes":{"name":"Etty Hillesumstraat","highway":"residential","maxspeed":"30","profile":"car","distance":"13188.2","time":"1865.758"}},{"Shape":412,"Attributes":{"name":"Hannie Schaftstraat","highway":"residential","maxspeed":"30","profile":"car","distance":"13249.1","time":"1875.502"}},{"Shape":414,"Attributes":{"name":"Hannie Schaftstraat","highway":"residential","maxspeed":"30","profile":"car","distance":"13319.35","time":"1886.743"}},{"Shape":415,"Attributes":{"name":"Hannie Schaftstraat","highway":"residential","maxspeed":"30","profile":"car","distance":"13385.79","time":"1897.374"}},{"Shape":416,"Attributes":{"name":"Hannie Schaftstraat","highway":"residential","maxspeed":"30","profile":"car","distance":"13445.89","time":"1906.99"}},{"Shape":418,"Attributes":{"name":"Anne Frankstraat","highway":"residential","maxspeed":"30","profile":"car","distance":"13579.69","time":"1928.398"}},{"Shape":419,"Attributes":{"name":"Anne Frankstraat","highway":"residential","maxspeed":"30","profile":"car","distance":"13592.79","time":"1930.494"}},{"Shape":420,"Attributes":{"name":"Joke Smitlaan","maxspeed":"50","highway":"tertiary","profile":"car","distance":"13600.79","time":"1931.262"}},{"Shape":421,"Attributes":{"name":"Joke Smitlaan","maxspeed":"50","highway":"tertiary","profile":"car","distance":"13643.79","time":"1935.39"}},{"Shape":422,"Attributes":{"name":"Joke Smitlaan","maxspeed":"50","highway":"tertiary","profile":"car","distance":"13674.39","time":"1938.328"}},{"Shape":424,"Attributes":{"name":"Joke Smitlaan","maxspeed":"50","highway":"tertiary","profile":"car","distance":"13728.69","time":"1943.541"}},{"Shape":425,"Attributes":{"name":"Joke Smitlaan","maxspeed":"50","highway":"tertiary","profile":"car","distance":"13748.09","time":"1945.403"}},{"Shape":426,"Attributes":{"name":"Margaretha Roosenboomstraat","highway":"residential","profile":"car","distance":"13759.49","time":"1946.497"}},{"Shape":430,"Attributes":{"name":"Margaretha Roosenboomstraat","highway":"residential","profile":"car","distance":"13801.29","time":"1950.51"}},{"Shape":431,"Attributes":{"name":"Margaretha Roosenboomstraat","highway":"residential","profile":"car","distance":"13824.59","time":"1952.747"}},{"Shape":432,"Attributes":{"name":"Margaretha Roosenboomstraat","highway":"residential","profile":"car","distance":"13834.34","time":"1953.682"}},{"Shape":433,"Attributes":{"name":"Margaretha Roosenboomstraat","highway":"residential","profile":"car","distance":"13844.08","time":"1954.617"}},{"Shape":434,"Attributes":{"name":"Margaretha Roosenboomstraat","highway":"residential","profile":"car","distance":"13867.38","time":"1956.854"}},{"Shape":438,"Attributes":{"name":"Margaretha Roosenboomstraat","highway":"residential","profile":"car","distance":"13909.18","time":"1960.867"}},{"Shape":439,"Attributes":{"name":"Margaretha Roosenboomstraat","highway":"residential","profile":"car","distance":"13920.58","time":"1961.961"}},{"Shape":440,"Attributes":{"name":"Joke Smitlaan","maxspeed":"50","highway":"tertiary","profile":"car","distance":"13932.98","time":"1963.152"}},{"Shape":443,"Attributes":{"name":"Joke Smitlaan","maxspeed":"50","highway":"tertiary","profile":"car","distance":"14001.38","time":"1969.718"}},{"Shape":446,"Attributes":{"name":"Annie Romein-Verschoorlaan","maxspeed":"50","highway":"tertiary","profile":"car","distance":"14120.58","time":"1981.161"}},{"Shape":447,"Attributes":{"name":"Annie Romein-Verschoorlaan","maxspeed":"50","highway":"tertiary","profile":"car","distance":"14175.49","time":"1986.432"}},{"Shape":448,"Attributes":{"name":"Annie Romein-Verschoorlaan","maxspeed":"50","highway":"tertiary","profile":"car","distance":"14230.39","time":"1991.703"}},{"Shape":449,"Attributes":{"name":"Marie van Regteren Altenastraat","highway":"residential","maxspeed":"30","profile":"car","distance":"14242.89","time":"1993.703"}},{"Shape":451,"Attributes":{"name":"Margaretha Roosenboomstraat","highway":"residential","maxspeed":"30","profile":"car","distance":"14333.52","time":"2008.203"}},{"Shape":452,"Attributes":{"name":"Margaretha Roosenboomstraat","highway":"residential","maxspeed":"30","profile":"car","distance":"14385.99","time":"2016.598"}},{"Shape":453,"Attributes":{"name":"Ida Wassermanstraat","highway":"residential","maxspeed":"30","profile":"car","distance":"14489.4","time":"2033.143"}},{"Shape":454,"Attributes":{"name":"Ida Wassermanstraat","highway":"residential","maxspeed":"30","profile":"car","distance":"14592.81","time":"2049.688"}},{"Shape":455,"Attributes":{"name":"Mimi Boesnachstraat","highway":"residential","maxspeed":"30","profile":"car","distance":"14606.31","time":"2051.848"}},{"Shape":456,"Attributes":{"name":"Theo Mann-Bouwmeesterstraat","highway":"residential","maxspeed":"30","profile":"car","distance":"14619.71","time":"2053.992"}},{"Shape":457,"Attributes":{"name":"Maria Kleine-Gartmanstraat","highway":"residential","maxspeed":"30","profile":"car","distance":"14655.01","time":"2059.64"}},{"Shape":458,"Attributes":{"name":"Maria Kleine-Gartmanstraat","highway":"residential","maxspeed":"30","profile":"car","distance":"14686.61","time":"2064.696"}},{"Shape":459,"Attributes":{"name":"Maria Kleine-Gartmanstraat","highway":"residential","maxspeed":"30","profile":"car","distance":"14717.81","time":"2069.688"}},{"Shape":460,"Attributes":{"name":"Maria Kleine-Gartmanstraat","highway":"residential","maxspeed":"30","profile":"car","distance":"14719.94","time":"2070.029"}},{"Shape":461,"Attributes":{"name":"Maria Kleine-Gartmanstraat","highway":"residential","maxspeed":"30","profile":"car","distance":"14754.01","time":"2075.48"}},{"Shape":462,"Attributes":{"name":"Maria Kleine-Gartmanstraat","highway":"residential","maxspeed":"30","profile":"car","distance":"14784.21","time":"2080.312"}},{"Shape":467,"Attributes":{"name":"Maria Kleine-Gartmanstraat","highway":"residential","maxspeed":"30","profile":"car","distance":"14876.21","time":"2095.032"}},{"Shape":468,"Attributes":{"name":"Maria Kleine-Gartmanstraat","highway":"residential","maxspeed":"30","profile":"car","distance":"14923.74","time":"2102.636"}},{"Shape":469,"Attributes":{"name":"Maria Kleine-Gartmanstraat","highway":"residential","maxspeed":"30","profile":"car","distance":"14938.11","time":"2104.936"}},{"Shape":472,"Attributes":{"name":"Maria Kleine-Gartmanstraat","highway":"residential","maxspeed":"30","profile":"car","distance":"15160.04","time":"2140.445"}},{"Shape":475,"Attributes":{"name":"Maria Kleine-Gartmanstraat","highway":"residential","maxspeed":"30","profile":"car","distance":"15381.97","time":"2175.954"}},{"Shape":476,"Attributes":{"name":"Esther de Boer-van Rijkstraat","highway":"residential","maxspeed":"30","profile":"car","distance":"15413.27","time":"2180.962"}},{"Shape":477,"Attributes":{"name":"Esther de Boer-van Rijkstraat","highway":"residential","maxspeed":"30","profile":"car","distance":"15447.47","time":"2186.434"}},{"Shape":478,"Attributes":{"name":"Esther de Boer-van Rijkstraat","highway":"residential","maxspeed":"30","profile":"car","distance":"15510.77","time":"2196.562"}},{"Shape":479,"Attributes":{"name":"Josephine van Gasterenstraat","highway":"residential","maxspeed":"30","profile":"car","distance":"15577.87","time":"2207.298"}},{"Shape":480,"Attributes":{"name":"Josephine van Gasterenstraat","highway":"residential","maxspeed":"30","profile":"car","distance":"15608.37","time":"2212.178"}},{"Shape":481,"Attributes":{"name":"Corrie Vonkplantsoen","highway":"residential","maxspeed":"30","profile":"car","distance":"15612.2","time":"2212.79"}},{"Shape":483,"Attributes":{"name":"Corrie Vonkplantsoen","highway":"residential","maxspeed":"30","profile":"car","distance":"15711.28","time":"2228.642"}},{"Shape":484,"Attributes":{"name":"Theo Mann-Bouwmeesterstraat","highway":"residential","maxspeed":"30","profile":"car","distance":"15763.68","time":"2237.026"}},{"Shape":485,"Attributes":{"name":"Suze Robertsonstraat","highway":"residential","maxspeed":"30","profile":"car","distance":"15774.28","time":"2238.723"}},{"Shape":486,"Attributes":{"name":"Suze Robertsonstraat","highway":"residential","maxspeed":"30","profile":"car","distance":"15879.47","time":"2255.554"}},{"Shape":487,"Attributes":{"name":"Sientje Mesdag-van Houtenstraat","highway":"residential","maxspeed":"30","profile":"car","distance":"15931.67","time":"2263.906"}},{"Shape":490,"Attributes":{"name":"Sientje Mesdag-van Houtenstraat","highway":"residential","maxspeed":"30","profile":"car","distance":"15980.38","time":"2271.698"}},{"Shape":491,"Attributes":{"name":"Sientje Mesdag-van Houtenstraat","highway":"residential","maxspeed":"30","profile":"car","distance":"15993.08","time":"2273.731"}},{"Shape":494,"Attributes":{"name":"Sientje Mesdag-van Houtenstraat","highway":"residential","maxspeed":"30","profile":"car","distance":"16031.07","time":"2279.81"}},{"Shape":495,"Attributes":{"name":"Sientje Mesdag-van Houtenstraat","highway":"residential","maxspeed":"30","profile":"car","distance":"16078.07","time":"2287.33"}},{"Shape":496,"Attributes":{"name":"Rosa Spierstraat","highway":"residential","maxspeed":"30","profile":"car","distance":"16194.87","time":"2306.018"}},{"Shape":497,"Attributes":{"name":"Theo Mann-Bouwmeesterstraat","highway":"residential","maxspeed":"30","profile":"car","distance":"16248.27","time":"2314.562"}},{"Shape":498,"Attributes":{"name":"Top Naeffstraat","highway":"residential","maxspeed":"30","profile":"car","distance":"16263.69","time":"2317.029"}},{"Shape":499,"Attributes":{"name":"Top Naeffstraat","highway":"residential","maxspeed":"30","profile":"car","distance":"16279.11","time":"2319.496"}},{"Shape":501,"Attributes":{"name":"Theo Mann-Bouwmeesterstraat","highway":"residential","maxspeed":"30","profile":"car","distance":"16402.61","time":"2339.256"}},{"Shape":502,"Attributes":{"name":"Beb Vuykstraat","highway":"residential","maxspeed":"30","profile":"car","distance":"16464.11","time":"2349.096"}},{"Shape":503,"Attributes":{"name":"Beb Vuykstraat","highway":"residential","maxspeed":"30","profile":"car","distance":"16525.34","time":"2358.893"}},{"Shape":504,"Attributes":{"name":"Beb Vuykstraat","highway":"residential","maxspeed":"30","profile":"car","distance":"16586.57","time":"2368.69"}},{"Shape":505,"Attributes":{"name":"Beb Vuykstraat","highway":"residential","maxspeed":"30","profile":"car","distance":"16648.07","time":"2378.53"}},{"Shape":506,"Attributes":{"name":"Beb Vuykstraat","highway":"residential","maxspeed":"30","profile":"car","distance":"16717.77","time":"2389.682"}},{"Shape":507,"Attributes":{"name":"Beb Vuykstraat","highway":"residential","maxspeed":"30","profile":"car","distance":"16731.93","time":"2391.947"}},{"Shape":508,"Attributes":{"name":"Beb Vuykstraat","highway":"residential","maxspeed":"30","profile":"car","distance":"16781.27","time":"2399.841"}},{"Shape":509,"Attributes":{"name":"Maria Tesselschadestraat","highway":"residential","maxspeed":"30","profile":"car","distance":"16795.27","time":"2402.081"}},{"Shape":510,"Attributes":{"name":"Geertruida Bosboom-Toussaintlaan","maxspeed":"50","highway":"tertiary","profile":"car","distance":"16839.87","time":"2406.363"}},{"Shape":512,"Attributes":{"name":"Henriëtte Roland Holststraat","highway":"residential","maxspeed":"30","profile":"car","distance":"16862.97","time":"2410.059"}},{"Shape":518,"Attributes":{"name":"Henriëtte Roland Holststraat","highway":"residential","maxspeed":"30","profile":"car","distance":"16991.27","time":"2430.587"}},{"Shape":520,"Attributes":{"name":"Lange Groeneweg","highway":"residential","maxspeed":"30","profile":"car","distance":"17163.25","time":"2458.104"}},{"Shape":522,"Attributes":{"name":"Lange Groeneweg","highway":"residential","maxspeed":"30","profile":"car","distance":"17335.23","time":"2485.621"}},{"Shape":525,"Attributes":{"name":"Henriëtte Roland Holststraat","highway":"residential","maxspeed":"30","profile":"car","distance":"17391.21","time":"2494.578"}},{"Shape":529,"Attributes":{"name":"Henriëtte Roland Holststraat","highway":"residential","maxspeed":"30","profile":"car","distance":"17463.53","time":"2506.149"}},{"Shape":531,"Attributes":{"name":"Henriëtte Roland Holststraat","highway":"residential","maxspeed":"30","profile":"car","distance":"17486.63","time":"2509.845"}},{"Shape":532,"Attributes":{"name":"Geertruida Bosboom-Toussaintlaan","maxspeed":"50","highway":"tertiary","profile":"car","distance":"17531.23","time":"2514.127"}},{"Shape":533,"Attributes":{"name":"Geertruida Bosboom-Toussaintlaan","maxspeed":"50","highway":"tertiary","profile":"car","distance":"17595.22","time":"2520.27"}},{"Shape":534,"Attributes":{"name":"Geertruida Bosboom-Toussaintlaan","maxspeed":"50","highway":"tertiary","profile":"car","distance":"17664.33","time":"2526.905"}},{"Shape":535,"Attributes":{"name":"Theo Mann-Bouwmeesterstraat","highway":"residential","maxspeed":"30","profile":"car","distance":"17679.23","time":"2529.289"}},{"Shape":536,"Attributes":{"name":"Else van der Banstraat","highway":"residential","maxspeed":"30","profile":"car","distance":"17727.35","time":"2536.988"}},{"Shape":537,"Attributes":{"name":"Else van der Banstraat","highway":"residential","maxspeed":"30","profile":"car","distance":"17741.93","time":"2539.321"}},{"Shape":539,"Attributes":{"name":"Else van der Banstraat","highway":"residential","maxspeed":"30","profile":"car","distance":"17807.93","time":"2549.881"}},{"Shape":540,"Attributes":{"name":"Else van der Banstraat","highway":"residential","maxspeed":"30","profile":"car","distance":"17867.73","time":"2559.449"}},{"Shape":541,"Attributes":{"name":"Else van der Banstraat","highway":"residential","maxspeed":"30","profile":"car","distance":"17873.35","time":"2560.348"}},{"Shape":542,"Attributes":{"name":"Else van der Banstraat","highway":"residential","maxspeed":"30","profile":"car","distance":"17921.93","time":"2568.121"}},{"Shape":543,"Attributes":{"name":"Truus Schröderstraat","highway":"unclassified","maxspeed":"30","profile":"car","distance":"17936.23","time":"2570.409"}},{"Shape":545,"Attributes":{"name":"Geertruida Bosboom-Toussaintlaan","maxspeed":"50","highway":"tertiary","profile":"car","distance":"18046.13","time":"2580.96"}},{"Shape":546,"Attributes":{"name":"Belle van Zuylenstraat","highway":"residential","maxspeed":"30","profile":"car","distance":"18060.93","time":"2583.328"}},{"Shape":547,"Attributes":{"name":"Beb Vuykstraat","highway":"residential","maxspeed":"30","profile":"car","distance":"18064.48","time":"2583.895"}},{"Shape":548,"Attributes":{"name":"Beb Vuykstraat","highway":"residential","maxspeed":"30","profile":"car","distance":"18120.73","time":"2592.896"}},{"Shape":549,"Attributes":{"name":"Madelon Lulofsstraat","highway":"residential","maxspeed":"30","profile":"car","distance":"18189.83","time":"2603.952"}},{"Shape":550,"Attributes":{"name":"Madelon Lulofsstraat","highway":"residential","maxspeed":"30","profile":"car","distance":"18241.54","time":"2612.224"}},{"Shape":551,"Attributes":{"name":"Madelon Lulofsstraat","highway":"residential","maxspeed":"30","profile":"car","distance":"18245.91","time":"2612.923"}},{"Shape":552,"Attributes":{"name":"Madelon Lulofsstraat","highway":"residential","maxspeed":"30","profile":"car","distance":"18298.84","time":"2621.392"}},{"Shape":553,"Attributes":{"name":"Marie van Zeggelenstraat","highway":"residential","maxspeed":"30","profile":"car","distance":"18356.94","time":"2630.688"}},{"Shape":554,"Attributes":{"name":"Marie van Zeggelenstraat","highway":"residential","maxspeed":"30","profile":"car","distance":"18367.61","time":"2632.396"}},{"Shape":555,"Attributes":{"name":"Marie van Zeggelenstraat","highway":"residential","maxspeed":"30","profile":"car","distance":"18378.28","time":"2634.104"}},{"Shape":556,"Attributes":{"name":"Marie van Zeggelenstraat","highway":"residential","maxspeed":"30","profile":"car","distance":"18436.38","time":"2643.4"}},{"Shape":557,"Attributes":{"name":"Anke Servaesstraat","highway":"residential","maxspeed":"30","profile":"car","distance":"18482.98","time":"2650.856"}},{"Shape":560,"Attributes":{"name":"Anke Servaesstraat","highway":"residential","maxspeed":"30","profile":"car","distance":"18577.38","time":"2665.96"}},{"Shape":561,"Attributes":{"name":"Beb Vuykstraat","highway":"residential","maxspeed":"30","profile":"car","distance":"18580.5","time":"2666.458"}},{"Shape":562,"Attributes":{"name":"Beb Vuykstraat","highway":"residential","maxspeed":"30","profile":"car","distance":"18583.61","time":"2666.956"}},{"Shape":563,"Attributes":{"name":"Beb Vuykstraat","highway":"residential","maxspeed":"30","profile":"car","distance":"18655.71","time":"2678.492"}},{"Shape":564,"Attributes":{"name":"Beb Vuykstraat","highway":"residential","maxspeed":"30","profile":"car","distance":"18728.61","time":"2690.156"}},{"Shape":565,"Attributes":{"name":"Beb Vuykstraat","highway":"residential","maxspeed":"30","profile":"car","distance":"18788.41","time":"2699.724"}},{"Shape":566,"Attributes":{"name":"Belle van Zuylenstraat","highway":"residential","maxspeed":"30","profile":"car","distance":"18803.21","time":"2702.092"}},{"Shape":567,"Attributes":{"name":"Belle van Zuylenstraat","highway":"residential","maxspeed":"30","profile":"car","distance":"18818.31","time":"2704.508"}},{"Shape":568,"Attributes":{"name":"Else van der Banstraat","highway":"residential","maxspeed":"30","profile":"car","distance":"18873.71","time":"2713.372"}},{"Shape":569,"Attributes":{"name":"Else van der Banstraat","highway":"residential","maxspeed":"30","profile":"car","distance":"18888.57","time":"2715.75"}},{"Shape":570,"Attributes":{"name":"Else van der Banstraat","highway":"residential","maxspeed":"30","profile":"car","distance":"18945.01","time":"2724.781"}},{"Shape":571,"Attributes":{"name":"Else van der Banstraat","highway":"residential","maxspeed":"30","profile":"car","distance":"19017.91","time":"2736.445"}},{"Shape":572,"Attributes":{"name":"Hélène Swarthstraat","highway":"residential","maxspeed":"30","profile":"car","distance":"19026.74","time":"2737.856"}},{"Shape":573,"Attributes":{"name":"Hélène Swarthstraat","highway":"residential","maxspeed":"30","profile":"car","distance":"19035.56","time":"2739.268"}},{"Shape":574,"Attributes":{"name":"Else van der Banstraat","highway":"residential","maxspeed":"30","profile":"car","distance":"19108.46","time":"2750.932"}},{"Shape":575,"Attributes":{"name":"Else van der Banstraat","highway":"residential","maxspeed":"30","profile":"car","distance":"19179.76","time":"2762.34"}},{"Shape":576,"Attributes":{"name":"Else van der Banstraat","highway":"residential","maxspeed":"30","profile":"car","distance":"19235.16","time":"2771.204"}},{"Shape":577,"Attributes":{"name":"Belle van Zuylenstraat","highway":"residential","maxspeed":"30","profile":"car","distance":"19250.26","time":"2773.62"}},{"Shape":579,"Attributes":{"name":"Geertruida Bosboom-Toussaintlaan","maxspeed":"50","highway":"tertiary","profile":"car","distance":"19360.16","time":"2784.17"}},{"Shape":581,"Attributes":{"name":"Geertruida Bosboom-Toussaintlaan","maxspeed":"50","highway":"tertiary","profile":"car","distance":"19468.06","time":"2794.528"}},{"Shape":582,"Attributes":{"name":"Sientje Mesdag-van Houtenstraat","highway":"residential","maxspeed":"30","profile":"car","distance":"19482.86","time":"2796.896"}},{"Shape":583,"Attributes":{"name":"Sientje Mesdag-van Houtenstraat","highway":"residential","maxspeed":"30","profile":"car","distance":"19604.06","time":"2816.288"}},{"Shape":584,"Attributes":{"name":"Sientje Mesdag-van Houtenstraat","highway":"residential","maxspeed":"30","profile":"car","distance":"19671.06","time":"2827.008"}},{"Shape":585,"Attributes":{"name":"Sientje Mesdag-van Houtenstraat","highway":"residential","maxspeed":"30","profile":"car","distance":"19718.06","time":"2834.528"}},{"Shape":589,"Attributes":{"name":"Martina Kramersstraat","highway":"residential","maxspeed":"30","profile":"car","distance":"19851.42","time":"2855.866"}}],"Stops":[{"Shape":0,"Coordinates":[4.3681,51.8348],"Attributes":{"index":"161","distance":"0","time":"0","stop":"161"}},{"Shape":14,"Coordinates":[4.3648,51.8346],"Attributes":{"index":"142","distance":"441.4865","time":"70.63783","stop":"142"}},{"Shape":19,"Coordinates":[4.36365,51.83393],"Attributes":{"index":"143","distance":"810.9449","time":"129.7512","stop":"143"}},{"Shape":22,"Coordinates":[4.3637,51.8356],"Attributes":{"index":"141","distance":"1004.249","time":"160.6798","stop":"141"}},{"Shape":27,"Coordinates":[4.3629,51.8352],"Attributes":{"index":"140","distance":"1115.898","time":"178.5436","stop":"140"}},{"Shape":42,"Coordinates":[4.362908,51.83392],"Attributes":{"index":"136","distance":"1506.258","time":"228.3291","stop":"136"}},{"Shape":57,"Coordinates":[4.36006,51.83444],"Attributes":{"index":"123","distance":"1818.374","time":"261.3781","stop":"123"}},{"Shape":65,"Coordinates":[4.3588,51.8358],"Attributes":{"index":"122","distance":"2033.194","time":"295.7493","stop":"122"}},{"Shape":65,"Coordinates":[4.3588,51.8358],"Attributes":{"index":"121","distance":"2033.194","time":"295.7493","stop":"121"}},{"Shape":71,"Coordinates":[4.3576,51.8369],"Attributes":{"index":"120","distance":"2200.942","time":"322.589","stop":"120"}},{"Shape":75,"Coordinates":[4.3593,51.8369],"Attributes":{"index":"119","distance":"2317.778","time":"341.2827","stop":"119"}},{"Shape":81,"Coordinates":[4.3595,51.8387],"Attributes":{"index":"118","distance":"2521.099","time":"373.8141","stop":"118"}},{"Shape":87,"Coordinates":[4.3567,51.838],"Attributes":{"index":"117","distance":"2773.159","time":"414.1436","stop":"117"}},{"Shape":139,"Coordinates":[4.341639,51.84156],"Attributes":{"index":"60","distance":"4379.193","time":"581.3122","stop":"60"}},{"Shape":144,"Coordinates":[4.340583,51.84036],"Attributes":{"index":"59","distance":"4583.352","time":"600.9114","stop":"59"}},{"Shape":150,"Coordinates":[4.340806,51.8395],"Attributes":{"index":"64","distance":"4826.063","time":"624.2116","stop":"64"}},{"Shape":158,"Coordinates":[4.33775,51.83939],"Attributes":{"index":"65","distance":"5036.44","time":"644.4078","stop":"65"}},{"Shape":169,"Coordinates":[4.333583,51.83933],"Attributes":{"index":"52","distance":"5520.053","time":"690.8347","stop":"52"}},{"Shape":176,"Coordinates":[4.332833,51.84122],"Attributes":{"index":"181","distance":"5799.017","time":"717.6152","stop":"181"}},{"Shape":182,"Coordinates":[4.334861,51.84025],"Attributes":{"index":"53","distance":"6062.988","time":"742.9564","stop":"53"}},{"Shape":186,"Coordinates":[4.336333,51.84114],"Attributes":{"index":"54","distance":"6275.461","time":"763.3538","stop":"54"}},{"Shape":190,"Coordinates":[4.337517,51.84032],"Attributes":{"index":"55","distance":"6438.48","time":"779.0037","stop":"55"}},{"Shape":196,"Coordinates":[4.339284,51.84232],"Attributes":{"index":"57","distance":"6783.553","time":"812.1307","stop":"57"}},{"Shape":204,"Coordinates":[4.3415,51.8425],"Attributes":{"index":"56","distance":"6950.736","time":"828.1802","stop":"56"}},{"Shape":215,"Coordinates":[4.343278,51.84158],"Attributes":{"index":"62","distance":"7290.627","time":"860.8097","stop":"62"}},{"Shape":217,"Coordinates":[4.3435,51.83969],"Attributes":{"index":"63","distance":"7500.079","time":"880.9171","stop":"63"}},{"Shape":225,"Coordinates":[4.343056,51.84283],"Attributes":{"index":"61","distance":"7857.288","time":"916.5719","stop":"61"}},{"Shape":258,"Coordinates":[4.349341,51.84015],"Attributes":{"index":"111","distance":"8615.104","time":"1089.978","stop":"111"}},{"Shape":286,"Coordinates":[4.3558,51.8385],"Attributes":{"index":"112","distance":"9383.034","time":"1265.322","stop":"112"}},{"Shape":289,"Coordinates":[4.3552,51.8374],"Attributes":{"index":"116","distance":"9514.454","time":"1286.349","stop":"116"}},{"Shape":298,"Coordinates":[4.3535,51.839],"Attributes":{"index":"115","distance":"9783.388","time":"1329.378","stop":"115"}},{"Shape":309,"Coordinates":[4.3534,51.8379],"Attributes":{"index":"114","distance":"10023.25","time":"1367.756","stop":"114"}},{"Shape":310,"Coordinates":[4.3535,51.8379],"Attributes":{"index":"113","distance":"10030.06","time":"1368.846","stop":"113"}},{"Shape":317,"Coordinates":[4.3527,51.8362],"Attributes":{"index":"132","distance":"10326.91","time":"1416.342","stop":"132"}},{"Shape":322,"Coordinates":[4.35533,51.83625],"Attributes":{"index":"133","distance":"10512.34","time":"1446.011","stop":"133"}},{"Shape":334,"Coordinates":[4.3536,51.8334],"Attributes":{"index":"129","distance":"10901.59","time":"1508.292","stop":"129"}},{"Shape":340,"Coordinates":[4.35483,51.83439],"Attributes":{"index":"130","distance":"11037.01","time":"1529.959","stop":"130"}},{"Shape":347,"Coordinates":[4.3546,51.8356],"Attributes":{"index":"131","distance":"11228.46","time":"1560.591","stop":"131"}},{"Shape":356,"Coordinates":[4.3565,51.8346],"Attributes":{"index":"134","distance":"11431.23","time":"1593.034","stop":"134"}},{"Shape":368,"Coordinates":[4.3593,51.834],"Attributes":{"index":"124","distance":"11678.35","time":"1624.183","stop":"124"}},{"Shape":381,"Coordinates":[4.3565,51.8323],"Attributes":{"index":"126","distance":"12224.09","time":"1711.501","stop":"126"}},{"Shape":387,"Coordinates":[4.3582,51.8318],"Attributes":{"index":"127","distance":"12399.33","time":"1739.54","stop":"127"}},{"Shape":404,"Coordinates":[4.3541,51.8314],"Attributes":{"index":"128","distance":"12892.52","time":"1818.45","stop":"128"}},{"Shape":414,"Coordinates":[4.3575,51.83281],"Attributes":{"index":"125","distance":"13319.35","time":"1886.743","stop":"125"}},{"Shape":432,"Coordinates":[4.36169,51.83494],"Attributes":{"index":"135","distance":"13834.34","time":"1953.682","stop":"135"}},{"Shape":447,"Coordinates":[4.3622,51.8361],"Attributes":{"index":"137","distance":"14175.49","time":"1986.432","stop":"137"}},{"Shape":451,"Coordinates":[4.362184,51.8364],"Attributes":{"index":"139","distance":"14333.52","time":"2008.203","stop":"139"}},{"Shape":453,"Coordinates":[4.3624,51.8378],"Attributes":{"index":"138","distance":"14489.4","time":"2033.143","stop":"138"}},{"Shape":460,"Coordinates":[4.36272,51.83775],"Attributes":{"index":"157","distance":"14719.94","time":"2070.029","stop":"157"}},{"Shape":468,"Coordinates":[4.3645,51.8389],"Attributes":{"index":"156","distance":"14923.74","time":"2102.636","stop":"156"}},{"Shape":472,"Coordinates":[4.3679,51.839],"Attributes":{"index":"155","distance":"15160.04","time":"2140.445","stop":"155"}},{"Shape":481,"Coordinates":[4.366,51.8376],"Attributes":{"index":"158","distance":"15612.2","time":"2212.79","stop":"158"}},{"Shape":485,"Coordinates":[4.3652,51.8366],"Attributes":{"index":"159","distance":"15774.28","time":"2238.723","stop":"159"}},{"Shape":491,"Coordinates":[4.3666,51.8359],"Attributes":{"index":"160","distance":"15993.08","time":"2273.731","stop":"160"}},{"Shape":498,"Coordinates":[4.3684,51.837],"Attributes":{"index":"154","distance":"16263.69","time":"2317.029","stop":"154"}},{"Shape":503,"Coordinates":[4.3705,51.8359],"Attributes":{"index":"153","distance":"16525.34","time":"2358.893","stop":"153"}},{"Shape":507,"Coordinates":[4.3699,51.8377],"Attributes":{"index":"151","distance":"16731.93","time":"2391.947","stop":"151"}},{"Shape":520,"Coordinates":[4.3725,51.8371],"Attributes":{"index":"164","distance":"17163.25","time":"2458.104","stop":"164"}},{"Shape":525,"Coordinates":[4.3713,51.8388],"Attributes":{"index":"163","distance":"17391.21","time":"2494.578","stop":"163"}},{"Shape":533,"Coordinates":[4.3702,51.8376],"Attributes":{"index":"162","distance":"17595.22","time":"2520.27","stop":"162"}},{"Shape":536,"Coordinates":[4.370707,51.83658],"Attributes":{"index":"152","distance":"17727.35","time":"2536.988","stop":"152"}},{"Shape":541,"Coordinates":[4.37083,51.83531],"Attributes":{"index":"150","distance":"17873.35","time":"2560.348","stop":"150"}},{"Shape":547,"Coordinates":[4.36964,51.83403],"Attributes":{"index":"147","distance":"18064.48","time":"2583.895","stop":"147"}},{"Shape":551,"Coordinates":[4.3676,51.8338],"Attributes":{"index":"145","distance":"18245.91","time":"2612.923","stop":"145"}},{"Shape":554,"Coordinates":[4.3661,51.8336],"Attributes":{"index":"144","distance":"18367.61","time":"2632.396","stop":"144"}},{"Shape":561,"Coordinates":[4.3678,51.8326],"Attributes":{"index":"146","distance":"18580.5","time":"2666.458","stop":"146"}},{"Shape":569,"Coordinates":[4.36933,51.83347],"Attributes":{"index":"148","distance":"18888.57","time":"2715.75","stop":"148"}},{"Shape":572,"Coordinates":[4.3683,51.8325],"Attributes":{"index":"149","distance":"19026.74","time":"2737.856","stop":"149"}},{"Shape":589,"Coordinates":[4.3681,51.8348],"Attributes":{"index":"161","distance":"19851.42","time":"2855.866","stop":"161"}}],"Branches":[{"Shape":4,"Coordinates":[4.367727,51.83575],"Attributes":{"name":"Sientje Mesdag-van Houtenstraat","highway":"residential","maxspeed":"30"}},{"Shape":10,"Coordinates":[4.365564,51.83504],"Attributes":{"name":"Emmy Belinfantestraat","highway":"residential","maxspeed":"30"}},{"Shape":11,"Coordinates":[4.36506,51.8367],"Attributes":{"name":"Suze Robertsonstraat","highway":"residential","maxspeed":"30"}},{"Shape":12,"Coordinates":[4.363756,51.83563],"Attributes":{"name":"Sientje Mesdag-van Houtenstraat","highway":"residential","maxspeed":"30"}},{"Shape":12,"Coordinates":[4.3645,51.8348],"Attributes":{"name":"Harriët Freezerstraat","highway":"residential","maxspeed":"30"}},{"Shape":16,"Coordinates":[4.365098,51.83566],"Attributes":{"name":"Sientje Mesdag-van Houtenstraat","highway":"residential","maxspeed":"30"}},{"Shape":17,"Coordinates":[4.363351,51.83562],"Attributes":{"name":"Sientje Mesdag-van Houtenstraat","highway":"residential","maxspeed":"30"}},{"Shape":17,"Coordinates":[4.36375,51.83378],"Attributes":{"name":"Henriëtte van der Meijstraat","highway":"residential","maxspeed":"30"}},{"Shape":21,"Coordinates":[4.363351,51.83562],"Attributes":{"name":"Sientje Mesdag-van Houtenstraat","highway":"residential","maxspeed":"30"}},{"Shape":21,"Coordinates":[4.364598,51.83564],"Attributes":{"name":"Sientje Mesdag-van Houtenstraat","highway":"residential","maxspeed":"30"}},{"Shape":23,"Coordinates":[4.362383,51.8356],"Attributes":{"name":"Sientje Mesdag-van Houtenstraat","highway":"residential","maxspeed":"30"}},{"Shape":24,"Coordinates":[4.362867,51.83527],"Attributes":{"name":"Lizzy Ansinghstraat","highway":"unclassified","maxspeed":"30"}},{"Shape":25,"Coordinates":[4.362886,51.83512],"Attributes":{"name":"Lizzy Ansinghstraat","highway":"unclassified","maxspeed":"30"}},{"Shape":30,"Coordinates":[4.362867,51.83527],"Attributes":{"name":"Lizzy Ansinghstraat","highway":"unclassified","maxspeed":"30"}},{"Shape":31,"Coordinates":[4.363756,51.83563],"Attributes":{"name":"Sientje Mesdag-van Houtenstraat","highway":"residential","maxspeed":"30"}},{"Shape":32,"Coordinates":[4.362482,51.83507],"Attributes":{"name":"Lizzy Ansinghstraat","highway":"residential","maxspeed":"30"}},{"Shape":32,"Coordinates":[4.362459,51.83624],"Attributes":{"name":"Lizzy Ansinghstraat","highway":"residential","maxspeed":"30"}},{"Shape":33,"Coordinates":[4.362,51.83559],"Attributes":{"name":"Marie van Regteren Altenastraat","highway":"residential","maxspeed":"30"}},{"Shape":33,"Coordinates":[4.362269,51.83624],"Attributes":{"name":"Annie Romein-Verschoorlaan","maxspeed":"50","highway":"tertiary"}},{"Shape":36,"Coordinates":[4.362263,51.83449],"Attributes":{"name":"Joke Smitlaan","maxspeed":"50","highway":"tertiary"}},{"Shape":39,"Coordinates":[4.363766,51.83361],"Attributes":{"name":"Annie Romein-Verschoorlaan","maxspeed":"50","highway":"tertiary"}},{"Shape":41,"Coordinates":[4.362726,51.83382],"Attributes":{"name":"Ida Gerhardtplein","highway":"service"}},{"Shape":41,"Coordinates":[4.363036,51.83369],"Attributes":{"name":"Ida Gerhardtplein","highway":"service"}},{"Shape":43,"Coordinates":[4.363036,51.83369],"Attributes":{"name":"Ida Gerhardtplein","highway":"service"}},{"Shape":45,"Coordinates":[4.363766,51.83361],"Attributes":{"name":"Annie Romein-Verschoorlaan","maxspeed":"50","highway":"tertiary"}},{"Shape":48,"Coordinates":[4.362295,51.83504],"Attributes":{"name":"Annie Romein-Verschoorlaan","maxspeed":"50","highway":"tertiary"}},{"Shape":52,"Coordinates":[4.361445,51.8344],"Attributes":{"name":"Margaretha Roosenboomstraat","highway":"residential"}},{"Shape":53,"Coordinates":[4.361255,51.83418],"Attributes":{"name":"Hadewychplaats","highway":"service"}},{"Shape":55,"Coordinates":[4.36026,51.83197],"Attributes":{"name":"Drogendijk","highway":"unclassified","maxspeed":"30"}},{"Shape":55,"Coordinates":[4.360504,51.83558],"Attributes":{"name":"Drogendijk","highway":"unclassified","maxspeed":"30"}},{"Shape":56,"Coordinates":[4.359956,51.83451],"Attributes":{"name":"Clara Visserstraat","highway":"residential","maxspeed":"30"}},{"Shape":56,"Coordinates":[4.359355,51.83421],"Attributes":{"name":"Joke Smitlaan","maxspeed":"50","highway":"tertiary"}},{"Shape":63,"Coordinates":[4.359009,51.83457],"Attributes":{"name":"Annie Mankes-Zernikestraat","highway":"residential","maxspeed":"30"}},{"Shape":64,"Coordinates":[4.358304,51.83594],"Attributes":{"name":"Wilhelmina Bladergroenstraat","highway":"residential","maxspeed":"30"}},{"Shape":64,"Coordinates":[4.358029,51.83479],"Attributes":{"name":"Anna Storm-van der Chijsstraat","highway":"residential","maxspeed":"30"}},{"Shape":67,"Coordinates":[4.356453,51.83565],"Attributes":{"name":"Johanna Westerdijkstraat","highway":"residential","maxspeed":"30"}},{"Shape":68,"Coordinates":[4.356021,51.83622],"Attributes":{"name":"Lau Mazirelstraat","highway":"residential","maxspeed":"30"}},{"Shape":70,"Coordinates":[4.357479,51.83744],"Attributes":{"name":"Wilhelmina Bladergroenstraat","highway":"residential","maxspeed":"30"}},{"Shape":70,"Coordinates":[4.358421,51.83695],"Attributes":{"name":"Maria Rutgers-Hoitsemastraat","highway":"residential","maxspeed":"30"}},{"Shape":72,"Coordinates":[4.358305,51.83854],"Attributes":{"name":"Mary Zeldenrust-Noordanusstraat","highway":"residential","maxspeed":"30"}},{"Shape":72,"Coordinates":[4.358706,51.83696],"Attributes":{"name":"Maria Rutgers-Hoitsemastraat","highway":"residential","maxspeed":"30"}},{"Shape":76,"Coordinates":[4.360314,51.83701],"Attributes":{"name":"Maria Rutgers-Hoitsemastraat","highway":"residential","maxspeed":"30"}},{"Shape":77,"Coordinates":[4.360465,51.83755],"Attributes":{"name":"Liesbeth Tilanusstraat","highway":"residential","maxspeed":"30"}},{"Shape":78,"Coordinates":[4.36062,51.83812],"Attributes":{"name":"Cornelia de Langestraat","highway":"residential","maxspeed":"30"}},{"Shape":79,"Coordinates":[4.358305,51.83854],"Attributes":{"name":"Aletta Jacobsstraat","highway":"residential","maxspeed":"30"}},{"Shape":79,"Coordinates":[4.359298,51.83863],"Attributes":{"name":"Aletta Jacobsstraat","highway":"residential","maxspeed":"30"}},{"Shape":83,"Coordinates":[4.359249,51.83808],"Attributes":{"name":"Hélène Mercierstraat","highway":"residential","maxspeed":"30"}},{"Shape":84,"Coordinates":[4.358421,51.83695],"Attributes":{"name":"Mary Zeldenrust-Noordanusstraat","highway":"residential","maxspeed":"30"}},{"Shape":85,"Coordinates":[4.356521,51.83856],"Attributes":{"name":"Aletta Jacobsstraat","highway":"residential","maxspeed":"30"}},{"Shape":86,"Coordinates":[4.357479,51.83744],"Attributes":{"name":"Wilhelmina Bladergroenstraat","highway":"residential","maxspeed":"30"}},{"Shape":86,"Coordinates":[4.356625,51.83799],"Attributes":{"name":"Catharina van Tussenbroekstraat","highway":"residential","maxspeed":"30"}},{"Shape":88,"Coordinates":[4.357479,51.83744],"Attributes":{"name":"Wilhelmina Bladergroenstraat","highway":"residential","maxspeed":"30"}},{"Shape":89,"Coordinates":[4.358305,51.83854],"Attributes":{"name":"Aletta Jacobsstraat","highway":"residential","maxspeed":"30"}},{"Shape":93,"Coordinates":[4.355865,51.83872],"Attributes":{"name":"Marga Klompéstraat","highway":"residential","maxspeed":"30"}},{"Shape":93,"Coordinates":[4.355722,51.83817],"Attributes":{"name":"Joke Smitlaan","maxspeed":"50","highway":"tertiary"}},{"Shape":94,"Coordinates":[4.356528,51.83948],"Attributes":{"name":"Joke Smitlaan","maxspeed":"50","highway":"tertiary","oneway":"yes"}},{"Shape":97,"Coordinates":[4.356627,51.8395],"Attributes":{"name":"Maaswijkweg","maxspeed":"50","highway":"tertiary","junction":"roundabout"}},{"Shape":99,"Coordinates":[4.35768,51.83932],"Attributes":{"name":"Maaswijkweg","maxspeed":"50","highway":"tertiary","oneway":"yes"}},{"Shape":102,"Coordinates":[4.358794,51.83924],"Attributes":{"name":"Maaswijkweg","maxspeed":"50","highway":"tertiary","oneway":"yes"}},{"Shape":108,"Coordinates":[4.356475,51.83973],"Attributes":{"name":"Maaswijkweg","maxspeed":"50","highway":"tertiary","junction":"roundabout"}},{"Shape":109,"Coordinates":[4.35493,51.84024],"Attributes":{"highway":"service"}},{"Shape":112,"Coordinates":[4.350117,51.84124],"Attributes":{"name":"Maaswijkweg","maxspeed":"50","highway":"tertiary","junction":"roundabout"}},{"Shape":115,"Coordinates":[4.350068,51.8416],"Attributes":{"highway":"unclassified","maxspeed":"50","oneway":"yes"}},{"Shape":117,"Coordinates":[4.350018,51.84171],"Attributes":{"name":"Rivierlaan","highway":"unclassified","maxspeed":"50","oneway":"yes"}},{"Shape":119,"Coordinates":[4.349741,51.84151],"Attributes":{"name":"Maaswijkweg","maxspeed":"50","highway":"tertiary","junction":"roundabout"}},{"Shape":123,"Coordinates":[4.348428,51.8416],"Attributes":{"highway":"unclassified"}},{"Shape":123,"Coordinates":[4.34844,51.84183],"Attributes":{"highway":"unclassified"}},{"Shape":126,"Coordinates":[4.347239,51.84156],"Attributes":{"highway":"service"}},{"Shape":126,"Coordinates":[4.347233,51.84179],"Attributes":{"highway":"service"}},{"Shape":128,"Coordinates":[4.346251,51.84152],"Attributes":{"highway":"unclassified"}},{"Shape":128,"Coordinates":[4.346198,51.84174],"Attributes":{"highway":"unclassified"}},{"Shape":129,"Coordinates":[4.345497,51.84148],"Attributes":{"name":"Florianusstraat","highway":"service"}},{"Shape":129,"Coordinates":[4.345477,51.8417],"Attributes":{"name":"Florianusstraat","highway":"service"}},{"Shape":132,"Coordinates":[4.344689,51.84147],"Attributes":{"name":"Schenkelweg","maxspeed":"50","oneway":"yes","highway":"secondary"}},{"Shape":132,"Coordinates":[4.344414,51.84153],"Attributes":{"name":"Maaswijkweg","maxspeed":"50","highway":"tertiary","oneway":"yes"}},{"Shape":133,"Coordinates":[4.344788,51.84246],"Attributes":{"name":"Florianusstraat","highway":"unclassified"}},{"Shape":133,"Coordinates":[4.344548,51.84262],"Attributes":{"name":"Schenkelweg","maxspeed":"50","oneway":"yes","highway":"secondary"}},{"Shape":134,"Coordinates":[4.338558,51.84791],"Attributes":{"name":"Schenkelweg","maxspeed":"50","oneway":"yes","highway":"secondary"}},{"Shape":134,"Coordinates":[4.344388,51.84169],"Attributes":{"name":"Schenkelweg","maxspeed":"50","oneway":"yes","highway":"secondary"}},{"Shape":136,"Coordinates":[4.343118,51.84227],"Attributes":{"name":"Iepenlaan","highway":"unclassified"}},{"Shape":136,"Coordinates":[4.343092,51.84245],"Attributes":{"name":"Iepenlaan","highway":"unclassified"}},{"Shape":137,"Coordinates":[4.340803,51.84229],"Attributes":{"name":"Eikenlaan","highway":"unclassified","maxspeed":"50"}},{"Shape":138,"Coordinates":[4.341779,51.84149],"Attributes":{"name":"Populierenstraat","highway":"unclassified"}},{"Shape":138,"Coordinates":[4.342253,51.84202],"Attributes":{"name":"Populierenhof","highway":"residential"}},{"Shape":140,"Coordinates":[4.340888,51.84145],"Attributes":{"name":"Berkenstraat","highway":"unclassified"}},{"Shape":143,"Coordinates":[4.341717,51.84002],"Attributes":{"name":"Populierenstraat","highway":"unclassified"}},{"Shape":143,"Coordinates":[4.340415,51.84038],"Attributes":{"name":"Wilgenstraat","highway":"unclassified"}},{"Shape":145,"Coordinates":[4.341745,51.84101],"Attributes":{"name":"Populierenstraat","highway":"unclassified"}},{"Shape":148,"Coordinates":[4.342182,51.83953],"Attributes":{"name":"Hazelaarstraat","highway":"unclassified"}},{"Shape":149,"Coordinates":[4.340692,51.83946],"Attributes":{"name":"Hazelaarstraat","highway":"unclassified"}},{"Shape":149,"Coordinates":[4.3412,51.8392],"Attributes":{"name":"Ribesstraat","highway":"unclassified"}},{"Shape":152,"Coordinates":[4.340167,51.83923],"Attributes":{"name":"Peppelstraat","highway":"unclassified"}},{"Shape":153,"Coordinates":[4.339814,51.84035],"Attributes":{"name":"Ligusterstraat","highway":"unclassified"}},{"Shape":154,"Coordinates":[4.339184,51.83907],"Attributes":{"highway":"service"}},{"Shape":156,"Coordinates":[4.338934,51.83969],"Attributes":{"name":"Lindenstraat","highway":"unclassified"}},{"Shape":157,"Coordinates":[4.337546,51.8393],"Attributes":{"name":"Hazelaarstraat","highway":"unclassified"}},{"Shape":157,"Coordinates":[4.337781,51.83917],"Attributes":{"highway":"service"}},{"Shape":159,"Coordinates":[4.337562,51.83916],"Attributes":{"name":"Beukenlaan","highway":"unclassified"}},{"Shape":161,"Coordinates":[4.337678,51.83997],"Attributes":{"highway":"unclassified"}},{"Shape":162,"Coordinates":[4.337654,51.84015],"Attributes":{"highway":"unclassified"}},{"Shape":163,"Coordinates":[4.337197,51.84212],"Attributes":{"name":"Beukenlaan","highway":"unclassified"}},{"Shape":164,"Coordinates":[4.3356,51.8402],"Attributes":{"name":"Kastanjestraat","highway":"unclassified"}},{"Shape":164,"Coordinates":[4.336461,51.84077],"Attributes":{"name":"Essenstraat","highway":"unclassified"}},{"Shape":166,"Coordinates":[4.3357,51.8398],"Attributes":{"name":"Duindoornpad","highway":"unclassified"}},{"Shape":167,"Coordinates":[4.3347,51.8398],"Attributes":{"name":"Sleedoornpad","highway":"unclassified"}},{"Shape":168,"Coordinates":[4.333442,51.83934],"Attributes":{"name":"Abelenstraat","highway":"unclassified"}},{"Shape":168,"Coordinates":[4.333503,51.83999],"Attributes":{"name":"De Olmen","highway":"unclassified"}},{"Shape":170,"Coordinates":[4.334751,51.8394],"Attributes":{"name":"Abelenstraat","highway":"unclassified"}},{"Shape":172,"Coordinates":[4.334604,51.84016],"Attributes":{"name":"Kastanjestraat","highway":"unclassified"}},{"Shape":173,"Coordinates":[4.33346,51.84143],"Attributes":{"name":"De Olmen","highway":"unclassified"}},{"Shape":175,"Coordinates":[4.332734,51.84156],"Attributes":{"name":"De Wingerd","highway":"unclassified"}},{"Shape":175,"Coordinates":[4.332518,51.84109],"Attributes":{"name":"De Wingerd","highway":"unclassified"}},{"Shape":177,"Coordinates":[4.332518,51.84109],"Attributes":{"name":"De Wingerd","highway":"unclassified"}},{"Shape":179,"Coordinates":[4.33346,51.84143],"Attributes":{"name":"De Olmen","highway":"unclassified"}},{"Shape":180,"Coordinates":[4.333503,51.83999],"Attributes":{"name":"De Olmen","highway":"unclassified"}},{"Shape":181,"Coordinates":[4.3347,51.8398],"Attributes":{"name":"Sleedoornpad","highway":"unclassified"}},{"Shape":181,"Coordinates":[4.3356,51.8402],"Attributes":{"name":"Kastanjestraat","highway":"unclassified"}},{"Shape":183,"Coordinates":[4.3357,51.8398],"Attributes":{"name":"Duindoornpad","highway":"unclassified"}},{"Shape":184,"Coordinates":[4.336594,51.83946],"Attributes":{"name":"Essenstraat","highway":"unclassified"}},{"Shape":184,"Coordinates":[4.3374,51.8403],"Attributes":{"name":"Kastanjestraat","highway":"unclassified"}},{"Shape":185,"Coordinates":[4.3345,51.8407],"Attributes":{"name":"Elzenstraat","highway":"unclassified"}},{"Shape":185,"Coordinates":[4.336382,51.84156],"Attributes":{"name":"Essenstraat","highway":"unclassified"}},{"Shape":187,"Coordinates":[4.3345,51.8407],"Attributes":{"name":"Elzenstraat","highway":"unclassified"}},{"Shape":188,"Coordinates":[4.336594,51.83946],"Attributes":{"name":"Essenstraat","highway":"unclassified"}},{"Shape":188,"Coordinates":[4.3356,51.8402],"Attributes":{"name":"Kastanjestraat","highway":"unclassified"}},{"Shape":189,"Coordinates":[4.337417,51.84014],"Attributes":{"name":"Beukenlaan","highway":"unclassified"}},{"Shape":189,"Coordinates":[4.337197,51.84212],"Attributes":{"name":"Beukenlaan","highway":"unclassified"}},{"Shape":191,"Coordinates":[4.335827,51.84207],"Attributes":{"name":"Eikenlaan","highway":"unclassified","maxspeed":"50"}},{"Shape":194,"Coordinates":[4.33815,51.84224],"Attributes":{"name":"Cypressenstraat","highway":"unclassified"}},{"Shape":195,"Coordinates":[4.339945,51.84225],"Attributes":{"name":"Eikenlaan","highway":"unclassified","maxspeed":"50"}},{"Shape":195,"Coordinates":[4.339031,51.84139],"Attributes":{"name":"Lindenstraat","highway":"unclassified"}},{"Shape":199,"Coordinates":[4.340803,51.84229],"Attributes":{"name":"Eikenlaan","highway":"unclassified","maxspeed":"50"}},{"Shape":201,"Coordinates":[4.340371,51.84262],"Attributes":{"name":"Cederstraat","highway":"unclassified"}},{"Shape":201,"Coordinates":[4.341088,51.84246],"Attributes":{"name":"Cederstraat","highway":"unclassified"}},{"Shape":201,"Coordinates":[4.340906,51.8427],"Attributes":{"name":"Cederstraat","highway":"unclassified"}},{"Shape":207,"Coordinates":[4.340371,51.84262],"Attributes":{"name":"Cederstraat","highway":"unclassified"}},{"Shape":207,"Coordinates":[4.340906,51.8427],"Attributes":{"name":"Cederstraat","highway":"unclassified"}},{"Shape":209,"Coordinates":[4.339945,51.84225],"Attributes":{"name":"Eikenlaan","highway":"unclassified","maxspeed":"50"}},{"Shape":210,"Coordinates":[4.340888,51.84145],"Attributes":{"name":"Ahornstraat","highway":"unclassified"}},{"Shape":211,"Coordinates":[4.341792,51.84205],"Attributes":{"name":"Populierenstraat","highway":"unclassified"}},{"Shape":212,"Coordinates":[4.344196,51.84242],"Attributes":{"name":"Eikenlaan","highway":"unclassified","maxspeed":"50"}},{"Shape":212,"Coordinates":[4.343092,51.84245],"Attributes":{"name":"Iepenlaan","highway":"unclassified"}},{"Shape":214,"Coordinates":[4.343297,51.84085],"Attributes":{"name":"Iepenlaan","highway":"unclassified"}},{"Shape":214,"Coordinates":[4.342354,51.84164],"Attributes":{"name":"Sparrenstraat","highway":"unclassified"}},{"Shape":216,"Coordinates":[4.3434,51.8396],"Attributes":{"name":"Iepenlaan","highway":"unclassified"}},{"Shape":216,"Coordinates":[4.3423,51.8408],"Attributes":{"name":"Moerbeistraat","highway":"unclassified"}},{"Shape":218,"Coordinates":[4.3423,51.8408],"Attributes":{"name":"Moerbeistraat","highway":"unclassified"}},{"Shape":219,"Coordinates":[4.342354,51.84164],"Attributes":{"name":"Sparrenstraat","highway":"unclassified"}},{"Shape":221,"Coordinates":[4.341797,51.84233],"Attributes":{"name":"Eikenlaan","highway":"unclassified","maxspeed":"50"}},{"Shape":221,"Coordinates":[4.344196,51.84242],"Attributes":{"name":"Eikenlaan","highway":"unclassified","maxspeed":"50"}},{"Shape":223,"Coordinates":[4.342926,51.8427],"Attributes":{"name":"Iepenlaan","highway":"unclassified"}},{"Shape":223,"Coordinates":[4.343062,51.84327],"Attributes":{"name":"Iepenlaan","highway":"service"}},{"Shape":227,"Coordinates":[4.342926,51.8427],"Attributes":{"name":"Iepenlaan","highway":"unclassified"}},{"Shape":229,"Coordinates":[4.343118,51.84227],"Attributes":{"name":"Iepenlaan","highway":"unclassified"}},{"Shape":229,"Coordinates":[4.341797,51.84233],"Attributes":{"name":"Eikenlaan","highway":"unclassified","maxspeed":"50"}},{"Shape":231,"Coordinates":[4.344577,51.84244],"Attributes":{"name":"Eikenlaan","highway":"unclassified","maxspeed":"50"}},{"Shape":231,"Coordinates":[4.338558,51.84791],"Attributes":{"name":"Schenkelweg","maxspeed":"50","oneway":"yes","highway":"secondary"}},{"Shape":233,"Coordinates":[4.344432,51.84135],"Attributes":{"name":"Schenkelweg","maxspeed":"50","oneway":"yes","highway":"secondary"}},{"Shape":233,"Coordinates":[4.344674,51.8416],"Attributes":{"name":"Maaswijkweg","maxspeed":"50","highway":"tertiary","oneway":"yes"}},{"Shape":234,"Coordinates":[4.34469,51.84135],"Attributes":{"name":"Schenkelweg","maxspeed":"50","oneway":"yes","highway":"secondary"}},{"Shape":234,"Coordinates":[4.344674,51.8416],"Attributes":{"name":"Schenkelweg","maxspeed":"50","oneway":"yes","highway":"secondary"}},{"Shape":236,"Coordinates":[4.345485,51.84163],"Attributes":{"name":"Florianusstraat","highway":"service"}},{"Shape":237,"Coordinates":[4.346291,51.84145],"Attributes":{"highway":"unclassified"}},{"Shape":237,"Coordinates":[4.34621,51.84166],"Attributes":{"highway":"unclassified"}},{"Shape":238,"Coordinates":[4.347215,51.84171],"Attributes":{"highway":"service"}},{"Shape":239,"Coordinates":[4.348441,51.84174],"Attributes":{"highway":"unclassified"}},{"Shape":244,"Coordinates":[4.349741,51.84151],"Attributes":{"name":"Maaswijkweg","maxspeed":"50","highway":"tertiary","junction":"roundabout"}},{"Shape":247,"Coordinates":[4.349833,51.84121],"Attributes":{"name":"Maaswijkweg","maxspeed":"50","highway":"tertiary","junction":"roundabout"}},{"Shape":248,"Coordinates":[4.349949,51.8412],"Attributes":{"name":"Hürthstraat","highway":"unclassified","oneway":"yes"}},{"Shape":249,"Coordinates":[4.349835,51.84094],"Attributes":{"name":"Hürthstraat","highway":"living_street"}},{"Shape":250,"Coordinates":[4.349546,51.84083],"Attributes":{"name":"Thetfordstraat","highway":"living_street"}},{"Shape":252,"Coordinates":[4.349468,51.84029],"Attributes":{"name":"Hürthstraat","highway":"living_street"}},{"Shape":253,"Coordinates":[4.349247,51.84026],"Attributes":{"name":"Hürthstraat","highway":"living_street"}},{"Shape":264,"Coordinates":[4.349468,51.84029],"Attributes":{"name":"Hürthstraat","highway":"living_street"}},{"Shape":266,"Coordinates":[4.349546,51.84083],"Attributes":{"name":"Thetfordstraat","highway":"living_street"}},{"Shape":267,"Coordinates":[4.349835,51.84094],"Attributes":{"name":"Hürthstraat","highway":"living_street"}},{"Shape":268,"Coordinates":[4.349779,51.84123],"Attributes":{"highway":"unclassified","oneway":"yes"}},{"Shape":269,"Coordinates":[4.349833,51.84121],"Attributes":{"name":"Maaswijkweg","maxspeed":"50","highway":"tertiary","junction":"roundabout"}},{"Shape":271,"Coordinates":[4.350117,51.84124],"Attributes":{"name":"Maaswijkweg","maxspeed":"50","highway":"tertiary","junction":"roundabout"}},{"Shape":277,"Coordinates":[4.356475,51.83973],"Attributes":{"name":"Maaswijkweg","maxspeed":"50","highway":"tertiary","junction":"roundabout"}},{"Shape":280,"Coordinates":[4.356627,51.8395],"Attributes":{"name":"Maaswijkweg","maxspeed":"50","highway":"tertiary","junction":"roundabout"}},{"Shape":283,"Coordinates":[4.356225,51.83888],"Attributes":{"name":"Joke Smitlaan","maxspeed":"50","highway":"tertiary","oneway":"yes"}},{"Shape":284,"Coordinates":[4.356521,51.83856],"Attributes":{"name":"Aletta Jacobsstraat","highway":"residential","maxspeed":"30"}},{"Shape":284,"Coordinates":[4.355722,51.83817],"Attributes":{"name":"Joke Smitlaan","maxspeed":"50","highway":"tertiary"}},{"Shape":285,"Coordinates":[4.355413,51.83882],"Attributes":{"name":"Marga Klompéstraat","highway":"residential","maxspeed":"30"}},{"Shape":285,"Coordinates":[4.355442,51.83807],"Attributes":{"name":"Suze Groenewegstraat","highway":"residential","maxspeed":"30"}},{"Shape":287,"Coordinates":[4.355262,51.83775],"Attributes":{"name":"Suze Groenewegstraat","highway":"residential","maxspeed":"30"}},{"Shape":287,"Coordinates":[4.354567,51.83827],"Attributes":{"name":"Johanna Engwirda-Agricolastraat","highway":"residential","maxspeed":"30"}},{"Shape":291,"Coordinates":[4.355865,51.83872],"Attributes":{"name":"Suze Groenewegstraat","highway":"residential","maxspeed":"30"}},{"Shape":292,"Coordinates":[4.354358,51.83789],"Attributes":{"name":"Johanna Engwirda-Agricolastraat","highway":"residential","maxspeed":"30"}},{"Shape":292,"Coordinates":[4.354502,51.83861],"Attributes":{"name":"Johanna Engwirda-Agricolastraat","highway":"residential","maxspeed":"30"}},{"Shape":304,"Coordinates":[4.355442,51.83807],"Attributes":{"name":"Johanna Engwirda-Agricolastraat","highway":"residential","maxspeed":"30"}},{"Shape":307,"Coordinates":[4.354056,51.83848],"Attributes":{"name":"Liesbeth Ribbius Peletierpad","highway":"residential","maxspeed":"30"}},{"Shape":308,"Coordinates":[4.353249,51.83786],"Attributes":{"name":"Johanna Engwirda-Agricolastraat","highway":"residential","maxspeed":"30"}},{"Shape":308,"Coordinates":[4.353606,51.83847],"Attributes":{"name":"Anna de Waalpad","highway":"residential","maxspeed":"30"}},{"Shape":311,"Coordinates":[4.353225,51.83834],"Attributes":{"name":"Carry Pothuis-Smitstraat","highway":"residential","maxspeed":"30"}},{"Shape":311,"Coordinates":[4.352627,51.83785],"Attributes":{"name":"Truus Smulders-Beliënstraat","highway":"residential","maxspeed":"30"}},{"Shape":312,"Coordinates":[4.354631,51.83735],"Attributes":{"name":"Wilhelmina Hofman-Pootstraat","highway":"residential","maxspeed":"30"}},{"Shape":316,"Coordinates":[4.353416,51.83625],"Attributes":{"name":"Wilhelmina Druckerstraat","highway":"residential","maxspeed":"30"}},{"Shape":316,"Coordinates":[4.352559,51.83601],"Attributes":{"name":"Annette Versluys-Poelmanstraat","highway":"residential","maxspeed":"30"}},{"Shape":319,"Coordinates":[4.354549,51.83569],"Attributes":{"name":"Roosje Vosstraat","highway":"residential","maxspeed":"30"}},{"Shape":320,"Coordinates":[4.35471,51.83656],"Attributes":{"highway":"residential","maxspeed":"30"}},{"Shape":321,"Coordinates":[4.355383,51.83632],"Attributes":{"name":"Wilhelmina Druckerstraat","highway":"residential","maxspeed":"30"}},{"Shape":321,"Coordinates":[4.355661,51.83566],"Attributes":{"name":"Mina Krusemanstraat","highway":"residential","maxspeed":"30"}},{"Shape":325,"Coordinates":[4.35621,51.83526],"Attributes":{"name":"Maria Doorman-Kielstrastraat","highway":"residential","maxspeed":"30"}},{"Shape":326,"Coordinates":[4.356722,51.83442],"Attributes":{"highway":"residential","maxspeed":"30"}},{"Shape":327,"Coordinates":[4.354878,51.83525],"Attributes":{"name":"Roosje Vosstraat","highway":"residential","maxspeed":"30"}},{"Shape":329,"Coordinates":[4.353589,51.83436],"Attributes":{"name":"Annette Versluys-Poelmanstraat","highway":"residential","maxspeed":"30"}},{"Shape":331,"Coordinates":[4.355028,51.83327],"Attributes":{"highway":"residential","maxspeed":"30"}},{"Shape":332,"Coordinates":[4.353489,51.83369],"Attributes":{"name":"Johanna Naberstraat","highway":"residential","maxspeed":"30"}},{"Shape":332,"Coordinates":[4.353667,51.83348],"Attributes":{"name":"Willemijn Posthumusstraat","highway":"residential","maxspeed":"30"}},{"Shape":332,"Coordinates":[4.354767,51.83298],"Attributes":{"name":"Mien Sneevliet-Draaijerstraat","highway":"residential","maxspeed":"30"}},{"Shape":336,"Coordinates":[4.353489,51.83369],"Attributes":{"name":"Johanna Naberstraat","highway":"residential","maxspeed":"30"}},{"Shape":336,"Coordinates":[4.354767,51.83298],"Attributes":{"name":"Mien Sneevliet-Draaijerstraat","highway":"residential","maxspeed":"30"}},{"Shape":337,"Coordinates":[4.355028,51.83327],"Attributes":{"highway":"residential","maxspeed":"30"}},{"Shape":339,"Coordinates":[4.353589,51.83436],"Attributes":{"name":"Annette Versluys-Poelmanstraat","highway":"residential","maxspeed":"30"}},{"Shape":339,"Coordinates":[4.35489,51.83435],"Attributes":{"name":"Maria Doorman-Kielstrastraat","highway":"residential","maxspeed":"30"}},{"Shape":342,"Coordinates":[4.355773,51.83496],"Attributes":{"name":"Maria Doorman-Kielstrastraat","highway":"residential","maxspeed":"30"}},{"Shape":343,"Coordinates":[4.3546,51.8357],"Attributes":{"name":"Roosje Vosstraat","highway":"residential","maxspeed":"30"}},{"Shape":343,"Coordinates":[4.354136,51.83476],"Attributes":{"name":"Theodora Haverstraat","highway":"residential","maxspeed":"30"}},{"Shape":344,"Coordinates":[4.3546,51.83545],"Attributes":{"name":"Roosje Vosstraat","highway":"residential","maxspeed":"30"}},{"Shape":351,"Coordinates":[4.3546,51.8357],"Attributes":{"name":"Roosje Vosstraat","highway":"residential","maxspeed":"30"}},{"Shape":351,"Coordinates":[4.354136,51.83476],"Attributes":{"name":"Theodora Haverstraat","highway":"residential","maxspeed":"30"}},{"Shape":352,"Coordinates":[4.35489,51.83435],"Attributes":{"name":"Maria Doorman-Kielstrastraat","highway":"residential","maxspeed":"30"}},{"Shape":353,"Coordinates":[4.356078,51.83521],"Attributes":{"name":"Maria Doorman-Kielstrastraat","highway":"residential","maxspeed":"30"}},{"Shape":353,"Coordinates":[4.356722,51.83442],"Attributes":{"highway":"residential","maxspeed":"30"}},{"Shape":359,"Coordinates":[4.356118,51.83365],"Attributes":{"name":"Etty Hillesumstraat","highway":"residential","maxspeed":"30"}},{"Shape":360,"Coordinates":[4.358588,51.83418],"Attributes":{"name":"Mies van Oort-Laustraat","highway":"residential","maxspeed":"30"}},{"Shape":361,"Coordinates":[4.357471,51.83462],"Attributes":{"name":"Etty Hillesumstraat","highway":"residential","maxspeed":"30"}},{"Shape":361,"Coordinates":[4.356462,51.83506],"Attributes":{"name":"Joke Smitlaan","maxspeed":"50","highway":"tertiary","oneway":"yes"}},{"Shape":363,"Coordinates":[4.358017,51.83445],"Attributes":{"name":"Joke Smitlaan","maxspeed":"50","highway":"tertiary","oneway":"yes"}},{"Shape":366,"Coordinates":[4.359355,51.83421],"Attributes":{"name":"Joke Smitlaan","maxspeed":"50","highway":"tertiary"}},{"Shape":367,"Coordinates":[4.3593,51.8334],"Attributes":{"name":"Anne Frankstraat","highway":"residential","maxspeed":"30"}},{"Shape":367,"Coordinates":[4.358588,51.83418],"Attributes":{"name":"Mies van Oort-Laustraat","highway":"residential","maxspeed":"30"}},{"Shape":370,"Coordinates":[4.358464,51.83288],"Attributes":{"name":"Hannie Schaftstraat","highway":"residential","maxspeed":"30"}},{"Shape":372,"Coordinates":[4.35925,51.83126],"Attributes":{"name":"Anne Frankstraat","highway":"residential","maxspeed":"30"}},{"Shape":373,"Coordinates":[4.35855,51.83125],"Attributes":{"name":"Anne Frankstraat","highway":"residential","maxspeed":"30"}},{"Shape":374,"Coordinates":[4.35819,51.83139],"Attributes":{"name":"Petronella Brugsmastraat","highway":"residential","maxspeed":"30"}},{"Shape":375,"Coordinates":[4.358144,51.83232],"Attributes":{"name":"Petronella Brugsmastraat","highway":"residential","maxspeed":"30"}},{"Shape":375,"Coordinates":[4.357997,51.83171],"Attributes":{"name":"Zuster Reichertstraat","highway":"residential","maxspeed":"30"}},{"Shape":395,"Coordinates":[4.356006,51.83215],"Attributes":{"name":"Petronella Brugsmastraat","highway":"residential","maxspeed":"30"}},{"Shape":395,"Coordinates":[4.35604,51.83231],"Attributes":{"name":"Mien Sneevliet-Draaijerstraat","highway":"residential","maxspeed":"30","oneway":"yes"}},{"Shape":397,"Coordinates":[4.355672,51.83251],"Attributes":{"name":"Mia van der Wall-Duyvendakstraat","highway":"residential","maxspeed":"30"}},{"Shape":397,"Coordinates":[4.35673,51.83325],"Attributes":{"name":"Jacoba Pulskensstraat","highway":"residential","maxspeed":"30"}},{"Shape":399,"Coordinates":[4.355329,51.8331],"Attributes":{"name":"Etty Hillesumstraat","highway":"residential","maxspeed":"30"}},{"Shape":399,"Coordinates":[4.355093,51.83282],"Attributes":{"name":"Mien Sneevliet-Draaijerstraat","highway":"residential","maxspeed":"30","oneway":"yes"}},{"Shape":400,"Coordinates":[4.354129,51.83141],"Attributes":{"name":"Etty Hillesumstraat","highway":"residential","maxspeed":"30"}},{"Shape":400,"Coordinates":[4.354767,51.83298],"Attributes":{"name":"Mien Sneevliet-Draaijerstraat","highway":"residential","maxspeed":"30"}},{"Shape":408,"Coordinates":[4.354767,51.83298],"Attributes":{"name":"Mien Sneevliet-Draaijerstraat","highway":"residential","maxspeed":"30"}},{"Shape":409,"Coordinates":[4.355162,51.83287],"Attributes":{"name":"Mien Sneevliet-Draaijerstraat","highway":"residential","maxspeed":"30","oneway":"yes"}},{"Shape":409,"Coordinates":[4.355093,51.83282],"Attributes":{"name":"Mien Sneevliet-Draaijerstraat","highway":"residential","maxspeed":"30","oneway":"yes"}},{"Shape":410,"Coordinates":[4.355028,51.83327],"Attributes":{"highway":"residential","maxspeed":"30"}},{"Shape":411,"Coordinates":[4.356118,51.83365],"Attributes":{"name":"Etty Hillesumstraat","highway":"residential","maxspeed":"30"}},{"Shape":412,"Coordinates":[4.355743,51.83256],"Attributes":{"name":"Jacoba Pulskensstraat","highway":"residential","maxspeed":"30"}},{"Shape":412,"Coordinates":[4.357482,51.83284],"Attributes":{"name":"Hannie Schaftstraat","highway":"residential","maxspeed":"30"}},{"Shape":412,"Coordinates":[4.35724,51.83361],"Attributes":{"name":"Trix Terwindtstraat","highway":"residential","maxspeed":"30"}},{"Shape":415,"Coordinates":[4.358418,51.83335],"Attributes":{"name":"Trix Terwindtstraat","highway":"residential","maxspeed":"30"}},{"Shape":416,"Coordinates":[4.359152,51.83241],"Attributes":{"name":"Anne Frankstraat","highway":"residential","maxspeed":"30"}},{"Shape":418,"Coordinates":[4.358588,51.83418],"Attributes":{"name":"Mies van Oort-Laustraat","highway":"residential","maxspeed":"30"}},{"Shape":419,"Coordinates":[4.358867,51.83425],"Attributes":{"name":"Joke Smitlaan","maxspeed":"50","highway":"tertiary"}},{"Shape":421,"Coordinates":[4.359956,51.83451],"Attributes":{"name":"Clara Visserstraat","highway":"residential","maxspeed":"30"}},{"Shape":422,"Coordinates":[4.36026,51.83197],"Attributes":{"name":"Drogendijk","highway":"unclassified","maxspeed":"30"}},{"Shape":422,"Coordinates":[4.360504,51.83558],"Attributes":{"name":"Drogendijk","highway":"unclassified","maxspeed":"30"}},{"Shape":424,"Coordinates":[4.361255,51.83418],"Attributes":{"name":"Hadewychplaats","highway":"service"}},{"Shape":425,"Coordinates":[4.361663,51.83434],"Attributes":{"name":"Joke Smitlaan","maxspeed":"50","highway":"tertiary"}},{"Shape":426,"Coordinates":[4.361462,51.83443],"Attributes":{"name":"Margaretha Roosenboomstraat","highway":"residential","maxspeed":"30"}},{"Shape":430,"Coordinates":[4.361384,51.83525],"Attributes":{"name":"Margaretha Roosenboomstraat","highway":"residential"}},{"Shape":431,"Coordinates":[4.361636,51.83525],"Attributes":{"name":"Margaretha Roosenboomstraat","highway":"residential"}},{"Shape":434,"Coordinates":[4.361384,51.83525],"Attributes":{"name":"Margaretha Roosenboomstraat","highway":"residential"}},{"Shape":438,"Coordinates":[4.361462,51.83443],"Attributes":{"name":"Margaretha Roosenboomstraat","highway":"residential","maxspeed":"30"}},{"Shape":439,"Coordinates":[4.361216,51.83426],"Attributes":{"name":"Joke Smitlaan","maxspeed":"50","highway":"tertiary"}},{"Shape":443,"Coordinates":[4.362716,51.8344],"Attributes":{"name":"Annie Romein-Verschoorlaan","maxspeed":"50","highway":"tertiary"}},{"Shape":446,"Coordinates":[4.362383,51.8356],"Attributes":{"name":"Sientje Mesdag-van Houtenstraat","highway":"residential","maxspeed":"30"}},{"Shape":446,"Coordinates":[4.362,51.83559],"Attributes":{"name":"Marie van Regteren Altenastraat","highway":"residential","maxspeed":"30"}},{"Shape":446,"Coordinates":[4.362269,51.83624],"Attributes":{"name":"Annie Romein-Verschoorlaan","maxspeed":"50","highway":"tertiary"}},{"Shape":448,"Coordinates":[4.362383,51.8356],"Attributes":{"name":"Sientje Mesdag-van Houtenstraat","highway":"residential","maxspeed":"30"}},{"Shape":448,"Coordinates":[4.362295,51.83504],"Attributes":{"name":"Annie Romein-Verschoorlaan","maxspeed":"50","highway":"tertiary"}},{"Shape":449,"Coordinates":[4.361133,51.83561],"Attributes":{"name":"Marie van Regteren Altenastraat","highway":"residential","maxspeed":"30"}},{"Shape":449,"Coordinates":[4.361462,51.83443],"Attributes":{"name":"Margaretha Roosenboomstraat","highway":"residential","maxspeed":"30"}},{"Shape":449,"Coordinates":[4.36209,51.83628],"Attributes":{"name":"Margaretha Roosenboomstraat","highway":"residential","maxspeed":"30"}},{"Shape":452,"Coordinates":[4.362408,51.83788],"Attributes":{"name":"Ida Wassermanstraat","highway":"residential","maxspeed":"30"}},{"Shape":452,"Coordinates":[4.361285,51.83695],"Attributes":{"name":"Mimi Boesnachstraat","highway":"residential","maxspeed":"30"}},{"Shape":452,"Coordinates":[4.362395,51.83686],"Attributes":{"name":"Mimi Boesnachstraat","highway":"residential","maxspeed":"30"}},{"Shape":454,"Coordinates":[4.361285,51.83695],"Attributes":{"name":"Mimi Boesnachstraat","highway":"residential","maxspeed":"30"}},{"Shape":454,"Coordinates":[4.36209,51.83628],"Attributes":{"name":"Margaretha Roosenboomstraat","highway":"residential","maxspeed":"30"}},{"Shape":455,"Coordinates":[4.362269,51.83624],"Attributes":{"name":"Annie Romein-Verschoorlaan","maxspeed":"50","highway":"tertiary"}},{"Shape":455,"Coordinates":[4.362519,51.83747],"Attributes":{"name":"Annie Romein-Verschoorlaan","maxspeed":"50","highway":"tertiary"}},{"Shape":456,"Coordinates":[4.363842,51.83675],"Attributes":{"name":"Theo Mann-Bouwmeesterstraat","highway":"residential","maxspeed":"30"}},{"Shape":456,"Coordinates":[4.362459,51.83624],"Attributes":{"name":"Lizzy Ansinghstraat","highway":"residential","maxspeed":"30"}},{"Shape":457,"Coordinates":[4.363731,51.83709],"Attributes":{"name":"Magda Janssenstraat","highway":"residential","maxspeed":"30","oneway":"yes"}},{"Shape":458,"Coordinates":[4.363787,51.83738],"Attributes":{"name":"Fie Carelsenstraat","highway":"residential","maxspeed":"30","oneway":"yes"}},{"Shape":459,"Coordinates":[4.362813,51.83805],"Attributes":{"name":"Maria Kleine-Gartmanstraat","highway":"residential","maxspeed":"30"}},{"Shape":459,"Coordinates":[4.363823,51.83765],"Attributes":{"name":"Annie van Eesstraat","highway":"residential","maxspeed":"30","oneway":"yes"}},{"Shape":461,"Coordinates":[4.363896,51.83796],"Attributes":{"name":"Charlotte Köhlerstraat","highway":"residential","maxspeed":"30","oneway":"yes"}},{"Shape":462,"Coordinates":[4.363446,51.83828],"Attributes":{"name":"Fien de la Marstraat","highway":"residential","maxspeed":"30"}},{"Shape":467,"Coordinates":[4.364714,51.83876],"Attributes":{"name":"Maria Kleine-Gartmanstraat","highway":"residential","maxspeed":"30"}},{"Shape":467,"Coordinates":[4.363836,51.83839],"Attributes":{"name":"Fien de la Marstraat","highway":"residential","maxspeed":"30"}},{"Shape":469,"Coordinates":[4.364704,51.83848],"Attributes":{"name":"Esther de Boer-van Rijkstraat","highway":"residential","maxspeed":"30"}},{"Shape":469,"Coordinates":[4.36481,51.83882],"Attributes":{"name":"Maria Kleine-Gartmanstraat","highway":"residential","maxspeed":"30"}},{"Shape":475,"Coordinates":[4.363814,51.83873],"Attributes":{"name":"Maria Kleine-Gartmanstraat","highway":"residential","maxspeed":"30"}},{"Shape":476,"Coordinates":[4.365851,51.83851],"Attributes":{"name":"Vera Bondamstraat","highway":"residential","maxspeed":"30"}},{"Shape":477,"Coordinates":[4.36574,51.83821],"Attributes":{"name":"Else Mauhsstraat","highway":"residential","maxspeed":"30"}},{"Shape":478,"Coordinates":[4.364458,51.83731],"Attributes":{"name":"Esther de Boer-van Rijkstraat","highway":"residential","maxspeed":"30"}},{"Shape":479,"Coordinates":[4.365455,51.83734],"Attributes":{"name":"Ronnie Biermanstraat","highway":"residential","maxspeed":"30"}},{"Shape":480,"Coordinates":[4.365883,51.83719],"Attributes":{"name":"Corrie Vonkplantsoen","highway":"residential","maxspeed":"30"}},{"Shape":480,"Coordinates":[4.365971,51.83768],"Attributes":{"name":"Corrie Vonkplantsoen","highway":"residential","maxspeed":"30"}},{"Shape":483,"Coordinates":[4.36585,51.83667],"Attributes":{"name":"Theo Mann-Bouwmeesterstraat","highway":"residential","maxspeed":"30"}},{"Shape":484,"Coordinates":[4.364371,51.83671],"Attributes":{"name":"Theo Mann-Bouwmeesterstraat","highway":"residential","maxspeed":"30"}},{"Shape":484,"Coordinates":[4.365098,51.83566],"Attributes":{"name":"Suze Robertsonstraat","highway":"residential","maxspeed":"30"}},{"Shape":486,"Coordinates":[4.364598,51.83564],"Attributes":{"name":"Sientje Mesdag-van Houtenstraat","highway":"residential","maxspeed":"30"}},{"Shape":487,"Coordinates":[4.365564,51.83504],"Attributes":{"name":"Emmy Belinfantestraat","highway":"residential","maxspeed":"30"}},{"Shape":490,"Coordinates":[4.366899,51.83581],"Attributes":{"name":"Sientje Mesdag-van Houtenstraat","highway":"residential","maxspeed":"30"}},{"Shape":494,"Coordinates":[4.367445,51.83514],"Attributes":{"name":"Martina Kramersstraat","highway":"residential","maxspeed":"30"}},{"Shape":495,"Coordinates":[4.368702,51.83578],"Attributes":{"name":"Sientje Mesdag-van Houtenstraat","highway":"residential","maxspeed":"30"}},{"Shape":496,"Coordinates":[4.36686,51.83676],"Attributes":{"name":"Theo Mann-Bouwmeesterstraat","highway":"residential","maxspeed":"30"}},{"Shape":497,"Coordinates":[4.368241,51.83746],"Attributes":{"name":"Top Naeffstraat","highway":"residential","maxspeed":"30"}},{"Shape":497,"Coordinates":[4.368972,51.8369],"Attributes":{"name":"Theo Mann-Bouwmeesterstraat","highway":"residential","maxspeed":"30"}},{"Shape":499,"Coordinates":[4.367617,51.8368],"Attributes":{"name":"Theo Mann-Bouwmeesterstraat","highway":"residential","maxspeed":"30"}},{"Shape":501,"Coordinates":[4.370038,51.8376],"Attributes":{"name":"Beb Vuykstraat","highway":"residential","maxspeed":"30"}},{"Shape":501,"Coordinates":[4.3704,51.837],"Attributes":{"name":"Theo Mann-Bouwmeesterstraat","highway":"residential","maxspeed":"30"}},{"Shape":502,"Coordinates":[4.370462,51.83586],"Attributes":{"name":"Beb Vuykstraat","highway":"residential","maxspeed":"30"}},{"Shape":502,"Coordinates":[4.369906,51.8364],"Attributes":{"name":"Catharina van Renneshof","highway":"residential","maxspeed":"30"}},{"Shape":504,"Coordinates":[4.369906,51.8364],"Attributes":{"name":"Catharina van Renneshof","highway":"residential","maxspeed":"30"}},{"Shape":505,"Coordinates":[4.368972,51.8369],"Attributes":{"name":"Theo Mann-Bouwmeesterstraat","highway":"residential","maxspeed":"30"}},{"Shape":505,"Coordinates":[4.3704,51.837],"Attributes":{"name":"Theo Mann-Bouwmeesterstraat","highway":"residential","maxspeed":"30"}},{"Shape":506,"Coordinates":[4.369893,51.83816],"Attributes":{"name":"Beb Vuykstraat","highway":"residential","maxspeed":"30"}},{"Shape":506,"Coordinates":[4.369532,51.83755],"Attributes":{"name":"Maria Dermoûtstraat","highway":"residential","maxspeed":"30"}},{"Shape":508,"Coordinates":[4.368901,51.83807],"Attributes":{"name":"Maria Tesselschadestraat","highway":"residential","maxspeed":"30"}},{"Shape":509,"Coordinates":[4.370308,51.83821],"Attributes":{"name":"Maria Tesselschadestraat","highway":"residential","maxspeed":"30"}},{"Shape":509,"Coordinates":[4.3704,51.837],"Attributes":{"name":"Geertruida Bosboom-Toussaintlaan","maxspeed":"50","highway":"tertiary"}},{"Shape":510,"Coordinates":[4.369864,51.83901],"Attributes":{"name":"Geertruida Bosboom-Toussaintlaan","maxspeed":"50","highway":"tertiary"}},{"Shape":510,"Coordinates":[4.369776,51.83852],"Attributes":{"name":"Maria Kleine-Gartmanstraat","highway":"residential","maxspeed":"30"}},{"Shape":512,"Coordinates":[4.37021,51.83849],"Attributes":{"name":"Henriëtte Roland Holststraat","highway":"residential","maxspeed":"30"}},{"Shape":518,"Coordinates":[4.372942,51.83545],"Attributes":{"name":"Lange Groeneweg","highway":"residential","maxspeed":"30"}},{"Shape":522,"Coordinates":[4.370436,51.83859],"Attributes":{"name":"Henriëtte Roland Holststraat","highway":"residential","maxspeed":"30"}},{"Shape":529,"Coordinates":[4.37021,51.83849],"Attributes":{"name":"Henriëtte Roland Holststraat","highway":"residential","maxspeed":"30"}},{"Shape":531,"Coordinates":[4.369864,51.83901],"Attributes":{"name":"Geertruida Bosboom-Toussaintlaan","maxspeed":"50","highway":"tertiary"}},{"Shape":531,"Coordinates":[4.369776,51.83852],"Attributes":{"name":"Maria Kleine-Gartmanstraat","highway":"residential","maxspeed":"30"}},{"Shape":532,"Coordinates":[4.369893,51.83816],"Attributes":{"name":"Maria Tesselschadestraat","highway":"residential","maxspeed":"30"}},{"Shape":532,"Coordinates":[4.370308,51.83821],"Attributes":{"name":"Maria Tesselschadestraat","highway":"residential","maxspeed":"30"}},{"Shape":532,"Coordinates":[4.3704,51.837],"Attributes":{"name":"Geertruida Bosboom-Toussaintlaan","maxspeed":"50","highway":"tertiary"}},{"Shape":534,"Coordinates":[4.370177,51.83698],"Attributes":{"name":"Theo Mann-Bouwmeesterstraat","highway":"residential","maxspeed":"30"}},{"Shape":534,"Coordinates":[4.370606,51.8362],"Attributes":{"name":"Geertruida Bosboom-Toussaintlaan","maxspeed":"50","highway":"tertiary"}},{"Shape":535,"Coordinates":[4.370763,51.83647],"Attributes":{"name":"Else van der Banstraat","highway":"residential","maxspeed":"30"}},{"Shape":535,"Coordinates":[4.370445,51.83764],"Attributes":{"name":"Else van der Banstraat","highway":"residential","maxspeed":"30"}},{"Shape":535,"Coordinates":[4.372372,51.83723],"Attributes":{"name":"Theo Mann-Bouwmeesterstraat","highway":"residential","maxspeed":"30"}},{"Shape":537,"Coordinates":[4.37202,51.83661],"Attributes":{"name":"Annie van Hattemstraat","highway":"residential","maxspeed":"30"}},{"Shape":539,"Coordinates":[4.370678,51.83587],"Attributes":{"name":"Sientje Mesdag-van Houtenstraat","highway":"residential","maxspeed":"30"}},{"Shape":539,"Coordinates":[4.372729,51.83594],"Attributes":{"name":"Sientje Mesdag-van Houtenstraat","highway":"residential","maxspeed":"30"}},{"Shape":540,"Coordinates":[4.370724,51.83487],"Attributes":{"name":"Else van der Banstraat","highway":"residential","maxspeed":"30"}},{"Shape":540,"Coordinates":[4.3717,51.8353],"Attributes":{"name":"Lotte Beesestraat","highway":"residential","maxspeed":"30"}},{"Shape":542,"Coordinates":[4.37044,51.83441],"Attributes":{"name":"Else van der Banstraat","highway":"residential","maxspeed":"30"}},{"Shape":542,"Coordinates":[4.371654,51.83469],"Attributes":{"name":"Truus Schröderstraat","highway":"residential","maxspeed":"30"}},{"Shape":543,"Coordinates":[4.370315,51.83495],"Attributes":{"name":"Truus Schröderstraat","highway":"unclassified","maxspeed":"30"}},{"Shape":543,"Coordinates":[4.370679,51.83535],"Attributes":{"name":"Geertruida Bosboom-Toussaintlaan","maxspeed":"50","highway":"tertiary"}},{"Shape":545,"Coordinates":[4.369971,51.83395],"Attributes":{"name":"Belle van Zuylenstraat","highway":"residential","maxspeed":"30"}},{"Shape":545,"Coordinates":[4.367404,51.83212],"Attributes":{"name":"Geertruida Bosboom-Toussaintlaan","maxspeed":"50","highway":"tertiary"}},{"Shape":546,"Coordinates":[4.369088,51.83369],"Attributes":{"name":"Beb Vuykstraat","highway":"residential","maxspeed":"30"}},{"Shape":546,"Coordinates":[4.370059,51.83451],"Attributes":{"name":"Beb Vuykstraat","highway":"residential","maxspeed":"30"}},{"Shape":546,"Coordinates":[4.368752,51.83453],"Attributes":{"name":"Belle van Zuylenstraat","highway":"residential","maxspeed":"30"}},{"Shape":548,"Coordinates":[4.368437,51.83317],"Attributes":{"name":"Beb Vuykstraat","highway":"residential","maxspeed":"30"}},{"Shape":549,"Coordinates":[4.3685,51.8342],"Attributes":{"name":"Madelon Lulofsstraat","highway":"residential","maxspeed":"30"}},{"Shape":550,"Coordinates":[4.366846,51.83372],"Attributes":{"name":"Madelon Lulofsstraat","highway":"residential","maxspeed":"30"}},{"Shape":550,"Coordinates":[4.368081,51.83335],"Attributes":{"name":"Madelon Lulofsstraat","highway":"residential","maxspeed":"30"}},{"Shape":552,"Coordinates":[4.366941,51.83331],"Attributes":{"name":"Anke Servaesstraat","highway":"residential","maxspeed":"30"}},{"Shape":553,"Coordinates":[4.365298,51.83384],"Attributes":{"name":"Marie van Zeggelenstraat","highway":"residential","maxspeed":"30"}},{"Shape":553,"Coordinates":[4.365887,51.8331],"Attributes":{"name":"Marie van Zeggelenstraat","highway":"residential","maxspeed":"30"}},{"Shape":555,"Coordinates":[4.365298,51.83384],"Attributes":{"name":"Marie van Zeggelenstraat","highway":"residential","maxspeed":"30"}},{"Shape":556,"Coordinates":[4.367658,51.83384],"Attributes":{"name":"Madelon Lulofsstraat","highway":"residential","maxspeed":"30"}},{"Shape":557,"Coordinates":[4.366681,51.83285],"Attributes":{"name":"Anke Servaesstraat","highway":"residential","maxspeed":"30"}},{"Shape":560,"Coordinates":[4.367285,51.83224],"Attributes":{"name":"Beb Vuykstraat","highway":"residential","maxspeed":"30"}},{"Shape":560,"Coordinates":[4.368437,51.83317],"Attributes":{"name":"Beb Vuykstraat","highway":"residential","maxspeed":"30"}},{"Shape":562,"Coordinates":[4.367129,51.83322],"Attributes":{"name":"Anke Servaesstraat","highway":"residential","maxspeed":"30"}},{"Shape":563,"Coordinates":[4.368081,51.83335],"Attributes":{"name":"Madelon Lulofsstraat","highway":"residential","maxspeed":"30"}},{"Shape":564,"Coordinates":[4.368303,51.83408],"Attributes":{"name":"Madelon Lulofsstraat","highway":"residential","maxspeed":"30"}},{"Shape":565,"Coordinates":[4.370059,51.83451],"Attributes":{"name":"Beb Vuykstraat","highway":"residential","maxspeed":"30"}},{"Shape":565,"Coordinates":[4.368752,51.83453],"Attributes":{"name":"Belle van Zuylenstraat","highway":"residential","maxspeed":"30"}},{"Shape":566,"Coordinates":[4.367404,51.83212],"Attributes":{"name":"Geertruida Bosboom-Toussaintlaan","maxspeed":"50","highway":"tertiary"}},{"Shape":566,"Coordinates":[4.370261,51.83447],"Attributes":{"name":"Geertruida Bosboom-Toussaintlaan","maxspeed":"50","highway":"tertiary"}},{"Shape":567,"Coordinates":[4.37044,51.83441],"Attributes":{"name":"Else van der Banstraat","highway":"residential","maxspeed":"30"}},{"Shape":567,"Coordinates":[4.370699,51.83359],"Attributes":{"name":"Belle van Zuylenstraat","highway":"residential","maxspeed":"30"}},{"Shape":568,"Coordinates":[4.368838,51.83305],"Attributes":{"name":"Else van der Banstraat","highway":"residential","maxspeed":"30"}},{"Shape":568,"Coordinates":[4.369666,51.83346],"Attributes":{"name":"Clare Lennartstraat","highway":"residential","maxspeed":"30"}},{"Shape":570,"Coordinates":[4.369786,51.8326],"Attributes":{"name":"Jeanne van Schaik-Willingstraat","highway":"residential","maxspeed":"30"}},{"Shape":571,"Coordinates":[4.367612,51.83207],"Attributes":{"name":"Else van der Banstraat","highway":"residential","maxspeed":"30"}},{"Shape":571,"Coordinates":[4.368486,51.83239],"Attributes":{"name":"Hélène Swarthstraat","highway":"residential","maxspeed":"30"}},{"Shape":573,"Coordinates":[4.367612,51.83207],"Attributes":{"name":"Else van der Banstraat","highway":"residential","maxspeed":"30"}},{"Shape":574,"Coordinates":[4.369786,51.8326],"Attributes":{"name":"Jeanne van Schaik-Willingstraat","highway":"residential","maxspeed":"30"}},{"Shape":575,"Coordinates":[4.369666,51.83346],"Attributes":{"name":"Clare Lennartstraat","highway":"residential","maxspeed":"30"}},{"Shape":576,"Coordinates":[4.37044,51.83441],"Attributes":{"name":"Else van der Banstraat","highway":"residential","maxspeed":"30"}},{"Shape":576,"Coordinates":[4.370699,51.83359],"Attributes":{"name":"Belle van Zuylenstraat","highway":"residential","maxspeed":"30"}},{"Shape":577,"Coordinates":[4.369626,51.83411],"Attributes":{"name":"Belle van Zuylenstraat","highway":"residential","maxspeed":"30"}},{"Shape":577,"Coordinates":[4.367404,51.83212],"Attributes":{"name":"Geertruida Bosboom-Toussaintlaan","maxspeed":"50","highway":"tertiary"}},{"Shape":579,"Coordinates":[4.370315,51.83495],"Attributes":{"name":"Truus Schröderstraat","highway":"unclassified","maxspeed":"30"}},{"Shape":579,"Coordinates":[4.370724,51.83487],"Attributes":{"name":"Truus Schröderstraat","highway":"unclassified","maxspeed":"30"}},{"Shape":581,"Coordinates":[4.370903,51.83588],"Attributes":{"name":"Sientje Mesdag-van Houtenstraat","highway":"residential","maxspeed":"30"}},{"Shape":581,"Coordinates":[4.370606,51.8362],"Attributes":{"name":"Geertruida Bosboom-Toussaintlaan","maxspeed":"50","highway":"tertiary"}},{"Shape":582,"Coordinates":[4.370476,51.83536],"Attributes":{"name":"Beb Vuykstraat","highway":"residential","maxspeed":"30"}},{"Shape":582,"Coordinates":[4.370326,51.83643],"Attributes":{"name":"Beb Vuykstraat","highway":"residential","maxspeed":"30"}},{"Shape":583,"Coordinates":[4.3684,51.835],"Attributes":{"name":"Harriët Freezerstraat","highway":"residential","maxspeed":"30"}},{"Shape":584,"Coordinates":[4.367617,51.8368],"Attributes":{"name":"Rosa Spierstraat","highway":"residential","maxspeed":"30"}},{"Shape":585,"Coordinates":[4.366899,51.83581],"Attributes":{"name":"Sientje Mesdag-van Houtenstraat","highway":"residential","maxspeed":"30"}},{"Shape":585,"Coordinates":[4.367445,51.83514],"Attributes":{"name":"Martina Kramersstraat","highway":"residential","maxspeed":"30"}}]}