{"type":"FeatureCollection","features":[{"type":"Feature","name":"ShapeMeta","geometry":{"type":"LineString","coordinates":[[4.342735,51.82499],[4.34261,51.82515],[4.341987,51.82624]]},"properties":{"name":"Emmalaan","highway":"living_street","profile":"car","distance":"147.8397","time":"141.9261"}},{"type":"Feature","name":"ShapeMeta","geometry":{"type":"LineString","coordinates":[[4.341987,51.82624],[4.34261,51.82515],[4.343371,51.8242]]},"properties":{"name":"Emmalaan","highway":"living_street","profile":"car","distance":"394.1934","time":"378.4257"}},{"type":"Feature","name":"ShapeMeta","geometry":{"type":"LineString","coordinates":[[4.343371,51.8242],[4.342718,51.8241]]},"properties":{"name":"Lede","highway":"residential","maxspeed":"30","profile":"car","distance":"440.2934","time":"385.8017"}},{"type":"Feature","name":"ShapeMeta","geometry":{"type":"LineString","coordinates":[[4.342718,51.8241],[4.342631,51.82408]]},"properties":{"name":"Lede","highway":"residential","maxspeed":"30","profile":"car","distance":"446.453","time":"386.7872"}},{"type":"Feature","name":"ShapeMeta","geometry":{"type":"LineString","coordinates":[[4.342631,51.82408],[4.342718,51.8241]]},"properties":{"name":"Lede","highway":"residential","maxspeed":"30","profile":"car","distance":"452.6126","time":"387.7727"}},{"type":"Feature","name":"ShapeMeta","geometry":{"type":"LineString","coordinates":[[4.342718,51.8241],[4.343371,51.8242]]},"properties":{"name":"Lede","highway":"residential","maxspeed":"30","profile":"car","distance":"498.7126","time":"395.1487"}},{"type":"Feature","name":"ShapeMeta","geometry":{"type":"LineString","coordinates":[[4.343371,51.8242],[4.34341,51.8242]]},"properties":{"name":"Lede","highway":"residential","maxspeed":"30","profile":"car","distance":"501.3127","time":"395.5648"}},{"type":"Feature","name":"ShapeMeta","geometry":{"type":"LineString","coordinates":[[4.34341,51.8242],[4.344522,51.82442]]},"properties":{"name":"Lede","highway":"residential","maxspeed":"30","profile":"car","distance":"581.5126","time":"408.3967"}},{"type":"Feature","name":"ShapeMeta","geometry":{"type":"LineString","coordinates":[[4.344522,51.82442],[4.344595,51.82444]]},"properties":{"name":"Lede","highway":"residential","maxspeed":"30","profile":"car","distance":"587.0186","time":"409.2777"}},{"type":"Feature","name":"ShapeMeta","geometry":{"type":"LineString","coordinates":[[4.344595,51.82444],[4.345376,51.82465]]},"properties":{"name":"Lede","highway":"residential","maxspeed":"30","profile":"car","distance":"645.5127","time":"418.6367"}},{"type":"Feature","name":"ShapeMeta","geometry":{"type":"LineString","coordinates":[[4.345376,51.82465],[4.345696,51.82476],[4.3461,51.8249]]},"properties":{"name":"Lede","highway":"residential","maxspeed":"30","profile":"car","distance":"702.7127","time":"427.7888"}},{"type":"Feature","name":"ShapeMeta","geometry":{"type":"LineString","coordinates":[[4.3461,51.8249],[4.346221,51.82478]]},"properties":{"name":"Kluivertweg","maxspeed":"30","highway":"living_street","profile":"car","distance":"719.0127","time":"430.3968"}},{"type":"Feature","name":"ShapeMeta","geometry":{"type":"LineString","coordinates":[[4.346221,51.82478],[4.3461,51.8249]]},"properties":{"name":"Kluivertweg","maxspeed":"30","highway":"living_street","profile":"car","distance":"735.3127","time":"433.0048"}},{"type":"Feature","name":"ShapeMeta","geometry":{"type":"LineString","coordinates":[[4.3461,51.8249],[4.346587,51.82507],[4.347044,51.82518]]},"properties":{"name":"Lede","highway":"residential","maxspeed":"30","profile":"car","distance":"807.5127","time":"444.5568"}},{"type":"Feature","name":"ShapeMeta","geometry":{"type":"LineString","coordinates":[[4.347044,51.82518],[4.347862,51.82531]]},"properties":{"name":"Lede","highway":"residential","maxspeed":"30","profile":"car","distance":"865.4127","time":"453.8208"}},{"type":"Feature","name":"ShapeMeta","geometry":{"type":"LineString","coordinates":[[4.347862,51.82531],[4.347973,51.82533]]},"properties":{"name":"Kors Monsterstraat","highway":"residential","profile":"car","distance":"873.4127","time":"454.5888"}},{"type":"Feature","name":"ShapeMeta","geometry":{"type":"LineString","coordinates":[[4.347973,51.82533],[4.348367,51.82538]]},"properties":{"name":"Kors Monsterstraat","highway":"residential","profile":"car","distance":"900.9336","time":"457.2308"}},{"type":"Feature","name":"ShapeMeta","geometry":{"type":"LineString","coordinates":[[4.348367,51.82538],[4.347973,51.82533]]},"properties":{"name":"Kors Monsterstraat","highway":"residential","profile":"car","distance":"928.4545","time":"459.8728"}},{"type":"Feature","name":"ShapeMeta","geometry":{"type":"LineString","coordinates":[[4.347973,51.82533],[4.347862,51.82531]]},"properties":{"name":"Kors Monsterstraat","highway":"residential","profile":"car","distance":"936.4545","time":"460.6408"}},{"type":"Feature","name":"ShapeMeta","geometry":{"type":"LineString","coordinates":[[4.347862,51.82531],[4.347044,51.82518]]},"properties":{"name":"Lede","highway":"residential","maxspeed":"30","profile":"car","distance":"994.3545","time":"469.9048"}},{"type":"Feature","name":"ShapeMeta","geometry":{"type":"LineString","coordinates":[[4.347044,51.82518],[4.346753,51.8257]]},"properties":{"name":"L de Raatlaan","highway":"residential","maxspeed":"30","profile":"car","distance":"1054.954","time":"479.6008"}},{"type":"Feature","name":"ShapeMeta","geometry":{"type":"LineString","coordinates":[[4.346753,51.8257],[4.346719,51.82622]]},"properties":{"name":"L de Raatlaan","highway":"residential","maxspeed":"30","profile":"car","distance":"1112.675","time":"488.8361"}},{"type":"Feature","name":"ShapeMeta","geometry":{"type":"LineString","coordinates":[[4.346719,51.82622],[4.346717,51.82624],[4.346737,51.82638]]},"properties":{"name":"L de Raatlaan","highway":"residential","maxspeed":"30","profile":"car","distance":"1130.554","time":"491.6968"}},{"type":"Feature","name":"ShapeMeta","geometry":{"type":"LineString","coordinates":[[4.346737,51.82638],[4.346358,51.82637],[4.345498,51.8264]]},"properties":{"name":"Dorpsstraat","highway":"residential","maxspeed":"30","profile":"car","distance":"1215.854","time":"505.3448"}},{"type":"Feature","name":"ShapeMeta","geometry":{"type":"LineString","coordinates":[[4.345498,51.8264],[4.34544,51.82673]]},"properties":{"name":"Achterweg","highway":"residential","profile":"car","distance":"1252.454","time":"508.8584"}},{"type":"Feature","name":"ShapeMeta","geometry":{"type":"LineString","coordinates":[[4.34544,51.82673],[4.343616,51.82676],[4.343071,51.82683],[4.342914,51.82685]]},"properties":{"name":"Achterweg","highway":"unclassified","profile":"car","distance":"1427.154","time":"525.6296"}},{"type":"Feature","name":"ShapeMeta","geometry":{"type":"LineString","coordinates":[[4.342914,51.82685],[4.342882,51.82694]]},"properties":{"highway":"living_street","profile":"car","distance":"1436.678","time":"534.7721"}},{"type":"Feature","name":"ShapeMeta","geometry":{"type":"LineString","coordinates":[[4.342882,51.82694],[4.342914,51.82685]]},"properties":{"highway":"living_street","profile":"car","distance":"1446.201","time":"543.9146"}},{"type":"Feature","name":"ShapeMeta","geometry":{"type":"LineString","coordinates":[[4.342914,51.82685],[4.342846,51.82686],[4.342699,51.82686],[4.342551,51.82685]]},"properties":{"name":"Achterweg","highway":"unclassified","profile":"car","distance":"1471.301","time":"546.3242"}},{"type":"Feature","name":"ShapeMeta","geometry":{"type":"LineString","coordinates":[[4.342551,51.82685],[4.342414,51.82681],[4.3422,51.82679],[4.3417,51.8268]]},"properties":{"name":"Achterweg","highway":"unclassified","profile":"car","distance":"1530.701","time":"552.0266"}},{"type":"Feature","name":"ShapeMeta","geometry":{"type":"LineString","coordinates":[[4.3417,51.8268],[4.341389,51.82682]]},"properties":{"name":"Achterweg","highway":"unclassified","profile":"car","distance":"1552.201","time":"554.0906"}},{"type":"Feature","name":"ShapeMeta","geometry":{"type":"LineString","coordinates":[[4.341389,51.82682],[4.341273,51.82649],[4.341228,51.82641]]},"properties":{"name":"Kerkstraat","highway":"unclassified","maxspeed":"30","profile":"car","distance":"1599.301","time":"561.6266"}},{"type":"Feature","name":"ShapeMeta","geometry":{"type":"LineString","coordinates":[[4.341228,51.82641],[4.340839,51.82645],[4.340603,51.82642],[4.338667,51.82562],[4.338606,51.82558]]},"properties":{"name":"Dorpsstraat","highway":"residential","maxspeed":"30","profile":"car","distance":"1808.801","time":"595.1466"}},{"type":"Feature","name":"ShapeMeta","geometry":{"type":"LineString","coordinates":[[4.338606,51.82558],[4.338586,51.82557],[4.338193,51.82534],[4.338127,51.82525]]},"properties":{"name":"Dorpsstraat","highway":"residential","maxspeed":"30","profile":"car","distance":"1859.201","time":"603.2106"}},{"type":"Feature","name":"ShapeMeta","geometry":{"type":"LineString","coordinates":[[4.338127,51.82525],[4.338372,51.8252],[4.339011,51.82504]]},"properties":{"name":"Groede","highway":"unclassified","maxspeed":"30","profile":"car","distance":"1924.401","time":"613.6426"}},{"type":"Feature","name":"ShapeMeta","geometry":{"type":"LineString","coordinates":[[4.339011,51.82504],[4.339321,51.82494]]},"properties":{"name":"Groede","highway":"unclassified","maxspeed":"30","profile":"car","distance":"1948.401","time":"617.4826"}},{"type":"Feature","name":"ShapeMeta","geometry":{"type":"LineString","coordinates":[[4.339321,51.82494],[4.339457,51.82515],[4.339618,51.8252],[4.340388,51.82536],[4.340495,51.82538]]},"properties":{"name":"Schare","highway":"living_street","profile":"car","distance":"2049.601","time":"714.6346"}},{"type":"Feature","name":"ShapeMeta","geometry":{"type":"LineString","coordinates":[[4.340495,51.82538],[4.340618,51.82541]]},"properties":{"name":"Schare","highway":"living_street","profile":"car","distance":"2058.531","time":"723.2065"}},{"type":"Feature","name":"ShapeMeta","geometry":{"type":"LineString","coordinates":[[4.340618,51.82541],[4.340495,51.82538]]},"properties":{"name":"Schare","highway":"living_street","profile":"car","distance":"2067.46","time":"731.7784"}},{"type":"Feature","name":"ShapeMeta","geometry":{"type":"LineString","coordinates":[[4.340495,51.82538],[4.340388,51.82536],[4.339618,51.8252],[4.339457,51.82515],[4.339321,51.82494]]},"properties":{"name":"Schare","highway":"living_street","profile":"car","distance":"2168.66","time":"828.9304"}},{"type":"Feature","name":"ShapeMeta","geometry":{"type":"LineString","coordinates":[[4.339321,51.82494],[4.339011,51.82504]]},"properties":{"name":"Groede","highway":"unclassified","maxspeed":"30","profile":"car","distance":"2192.66","time":"832.7704"}},{"type":"Feature","name":"ShapeMeta","geometry":{"type":"LineString","coordinates":[[4.339011,51.82504],[4.338372,51.8252],[4.338127,51.82525]]},"properties":{"name":"Groede","highway":"unclassified","maxspeed":"30","profile":"car","distance":"2257.86","time":"843.2024"}},{"type":"Feature","name":"ShapeMeta","geometry":{"type":"LineString","coordinates":[[4.338127,51.82525],[4.337956,51.8252],[4.337746,51.82512]]},"properties":{"name":"Dorpsstraat","maxspeed":"30","highway":"tertiary","profile":"car","distance":"2288.06","time":"848.0344"}},{"type":"Feature","name":"ShapeMeta","geometry":{"type":"LineString","coordinates":[[4.337746,51.82512],[4.337099,51.82479],[4.336991,51.8247]]},"properties":{"name":"Dorpsstraat","maxspeed":"30","highway":"tertiary","profile":"car","distance":"2358.16","time":"859.2504"}},{"type":"Feature","name":"ShapeMeta","geometry":{"type":"LineString","coordinates":[[4.336991,51.8247],[4.336892,51.82459]]},"properties":{"name":"Dorpsstraat","maxspeed":"30","highway":"tertiary","profile":"car","distance":"2371.76","time":"861.4264"}},{"type":"Feature","name":"ShapeMeta","geometry":{"type":"LineString","coordinates":[[4.336892,51.82459],[4.336846,51.82446],[4.33679,51.82429],[4.33668,51.82414],[4.336499,51.82405]]},"properties":{"name":"Dorpsstraat","maxspeed":"30","highway":"tertiary","profile":"car","distance":"2439.96","time":"872.3384"}},{"type":"Feature","name":"ShapeMeta","geometry":{"type":"LineString","coordinates":[[4.336499,51.82405],[4.336381,51.82402]]},"properties":{"name":"Dorpsstraat","maxspeed":"30","highway":"tertiary","profile":"car","distance":"2448.86","time":"873.7624"}},{"type":"Feature","name":"ShapeMeta","geometry":{"type":"LineString","coordinates":[[4.336381,51.82402],[4.336336,51.82405],[4.336199,51.82409],[4.336126,51.82407]]},"properties":{"name":"Hekelingseweg","junction":"roundabout","maxspeed":"80","highway":"secondary","profile":"car","distance":"2469.36","time":"874.9924"}},{"type":"Feature","name":"ShapeMeta","geometry":{"type":"LineString","coordinates":[[4.336126,51.82407],[4.336066,51.82405],[4.336001,51.82398],[4.336003,51.82393],[4.336028,51.82389]]},"properties":{"name":"Hekelingseweg","junction":"roundabout","maxspeed":"80","highway":"secondary","profile":"car","distance":"2493.16","time":"876.4204"}},{"type":"Feature","name":"ShapeMeta","geometry":{"type":"LineString","coordinates":[[4.336028,51.82389],[4.335911,51.82384],[4.334841,51.82349]]},"properties":{"name":"Westdijk","maxspeed":"80","highway":"secondary","profile":"car","distance":"2586.16","time":"882.0004"}},{"type":"Feature","name":"ShapeMeta","geometry":{"type":"LineString","coordinates":[[4.334841,51.82349],[4.334756,51.82359],[4.334716,51.82365],[4.334577,51.82385]]},"properties":{"name":"Wachthoevestraat","highway":"unclassified","maxspeed":"30","profile":"car","distance":"2629.56","time":"888.9444"}},{"type":"Feature","name":"ShapeMeta","geometry":{"type":"LineString","coordinates":[[4.334577,51.82385],[4.3334,51.8235]]},"properties":{"name":"Moleneind","highway":"unclassified","maxspeed":"30","profile":"car","distance":"2719.16","time":"903.2804"}},{"type":"Feature","name":"ShapeMeta","geometry":{"type":"LineString","coordinates":[[4.3334,51.8235],[4.332743,51.82334]]},"properties":{"name":"Moleneind","highway":"unclassified","maxspeed":"30","profile":"car","distance":"2767.66","time":"911.0404"}},{"type":"Feature","name":"ShapeMeta","geometry":{"type":"LineString","coordinates":[[4.332743,51.82334],[4.332283,51.82323]]},"properties":{"name":"Moleneind","highway":"unclassified","maxspeed":"30","profile":"car","distance":"2801.66","time":"916.4803"}},{"type":"Feature","name":"ShapeMeta","geometry":{"type":"LineString","coordinates":[[4.332283,51.82323],[4.332163,51.82327],[4.331876,51.82364]]},"properties":{"name":"Visserskreek","highway":"unclassified","maxspeed":"30","profile":"car","distance":"2857.26","time":"925.3764"}},{"type":"Feature","name":"ShapeMeta","geometry":{"type":"LineString","coordinates":[[4.331876,51.82364],[4.331853,51.82368]]},"properties":{"name":"Visserskreek","highway":"unclassified","maxspeed":"30","profile":"car","distance":"2862.195","time":"926.1659"}},{"type":"Feature","name":"ShapeMeta","geometry":{"type":"LineString","coordinates":[[4.331853,51.82368],[4.331876,51.82364]]},"properties":{"name":"Visserskreek","highway":"unclassified","maxspeed":"30","profile":"car","distance":"2867.13","time":"926.9554"}},{"type":"Feature","name":"ShapeMeta","geometry":{"type":"LineString","coordinates":[[4.331876,51.82364],[4.332163,51.82327],[4.332283,51.82323]]},"properties":{"name":"Visserskreek","highway":"unclassified","maxspeed":"30","profile":"car","distance":"2922.729","time":"935.8514"}},{"type":"Feature","name":"ShapeMeta","geometry":{"type":"LineString","coordinates":[[4.332283,51.82323],[4.332743,51.82334]]},"properties":{"name":"Moleneind","highway":"unclassified","maxspeed":"30","profile":"car","distance":"2956.729","time":"941.2914"}},{"type":"Feature","name":"ShapeMeta","geometry":{"type":"LineString","coordinates":[[4.332743,51.82334],[4.3334,51.8235]]},"properties":{"name":"Moleneind","highway":"unclassified","maxspeed":"30","profile":"car","distance":"3005.229","time":"949.0514"}},{"type":"Feature","name":"ShapeMeta","geometry":{"type":"LineString","coordinates":[[4.3334,51.8235],[4.334577,51.82385]]},"properties":{"name":"Moleneind","highway":"unclassified","maxspeed":"30","profile":"car","distance":"3094.83","time":"963.3874"}},{"type":"Feature","name":"ShapeMeta","geometry":{"type":"LineString","coordinates":[[4.334577,51.82385],[4.334716,51.82365],[4.334756,51.82359],[4.334841,51.82349]]},"properties":{"name":"Wachthoevestraat","highway":"unclassified","maxspeed":"30","profile":"car","distance":"3138.229","time":"970.3314"}},{"type":"Feature","name":"ShapeMeta","geometry":{"type":"LineString","coordinates":[[4.334841,51.82349],[4.335911,51.82384],[4.336028,51.82389]]},"properties":{"name":"Westdijk","maxspeed":"80","highway":"secondary","profile":"car","distance":"3231.229","time":"975.9114"}},{"type":"Feature","name":"ShapeMeta","geometry":{"type":"LineString","coordinates":[[4.336028,51.82389],[4.33609,51.82385],[4.336174,51.82383],[4.336262,51.82384]]},"properties":{"name":"Hekelingseweg","junction":"roundabout","maxspeed":"80","highway":"secondary","profile":"car","distance":"3249.729","time":"977.0214"}},{"type":"Feature","name":"ShapeMeta","geometry":{"type":"LineString","coordinates":[[4.336262,51.82384],[4.336315,51.82386],[4.336358,51.82388],[4.336389,51.82391],[4.336401,51.82398],[4.336381,51.82402]]},"properties":{"name":"Hekelingseweg","junction":"roundabout","maxspeed":"80","highway":"secondary","profile":"car","distance":"3274.03","time":"978.4794"}},{"type":"Feature","name":"ShapeMeta","geometry":{"type":"LineString","coordinates":[[4.336381,51.82402],[4.336336,51.82405],[4.336199,51.82409],[4.336126,51.82407]]},"properties":{"name":"Hekelingseweg","junction":"roundabout","maxspeed":"80","highway":"secondary","profile":"car","distance":"3294.53","time":"979.7094"}},{"type":"Feature","name":"ShapeMeta","geometry":{"type":"LineString","coordinates":[[4.336126,51.82407],[4.336068,51.82415],[4.335522,51.82494],[4.335342,51.82512],[4.334378,51.82594],[4.33405,51.82627],[4.333961,51.8264]]},"properties":{"name":"Hekelingseweg","maxspeed":"50","highway":"secondary","profile":"car","distance":"3594.83","time":"1008.538"}},{"type":"Feature","name":"ShapeMeta","geometry":{"type":"LineString","coordinates":[[4.333961,51.8264],[4.33385,51.82658],[4.333744,51.8268],[4.333664,51.82705],[4.333645,51.82717],[4.333635,51.82729]]},"properties":{"name":"Hekelingseweg","maxspeed":"50","highway":"secondary","profile":"car","distance":"3696.729","time":"1018.321"}},{"type":"Feature","name":"ShapeMeta","geometry":{"type":"LineString","coordinates":[[4.333635,51.82729],[4.333636,51.82741],[4.333639,51.8275],[4.3337,51.8277],[4.33395,51.82809]]},"properties":{"name":"Hekelingseweg","maxspeed":"50","highway":"secondary","profile":"car","distance":"3788.63","time":"1027.143"}},{"type":"Feature","name":"ShapeMeta","geometry":{"type":"LineString","coordinates":[[4.33395,51.82809],[4.334713,51.82919],[4.334875,51.82943],[4.334988,51.8297],[4.335028,51.82985],[4.335047,51.83001],[4.335035,51.83016],[4.335034,51.83027]]},"properties":{"name":"Hekelingseweg","maxspeed":"50","highway":"secondary","profile":"car","distance":"4045.83","time":"1051.834"}},{"type":"Feature","name":"ShapeMeta","geometry":{"type":"LineString","coordinates":[[4.335034,51.83027],[4.33502,51.83052],[4.334882,51.83102],[4.334789,51.83123]]},"properties":{"name":"Hekelingseweg","maxspeed":"50","highway":"secondary","profile":"car","distance":"4154.33","time":"1062.25"}},{"type":"Feature","name":"ShapeMeta","geometry":{"type":"LineString","coordinates":[[4.334789,51.83123],[4.334695,51.83144],[4.33434,51.83228]]},"properties":{"name":"Hekelingseweg","maxspeed":"50","highway":"secondary","profile":"car","distance":"4274.13","time":"1073.751"}},{"type":"Feature","name":"ShapeMeta","geometry":{"type":"LineString","coordinates":[[4.33434,51.83228],[4.334135,51.83279],[4.333984,51.83319],[4.333944,51.83329]]},"properties":{"name":"Hekelingseweg","maxspeed":"50","oneway":"yes","highway":"secondary","profile":"car","distance":"4390.13","time":"1084.887"}},{"type":"Feature","name":"ShapeMeta","geometry":{"type":"LineString","coordinates":[[4.333944,51.83329],[4.334132,51.83332],[4.334222,51.83334],[4.334557,51.83341]]},"properties":{"name":"De Schouw","maxspeed":"50","highway":"tertiary","oneway":"yes","profile":"car","distance":"4434.23","time":"1089.121"}},{"type":"Feature","name":"ShapeMeta","geometry":{"type":"LineString","coordinates":[[4.334557,51.83341],[4.334939,51.83347],[4.33526,51.83353],[4.335445,51.83354]]},"properties":{"name":"De Schouw","highway":"tertiary","profile":"car","distance":"4497.23","time":"1093.441"}},{"type":"Feature","name":"ShapeMeta","geometry":{"type":"LineString","coordinates":[[4.335445,51.83354],[4.335537,51.83351],[4.335601,51.83341]]},"properties":{"name":"De Schouw","highway":"tertiary","profile":"car","distance":"4516.03","time":"1094.73"}},{"type":"Feature","name":"ShapeMeta","geometry":{"type":"LineString","coordinates":[[4.335601,51.83341],[4.335699,51.83327],[4.335924,51.83292]]},"properties":{"name":"De Schouw","highway":"tertiary","profile":"car","distance":"4575.43","time":"1098.803"}},{"type":"Feature","name":"ShapeMeta","geometry":{"type":"LineString","coordinates":[[4.335924,51.83292],[4.335856,51.8329]]},"properties":{"name":"Egelveen","highway":"residential","profile":"car","distance":"4580.226","time":"1099.263"}},{"type":"Feature","name":"ShapeMeta","geometry":{"type":"LineString","coordinates":[[4.335856,51.8329],[4.335924,51.83292]]},"properties":{"name":"Egelveen","highway":"residential","profile":"car","distance":"4585.022","time":"1099.723"}},{"type":"Feature","name":"ShapeMeta","geometry":{"type":"LineString","coordinates":[[4.335924,51.83292],[4.336067,51.83267]]},"properties":{"name":"De Schouw","highway":"tertiary","profile":"car","distance":"4614.222","time":"1101.726"}},{"type":"Feature","name":"ShapeMeta","geometry":{"type":"LineString","coordinates":[[4.336067,51.83267],[4.336157,51.83268],[4.3368,51.8328],[4.3373,51.8332]]},"properties":{"name":"Salamanderveen","highway":"residential","profile":"car","distance":"4722.622","time":"1112.132"}},{"type":"Feature","name":"ShapeMeta","geometry":{"type":"LineString","coordinates":[[4.3373,51.8332],[4.33692,51.83342],[4.336526,51.83363]]},"properties":{"name":"Salamanderveen","highway":"residential","profile":"car","distance":"4793.822","time":"1118.967"}},{"type":"Feature","name":"ShapeMeta","geometry":{"type":"LineString","coordinates":[[4.336526,51.83363],[4.336302,51.83345],[4.336193,51.83339],[4.336102,51.83356],[4.336138,51.83366]]},"properties":{"name":"Salamanderveen","highway":"residential","profile":"car","distance":"4861.315","time":"1125.447"}},{"type":"Feature","name":"ShapeMeta","geometry":{"type":"LineString","coordinates":[[4.336138,51.83366],[4.336102,51.83356],[4.336193,51.83339],[4.336302,51.83345],[4.336526,51.83363]]},"properties":{"name":"Salamanderveen","highway":"residential","profile":"car","distance":"4928.808","time":"1131.926"}},{"type":"Feature","name":"ShapeMeta","geometry":{"type":"LineString","coordinates":[[4.336526,51.83363],[4.33692,51.83342],[4.3373,51.8332]]},"properties":{"name":"Salamanderveen","highway":"residential","profile":"car","distance":"5000.008","time":"1138.762"}},{"type":"Feature","name":"ShapeMeta","geometry":{"type":"LineString","coordinates":[[4.3373,51.8332],[4.3377,51.833]]},"properties":{"name":"Salamanderveen","highway":"residential","profile":"car","distance":"5035.208","time":"1142.141"}},{"type":"Feature","name":"ShapeMeta","geometry":{"type":"LineString","coordinates":[[4.3377,51.833],[4.337743,51.83298]]},"properties":{"name":"Salamanderveen","highway":"residential","profile":"car","distance":"5039.119","time":"1142.516"}},{"type":"Feature","name":"ShapeMeta","geometry":{"type":"LineString","coordinates":[[4.337743,51.83298],[4.3377,51.833]]},"properties":{"name":"Salamanderveen","highway":"residential","profile":"car","distance":"5043.03","time":"1142.891"}},{"type":"Feature","name":"ShapeMeta","geometry":{"type":"LineString","coordinates":[[4.3377,51.833],[4.3373,51.8332]]},"properties":{"name":"Salamanderveen","highway":"residential","profile":"car","distance":"5078.23","time":"1146.271"}},{"type":"Feature","name":"ShapeMeta","geometry":{"type":"LineString","coordinates":[[4.3373,51.8332],[4.3368,51.8328],[4.336157,51.83268],[4.336067,51.83267]]},"properties":{"name":"Salamanderveen","highway":"residential","profile":"car","distance":"5186.63","time":"1156.677"}},{"type":"Feature","name":"ShapeMeta","geometry":{"type":"LineString","coordinates":[[4.336067,51.83267],[4.33653,51.83193]]},"properties":{"name":"De Schouw","highway":"tertiary","profile":"car","distance":"5274.43","time":"1162.698"}},{"type":"Feature","name":"ShapeMeta","geometry":{"type":"LineString","coordinates":[[4.33653,51.83193],[4.336393,51.83191]]},"properties":{"name":"Egelveen","highway":"unclassified","profile":"car","distance":"5284.131","time":"1163.629"}},{"type":"Feature","name":"ShapeMeta","geometry":{"type":"LineString","coordinates":[[4.336393,51.83191],[4.33653,51.83193]]},"properties":{"name":"Egelveen","highway":"unclassified","profile":"car","distance":"5293.831","time":"1164.56"}},{"type":"Feature","name":"ShapeMeta","geometry":{"type":"LineString","coordinates":[[4.33653,51.83193],[4.336637,51.83176],[4.336734,51.8316],[4.336813,51.83154],[4.336943,51.83153],[4.337406,51.83154]]},"properties":{"name":"De Schouw","highway":"tertiary","profile":"car","distance":"5382.431","time":"1170.636"}},{"type":"Feature","name":"ShapeMeta","geometry":{"type":"LineString","coordinates":[[4.337406,51.83154],[4.338023,51.83157]]},"properties":{"name":"De Schouw","highway":"tertiary","profile":"car","distance":"5424.931","time":"1173.55"}},{"type":"Feature","name":"ShapeMeta","geometry":{"type":"LineString","coordinates":[[4.338023,51.83157],[4.338902,51.8316]]},"properties":{"name":"De Schouw","highway":"tertiary","profile":"car","distance":"5485.431","time":"1177.699"}},{"type":"Feature","name":"ShapeMeta","geometry":{"type":"LineString","coordinates":[[4.338902,51.8316],[4.339423,51.83163],[4.340044,51.83164],[4.340175,51.83165]]},"properties":{"name":"De Schouw","highway":"tertiary","profile":"car","distance":"5573.031","time":"1183.705"}},{"type":"Feature","name":"ShapeMeta","geometry":{"type":"LineString","coordinates":[[4.340175,51.83165],[4.340238,51.83165],[4.340427,51.83166]]},"properties":{"name":"De Schouw","highway":"tertiary","profile":"car","distance":"5590.331","time":"1184.892"}},{"type":"Feature","name":"ShapeMeta","geometry":{"type":"LineString","coordinates":[[4.340427,51.83166],[4.340846,51.83168],[4.341269,51.8317],[4.341538,51.83173],[4.34169,51.83173]]},"properties":{"name":"De Schouw","highway":"tertiary","profile":"car","distance":"5677.431","time":"1190.864"}},{"type":"Feature","name":"ShapeMeta","geometry":{"type":"LineString","coordinates":[[4.34169,51.83173],[4.342601,51.83176]]},"properties":{"name":"De Schouw","highway":"tertiary","profile":"car","distance":"5740.131","time":"1195.164"}},{"type":"Feature","name":"ShapeMeta","geometry":{"type":"LineString","coordinates":[[4.342601,51.83176],[4.3432,51.8318]]},"properties":{"name":"De Schouw","highway":"tertiary","profile":"car","distance":"5781.431","time":"1197.996"}},{"type":"Feature","name":"ShapeMeta","geometry":{"type":"LineString","coordinates":[[4.3432,51.8318],[4.34324,51.83169]]},"properties":{"name":"Libelleveen","highway":"residential","profile":"car","distance":"5793.531","time":"1199.157"}},{"type":"Feature","name":"ShapeMeta","geometry":{"type":"LineString","coordinates":[[4.34324,51.83169],[4.343254,51.83165]]},"properties":{"name":"Libelleveen","highway":"residential","profile":"car","distance":"5797.908","time":"1199.577"}},{"type":"Feature","name":"ShapeMeta","geometry":{"type":"LineString","coordinates":[[4.343254,51.83165],[4.343373,51.83133],[4.343541,51.83088],[4.343574,51.83079]]},"properties":{"name":"Libelleveen","highway":"residential","profile":"car","distance":"5896.631","time":"1209.054"}},{"type":"Feature","name":"ShapeMeta","geometry":{"type":"LineString","coordinates":[[4.343574,51.83079],[4.343857,51.83079],[4.344036,51.83075],[4.344507,51.83076],[4.344465,51.83115]]},"properties":{"name":"Libelleveen","highway":"residential","profile":"car","distance":"6004.231","time":"1219.384"}},{"type":"Feature","name":"ShapeMeta","geometry":{"type":"LineString","coordinates":[[4.344465,51.83115],[4.345249,51.83118]]},"properties":{"name":"Karperveen","highway":"residential","profile":"car","distance":"6058.131","time":"1224.558"}},{"type":"Feature","name":"ShapeMeta","geometry":{"type":"LineString","coordinates":[[4.345249,51.83118],[4.345245,51.83123]]},"properties":{"name":"Karperveen","highway":"residential","profile":"car","distance":"6064.075","time":"1225.129"}},{"type":"Feature","name":"ShapeMeta","geometry":{"type":"LineString","coordinates":[[4.345245,51.83123],[4.345249,51.83118]]},"properties":{"name":"Karperveen","highway":"residential","profile":"car","distance":"6070.019","time":"1225.7"}},{"type":"Feature","name":"ShapeMeta","geometry":{"type":"LineString","coordinates":[[4.345249,51.83118],[4.345504,51.83119],[4.346022,51.8312],[4.346265,51.83121]]},"properties":{"name":"Karperveen","highway":"residential","profile":"car","distance":"6139.918","time":"1232.41"}},{"type":"Feature","name":"ShapeMeta","geometry":{"type":"LineString","coordinates":[[4.346265,51.83121],[4.346339,51.83121]]},"properties":{"name":"Karperveen","highway":"residential","profile":"car","distance":"6144.935","time":"1232.892"}},{"type":"Feature","name":"ShapeMeta","geometry":{"type":"LineString","coordinates":[[4.346339,51.83121],[4.346265,51.83121]]},"properties":{"name":"Karperveen","highway":"residential","profile":"car","distance":"6149.952","time":"1233.374"}},{"type":"Feature","name":"ShapeMeta","geometry":{"type":"LineString","coordinates":[[4.346265,51.83121],[4.346022,51.8312],[4.345504,51.83119],[4.345249,51.83118]]},"properties":{"name":"Karperveen","highway":"residential","profile":"car","distance":"6219.852","time":"1240.084"}},{"type":"Feature","name":"ShapeMeta","geometry":{"type":"LineString","coordinates":[[4.345249,51.83118],[4.344465,51.83115]]},"properties":{"name":"Karperveen","highway":"residential","profile":"car","distance":"6273.751","time":"1245.258"}},{"type":"Feature","name":"ShapeMeta","geometry":{"type":"LineString","coordinates":[[4.344465,51.83115],[4.344396,51.83177]]},"properties":{"name":"Libelleveen","highway":"residential","profile":"car","distance":"6342.552","time":"1251.863"}},{"type":"Feature","name":"ShapeMeta","geometry":{"type":"LineString","coordinates":[[4.344396,51.83177],[4.34462,51.83177]]},"properties":{"name":"Karperveen","highway":"residential","profile":"car","distance":"6357.952","time":"1253.342"}},{"type":"Feature","name":"ShapeMeta","geometry":{"type":"LineString","coordinates":[[4.34462,51.83177],[4.344697,51.83177],[4.344694,51.83186],[4.344748,51.83186],[4.345204,51.83187]]},"properties":{"name":"Karperveen","highway":"residential","profile":"car","distance":"6408.052","time":"1258.151"}},{"type":"Feature","name":"ShapeMeta","geometry":{"type":"LineString","coordinates":[[4.345204,51.83187],[4.345496,51.83187],[4.34556,51.83187]]},"properties":{"name":"Karperveen","highway":"residential","profile":"car","distance":"6432.452","time":"1260.494"}},{"type":"Feature","name":"ShapeMeta","geometry":{"type":"LineString","coordinates":[[4.34556,51.83187],[4.345564,51.8318],[4.346172,51.83182],[4.346179,51.83179]]},"properties":{"name":"Karperveen","highway":"residential","profile":"car","distance":"6485.335","time":"1265.57"}},{"type":"Feature","name":"ShapeMeta","geometry":{"type":"LineString","coordinates":[[4.346179,51.83179],[4.346172,51.83182],[4.345564,51.8318],[4.34556,51.83187]]},"properties":{"name":"Karperveen","highway":"residential","profile":"car","distance":"6538.218","time":"1270.647"}},{"type":"Feature","name":"ShapeMeta","geometry":{"type":"LineString","coordinates":[[4.34556,51.83187],[4.345496,51.83187],[4.345204,51.83187]]},"properties":{"name":"Karperveen","highway":"residential","profile":"car","distance":"6562.618","time":"1272.989"}},{"type":"Feature","name":"ShapeMeta","geometry":{"type":"LineString","coordinates":[[4.345204,51.83187],[4.344748,51.83186],[4.344694,51.83186],[4.344697,51.83177],[4.34462,51.83177]]},"properties":{"name":"Karperveen","highway":"residential","profile":"car","distance":"6612.718","time":"1277.799"}},{"type":"Feature","name":"ShapeMeta","geometry":{"type":"LineString","coordinates":[[4.34462,51.83177],[4.344396,51.83177]]},"properties":{"name":"Karperveen","highway":"residential","profile":"car","distance":"6628.118","time":"1279.277"}},{"type":"Feature","name":"ShapeMeta","geometry":{"type":"LineString","coordinates":[[4.344396,51.83177],[4.344309,51.83186]]},"properties":{"name":"Libelleveen","highway":"residential","profile":"car","distance":"6640.218","time":"1280.439"}},{"type":"Feature","name":"ShapeMeta","geometry":{"type":"LineString","coordinates":[[4.344309,51.83186],[4.34448,51.8322],[4.344522,51.83229]]},"properties":{"name":"De Dijkgraaf","highway":"tertiary","profile":"car","distance":"6689.518","time":"1283.819"}},{"type":"Feature","name":"ShapeMeta","geometry":{"type":"LineString","coordinates":[[4.344522,51.83229],[4.344665,51.8326]]},"properties":{"name":"De Dijkgraaf","highway":"tertiary","profile":"car","distance":"6725.618","time":"1286.295"}},{"type":"Feature","name":"ShapeMeta","geometry":{"type":"LineString","coordinates":[[4.344665,51.8326],[4.3447,51.8327],[4.34476,51.83287]]},"properties":{"name":"De Dijkgraaf","highway":"tertiary","profile":"car","distance":"6756.018","time":"1288.379"}},{"type":"Feature","name":"ShapeMeta","geometry":{"type":"LineString","coordinates":[[4.34476,51.83287],[4.34482,51.83303]]},"properties":{"name":"De Dijkgraaf","highway":"tertiary","profile":"car","distance":"6775.118","time":"1289.689"}},{"type":"Feature","name":"ShapeMeta","geometry":{"type":"LineString","coordinates":[[4.34482,51.83303],[4.345801,51.83301]]},"properties":{"name":"De Ganzenjager","highway":"unclassified","maxspeed":"30","profile":"car","distance":"6842.518","time":"1300.473"}},{"type":"Feature","name":"ShapeMeta","geometry":{"type":"LineString","coordinates":[[4.345801,51.83301],[4.346057,51.83301]]},"properties":{"name":"De Ganzenjager","highway":"unclassified","maxspeed":"30","profile":"car","distance":"6860.118","time":"1303.289"}},{"type":"Feature","name":"ShapeMeta","geometry":{"type":"LineString","coordinates":[[4.346057,51.83301],[4.346771,51.83299]]},"properties":{"name":"De Ganzenjager","highway":"unclassified","maxspeed":"30","profile":"car","distance":"6909.118","time":"1311.129"}},{"type":"Feature","name":"ShapeMeta","geometry":{"type":"LineString","coordinates":[[4.346771,51.83299],[4.347427,51.83298],[4.347785,51.83297]]},"properties":{"name":"De Ganzenjager","highway":"unclassified","maxspeed":"30","profile":"car","distance":"6978.818","time":"1322.281"}},{"type":"Feature","name":"ShapeMeta","geometry":{"type":"LineString","coordinates":[[4.347785,51.83297],[4.348495,51.83295]]},"properties":{"name":"De Ganzenjager","highway":"unclassified","maxspeed":"30","profile":"car","distance":"7027.518","time":"1330.073"}},{"type":"Feature","name":"ShapeMeta","geometry":{"type":"LineString","coordinates":[[4.348495,51.83295],[4.348752,51.83295]]},"properties":{"name":"De Ganzenjager","highway":"unclassified","maxspeed":"30","profile":"car","distance":"7045.118","time":"1332.889"}},{"type":"Feature","name":"ShapeMeta","geometry":{"type":"LineString","coordinates":[[4.348752,51.83295],[4.349412,51.83293],[4.349487,51.83295]]},"properties":{"name":"De Ganzenjager","highway":"residential","profile":"car","distance":"7096.171","time":"1337.79"}},{"type":"Feature","name":"ShapeMeta","geometry":{"type":"LineString","coordinates":[[4.349487,51.83295],[4.349412,51.83293],[4.348752,51.83295]]},"properties":{"name":"De Ganzenjager","highway":"residential","profile":"car","distance":"7147.224","time":"1342.691"}},{"type":"Feature","name":"ShapeMeta","geometry":{"type":"LineString","coordinates":[[4.348752,51.83295],[4.348495,51.83295]]},"properties":{"name":"De Ganzenjager","highway":"unclassified","maxspeed":"30","profile":"car","distance":"7164.824","time":"1345.507"}},{"type":"Feature","name":"ShapeMeta","geometry":{"type":"LineString","coordinates":[[4.348495,51.83295],[4.348496,51.83286],[4.348499,51.83258],[4.348418,51.83252]]},"properties":{"name":"Karperveen","highway":"residential","profile":"car","distance":"7215.524","time":"1350.374"}},{"type":"Feature","name":"ShapeMeta","geometry":{"type":"LineString","coordinates":[[4.348418,51.83252],[4.348413,51.83249]]},"properties":{"name":"Karperveen","highway":"residential","profile":"car","distance":"7218.095","time":"1350.621"}},{"type":"Feature","name":"ShapeMeta","geometry":{"type":"LineString","coordinates":[[4.348413,51.83249],[4.3483,51.83197]]},"properties":{"name":"Karperveen","highway":"residential","profile":"car","distance":"7276.624","time":"1356.24"}},{"type":"Feature","name":"ShapeMeta","geometry":{"type":"LineString","coordinates":[[4.3483,51.83197],[4.3483,51.83183]]},"properties":{"name":"Karperveen","highway":"residential","profile":"car","distance":"7291.824","time":"1357.699"}},{"type":"Feature","name":"ShapeMeta","geometry":{"type":"LineString","coordinates":[[4.3483,51.83183],[4.3483,51.83175],[4.3483,51.83171]]},"properties":{"name":"Karperveen","highway":"residential","profile":"car","distance":"7305.724","time":"1359.033"}},{"type":"Feature","name":"ShapeMeta","geometry":{"type":"LineString","coordinates":[[4.3483,51.83171],[4.3483,51.8317]]},"properties":{"name":"Karperveen","highway":"residential","profile":"car","distance":"7306.997","time":"1359.156"}},{"type":"Feature","name":"ShapeMeta","geometry":{"type":"LineString","coordinates":[[4.3483,51.8317],[4.3483,51.83171]]},"properties":{"name":"Karperveen","highway":"residential","profile":"car","distance":"7308.27","time":"1359.278"}},{"type":"Feature","name":"ShapeMeta","geometry":{"type":"LineString","coordinates":[[4.3483,51.83171],[4.3483,51.83175],[4.3483,51.83183]]},"properties":{"name":"Karperveen","highway":"residential","profile":"car","distance":"7322.169","time":"1360.613"}},{"type":"Feature","name":"ShapeMeta","geometry":{"type":"LineString","coordinates":[[4.3483,51.83183],[4.3483,51.83197]]},"properties":{"name":"Karperveen","highway":"residential","profile":"car","distance":"7337.37","time":"1362.072"}},{"type":"Feature","name":"ShapeMeta","geometry":{"type":"LineString","coordinates":[[4.3483,51.83197],[4.348306,51.832]]},"properties":{"name":"Karperveen","highway":"residential","profile":"car","distance":"7340.356","time":"1362.358"}},{"type":"Feature","name":"ShapeMeta","geometry":{"type":"LineString","coordinates":[[4.348306,51.832],[4.348418,51.83252]]},"properties":{"name":"Karperveen","highway":"residential","profile":"car","distance":"7398.47","time":"1367.937"}},{"type":"Feature","name":"ShapeMeta","geometry":{"type":"LineString","coordinates":[[4.348418,51.83252],[4.348499,51.83258],[4.348496,51.83286],[4.348495,51.83295]]},"properties":{"name":"Karperveen","highway":"residential","profile":"car","distance":"7449.17","time":"1372.804"}},{"type":"Feature","name":"ShapeMeta","geometry":{"type":"LineString","coordinates":[[4.348495,51.83295],[4.347785,51.83297]]},"properties":{"name":"De Ganzenjager","highway":"unclassified","maxspeed":"30","profile":"car","distance":"7497.87","time":"1380.596"}},{"type":"Feature","name":"ShapeMeta","geometry":{"type":"LineString","coordinates":[[4.347785,51.83297],[4.347427,51.83298],[4.346771,51.83299]]},"properties":{"name":"De Ganzenjager","highway":"unclassified","maxspeed":"30","profile":"car","distance":"7567.57","time":"1391.748"}},{"type":"Feature","name":"ShapeMeta","geometry":{"type":"LineString","coordinates":[[4.346771,51.83299],[4.346057,51.83301]]},"properties":{"name":"De Ganzenjager","highway":"unclassified","maxspeed":"30","profile":"car","distance":"7616.57","time":"1399.588"}},{"type":"Feature","name":"ShapeMeta","geometry":{"type":"LineString","coordinates":[[4.346057,51.83301],[4.345801,51.83301]]},"properties":{"name":"De Ganzenjager","highway":"unclassified","maxspeed":"30","profile":"car","distance":"7634.17","time":"1402.404"}},{"type":"Feature","name":"ShapeMeta","geometry":{"type":"LineString","coordinates":[[4.345801,51.83301],[4.345811,51.83271]]},"properties":{"name":"Karperveen","highway":"unclassified","profile":"car","distance":"7667.198","time":"1405.575"}},{"type":"Feature","name":"ShapeMeta","geometry":{"type":"LineString","coordinates":[[4.345811,51.83271],[4.345801,51.83301]]},"properties":{"name":"Karperveen","highway":"unclassified","profile":"car","distance":"7700.227","time":"1408.746"}},{"type":"Feature","name":"ShapeMeta","geometry":{"type":"LineString","coordinates":[[4.345801,51.83301],[4.34482,51.83303]]},"properties":{"name":"De Ganzenjager","highway":"unclassified","maxspeed":"30","profile":"car","distance":"7767.627","time":"1419.53"}},{"type":"Feature","name":"ShapeMeta","geometry":{"type":"LineString","coordinates":[[4.34482,51.83303],[4.344777,51.83344]]},"properties":{"name":"De Dijkgraaf","highway":"tertiary","profile":"car","distance":"7812.633","time":"1422.616"}},{"type":"Feature","name":"ShapeMeta","geometry":{"type":"LineString","coordinates":[[4.344777,51.83344],[4.344779,51.83341]]},"properties":{"name":"De Dijkgraaf","highway":"tertiary","profile":"car","distance":"7816.03","time":"1422.849"}},{"type":"Feature","name":"ShapeMeta","geometry":{"type":"LineString","coordinates":[[4.344779,51.83341],[4.34482,51.83303]]},"properties":{"name":"De Dijkgraaf","highway":"tertiary","profile":"car","distance":"7857.639","time":"1425.702"}},{"type":"Feature","name":"ShapeMeta","geometry":{"type":"LineString","coordinates":[[4.34482,51.83303],[4.34476,51.83287]]},"properties":{"name":"De Dijkgraaf","highway":"tertiary","profile":"car","distance":"7876.739","time":"1427.012"}},{"type":"Feature","name":"ShapeMeta","geometry":{"type":"LineString","coordinates":[[4.34476,51.83287],[4.3447,51.8327],[4.344665,51.8326]]},"properties":{"name":"De Dijkgraaf","highway":"tertiary","profile":"car","distance":"7907.139","time":"1429.096"}},{"type":"Feature","name":"ShapeMeta","geometry":{"type":"LineString","coordinates":[[4.344665,51.8326],[4.344522,51.83229]]},"properties":{"name":"De Dijkgraaf","highway":"tertiary","profile":"car","distance":"7943.239","time":"1431.572"}},{"type":"Feature","name":"ShapeMeta","geometry":{"type":"LineString","coordinates":[[4.344522,51.83229],[4.34448,51.8322],[4.344464,51.83216]]},"properties":{"name":"De Dijkgraaf","highway":"tertiary","profile":"car","distance":"7957.34","time":"1432.539"}},{"type":"Feature","name":"ShapeMeta","geometry":{"type":"LineString","coordinates":[[4.344464,51.83216],[4.344309,51.83186]]},"properties":{"name":"De Dijkgraaf","highway":"tertiary","profile":"car","distance":"7992.539","time":"1434.953"}},{"type":"Feature","name":"ShapeMeta","geometry":{"type":"LineString","coordinates":[[4.344309,51.83186],[4.344021,51.83184]]},"properties":{"name":"De Schouw","highway":"tertiary","profile":"car","distance":"8012.438","time":"1436.317"}},{"type":"Feature","name":"ShapeMeta","geometry":{"type":"LineString","coordinates":[[4.344021,51.83184],[4.344018,51.83194]]},"properties":{"highway":"service","profile":"car","distance":"8023.039","time":"1438.013"}},{"type":"Feature","name":"ShapeMeta","geometry":{"type":"LineString","coordinates":[[4.344018,51.83194],[4.344013,51.83202]]},"properties":{"highway":"service","profile":"car","distance":"8032.327","time":"1439.499"}},{"type":"Feature","name":"ShapeMeta","geometry":{"type":"LineString","coordinates":[[4.344013,51.83202],[4.344018,51.83194]]},"properties":{"highway":"service","profile":"car","distance":"8041.616","time":"1440.985"}},{"type":"Feature","name":"ShapeMeta","geometry":{"type":"LineString","coordinates":[[4.344018,51.83194],[4.344021,51.83184]]},"properties":{"highway":"service","profile":"car","distance":"8052.215","time":"1442.681"}},{"type":"Feature","name":"ShapeMeta","geometry":{"type":"LineString","coordinates":[[4.344021,51.83184],[4.343637,51.83183],[4.343556,51.83182]]},"properties":{"name":"De Schouw","highway":"tertiary","profile":"car","distance":"8084.215","time":"1444.875"}},{"type":"Feature","name":"ShapeMeta","geometry":{"type":"LineString","coordinates":[[4.343556,51.83182],[4.3432,51.8318]]},"properties":{"name":"De Schouw","highway":"tertiary","profile":"car","distance":"8108.715","time":"1446.555"}},{"type":"Feature","name":"ShapeMeta","geometry":{"type":"LineString","coordinates":[[4.3432,51.8318],[4.342601,51.83176]]},"properties":{"name":"De Schouw","highway":"tertiary","profile":"car","distance":"8150.016","time":"1449.387"}},{"type":"Feature","name":"ShapeMeta","geometry":{"type":"LineString","coordinates":[[4.342601,51.83176],[4.34169,51.83173]]},"properties":{"name":"De Schouw","highway":"tertiary","profile":"car","distance":"8212.716","time":"1453.687"}},{"type":"Feature","name":"ShapeMeta","geometry":{"type":"LineString","coordinates":[[4.34169,51.83173],[4.3417,51.83166]]},"properties":{"name":"Libelleveen","highway":"residential","profile":"car","distance":"8220.716","time":"1454.455"}},{"type":"Feature","name":"ShapeMeta","geometry":{"type":"LineString","coordinates":[[4.3417,51.83166],[4.34175,51.8311],[4.341763,51.83101]]},"properties":{"name":"Libelleveen","highway":"residential","profile":"car","distance":"8293.315","time":"1461.424"}},{"type":"Feature","name":"ShapeMeta","geometry":{"type":"LineString","coordinates":[[4.341763,51.83101],[4.34177,51.83098]]},"properties":{"name":"Libelleveen","highway":"residential","profile":"car","distance":"8296.315","time":"1461.713"}},{"type":"Feature","name":"ShapeMeta","geometry":{"type":"LineString","coordinates":[[4.34177,51.83098],[4.341774,51.83094]]},"properties":{"name":"Libelleveen","highway":"residential","profile":"car","distance":"8300.953","time":"1462.158"}},{"type":"Feature","name":"ShapeMeta","geometry":{"type":"LineString","coordinates":[[4.341774,51.83094],[4.34177,51.83098]]},"properties":{"name":"Libelleveen","highway":"residential","profile":"car","distance":"8305.591","time":"1462.603"}},{"type":"Feature","name":"ShapeMeta","geometry":{"type":"LineString","coordinates":[[4.34177,51.83098],[4.341763,51.83101]]},"properties":{"name":"Libelleveen","highway":"residential","profile":"car","distance":"8308.591","time":"1462.891"}},{"type":"Feature","name":"ShapeMeta","geometry":{"type":"LineString","coordinates":[[4.341763,51.83101],[4.34175,51.8311],[4.3417,51.83166]]},"properties":{"name":"Libelleveen","highway":"residential","profile":"car","distance":"8381.191","time":"1469.861"}},{"type":"Feature","name":"ShapeMeta","geometry":{"type":"LineString","coordinates":[[4.3417,51.83166],[4.34169,51.83173]]},"properties":{"name":"Libelleveen","highway":"residential","profile":"car","distance":"8389.191","time":"1470.629"}},{"type":"Feature","name":"ShapeMeta","geometry":{"type":"LineString","coordinates":[[4.34169,51.83173],[4.341681,51.83179],[4.341677,51.83185]]},"properties":{"name":"Vlinderveen","highway":"residential","profile":"car","distance":"8401.891","time":"1471.848"}},{"type":"Feature","name":"ShapeMeta","geometry":{"type":"LineString","coordinates":[[4.341677,51.83185],[4.341615,51.83184]]},"properties":{"name":"Slakkenveen","highway":"residential","profile":"car","distance":"8406.168","time":"1472.259"}},{"type":"Feature","name":"ShapeMeta","geometry":{"type":"LineString","coordinates":[[4.341615,51.83184],[4.341677,51.83185]]},"properties":{"name":"Slakkenveen","highway":"residential","profile":"car","distance":"8410.445","time":"1472.67"}},{"type":"Feature","name":"ShapeMeta","geometry":{"type":"LineString","coordinates":[[4.341677,51.83185],[4.341696,51.83212]]},"properties":{"name":"Vlinderveen","highway":"residential","profile":"car","distance":"8440.146","time":"1475.521"}},{"type":"Feature","name":"ShapeMeta","geometry":{"type":"LineString","coordinates":[[4.341696,51.83212],[4.341694,51.83224],[4.341695,51.83228],[4.341687,51.83257]]},"properties":{"name":"Vlinderveen","highway":"residential","profile":"car","distance":"8491.045","time":"1480.407"}},{"type":"Feature","name":"ShapeMeta","geometry":{"type":"LineString","coordinates":[[4.341687,51.83257],[4.341737,51.83277],[4.341673,51.83329]]},"properties":{"name":"Vlinderveen","highway":"residential","profile":"car","distance":"8571.646","time":"1488.145"}},{"type":"Feature","name":"ShapeMeta","geometry":{"type":"LineString","coordinates":[[4.341673,51.83329],[4.341299,51.83327]]},"properties":{"name":"Slakkenveen","highway":"residential","profile":"car","distance":"8597.445","time":"1490.622"}},{"type":"Feature","name":"ShapeMeta","geometry":{"type":"LineString","coordinates":[[4.341299,51.83327],[4.341221,51.83325],[4.341196,51.83324],[4.340552,51.83322]]},"properties":{"name":"Slakkenveen","highway":"residential","profile":"car","distance":"8649.945","time":"1495.662"}},{"type":"Feature","name":"ShapeMeta","geometry":{"type":"LineString","coordinates":[[4.340552,51.83322],[4.340333,51.83321]]},"properties":{"name":"Slakkenveen","highway":"residential","profile":"car","distance":"8664.979","time":"1497.105"}},{"type":"Feature","name":"ShapeMeta","geometry":{"type":"LineString","coordinates":[[4.340333,51.83321],[4.340552,51.83322]]},"properties":{"name":"Slakkenveen","highway":"residential","profile":"car","distance":"8680.012","time":"1498.548"}},{"type":"Feature","name":"ShapeMeta","geometry":{"type":"LineString","coordinates":[[4.340552,51.83322],[4.341196,51.83324],[4.341221,51.83325],[4.341299,51.83327]]},"properties":{"name":"Slakkenveen","highway":"residential","profile":"car","distance":"8732.512","time":"1503.588"}},{"type":"Feature","name":"ShapeMeta","geometry":{"type":"LineString","coordinates":[[4.341299,51.83327],[4.341673,51.83329]]},"properties":{"name":"Slakkenveen","highway":"residential","profile":"car","distance":"8758.312","time":"1506.065"}},{"type":"Feature","name":"ShapeMeta","geometry":{"type":"LineString","coordinates":[[4.341673,51.83329],[4.341737,51.83277],[4.341687,51.83257]]},"properties":{"name":"Vlinderveen","highway":"residential","profile":"car","distance":"8838.911","time":"1513.802"}},{"type":"Feature","name":"ShapeMeta","geometry":{"type":"LineString","coordinates":[[4.341687,51.83257],[4.341638,51.83257]]},"properties":{"name":"Slakkenveen","highway":"residential","profile":"car","distance":"8842.34","time":"1514.132"}},{"type":"Feature","name":"ShapeMeta","geometry":{"type":"LineString","coordinates":[[4.341638,51.83257],[4.341266,51.83255],[4.340856,51.83253],[4.34067,51.83263]]},"properties":{"name":"Slakkenveen","highway":"residential","profile":"car","distance":"8913.012","time":"1520.917"}},{"type":"Feature","name":"ShapeMeta","geometry":{"type":"LineString","coordinates":[[4.34067,51.83263],[4.340585,51.83268]]},"properties":{"name":"Slakkenveen","highway":"residential","profile":"car","distance":"8921.012","time":"1521.684"}},{"type":"Feature","name":"ShapeMeta","geometry":{"type":"LineString","coordinates":[[4.340585,51.83268],[4.340479,51.83261],[4.340069,51.83229],[4.340074,51.83204],[4.340153,51.83194],[4.340168,51.83175]]},"properties":{"name":"Slakkenveen","highway":"residential","profile":"car","distance":"9039.111","time":"1533.022"}},{"type":"Feature","name":"ShapeMeta","geometry":{"type":"LineString","coordinates":[[4.340168,51.83175],[4.340175,51.83165]]},"properties":{"name":"Slakkenveen","highway":"residential","profile":"car","distance":"9050.111","time":"1534.078"}},{"type":"Feature","name":"ShapeMeta","geometry":{"type":"LineString","coordinates":[[4.340175,51.83165],[4.340044,51.83164],[4.339423,51.83163],[4.338902,51.8316]]},"properties":{"name":"De Schouw","highway":"tertiary","profile":"car","distance":"9137.712","time":"1540.085"}},{"type":"Feature","name":"ShapeMeta","geometry":{"type":"LineString","coordinates":[[4.338902,51.8316],[4.338892,51.83189]]},"properties":{"name":"Slakkenveen","highway":"unclassified","profile":"car","distance":"9169.455","time":"1543.132"}},{"type":"Feature","name":"ShapeMeta","geometry":{"type":"LineString","coordinates":[[4.338892,51.83189],[4.338902,51.8316]]},"properties":{"name":"Slakkenveen","highway":"unclassified","profile":"car","distance":"9201.198","time":"1546.179"}},{"type":"Feature","name":"ShapeMeta","geometry":{"type":"LineString","coordinates":[[4.338902,51.8316],[4.338023,51.83157]]},"properties":{"name":"De Schouw","highway":"tertiary","profile":"car","distance":"9261.698","time":"1550.328"}},{"type":"Feature","name":"ShapeMeta","geometry":{"type":"LineString","coordinates":[[4.338023,51.83157],[4.338042,51.83144]]},"properties":{"name":"Krekelveen","highway":"residential","profile":"car","distance":"9276.099","time":"1551.71"}},{"type":"Feature","name":"ShapeMeta","geometry":{"type":"LineString","coordinates":[[4.338042,51.83144],[4.338076,51.83113],[4.338113,51.83086],[4.338116,51.83082]]},"properties":{"name":"Krekelveen","highway":"residential","profile":"car","distance":"9344.498","time":"1558.277"}},{"type":"Feature","name":"ShapeMeta","geometry":{"type":"LineString","coordinates":[[4.338116,51.83082],[4.338126,51.83069]]},"properties":{"name":"Krekelveen","highway":"residential","profile":"car","distance":"9359.299","time":"1559.698"}},{"type":"Feature","name":"ShapeMeta","geometry":{"type":"LineString","coordinates":[[4.338126,51.83069],[4.338081,51.83066],[4.338033,51.83063]]},"properties":{"name":"Krekelveen","highway":"residential","profile":"car","distance":"9368.299","time":"1560.562"}},{"type":"Feature","name":"ShapeMeta","geometry":{"type":"LineString","coordinates":[[4.338033,51.83063],[4.337961,51.83051],[4.338021,51.83002]]},"properties":{"name":"Krekelveen","highway":"residential","profile":"car","distance":"9437.599","time":"1567.214"}},{"type":"Feature","name":"ShapeMeta","geometry":{"type":"LineString","coordinates":[[4.338021,51.83002],[4.338505,51.83004]]},"properties":{"name":"Krekelveen","highway":"residential","profile":"car","distance":"9470.981","time":"1570.419"}},{"type":"Feature","name":"ShapeMeta","geometry":{"type":"LineString","coordinates":[[4.338505,51.83004],[4.338021,51.83002]]},"properties":{"name":"Krekelveen","highway":"residential","profile":"car","distance":"9504.365","time":"1573.624"}},{"type":"Feature","name":"ShapeMeta","geometry":{"type":"LineString","coordinates":[[4.338021,51.83002],[4.337961,51.83051],[4.338033,51.83063]]},"properties":{"name":"Krekelveen","highway":"residential","profile":"car","distance":"9573.665","time":"1580.277"}},{"type":"Feature","name":"ShapeMeta","geometry":{"type":"LineString","coordinates":[[4.338033,51.83063],[4.338081,51.83066],[4.338126,51.83069]]},"properties":{"name":"Krekelveen","highway":"residential","profile":"car","distance":"9582.665","time":"1581.141"}},{"type":"Feature","name":"ShapeMeta","geometry":{"type":"LineString","coordinates":[[4.338126,51.83069],[4.338116,51.83082]]},"properties":{"name":"Krekelveen","highway":"residential","profile":"car","distance":"9597.465","time":"1582.561"}},{"type":"Feature","name":"ShapeMeta","geometry":{"type":"LineString","coordinates":[[4.338116,51.83082],[4.338113,51.83086],[4.33811,51.83088]]},"properties":{"name":"Krekelveen","highway":"residential","profile":"car","distance":"9604.255","time":"1583.213"}},{"type":"Feature","name":"ShapeMeta","geometry":{"type":"LineString","coordinates":[[4.33811,51.83088],[4.338112,51.83087]]},"properties":{"name":"Krekelveen","highway":"residential","profile":"car","distance":"9605.945","time":"1583.375"}},{"type":"Feature","name":"ShapeMeta","geometry":{"type":"LineString","coordinates":[[4.338112,51.83087],[4.338076,51.83113],[4.338042,51.83144]]},"properties":{"name":"Krekelveen","highway":"residential","profile":"car","distance":"9669.246","time":"1589.452"}},{"type":"Feature","name":"ShapeMeta","geometry":{"type":"LineString","coordinates":[[4.338042,51.83144],[4.338023,51.83157]]},"properties":{"name":"Krekelveen","highway":"residential","profile":"car","distance":"9683.646","time":"1590.834"}},{"type":"Feature","name":"ShapeMeta","geometry":{"type":"LineString","coordinates":[[4.338023,51.83157],[4.337406,51.83154]]},"properties":{"name":"De Schouw","highway":"tertiary","profile":"car","distance":"9726.146","time":"1593.749"}},{"type":"Feature","name":"ShapeMeta","geometry":{"type":"LineString","coordinates":[[4.337406,51.83154],[4.336943,51.83153],[4.336813,51.83154],[4.336734,51.8316],[4.336637,51.83176],[4.33653,51.83193]]},"properties":{"name":"De Schouw","highway":"tertiary","profile":"car","distance":"9814.746","time":"1599.824"}},{"type":"Feature","name":"ShapeMeta","geometry":{"type":"LineString","coordinates":[[4.33653,51.83193],[4.336067,51.83267]]},"properties":{"name":"De Schouw","highway":"tertiary","profile":"car","distance":"9902.546","time":"1605.844"}},{"type":"Feature","name":"ShapeMeta","geometry":{"type":"LineString","coordinates":[[4.336067,51.83267],[4.335924,51.83292]]},"properties":{"name":"De Schouw","highway":"tertiary","profile":"car","distance":"9931.746","time":"1607.847"}},{"type":"Feature","name":"ShapeMeta","geometry":{"type":"LineString","coordinates":[[4.335924,51.83292],[4.335699,51.83327],[4.335601,51.83341]]},"properties":{"name":"De Schouw","highway":"tertiary","profile":"car","distance":"9991.146","time":"1611.92"}},{"type":"Feature","name":"ShapeMeta","geometry":{"type":"LineString","coordinates":[[4.335601,51.83341],[4.335537,51.83351],[4.335445,51.83354]]},"properties":{"name":"De Schouw","highway":"tertiary","profile":"car","distance":"10009.95","time":"1613.209"}},{"type":"Feature","name":"ShapeMeta","geometry":{"type":"LineString","coordinates":[[4.335445,51.83354],[4.33526,51.83353],[4.334939,51.83347],[4.334557,51.83341]]},"properties":{"name":"De Schouw","highway":"tertiary","profile":"car","distance":"10072.95","time":"1617.529"}},{"type":"Feature","name":"ShapeMeta","geometry":{"type":"LineString","coordinates":[[4.334557,51.83341],[4.334476,51.83343],[4.334097,51.83339],[4.33392,51.83337]]},"properties":{"name":"De Schouw","maxspeed":"50","highway":"tertiary","oneway":"yes","profile":"car","distance":"10117.55","time":"1621.811"}},{"type":"Feature","name":"ShapeMeta","geometry":{"type":"LineString","coordinates":[[4.33392,51.83337],[4.333775,51.83335]]},"properties":{"name":"Gaard","maxspeed":"50","highway":"tertiary","oneway":"yes","profile":"car","distance":"10127.85","time":"1622.799"}},{"type":"Feature","name":"ShapeMeta","geometry":{"type":"LineString","coordinates":[[4.333775,51.83335],[4.333804,51.83327]]},"properties":{"name":"Hekelingseweg","maxspeed":"50","oneway":"yes","highway":"secondary","profile":"car","distance":"10136.15","time":"1623.596"}},{"type":"Feature","name":"ShapeMeta","geometry":{"type":"LineString","coordinates":[[4.333804,51.83327],[4.333855,51.83318],[4.334152,51.8326],[4.33434,51.83228]]},"properties":{"name":"Hekelingseweg","maxspeed":"50","oneway":"yes","highway":"secondary","profile":"car","distance":"10253.25","time":"1634.838"}},{"type":"Feature","name":"ShapeMeta","geometry":{"type":"LineString","coordinates":[[4.33434,51.83228],[4.334695,51.83144],[4.334789,51.83123]]},"properties":{"name":"Hekelingseweg","maxspeed":"50","highway":"secondary","profile":"car","distance":"10373.05","time":"1646.339"}},{"type":"Feature","name":"ShapeMeta","geometry":{"type":"LineString","coordinates":[[4.334789,51.83123],[4.334882,51.83102],[4.33502,51.83052],[4.335034,51.83027]]},"properties":{"name":"Hekelingseweg","maxspeed":"50","highway":"secondary","profile":"car","distance":"10481.55","time":"1656.755"}},{"type":"Feature","name":"ShapeMeta","geometry":{"type":"LineString","coordinates":[[4.335034,51.83027],[4.335257,51.83027]]},"properties":{"name":"Meeldijk","highway":"unclassified","maxspeed":"50","profile":"car","distance":"10496.85","time":"1658.224"}},{"type":"Feature","name":"ShapeMeta","geometry":{"type":"LineString","coordinates":[[4.335257,51.83027],[4.335322,51.83027],[4.335623,51.83025]]},"properties":{"name":"Meeldijk","highway":"unclassified","maxspeed":"50","profile":"car","distance":"10522.05","time":"1660.643"}},{"type":"Feature","name":"ShapeMeta","geometry":{"type":"LineString","coordinates":[[4.335623,51.83025],[4.335743,51.8302],[4.33585,51.83013],[4.335898,51.83008]]},"properties":{"name":"Meeldijk","highway":"unclassified","maxspeed":"30","profile":"car","distance":"10549.55","time":"1665.043"}},{"type":"Feature","name":"ShapeMeta","geometry":{"type":"LineString","coordinates":[[4.335898,51.83008],[4.336523,51.82943]]},"properties":{"name":"Meeldijk","highway":"unclassified","maxspeed":"30","profile":"car","distance":"10633.45","time":"1678.467"}},{"type":"Feature","name":"ShapeMeta","geometry":{"type":"LineString","coordinates":[[4.336523,51.82943],[4.336696,51.8293]]},"properties":{"name":"Meeldijk","highway":"unclassified","maxspeed":"30","profile":"car","distance":"10652.45","time":"1681.507"}},{"type":"Feature","name":"ShapeMeta","geometry":{"type":"LineString","coordinates":[[4.336696,51.8293],[4.33714,51.82897],[4.337382,51.82883],[4.338922,51.82824],[4.339298,51.82812]]},"properties":{"name":"Meeldijk","highway":"unclassified","maxspeed":"30","profile":"car","distance":"10876.15","time":"1717.299"}},{"type":"Feature","name":"ShapeMeta","geometry":{"type":"LineString","coordinates":[[4.339298,51.82812],[4.339702,51.82798],[4.340146,51.82774],[4.34095,51.82743],[4.341215,51.82733]]},"properties":{"name":"Meeldijk","highway":"unclassified","maxspeed":"30","profile":"car","distance":"11034.95","time":"1742.707"}},{"type":"Feature","name":"ShapeMeta","geometry":{"type":"LineString","coordinates":[[4.341215,51.82733],[4.341316,51.82721],[4.341413,51.827],[4.341389,51.82682]]},"properties":{"name":"Meeldijk","highway":"unclassified","maxspeed":"30","profile":"car","distance":"11094.45","time":"1752.227"}},{"type":"Feature","name":"ShapeMeta","geometry":{"type":"LineString","coordinates":[[4.341389,51.82682],[4.3417,51.8268]]},"properties":{"name":"Achterweg","highway":"unclassified","profile":"car","distance":"11115.95","time":"1754.291"}},{"type":"Feature","name":"ShapeMeta","geometry":{"type":"LineString","coordinates":[[4.3417,51.8268],[4.3419,51.82639]]},"properties":{"name":"Smidsweg","highway":"unclassified","profile":"car","distance":"11163.75","time":"1758.88"}},{"type":"Feature","name":"ShapeMeta","geometry":{"type":"LineString","coordinates":[[4.3419,51.82639],[4.342137,51.82642],[4.342343,51.82645]]},"properties":{"name":"Dorpsstraat","highway":"residential","maxspeed":"30","profile":"car","distance":"11194.85","time":"1763.855"}},{"type":"Feature","name":"ShapeMeta","geometry":{"type":"LineString","coordinates":[[4.342343,51.82645],[4.343503,51.8265]]},"properties":{"name":"Dorpsstraat","highway":"residential","maxspeed":"30","profile":"car","distance":"11274.75","time":"1776.64"}},{"type":"Feature","name":"ShapeMeta","geometry":{"type":"LineString","coordinates":[[4.343503,51.8265],[4.344038,51.82652]]},"properties":{"name":"Dorpsstraat","highway":"residential","maxspeed":"30","profile":"car","distance":"11311.54","time":"1782.527"}},{"type":"Feature","name":"ShapeMeta","geometry":{"type":"LineString","coordinates":[[4.344038,51.82652],[4.344408,51.82651]]},"properties":{"name":"Dorpsstraat","highway":"residential","maxspeed":"30","profile":"car","distance":"11336.95","time":"1786.592"}},{"type":"Feature","name":"ShapeMeta","geometry":{"type":"LineString","coordinates":[[4.344408,51.82651],[4.344432,51.8264]]},"properties":{"name":"Schoollaan","highway":"living_street","profile":"car","distance":"11349.79","time":"1798.92"}},{"type":"Feature","name":"ShapeMeta","geometry":{"type":"LineString","coordinates":[[4.344432,51.8264],[4.344509,51.82603],[4.345376,51.82465]]},"properties":{"name":"Schoollaan","highway":"living_street","profile":"car","distance":"11555.95","time":"1996.831"}},{"type":"Feature","name":"ShapeMeta","geometry":{"type":"LineString","coordinates":[[4.345376,51.82465],[4.344522,51.82442]]},"properties":{"name":"Lede","highway":"residential","maxspeed":"30","profile":"car","distance":"11619.95","time":"2007.071"}},{"type":"Feature","name":"ShapeMeta","geometry":{"type":"LineString","coordinates":[[4.344522,51.82442],[4.34341,51.8242]]},"properties":{"name":"Lede","highway":"residential","maxspeed":"30","profile":"car","distance":"11700.15","time":"2019.903"}},{"type":"Feature","name":"ShapeMeta","geometry":{"type":"LineString","coordinates":[[4.34341,51.8242],[4.343371,51.8242]]},"properties":{"name":"Lede","highway":"residential","maxspeed":"30","profile":"car","distance":"11702.75","time":"2020.319"}},{"type":"Feature","name":"ShapeMeta","geometry":{"type":"LineString","coordinates":[[4.343371,51.8242],[4.342735,51.82499]]},"properties":{"name":"Emmalaan","highway":"living_street","profile":"car","distance":"11801.26","time":"2114.893"}},{"type":"Feature","name":"Stop","Shape":"0","geometry":{"type":"Point","coordinates":[4.342778,51.82503]},"properties":{"index":"334","distance":"0","time":"0"}},{"type":"Feature","name":"Stop","Shape":"2","geometry":{"type":"Point","coordinates":[4.34206,51.82628]},"properties":{"index":"333","distance":"147.8397","time":"141.9261"}},{"type":"Feature","name":"Stop","Shape":"6","geometry":{"type":"Point","coordinates":[4.342639,51.82403]},"properties":{"index":"326","distance":"446.453","time":"386.7872"}},{"type":"Feature","name":"Stop","Shape":"11","geometry":{"type":"Point","coordinates":[4.344584,51.82447]},"properties":{"index":"327","distance":"587.0186","time":"409.2777"}},{"type":"Feature","name":"Stop","Shape":"15","geometry":{"type":"Point","coordinates":[4.346139,51.82478]},"properties":{"index":"328","distance":"719.0127","time":"430.3968"}},{"type":"Feature","name":"Stop","Shape":"21","geometry":{"type":"Point","coordinates":[4.34836,51.82544]},"properties":{"index":"329","distance":"900.9336","time":"457.2308"}},{"type":"Feature","name":"Stop","Shape":"26","geometry":{"type":"Point","coordinates":[4.34678,51.82622]},"properties":{"index":"330","distance":"1112.675","time":"488.8361"}},{"type":"Feature","name":"Stop","Shape":"35","geometry":{"type":"Point","coordinates":[4.342834,51.82692]},"properties":{"index":"332","distance":"1436.678","time":"534.7721"}},{"type":"Feature","name":"Stop","Shape":"60","geometry":{"type":"Point","coordinates":[4.340611,51.82544]},"properties":{"index":"325","distance":"2058.531","time":"723.2065"}},{"type":"Feature","name":"Stop","Shape":"96","geometry":{"type":"Point","coordinates":[4.331917,51.82372]},"properties":{"index":"324","distance":"2862.195","time":"926.1659"}},{"type":"Feature","name":"Stop","Shape":"159","geometry":{"type":"Point","coordinates":[4.335861,51.83286]},"properties":{"index":"208","distance":"4580.226","time":"1099.263"}},{"type":"Feature","name":"Stop","Shape":"170","geometry":{"type":"Point","coordinates":[4.336222,51.83364]},"properties":{"index":"206","distance":"4861.315","time":"1125.447"}},{"type":"Feature","name":"Stop","Shape":"178","geometry":{"type":"Point","coordinates":[4.337722,51.83294]},"properties":{"index":"207","distance":"5039.119","time":"1142.516"}},{"type":"Feature","name":"Stop","Shape":"185","geometry":{"type":"Point","coordinates":[4.336389,51.83194]},"properties":{"index":"205","distance":"5284.131","time":"1163.629"}},{"type":"Feature","name":"Stop","Shape":"206","geometry":{"type":"Point","coordinates":[4.343294,51.83167]},"properties":{"index":"78","distance":"5797.908","time":"1199.577"}},{"type":"Feature","name":"Stop","Shape":"215","geometry":{"type":"Point","coordinates":[4.345266,51.83124]},"properties":{"index":"79","distance":"6064.075","time":"1225.129"}},{"type":"Feature","name":"Stop","Shape":"220","geometry":{"type":"Point","coordinates":[4.346339,51.83118]},"properties":{"index":"80","distance":"6144.935","time":"1232.892"}},{"type":"Feature","name":"Stop","Shape":"236","geometry":{"type":"Point","coordinates":[4.346134,51.83178]},"properties":{"index":"81","distance":"6485.335","time":"1265.57"}},{"type":"Feature","name":"Stop","Shape":"262","geometry":{"type":"Point","coordinates":[4.349491,51.83294]},"properties":{"index":"200","distance":"7096.171","time":"1337.79"}},{"type":"Feature","name":"Stop","Shape":"269","geometry":{"type":"Point","coordinates":[4.348361,51.8325]},"properties":{"index":"197","distance":"7218.095","time":"1350.621"}},{"type":"Feature","name":"Stop","Shape":"274","geometry":{"type":"Point","coordinates":[4.348231,51.8317]},"properties":{"index":"199","distance":"7306.997","time":"1359.156"}},{"type":"Feature","name":"Stop","Shape":"279","geometry":{"type":"Point","coordinates":[4.34828,51.832]},"properties":{"index":"198","distance":"7340.356","time":"1362.358"}},{"type":"Feature","name":"Stop","Shape":"289","geometry":{"type":"Point","coordinates":[4.345771,51.83272]},"properties":{"index":"70","distance":"7667.198","time":"1405.575"}},{"type":"Feature","name":"Stop","Shape":"292","geometry":{"type":"Point","coordinates":[4.344751,51.83344]},"properties":{"index":"68","distance":"7812.633","time":"1422.616"}},{"type":"Feature","name":"Stop","Shape":"293","geometry":{"type":"Point","coordinates":[4.344754,51.83341]},"properties":{"index":"69","distance":"7816.03","time":"1422.849"}},{"type":"Feature","name":"Stop","Shape":"300","geometry":{"type":"Point","coordinates":[4.344509,51.83215]},"properties":{"index":"71","distance":"7957.34","time":"1432.539"}},{"type":"Feature","name":"Stop","Shape":"304","geometry":{"type":"Point","coordinates":[4.344124,51.83203]},"properties":{"index":"72","distance":"8032.327","time":"1439.499"}},{"type":"Feature","name":"Stop","Shape":"316","geometry":{"type":"Point","coordinates":[4.34175,51.83094]},"properties":{"index":"76","distance":"8300.953","time":"1462.158"}},{"type":"Feature","name":"Stop","Shape":"316","geometry":{"type":"Point","coordinates":[4.34175,51.83094]},"properties":{"index":"75","distance":"8300.953","time":"1462.158"}},{"type":"Feature","name":"Stop","Shape":"324","geometry":{"type":"Point","coordinates":[4.341613,51.83187]},"properties":{"index":"73","distance":"8406.168","time":"1472.259"}},{"type":"Feature","name":"Stop","Shape":"336","geometry":{"type":"Point","coordinates":[4.340333,51.83325]},"properties":{"index":"201","distance":"8664.979","time":"1497.105"}},{"type":"Feature","name":"Stop","Shape":"344","geometry":{"type":"Point","coordinates":[4.341636,51.83261]},"properties":{"index":"74","distance":"8842.34","time":"1514.132"}},{"type":"Feature","name":"Stop","Shape":"358","geometry":{"type":"Point","coordinates":[4.338998,51.8319]},"properties":{"index":"77","distance":"9169.455","time":"1543.132"}},{"type":"Feature","name":"Stop","Shape":"370","geometry":{"type":"Point","coordinates":[4.33851,51.82996]},"properties":{"index":"204","distance":"9470.981","time":"1570.419"}},{"type":"Feature","name":"Stop","Shape":"378","geometry":{"type":"Point","coordinates":[4.338167,51.83089]},"properties":{"index":"202","distance":"9604.255","time":"1583.213"}},{"type":"Feature","name":"Stop","Shape":"379","geometry":{"type":"Point","coordinates":[4.338156,51.83088]},"properties":{"index":"203","distance":"9605.945","time":"1583.375"}},{"type":"Feature","name":"Stop","Shape":"437","geometry":{"type":"Point","coordinates":[4.344368,51.82638]},"properties":{"index":"331","distance":"11349.79","time":"1798.92"}},{"type":"Feature","name":"Stop","Shape":"443","geometry":{"type":"Point","coordinates":[4.342778,51.82503]},"properties":{"index":"334","distance":"11801.26","time":"2114.893"}}]}