{"type":"FeatureCollection","features":[{"type":"Feature","name":"ShapeMeta","geometry":{"type":"LineString","coordinates":[[4.366599,51.83589],[4.366675,51.83588],[4.366899,51.83581],[4.367046,51.8357]]},"properties":{"name":"Sientje Mesdag-van Houtenstraat","highway":"residential","maxspeed":"30","profile":"car","distance":"37.99309","time":"6.078894"}},{"type":"Feature","name":"ShapeMeta","geometry":{"type":"LineString","coordinates":[[4.367046,51.8357],[4.367727,51.83575]]},"properties":{"name":"Sientje Mesdag-van Houtenstraat","highway":"residential","maxspeed":"30","profile":"car","distance":"84.99309","time":"13.59889"}},{"type":"Feature","name":"ShapeMeta","geometry":{"type":"LineString","coordinates":[[4.367727,51.83575],[4.367617,51.8368]]},"properties":{"name":"Rosa Spierstraat","highway":"residential","maxspeed":"30","profile":"car","distance":"201.7931","time":"32.28689"}},{"type":"Feature","name":"ShapeMeta","geometry":{"type":"LineString","coordinates":[[4.367617,51.8368],[4.368389,51.83685]]},"properties":{"name":"Theo Mann-Bouwmeesterstraat","highway":"residential","maxspeed":"30","profile":"car","distance":"255.1931","time":"40.83089"}},{"type":"Feature","name":"ShapeMeta","geometry":{"type":"LineString","coordinates":[[4.368389,51.83685],[4.368356,51.83699]]},"properties":{"name":"Top Naeffstraat","highway":"residential","maxspeed":"30","profile":"car","distance":"270.613","time":"43.29808"}},{"type":"Feature","name":"ShapeMeta","geometry":{"type":"LineString","coordinates":[[4.368356,51.83699],[4.368389,51.83685]]},"properties":{"name":"Top Naeffstraat","highway":"residential","maxspeed":"30","profile":"car","distance":"286.033","time":"45.76527"}},{"type":"Feature","name":"ShapeMeta","geometry":{"type":"LineString","coordinates":[[4.368389,51.83685],[4.368972,51.8369],[4.370177,51.83698]]},"properties":{"name":"Theo Mann-Bouwmeesterstraat","highway":"residential","maxspeed":"30","profile":"car","distance":"409.533","time":"65.52527"}},{"type":"Feature","name":"ShapeMeta","geometry":{"type":"LineString","coordinates":[[4.370177,51.83698],[4.370038,51.8376]]},"properties":{"name":"Beb Vuykstraat","highway":"residential","maxspeed":"30","profile":"car","distance":"479.233","time":"76.67727"}},{"type":"Feature","name":"ShapeMeta","geometry":{"type":"LineString","coordinates":[[4.370038,51.8376],[4.370005,51.83772]]},"properties":{"name":"Beb Vuykstraat","highway":"residential","maxspeed":"30","profile":"car","distance":"493.3932","time":"78.9429"}},{"type":"Feature","name":"ShapeMeta","geometry":{"type":"LineString","coordinates":[[4.370005,51.83772],[4.369893,51.83816]]},"properties":{"name":"Beb Vuykstraat","highway":"residential","maxspeed":"30","profile":"car","distance":"542.733","time":"86.83727"}},{"type":"Feature","name":"ShapeMeta","geometry":{"type":"LineString","coordinates":[[4.369893,51.83816],[4.370094,51.83818]]},"properties":{"name":"Maria Tesselschadestraat","highway":"residential","maxspeed":"30","profile":"car","distance":"556.733","time":"89.07727"}},{"type":"Feature","name":"ShapeMeta","geometry":{"type":"LineString","coordinates":[[4.370094,51.83818],[4.36999,51.83858]]},"properties":{"name":"Geertruida Bosboom-Toussaintlaan","maxspeed":"50","highway":"tertiary","profile":"car","distance":"601.333","time":"93.35887"}},{"type":"Feature","name":"ShapeMeta","geometry":{"type":"LineString","coordinates":[[4.36999,51.83858],[4.370255,51.83857],[4.370311,51.83854]]},"properties":{"name":"Henriëtte Roland Holststraat","highway":"residential","maxspeed":"30","profile":"car","distance":"624.433","time":"97.05487"}},{"type":"Feature","name":"ShapeMeta","geometry":{"type":"LineString","coordinates":[[4.370311,51.83854],[4.370436,51.83859],[4.370712,51.83867],[4.37106,51.83872],[4.371407,51.83873],[4.3717,51.83871],[4.372097,51.83863]]},"properties":{"name":"Henriëtte Roland Holststraat","highway":"residential","maxspeed":"30","profile":"car","distance":"752.733","time":"117.5829"}},{"type":"Feature","name":"ShapeMeta","geometry":{"type":"LineString","coordinates":[[4.372097,51.83863],[4.372175,51.83837],[4.372507,51.8371]]},"properties":{"name":"Lange Groeneweg","highway":"residential","maxspeed":"30","profile":"car","distance":"924.7153","time":"145.1"}},{"type":"Feature","name":"ShapeMeta","geometry":{"type":"LineString","coordinates":[[4.372507,51.8371],[4.372175,51.83837],[4.372097,51.83863]]},"properties":{"name":"Lange Groeneweg","highway":"residential","maxspeed":"30","profile":"car","distance":"1096.698","time":"172.6172"}},{"type":"Feature","name":"ShapeMeta","geometry":{"type":"LineString","coordinates":[[4.372097,51.83863],[4.3717,51.83871],[4.371407,51.83873],[4.371304,51.83873]]},"properties":{"name":"Henriëtte Roland Holststraat","highway":"residential","maxspeed":"30","profile":"car","distance":"1152.677","time":"181.5739"}},{"type":"Feature","name":"ShapeMeta","geometry":{"type":"LineString","coordinates":[[4.371304,51.83873],[4.37106,51.83872],[4.370712,51.83867],[4.370436,51.83859],[4.370311,51.83854]]},"properties":{"name":"Henriëtte Roland Holststraat","highway":"residential","maxspeed":"30","profile":"car","distance":"1224.998","time":"193.1452"}},{"type":"Feature","name":"ShapeMeta","geometry":{"type":"LineString","coordinates":[[4.370311,51.83854],[4.370255,51.83857],[4.36999,51.83858]]},"properties":{"name":"Henriëtte Roland Holststraat","highway":"residential","maxspeed":"30","profile":"car","distance":"1248.098","time":"196.8412"}},{"type":"Feature","name":"ShapeMeta","geometry":{"type":"LineString","coordinates":[[4.36999,51.83858],[4.370094,51.83818]]},"properties":{"name":"Geertruida Bosboom-Toussaintlaan","maxspeed":"50","highway":"tertiary","profile":"car","distance":"1292.698","time":"201.1228"}},{"type":"Feature","name":"ShapeMeta","geometry":{"type":"LineString","coordinates":[[4.370094,51.83818],[4.370241,51.83762]]},"properties":{"name":"Geertruida Bosboom-Toussaintlaan","maxspeed":"50","highway":"tertiary","profile":"car","distance":"1356.683","time":"207.2654"}},{"type":"Feature","name":"ShapeMeta","geometry":{"type":"LineString","coordinates":[[4.370241,51.83762],[4.3704,51.837]]},"properties":{"name":"Geertruida Bosboom-Toussaintlaan","maxspeed":"50","highway":"tertiary","profile":"car","distance":"1425.797","time":"213.9003"}},{"type":"Feature","name":"ShapeMeta","geometry":{"type":"LineString","coordinates":[[4.3704,51.837],[4.370615,51.83702]]},"properties":{"name":"Theo Mann-Bouwmeesterstraat","highway":"residential","maxspeed":"30","profile":"car","distance":"1440.697","time":"216.2843"}},{"type":"Feature","name":"ShapeMeta","geometry":{"type":"LineString","coordinates":[[4.370615,51.83702],[4.370728,51.8366]]},"properties":{"name":"Else van der Banstraat","highway":"residential","maxspeed":"30","profile":"car","distance":"1488.814","time":"223.9831"}},{"type":"Feature","name":"ShapeMeta","geometry":{"type":"LineString","coordinates":[[4.370728,51.8366],[4.370763,51.83647]]},"properties":{"name":"Else van der Banstraat","highway":"residential","maxspeed":"30","profile":"car","distance":"1503.397","time":"226.3163"}},{"type":"Feature","name":"ShapeMeta","geometry":{"type":"LineString","coordinates":[[4.370763,51.83647],[4.370826,51.8362],[4.370903,51.83588]]},"properties":{"name":"Else van der Banstraat","highway":"residential","maxspeed":"30","profile":"car","distance":"1569.397","time":"236.8763"}},{"type":"Feature","name":"ShapeMeta","geometry":{"type":"LineString","coordinates":[[4.370903,51.83588],[4.370893,51.83534]]},"properties":{"name":"Else van der Banstraat","highway":"residential","maxspeed":"30","profile":"car","distance":"1629.197","time":"246.4443"}},{"type":"Feature","name":"ShapeMeta","geometry":{"type":"LineString","coordinates":[[4.370893,51.83534],[4.370876,51.83529]]},"properties":{"name":"Else van der Banstraat","highway":"residential","maxspeed":"30","profile":"car","distance":"1634.813","time":"247.3429"}},{"type":"Feature","name":"ShapeMeta","geometry":{"type":"LineString","coordinates":[[4.370876,51.83529],[4.370724,51.83487]]},"properties":{"name":"Else van der Banstraat","highway":"residential","maxspeed":"30","profile":"car","distance":"1683.397","time":"255.1163"}},{"type":"Feature","name":"ShapeMeta","geometry":{"type":"LineString","coordinates":[[4.370724,51.83487],[4.370527,51.83491]]},"properties":{"name":"Truus Schröderstraat","highway":"unclassified","maxspeed":"30","profile":"car","distance":"1697.697","time":"257.4043"}},{"type":"Feature","name":"ShapeMeta","geometry":{"type":"LineString","coordinates":[[4.370527,51.83491],[4.370261,51.83447],[4.369798,51.83403]]},"properties":{"name":"Geertruida Bosboom-Toussaintlaan","maxspeed":"50","highway":"tertiary","profile":"car","distance":"1807.597","time":"267.9547"}},{"type":"Feature","name":"ShapeMeta","geometry":{"type":"LineString","coordinates":[[4.369798,51.83403],[4.369626,51.83411]]},"properties":{"name":"Belle van Zuylenstraat","highway":"residential","maxspeed":"30","profile":"car","distance":"1822.397","time":"270.3227"}},{"type":"Feature","name":"ShapeMeta","geometry":{"type":"LineString","coordinates":[[4.369626,51.83411],[4.369594,51.83409]]},"properties":{"name":"Beb Vuykstraat","highway":"residential","maxspeed":"30","profile":"car","distance":"1825.943","time":"270.89"}},{"type":"Feature","name":"ShapeMeta","geometry":{"type":"LineString","coordinates":[[4.369594,51.83409],[4.369088,51.83369]]},"properties":{"name":"Beb Vuykstraat","highway":"residential","maxspeed":"30","profile":"car","distance":"1882.197","time":"279.8907"}},{"type":"Feature","name":"ShapeMeta","geometry":{"type":"LineString","coordinates":[[4.369088,51.83369],[4.368303,51.83408]]},"properties":{"name":"Madelon Lulofsstraat","highway":"residential","maxspeed":"30","profile":"car","distance":"1951.297","time":"290.9467"}},{"type":"Feature","name":"ShapeMeta","geometry":{"type":"LineString","coordinates":[[4.368303,51.83408],[4.367658,51.83384]]},"properties":{"name":"Madelon Lulofsstraat","highway":"residential","maxspeed":"30","profile":"car","distance":"2002.997","time":"299.2187"}},{"type":"Feature","name":"ShapeMeta","geometry":{"type":"LineString","coordinates":[[4.367658,51.83384],[4.367596,51.83383]]},"properties":{"name":"Madelon Lulofsstraat","highway":"residential","maxspeed":"30","profile":"car","distance":"2007.368","time":"299.918"}},{"type":"Feature","name":"ShapeMeta","geometry":{"type":"LineString","coordinates":[[4.367596,51.83383],[4.366846,51.83372]]},"properties":{"name":"Madelon Lulofsstraat","highway":"residential","maxspeed":"30","profile":"car","distance":"2060.297","time":"308.3867"}},{"type":"Feature","name":"ShapeMeta","geometry":{"type":"LineString","coordinates":[[4.366846,51.83372],[4.365999,51.83372]]},"properties":{"name":"Marie van Zeggelenstraat","highway":"residential","maxspeed":"30","profile":"car","distance":"2118.397","time":"317.6827"}},{"type":"Feature","name":"ShapeMeta","geometry":{"type":"LineString","coordinates":[[4.365999,51.83372],[4.365982,51.83362]]},"properties":{"name":"Marie van Zeggelenstraat","highway":"residential","maxspeed":"30","profile":"car","distance":"2129.071","time":"319.3905"}},{"type":"Feature","name":"ShapeMeta","geometry":{"type":"LineString","coordinates":[[4.365982,51.83362],[4.365999,51.83372]]},"properties":{"name":"Marie van Zeggelenstraat","highway":"residential","maxspeed":"30","profile":"car","distance":"2139.745","time":"321.0984"}},{"type":"Feature","name":"ShapeMeta","geometry":{"type":"LineString","coordinates":[[4.365999,51.83372],[4.366846,51.83372]]},"properties":{"name":"Marie van Zeggelenstraat","highway":"residential","maxspeed":"30","profile":"car","distance":"2197.845","time":"330.3943"}},{"type":"Feature","name":"ShapeMeta","geometry":{"type":"LineString","coordinates":[[4.366846,51.83372],[4.366941,51.83331]]},"properties":{"name":"Anke Servaesstraat","highway":"residential","maxspeed":"30","profile":"car","distance":"2244.445","time":"337.8503"}},{"type":"Feature","name":"ShapeMeta","geometry":{"type":"LineString","coordinates":[[4.366941,51.83331],[4.367129,51.83322],[4.367483,51.83282],[4.367792,51.83266]]},"properties":{"name":"Anke Servaesstraat","highway":"residential","maxspeed":"30","profile":"car","distance":"2338.845","time":"352.9543"}},{"type":"Feature","name":"ShapeMeta","geometry":{"type":"LineString","coordinates":[[4.367792,51.83266],[4.367764,51.83264]]},"properties":{"name":"Beb Vuykstraat","highway":"residential","maxspeed":"30","profile":"car","distance":"2341.959","time":"353.4526"}},{"type":"Feature","name":"ShapeMeta","geometry":{"type":"LineString","coordinates":[[4.367764,51.83264],[4.367792,51.83266]]},"properties":{"name":"Beb Vuykstraat","highway":"residential","maxspeed":"30","profile":"car","distance":"2345.073","time":"353.9509"}},{"type":"Feature","name":"ShapeMeta","geometry":{"type":"LineString","coordinates":[[4.367792,51.83266],[4.368437,51.83317]]},"properties":{"name":"Beb Vuykstraat","highway":"residential","maxspeed":"30","profile":"car","distance":"2417.173","time":"365.4869"}},{"type":"Feature","name":"ShapeMeta","geometry":{"type":"LineString","coordinates":[[4.368437,51.83317],[4.369088,51.83369]]},"properties":{"name":"Beb Vuykstraat","highway":"residential","maxspeed":"30","profile":"car","distance":"2490.073","time":"377.1509"}},{"type":"Feature","name":"ShapeMeta","geometry":{"type":"LineString","coordinates":[[4.369088,51.83369],[4.369626,51.83411]]},"properties":{"name":"Beb Vuykstraat","highway":"residential","maxspeed":"30","profile":"car","distance":"2549.873","time":"386.7189"}},{"type":"Feature","name":"ShapeMeta","geometry":{"type":"LineString","coordinates":[[4.369626,51.83411],[4.369798,51.83403]]},"properties":{"name":"Belle van Zuylenstraat","highway":"residential","maxspeed":"30","profile":"car","distance":"2564.673","time":"389.0869"}},{"type":"Feature","name":"ShapeMeta","geometry":{"type":"LineString","coordinates":[[4.369798,51.83403],[4.369971,51.83395]]},"properties":{"name":"Belle van Zuylenstraat","highway":"residential","maxspeed":"30","profile":"car","distance":"2579.773","time":"391.5029"}},{"type":"Feature","name":"ShapeMeta","geometry":{"type":"LineString","coordinates":[[4.369971,51.83395],[4.369474,51.83356]]},"properties":{"name":"Else van der Banstraat","highway":"residential","maxspeed":"30","profile":"car","distance":"2635.173","time":"400.3669"}},{"type":"Feature","name":"ShapeMeta","geometry":{"type":"LineString","coordinates":[[4.369474,51.83356],[4.369341,51.83345]]},"properties":{"name":"Else van der Banstraat","highway":"residential","maxspeed":"30","profile":"car","distance":"2650.031","time":"402.744"}},{"type":"Feature","name":"ShapeMeta","geometry":{"type":"LineString","coordinates":[[4.369341,51.83345],[4.368838,51.83305]]},"properties":{"name":"Else van der Banstraat","highway":"residential","maxspeed":"30","profile":"car","distance":"2706.474","time":"411.7748"}},{"type":"Feature","name":"ShapeMeta","geometry":{"type":"LineString","coordinates":[[4.368838,51.83305],[4.368187,51.83253]]},"properties":{"name":"Else van der Banstraat","highway":"residential","maxspeed":"30","profile":"car","distance":"2779.374","time":"423.4388"}},{"type":"Feature","name":"ShapeMeta","geometry":{"type":"LineString","coordinates":[[4.368187,51.83253],[4.368289,51.83248]]},"properties":{"name":"Hélène Swarthstraat","highway":"residential","maxspeed":"30","profile":"car","distance":"2788.197","time":"424.8505"}},{"type":"Feature","name":"ShapeMeta","geometry":{"type":"LineString","coordinates":[[4.368289,51.83248],[4.368187,51.83253]]},"properties":{"name":"Hélène Swarthstraat","highway":"residential","maxspeed":"30","profile":"car","distance":"2797.02","time":"426.2621"}},{"type":"Feature","name":"ShapeMeta","geometry":{"type":"LineString","coordinates":[[4.368187,51.83253],[4.368838,51.83305]]},"properties":{"name":"Else van der Banstraat","highway":"residential","maxspeed":"30","profile":"car","distance":"2869.92","time":"437.9261"}},{"type":"Feature","name":"ShapeMeta","geometry":{"type":"LineString","coordinates":[[4.368838,51.83305],[4.369474,51.83356]]},"properties":{"name":"Else van der Banstraat","highway":"residential","maxspeed":"30","profile":"car","distance":"2941.22","time":"449.3341"}},{"type":"Feature","name":"ShapeMeta","geometry":{"type":"LineString","coordinates":[[4.369474,51.83356],[4.369971,51.83395]]},"properties":{"name":"Else van der Banstraat","highway":"residential","maxspeed":"30","profile":"car","distance":"2996.62","time":"458.1982"}},{"type":"Feature","name":"ShapeMeta","geometry":{"type":"LineString","coordinates":[[4.369971,51.83395],[4.369798,51.83403]]},"properties":{"name":"Belle van Zuylenstraat","highway":"residential","maxspeed":"30","profile":"car","distance":"3011.72","time":"460.6141"}},{"type":"Feature","name":"ShapeMeta","geometry":{"type":"LineString","coordinates":[[4.369798,51.83403],[4.370261,51.83447],[4.370527,51.83491]]},"properties":{"name":"Geertruida Bosboom-Toussaintlaan","maxspeed":"50","highway":"tertiary","profile":"car","distance":"3121.62","time":"471.1646"}},{"type":"Feature","name":"ShapeMeta","geometry":{"type":"LineString","coordinates":[[4.370527,51.83491],[4.370679,51.83535],[4.370678,51.83587]]},"properties":{"name":"Geertruida Bosboom-Toussaintlaan","maxspeed":"50","highway":"tertiary","profile":"car","distance":"3229.52","time":"481.5229"}},{"type":"Feature","name":"ShapeMeta","geometry":{"type":"LineString","coordinates":[[4.370678,51.83587],[4.370462,51.83586]]},"properties":{"name":"Sientje Mesdag-van Houtenstraat","highway":"residential","maxspeed":"30","profile":"car","distance":"3244.32","time":"483.8909"}},{"type":"Feature","name":"ShapeMeta","geometry":{"type":"LineString","coordinates":[[4.370462,51.83586],[4.370457,51.83588]]},"properties":{"name":"Beb Vuykstraat","highway":"residential","maxspeed":"30","profile":"car","distance":"3246.891","time":"484.3023"}},{"type":"Feature","name":"ShapeMeta","geometry":{"type":"LineString","coordinates":[[4.370457,51.83588],[4.370462,51.83586]]},"properties":{"name":"Beb Vuykstraat","highway":"residential","maxspeed":"30","profile":"car","distance":"3249.462","time":"484.7137"}},{"type":"Feature","name":"ShapeMeta","geometry":{"type":"LineString","coordinates":[[4.370462,51.83586],[4.368702,51.83578]]},"properties":{"name":"Sientje Mesdag-van Houtenstraat","highway":"residential","maxspeed":"30","profile":"car","distance":"3370.662","time":"504.1057"}},{"type":"Feature","name":"ShapeMeta","geometry":{"type":"LineString","coordinates":[[4.368702,51.83578],[4.367727,51.83575]]},"properties":{"name":"Sientje Mesdag-van Houtenstraat","highway":"residential","maxspeed":"30","profile":"car","distance":"3437.662","time":"514.8257"}},{"type":"Feature","name":"ShapeMeta","geometry":{"type":"LineString","coordinates":[[4.367727,51.83575],[4.367046,51.8357]]},"properties":{"name":"Sientje Mesdag-van Houtenstraat","highway":"residential","maxspeed":"30","profile":"car","distance":"3484.662","time":"522.3457"}},{"type":"Feature","name":"ShapeMeta","geometry":{"type":"LineString","coordinates":[[4.367046,51.8357],[4.367049,51.83558],[4.367056,51.83533],[4.367445,51.83514],[4.368117,51.83483]]},"properties":{"name":"Martina Kramersstraat","highway":"residential","maxspeed":"30","profile":"car","distance":"3618.023","time":"543.6834"}},{"type":"Feature","name":"ShapeMeta","geometry":{"type":"LineString","coordinates":[[4.368117,51.83483],[4.367445,51.83514],[4.367056,51.83533],[4.367049,51.83558],[4.367046,51.8357]]},"properties":{"name":"Martina Kramersstraat","highway":"residential","maxspeed":"30","profile":"car","distance":"3751.384","time":"565.0211"}},{"type":"Feature","name":"ShapeMeta","geometry":{"type":"LineString","coordinates":[[4.367046,51.8357],[4.366899,51.83581],[4.366675,51.83588],[4.366416,51.83591]]},"properties":{"name":"Sientje Mesdag-van Houtenstraat","highway":"residential","maxspeed":"30","profile":"car","distance":"3802.084","time":"573.1331"}},{"type":"Feature","name":"ShapeMeta","geometry":{"type":"LineString","coordinates":[[4.366416,51.83591],[4.366209,51.83587],[4.365995,51.83579],[4.365858,51.83567]]},"properties":{"name":"Sientje Mesdag-van Houtenstraat","highway":"residential","maxspeed":"30","profile":"car","distance":"3850.784","time":"580.9251"}},{"type":"Feature","name":"ShapeMeta","geometry":{"type":"LineString","coordinates":[[4.365858,51.83567],[4.365098,51.83566]]},"properties":{"name":"Sientje Mesdag-van Houtenstraat","highway":"residential","maxspeed":"30","profile":"car","distance":"3902.984","time":"589.2771"}},{"type":"Feature","name":"ShapeMeta","geometry":{"type":"LineString","coordinates":[[4.365098,51.83566],[4.364598,51.83564]]},"properties":{"name":"Sientje Mesdag-van Houtenstraat","highway":"residential","maxspeed":"30","profile":"car","distance":"3937.284","time":"594.7651"}},{"type":"Feature","name":"ShapeMeta","geometry":{"type":"LineString","coordinates":[[4.364598,51.83564],[4.3645,51.8348],[4.364818,51.83464]]},"properties":{"name":"Harriët Freezerstraat","highway":"residential","maxspeed":"30","profile":"car","distance":"4059.51","time":"614.3212"}},{"type":"Feature","name":"ShapeMeta","geometry":{"type":"LineString","coordinates":[[4.364818,51.83464],[4.3645,51.8348],[4.364598,51.83564]]},"properties":{"name":"Harriët Freezerstraat","highway":"residential","maxspeed":"30","profile":"car","distance":"4181.736","time":"633.8773"}},{"type":"Feature","name":"ShapeMeta","geometry":{"type":"LineString","coordinates":[[4.364598,51.83564],[4.363756,51.83563]]},"properties":{"name":"Sientje Mesdag-van Houtenstraat","highway":"residential","maxspeed":"30","profile":"car","distance":"4239.536","time":"643.1254"}},{"type":"Feature","name":"ShapeMeta","geometry":{"type":"LineString","coordinates":[[4.363756,51.83563],[4.363647,51.83459],[4.363661,51.83393]]},"properties":{"name":"Henriëtte van der Meijstraat","highway":"residential","maxspeed":"30","profile":"car","distance":"4428.968","time":"673.4346"}},{"type":"Feature","name":"ShapeMeta","geometry":{"type":"LineString","coordinates":[[4.363661,51.83393],[4.363647,51.83459],[4.363756,51.83563]]},"properties":{"name":"Henriëtte van der Meijstraat","highway":"residential","maxspeed":"30","profile":"car","distance":"4618.4","time":"703.7438"}},{"type":"Feature","name":"ShapeMeta","geometry":{"type":"LineString","coordinates":[[4.363756,51.83563],[4.363699,51.83563]]},"properties":{"name":"Sientje Mesdag-van Houtenstraat","highway":"residential","maxspeed":"30","profile":"car","distance":"4622.272","time":"704.3632"}},{"type":"Feature","name":"ShapeMeta","geometry":{"type":"LineString","coordinates":[[4.363699,51.83563],[4.363351,51.83562]]},"properties":{"name":"Sientje Mesdag-van Houtenstraat","highway":"residential","maxspeed":"30","profile":"car","distance":"4646.201","time":"708.1918"}},{"type":"Feature","name":"ShapeMeta","geometry":{"type":"LineString","coordinates":[[4.363351,51.83562],[4.363294,51.83529]]},"properties":{"name":"Lizzy Ansinghstraat","highway":"unclassified","maxspeed":"30","profile":"car","distance":"4683.701","time":"714.1918"}},{"type":"Feature","name":"ShapeMeta","geometry":{"type":"LineString","coordinates":[[4.363294,51.83529],[4.363256,51.83514]]},"properties":{"name":"Lizzy Ansinghstraat","highway":"unclassified","maxspeed":"30","profile":"car","distance":"4700.401","time":"716.8638"}},{"type":"Feature","name":"ShapeMeta","geometry":{"type":"LineString","coordinates":[[4.363256,51.83514],[4.362886,51.83512],[4.362876,51.8352]]},"properties":{"name":"Lizzy Ansinghstraat","highway":"unclassified","maxspeed":"30","profile":"car","distance":"4733.921","time":"722.227"}},{"type":"Feature","name":"ShapeMeta","geometry":{"type":"LineString","coordinates":[[4.362876,51.8352],[4.362886,51.83512],[4.363256,51.83514]]},"properties":{"name":"Lizzy Ansinghstraat","highway":"unclassified","maxspeed":"30","profile":"car","distance":"4767.441","time":"727.5902"}},{"type":"Feature","name":"ShapeMeta","geometry":{"type":"LineString","coordinates":[[4.363256,51.83514],[4.363294,51.83529]]},"properties":{"name":"Lizzy Ansinghstraat","highway":"unclassified","maxspeed":"30","profile":"car","distance":"4784.141","time":"730.2622"}},{"type":"Feature","name":"ShapeMeta","geometry":{"type":"LineString","coordinates":[[4.363294,51.83529],[4.363351,51.83562]]},"properties":{"name":"Lizzy Ansinghstraat","highway":"unclassified","maxspeed":"30","profile":"car","distance":"4821.641","time":"736.2622"}},{"type":"Feature","name":"ShapeMeta","geometry":{"type":"LineString","coordinates":[[4.363351,51.83562],[4.362383,51.8356]]},"properties":{"name":"Sientje Mesdag-van Houtenstraat","highway":"residential","maxspeed":"30","profile":"car","distance":"4888.141","time":"746.9022"}},{"type":"Feature","name":"ShapeMeta","geometry":{"type":"LineString","coordinates":[[4.362383,51.8356],[4.362183,51.8356]]},"properties":{"name":"Sientje Mesdag-van Houtenstraat","highway":"residential","maxspeed":"30","profile":"car","distance":"4901.841","time":"749.0942"}},{"type":"Feature","name":"ShapeMeta","geometry":{"type":"LineString","coordinates":[[4.362183,51.8356],[4.362207,51.83537],[4.362295,51.83504],[4.36259,51.83456]]},"properties":{"name":"Annie Romein-Verschoorlaan","maxspeed":"50","highway":"tertiary","profile":"car","distance":"5021.041","time":"760.5374"}},{"type":"Feature","name":"ShapeMeta","geometry":{"type":"LineString","coordinates":[[4.36259,51.83456],[4.362263,51.83449],[4.36189,51.8344],[4.361663,51.83434]]},"properties":{"name":"Joke Smitlaan","maxspeed":"50","highway":"tertiary","profile":"car","distance":"5089.441","time":"767.1038"}},{"type":"Feature","name":"ShapeMeta","geometry":{"type":"LineString","coordinates":[[4.361663,51.83434],[4.36149,51.8343]]},"properties":{"name":"Joke Smitlaan","maxspeed":"50","highway":"tertiary","profile":"car","distance":"5101.841","time":"768.2942"}},{"type":"Feature","name":"ShapeMeta","geometry":{"type":"LineString","coordinates":[[4.36149,51.8343],[4.361216,51.83426]]},"properties":{"name":"Joke Smitlaan","maxspeed":"50","highway":"tertiary","profile":"car","distance":"5121.241","time":"770.1566"}},{"type":"Feature","name":"ShapeMeta","geometry":{"type":"LineString","coordinates":[[4.361216,51.83426],[4.360715,51.83423],[4.360428,51.83422]]},"properties":{"name":"Joke Smitlaan","maxspeed":"50","highway":"tertiary","profile":"car","distance":"5175.541","time":"775.3694"}},{"type":"Feature","name":"ShapeMeta","geometry":{"type":"LineString","coordinates":[[4.360428,51.83422],[4.359982,51.83422]]},"properties":{"name":"Joke Smitlaan","maxspeed":"50","highway":"tertiary","profile":"car","distance":"5206.141","time":"778.307"}},{"type":"Feature","name":"ShapeMeta","geometry":{"type":"LineString","coordinates":[[4.359982,51.83422],[4.359963,51.83443]]},"properties":{"name":"Clara Visserstraat","highway":"residential","maxspeed":"30","profile":"car","distance":"5229.917","time":"782.1112"}},{"type":"Feature","name":"ShapeMeta","geometry":{"type":"LineString","coordinates":[[4.359963,51.83443],[4.359956,51.83451],[4.360041,51.83551],[4.360006,51.83558]]},"properties":{"name":"Clara Visserstraat","highway":"residential","maxspeed":"30","profile":"car","distance":"5357.641","time":"802.547"}},{"type":"Feature","name":"ShapeMeta","geometry":{"type":"LineString","coordinates":[[4.360006,51.83558],[4.359909,51.83559],[4.359545,51.83559],[4.359371,51.83561]]},"properties":{"name":"Wilhelmina Bladergroenstraat","highway":"residential","maxspeed":"30","profile":"car","distance":"5401.441","time":"809.555"}},{"type":"Feature","name":"ShapeMeta","geometry":{"type":"LineString","coordinates":[[4.359371,51.83561],[4.358798,51.83573]]},"properties":{"name":"Wilhelmina Bladergroenstraat","highway":"residential","maxspeed":"30","profile":"car","distance":"5443.141","time":"816.227"}},{"type":"Feature","name":"ShapeMeta","geometry":{"type":"LineString","coordinates":[[4.358798,51.83573],[4.358778,51.83574]]},"properties":{"name":"Wilhelmina Bladergroenstraat","highway":"residential","maxspeed":"30","profile":"car","distance":"5444.737","time":"816.4824"}},{"type":"Feature","name":"ShapeMeta","geometry":{"type":"LineString","coordinates":[[4.358778,51.83574],[4.358304,51.83594],[4.357912,51.83622]]},"properties":{"name":"Wilhelmina Bladergroenstraat","highway":"residential","maxspeed":"30","profile":"car","distance":"5525.641","time":"829.427"}},{"type":"Feature","name":"ShapeMeta","geometry":{"type":"LineString","coordinates":[[4.357912,51.83622],[4.357645,51.83656]]},"properties":{"name":"Wilhelmina Bladergroenstraat","highway":"residential","maxspeed":"30","profile":"car","distance":"5567.141","time":"836.067"}},{"type":"Feature","name":"ShapeMeta","geometry":{"type":"LineString","coordinates":[[4.357645,51.83656],[4.357581,51.83673],[4.357536,51.83692]]},"properties":{"name":"Wilhelmina Bladergroenstraat","highway":"residential","maxspeed":"30","profile":"car","distance":"5608.141","time":"842.627"}},{"type":"Feature","name":"ShapeMeta","geometry":{"type":"LineString","coordinates":[[4.357536,51.83692],[4.357599,51.83693]]},"properties":{"name":"Maria Rutgers-Hoitsemastraat","highway":"residential","maxspeed":"30","profile":"car","distance":"5612.485","time":"843.3221"}},{"type":"Feature","name":"ShapeMeta","geometry":{"type":"LineString","coordinates":[[4.357599,51.83693],[4.358421,51.83695]]},"properties":{"name":"Maria Rutgers-Hoitsemastraat","highway":"residential","maxspeed":"30","profile":"car","distance":"5669.041","time":"852.371"}},{"type":"Feature","name":"ShapeMeta","geometry":{"type":"LineString","coordinates":[[4.358421,51.83695],[4.358706,51.83696],[4.359236,51.83698],[4.359298,51.83698]]},"properties":{"name":"Maria Rutgers-Hoitsemastraat","highway":"residential","maxspeed":"30","profile":"car","distance":"5729.32","time":"862.0158"}},{"type":"Feature","name":"ShapeMeta","geometry":{"type":"LineString","coordinates":[[4.359298,51.83698],[4.359346,51.83698]]},"properties":{"name":"Maria Rutgers-Hoitsemastraat","highway":"residential","maxspeed":"30","profile":"car","distance":"5732.64","time":"862.547"}},{"type":"Feature","name":"ShapeMeta","geometry":{"type":"LineString","coordinates":[[4.359346,51.83698],[4.359304,51.83751]]},"properties":{"name":"Hélène Mercierstraat","highway":"residential","maxspeed":"30","profile":"car","distance":"5791.64","time":"871.987"}},{"type":"Feature","name":"ShapeMeta","geometry":{"type":"LineString","coordinates":[[4.359304,51.83751],[4.359249,51.83808]]},"properties":{"name":"Hélène Mercierstraat","highway":"residential","maxspeed":"30","profile":"car","distance":"5854.94","time":"882.115"}},{"type":"Feature","name":"ShapeMeta","geometry":{"type":"LineString","coordinates":[[4.359249,51.83808],[4.359207,51.83857]]},"properties":{"name":"Hélène Mercierstraat","highway":"residential","maxspeed":"30","profile":"car","distance":"5909.64","time":"890.867"}},{"type":"Feature","name":"ShapeMeta","geometry":{"type":"LineString","coordinates":[[4.359207,51.83857],[4.359298,51.83863],[4.359503,51.83864]]},"properties":{"name":"Aletta Jacobsstraat","highway":"residential","maxspeed":"30","profile":"car","distance":"5932.641","time":"894.5471"}},{"type":"Feature","name":"ShapeMeta","geometry":{"type":"LineString","coordinates":[[4.359503,51.83864],[4.359298,51.83863],[4.359207,51.83857]]},"properties":{"name":"Aletta Jacobsstraat","highway":"residential","maxspeed":"30","profile":"car","distance":"5955.642","time":"898.2272"}},{"type":"Feature","name":"ShapeMeta","geometry":{"type":"LineString","coordinates":[[4.359207,51.83857],[4.358305,51.83854]]},"properties":{"name":"Aletta Jacobsstraat","highway":"residential","maxspeed":"30","profile":"car","distance":"6017.742","time":"908.1633"}},{"type":"Feature","name":"ShapeMeta","geometry":{"type":"LineString","coordinates":[[4.358305,51.83854],[4.357405,51.83851]]},"properties":{"name":"Aletta Jacobsstraat","highway":"residential","maxspeed":"30","profile":"car","distance":"6079.542","time":"918.0513"}},{"type":"Feature","name":"ShapeMeta","geometry":{"type":"LineString","coordinates":[[4.357405,51.83851],[4.35744,51.83802]]},"properties":{"name":"Wilhelmina Bladergroenstraat","highway":"residential","maxspeed":"30","profile":"car","distance":"6133.842","time":"926.7393"}},{"type":"Feature","name":"ShapeMeta","geometry":{"type":"LineString","coordinates":[[4.35744,51.83802],[4.3567,51.838]]},"properties":{"name":"Catharina van Tussenbroekstraat","highway":"residential","maxspeed":"30","profile":"car","distance":"6184.701","time":"934.8767"}},{"type":"Feature","name":"ShapeMeta","geometry":{"type":"LineString","coordinates":[[4.3567,51.838],[4.35744,51.83802]]},"properties":{"name":"Catharina van Tussenbroekstraat","highway":"residential","maxspeed":"30","profile":"car","distance":"6235.56","time":"943.0142"}},{"type":"Feature","name":"ShapeMeta","geometry":{"type":"LineString","coordinates":[[4.35744,51.83802],[4.357405,51.83851]]},"properties":{"name":"Wilhelmina Bladergroenstraat","highway":"residential","maxspeed":"30","profile":"car","distance":"6289.86","time":"951.7021"}},{"type":"Feature","name":"ShapeMeta","geometry":{"type":"LineString","coordinates":[[4.357405,51.83851],[4.357304,51.83856],[4.356604,51.83854],[4.356521,51.83856],[4.356054,51.83867]]},"properties":{"name":"Aletta Jacobsstraat","highway":"residential","maxspeed":"30","profile":"car","distance":"6387.66","time":"967.3502"}},{"type":"Feature","name":"ShapeMeta","geometry":{"type":"LineString","coordinates":[[4.356054,51.83867],[4.356095,51.83873]]},"properties":{"name":"Joke Smitlaan","maxspeed":"50","highway":"tertiary","profile":"car","distance":"6394.16","time":"967.9741"}},{"type":"Feature","name":"ShapeMeta","geometry":{"type":"LineString","coordinates":[[4.356095,51.83873],[4.356225,51.83888],[4.356655,51.83944],[4.356703,51.8395]]},"properties":{"name":"Joke Smitlaan","maxspeed":"50","highway":"tertiary","oneway":"yes","profile":"car","distance":"6489.86","time":"977.1614"}},{"type":"Feature","name":"ShapeMeta","geometry":{"type":"LineString","coordinates":[[4.356703,51.8395],[4.356782,51.83951],[4.356853,51.83953]]},"properties":{"name":"Maaswijkweg","maxspeed":"50","highway":"tertiary","junction":"roundabout","profile":"car","distance":"6500.76","time":"978.2078"}},{"type":"Feature","name":"ShapeMeta","geometry":{"type":"LineString","coordinates":[[4.356853,51.83953],[4.356906,51.83957],[4.35694,51.83961],[4.356953,51.83965]]},"properties":{"name":"Maaswijkweg","maxspeed":"50","highway":"tertiary","junction":"roundabout","profile":"car","distance":"6516.36","time":"979.7053"}},{"type":"Feature","name":"ShapeMeta","geometry":{"type":"LineString","coordinates":[[4.356953,51.83965],[4.356946,51.83969],[4.356892,51.83976],[4.356812,51.8398],[4.356715,51.83981],[4.35661,51.8398],[4.356521,51.83977]]},"properties":{"name":"Maaswijkweg","maxspeed":"50","highway":"tertiary","junction":"roundabout","profile":"car","distance":"6557.46","time":"983.6509"}},{"type":"Feature","name":"ShapeMeta","geometry":{"type":"LineString","coordinates":[[4.356521,51.83977],[4.356156,51.83985]]},"properties":{"name":"Maaswijkweg","maxspeed":"50","highway":"tertiary","oneway":"yes","profile":"car","distance":"6584.16","time":"986.2142"}},{"type":"Feature","name":"ShapeMeta","geometry":{"type":"LineString","coordinates":[[4.356156,51.83985],[4.354842,51.84018],[4.350435,51.84134],[4.35021,51.84141]]},"properties":{"name":"Maaswijkweg","maxspeed":"50","highway":"tertiary","oneway":"yes","profile":"car","distance":"7027.86","time":"1028.809"}},{"type":"Feature","name":"ShapeMeta","geometry":{"type":"LineString","coordinates":[[4.35021,51.84141],[4.350195,51.84144],[4.350135,51.8415],[4.350092,51.84152]]},"properties":{"name":"Maaswijkweg","maxspeed":"50","highway":"tertiary","junction":"roundabout","profile":"car","distance":"7043.26","time":"1030.288"}},{"type":"Feature","name":"ShapeMeta","geometry":{"type":"LineString","coordinates":[[4.350092,51.84152],[4.350068,51.8416],[4.350081,51.84171],[4.350096,51.84182]]},"properties":{"highway":"unclassified","maxspeed":"50","oneway":"yes","profile":"car","distance":"7076.96","time":"1033.523"}},{"type":"Feature","name":"ShapeMeta","geometry":{"type":"LineString","coordinates":[[4.350096,51.84182],[4.350115,51.84187]]},"properties":{"name":"Rivierlaan","highway":"unclassified","maxspeed":"50","profile":"car","distance":"7082.56","time":"1034.061"}},{"type":"Feature","name":"ShapeMeta","geometry":{"type":"LineString","coordinates":[[4.350115,51.84187],[4.350371,51.84264]]},"properties":{"name":"Rivierlaan","highway":"unclassified","maxspeed":"50","profile":"car","distance":"7169.16","time":"1042.374"}},{"type":"Feature","name":"ShapeMeta","geometry":{"type":"LineString","coordinates":[[4.350371,51.84264],[4.3505,51.84262],[4.351302,51.84253]]},"properties":{"name":"Indusstraat","highway":"residential","maxspeed":"30","profile":"car","distance":"7234.26","time":"1052.79"}},{"type":"Feature","name":"ShapeMeta","geometry":{"type":"LineString","coordinates":[[4.351302,51.84253],[4.351385,51.84277],[4.351398,51.84281],[4.35157,51.84332]]},"properties":{"name":"Eufraatstraat","highway":"residential","profile":"car","distance":"7324.36","time":"1061.44"}},{"type":"Feature","name":"ShapeMeta","geometry":{"type":"LineString","coordinates":[[4.35157,51.84332],[4.35157,51.84336]]},"properties":{"name":"Eufraatstraat","highway":"residential","profile":"car","distance":"7329.02","time":"1061.887"}},{"type":"Feature","name":"ShapeMeta","geometry":{"type":"LineString","coordinates":[[4.35157,51.84336],[4.351569,51.84381],[4.351569,51.84409]]},"properties":{"name":"Eufraatstraat","highway":"residential","profile":"car","distance":"7409.959","time":"1069.657"}},{"type":"Feature","name":"ShapeMeta","geometry":{"type":"LineString","coordinates":[[4.351569,51.84409],[4.351998,51.84408]]},"properties":{"name":"Gangesstraat","highway":"residential","maxspeed":"30","profile":"car","distance":"7439.459","time":"1074.377"}},{"type":"Feature","name":"ShapeMeta","geometry":{"type":"LineString","coordinates":[[4.351998,51.84408],[4.352411,51.84408]]},"properties":{"name":"Gangesstraat","highway":"residential","maxspeed":"30","profile":"car","distance":"7467.76","time":"1078.905"}},{"type":"Feature","name":"ShapeMeta","geometry":{"type":"LineString","coordinates":[[4.352411,51.84408],[4.352416,51.8438],[4.352426,51.84325]]},"properties":{"name":"Tigrisstraat","highway":"residential","maxspeed":"30","profile":"car","distance":"7560.225","time":"1093.7"}},{"type":"Feature","name":"ShapeMeta","geometry":{"type":"LineString","coordinates":[[4.352426,51.84325],[4.352435,51.8427],[4.35244,51.8424]]},"properties":{"name":"Tigrisstraat","highway":"residential","maxspeed":"30","profile":"car","distance":"7653.96","time":"1108.698"}},{"type":"Feature","name":"ShapeMeta","geometry":{"type":"LineString","coordinates":[[4.35244,51.8424],[4.352984,51.84244],[4.353347,51.84252]]},"properties":{"name":"Indusstraat","highway":"residential","maxspeed":"30","profile":"car","distance":"7718.029","time":"1118.948"}},{"type":"Feature","name":"ShapeMeta","geometry":{"type":"LineString","coordinates":[[4.353347,51.84252],[4.353512,51.84256]]},"properties":{"name":"Indusstraat","highway":"residential","maxspeed":"30","profile":"car","distance":"7730.06","time":"1120.873"}},{"type":"Feature","name":"ShapeMeta","geometry":{"type":"LineString","coordinates":[[4.353512,51.84256],[4.354007,51.84272],[4.354433,51.84291]]},"properties":{"name":"Indusstraat","highway":"residential","maxspeed":"30","profile":"car","distance":"7804.66","time":"1132.809"}},{"type":"Feature","name":"ShapeMeta","geometry":{"type":"LineString","coordinates":[[4.354433,51.84291],[4.354726,51.84271],[4.354947,51.84259],[4.355422,51.84256],[4.355804,51.84259]]},"properties":{"name":"Nijlstraat","highway":"residential","maxspeed":"30","profile":"car","distance":"7914.16","time":"1150.329"}},{"type":"Feature","name":"ShapeMeta","geometry":{"type":"LineString","coordinates":[[4.355804,51.84259],[4.355771,51.84275]]},"properties":{"name":"Kongostraat","highway":"residential","maxspeed":"30","profile":"car","distance":"7931.25","time":"1153.063"}},{"type":"Feature","name":"ShapeMeta","geometry":{"type":"LineString","coordinates":[[4.355771,51.84275],[4.355771,51.84275],[4.3559,51.8429]]},"properties":{"name":"Kongostraat","highway":"residential","maxspeed":"30","profile":"car","distance":"7950.36","time":"1156.121"}},{"type":"Feature","name":"ShapeMeta","geometry":{"type":"LineString","coordinates":[[4.3559,51.8429],[4.355454,51.84306]]},"properties":{"name":"Zambezistraat","highway":"residential","maxspeed":"30","profile":"car","distance":"7985.76","time":"1161.785"}},{"type":"Feature","name":"ShapeMeta","geometry":{"type":"LineString","coordinates":[[4.355454,51.84306],[4.355878,51.84352]]},"properties":{"name":"Gambiastraat","highway":"residential","maxspeed":"30","profile":"car","distance":"8045.198","time":"1171.295"}},{"type":"Feature","name":"ShapeMeta","geometry":{"type":"LineString","coordinates":[[4.355878,51.84352],[4.355454,51.84306]]},"properties":{"name":"Gambiastraat","highway":"residential","maxspeed":"30","profile":"car","distance":"8104.636","time":"1180.805"}},{"type":"Feature","name":"ShapeMeta","geometry":{"type":"LineString","coordinates":[[4.355454,51.84306],[4.354899,51.84327]]},"properties":{"name":"Zambezistraat","highway":"residential","maxspeed":"30","profile":"car","distance":"8149.036","time":"1187.909"}},{"type":"Feature","name":"ShapeMeta","geometry":{"type":"LineString","coordinates":[[4.354899,51.84327],[4.355058,51.84346]]},"properties":{"name":"Indusstraat","highway":"residential","maxspeed":"30","profile":"car","distance":"8173.236","time":"1191.781"}},{"type":"Feature","name":"ShapeMeta","geometry":{"type":"LineString","coordinates":[[4.355058,51.84346],[4.354635,51.84359],[4.35384,51.8438]]},"properties":{"name":"Mekongstraat","highway":"residential","maxspeed":"30","profile":"car","distance":"8264.938","time":"1206.453"}},{"type":"Feature","name":"ShapeMeta","geometry":{"type":"LineString","coordinates":[[4.35384,51.8438],[4.353803,51.84381],[4.352643,51.84421]]},"properties":{"name":"Mekongstraat","highway":"residential","maxspeed":"30","profile":"car","distance":"8359.036","time":"1221.509"}},{"type":"Feature","name":"ShapeMeta","geometry":{"type":"LineString","coordinates":[[4.352643,51.84421],[4.352509,51.84411],[4.352471,51.84408],[4.352411,51.84408]]},"properties":{"name":"Gangesstraat","highway":"residential","maxspeed":"30","profile":"car","distance":"8381.736","time":"1225.141"}},{"type":"Feature","name":"ShapeMeta","geometry":{"type":"LineString","coordinates":[[4.352411,51.84408],[4.351998,51.84408]]},"properties":{"name":"Gangesstraat","highway":"residential","maxspeed":"30","profile":"car","distance":"8410.036","time":"1229.669"}},{"type":"Feature","name":"ShapeMeta","geometry":{"type":"LineString","coordinates":[[4.351998,51.84408],[4.351569,51.84409]]},"properties":{"name":"Gangesstraat","highway":"residential","maxspeed":"30","profile":"car","distance":"8439.536","time":"1234.389"}},{"type":"Feature","name":"ShapeMeta","geometry":{"type":"LineString","coordinates":[[4.351569,51.84409],[4.351089,51.8441],[4.351015,51.8441]]},"properties":{"name":"Gangesstraat","highway":"residential","maxspeed":"30","profile":"car","distance":"8477.557","time":"1240.472"}},{"type":"Feature","name":"ShapeMeta","geometry":{"type":"LineString","coordinates":[[4.351015,51.8441],[4.350658,51.8441]]},"properties":{"name":"Gangesstraat","highway":"residential","maxspeed":"30","profile":"car","distance":"8502.036","time":"1244.389"}},{"type":"Feature","name":"ShapeMeta","geometry":{"type":"LineString","coordinates":[[4.350658,51.8441],[4.350525,51.8441]]},"properties":{"name":"Gangesstraat","highway":"unclassified","profile":"car","distance":"8511.136","time":"1245.262"}},{"type":"Feature","name":"ShapeMeta","geometry":{"type":"LineString","coordinates":[[4.350525,51.8441],[4.350395,51.8441],[4.350248,51.8441]]},"properties":{"name":"Coloradostraat","highway":"residential","profile":"car","distance":"8530.197","time":"1247.092"}},{"type":"Feature","name":"ShapeMeta","geometry":{"type":"LineString","coordinates":[[4.350248,51.8441],[4.350013,51.8441],[4.349563,51.8441]]},"properties":{"name":"Coloradostraat","highway":"residential","profile":"car","distance":"8577.236","time":"1251.608"}},{"type":"Feature","name":"ShapeMeta","geometry":{"type":"LineString","coordinates":[[4.349563,51.8441],[4.3491,51.8441],[4.348827,51.84428]]},"properties":{"name":"Coloradostraat","highway":"residential","profile":"car","distance":"8636.036","time":"1257.253"}},{"type":"Feature","name":"ShapeMeta","geometry":{"type":"LineString","coordinates":[[4.348827,51.84428],[4.348561,51.84444],[4.348224,51.84465]]},"properties":{"name":"Coloradostraat","highway":"residential","profile":"car","distance":"8694.637","time":"1262.878"}},{"type":"Feature","name":"ShapeMeta","geometry":{"type":"LineString","coordinates":[[4.348224,51.84465],[4.348118,51.84472]]},"properties":{"name":"Coloradostraat","highway":"residential","profile":"car","distance":"8705.152","time":"1263.888"}},{"type":"Feature","name":"ShapeMeta","geometry":{"type":"LineString","coordinates":[[4.348118,51.84472],[4.348224,51.84465]]},"properties":{"name":"Coloradostraat","highway":"residential","profile":"car","distance":"8715.668","time":"1264.897"}},{"type":"Feature","name":"ShapeMeta","geometry":{"type":"LineString","coordinates":[[4.348224,51.84465],[4.347808,51.84441]]},"properties":{"name":"Rio Grandestraat","highway":"residential","profile":"car","distance":"8755.068","time":"1268.68"}},{"type":"Feature","name":"ShapeMeta","geometry":{"type":"LineString","coordinates":[[4.347808,51.84441],[4.347787,51.84439],[4.347499,51.84424],[4.347353,51.84414],[4.347235,51.84409],[4.346725,51.84378]]},"properties":{"name":"Rio Grandestraat","highway":"residential","profile":"car","distance":"8857.168","time":"1278.481"}},{"type":"Feature","name":"ShapeMeta","geometry":{"type":"LineString","coordinates":[[4.346725,51.84378],[4.347057,51.84359]]},"properties":{"name":"Amazonestraat","highway":"residential","profile":"car","distance":"8887.896","time":"1281.431"}},{"type":"Feature","name":"ShapeMeta","geometry":{"type":"LineString","coordinates":[[4.347057,51.84359],[4.3471,51.84357],[4.347419,51.84338]]},"properties":{"name":"Amazonestraat","highway":"residential","profile":"car","distance":"8922.068","time":"1284.712"}},{"type":"Feature","name":"ShapeMeta","geometry":{"type":"LineString","coordinates":[[4.347419,51.84338],[4.347693,51.84321],[4.347911,51.84306],[4.348071,51.843]]},"properties":{"name":"Amazonestraat","highway":"residential","profile":"car","distance":"8984.068","time":"1290.663"}},{"type":"Feature","name":"ShapeMeta","geometry":{"type":"LineString","coordinates":[[4.348071,51.843],[4.348277,51.84294],[4.3484,51.8429],[4.348871,51.84282],[4.34936,51.84275]]},"properties":{"name":"Amazonestraat","highway":"residential","profile":"car","distance":"9077.468","time":"1299.63"}},{"type":"Feature","name":"ShapeMeta","geometry":{"type":"LineString","coordinates":[[4.34936,51.84275],[4.349442,51.84301],[4.349551,51.84338]]},"properties":{"name":"Columbiastraat","highway":"residential","maxspeed":"30","profile":"car","distance":"9149.082","time":"1311.088"}},{"type":"Feature","name":"ShapeMeta","geometry":{"type":"LineString","coordinates":[[4.349551,51.84338],[4.349442,51.84301],[4.34936,51.84275]]},"properties":{"name":"Columbiastraat","highway":"residential","maxspeed":"30","profile":"car","distance":"9220.695","time":"1322.546"}},{"type":"Feature","name":"ShapeMeta","geometry":{"type":"LineString","coordinates":[[4.34936,51.84275],[4.349819,51.8427],[4.35025,51.84265],[4.350371,51.84264]]},"properties":{"name":"Amazonestraat","highway":"residential","profile":"car","distance":"9291.096","time":"1329.305"}},{"type":"Feature","name":"ShapeMeta","geometry":{"type":"LineString","coordinates":[[4.350371,51.84264],[4.350115,51.84187]]},"properties":{"name":"Rivierlaan","highway":"unclassified","maxspeed":"50","profile":"car","distance":"9377.695","time":"1337.618"}},{"type":"Feature","name":"ShapeMeta","geometry":{"type":"LineString","coordinates":[[4.350115,51.84187],[4.350096,51.84182]]},"properties":{"name":"Rivierlaan","highway":"unclassified","maxspeed":"50","profile":"car","distance":"9383.296","time":"1338.156"}},{"type":"Feature","name":"ShapeMeta","geometry":{"type":"LineString","coordinates":[[4.350096,51.84182],[4.350018,51.84171],[4.349961,51.84163],[4.349898,51.84155]]},"properties":{"name":"Rivierlaan","highway":"unclassified","maxspeed":"50","oneway":"yes","profile":"car","distance":"9416.296","time":"1341.324"}},{"type":"Feature","name":"ShapeMeta","geometry":{"type":"LineString","coordinates":[[4.349898,51.84155],[4.349844,51.84155],[4.349792,51.84153]]},"properties":{"name":"Maaswijkweg","maxspeed":"50","highway":"tertiary","junction":"roundabout","profile":"car","distance":"9423.996","time":"1342.063"}},{"type":"Feature","name":"ShapeMeta","geometry":{"type":"LineString","coordinates":[[4.349792,51.84153],[4.349615,51.84154],[4.349001,51.84167],[4.348555,51.84173],[4.348441,51.84174]]},"properties":{"name":"Maaswijkweg","maxspeed":"50","highway":"tertiary","oneway":"yes","profile":"car","distance":"9520.296","time":"1351.308"}},{"type":"Feature","name":"ShapeMeta","geometry":{"type":"LineString","coordinates":[[4.348441,51.84174],[4.348005,51.84174],[4.347584,51.84173],[4.347215,51.84171]]},"properties":{"name":"Maaswijkweg","maxspeed":"50","highway":"tertiary","oneway":"yes","profile":"car","distance":"9604.596","time":"1359.401"}},{"type":"Feature","name":"ShapeMeta","geometry":{"type":"LineString","coordinates":[[4.347215,51.84171],[4.346981,51.8417],[4.34621,51.84166]]},"properties":{"name":"Maaswijkweg","maxspeed":"50","highway":"tertiary","oneway":"yes","profile":"car","distance":"9673.695","time":"1366.034"}},{"type":"Feature","name":"ShapeMeta","geometry":{"type":"LineString","coordinates":[[4.34621,51.84166],[4.345485,51.84163]]},"properties":{"name":"Maaswijkweg","maxspeed":"50","highway":"tertiary","oneway":"yes","profile":"car","distance":"9723.596","time":"1370.825"}},{"type":"Feature","name":"ShapeMeta","geometry":{"type":"LineString","coordinates":[[4.345485,51.84163],[4.345028,51.84161],[4.344929,51.8416],[4.344674,51.8416]]},"properties":{"name":"Maaswijkweg","maxspeed":"50","highway":"tertiary","oneway":"yes","profile":"car","distance":"9779.396","time":"1376.181"}},{"type":"Feature","name":"ShapeMeta","geometry":{"type":"LineString","coordinates":[[4.344674,51.8416],[4.344414,51.84153]]},"properties":{"name":"Maaswijkweg","maxspeed":"50","highway":"tertiary","oneway":"yes","profile":"car","distance":"9798.796","time":"1378.044"}},{"type":"Feature","name":"ShapeMeta","geometry":{"type":"LineString","coordinates":[[4.344414,51.84153],[4.344432,51.84135],[4.344564,51.84029],[4.344642,51.83981],[4.344792,51.83901],[4.344853,51.8387]]},"properties":{"name":"Schenkelweg","maxspeed":"50","oneway":"yes","highway":"secondary","profile":"car","distance":"10115.4","time":"1408.437"}},{"type":"Feature","name":"ShapeMeta","geometry":{"type":"LineString","coordinates":[[4.344853,51.8387],[4.344879,51.83862],[4.344913,51.83823],[4.344919,51.83818]]},"properties":{"name":"De Dijkgraaf","maxspeed":"50","highway":"tertiary","oneway":"yes","profile":"car","distance":"10173.7","time":"1414.034"}},{"type":"Feature","name":"ShapeMeta","geometry":{"type":"LineString","coordinates":[[4.344919,51.83818],[4.344953,51.83789],[4.344977,51.83763],[4.34499,51.83749]]},"properties":{"name":"De Dijkgraaf","highway":"tertiary","oneway":"yes","profile":"car","distance":"10250.2","time":"1419.28"}},{"type":"Feature","name":"ShapeMeta","geometry":{"type":"LineString","coordinates":[[4.34499,51.83749],[4.345046,51.83723],[4.345054,51.83699],[4.344923,51.83636],[4.34493,51.83625]]},"properties":{"name":"De Dijkgraaf","highway":"tertiary","oneway":"yes","profile":"car","distance":"10388.9","time":"1428.791"}},{"type":"Feature","name":"ShapeMeta","geometry":{"type":"LineString","coordinates":[[4.34493,51.83625],[4.344921,51.83622]]},"properties":{"name":"De Dijkgraaf","highway":"unclassified","profile":"car","distance":"10392.3","time":"1429.117"}},{"type":"Feature","name":"ShapeMeta","geometry":{"type":"LineString","coordinates":[[4.344921,51.83622],[4.3454,51.83614],[4.345557,51.83613]]},"properties":{"name":"De Landmeter","highway":"unclassified","maxspeed":"30","profile":"car","distance":"10437.1","time":"1436.285"}},{"type":"Feature","name":"ShapeMeta","geometry":{"type":"LineString","coordinates":[[4.345557,51.83613],[4.345837,51.8361],[4.346293,51.83607]]},"properties":{"name":"De Landmeter","highway":"unclassified","maxspeed":"30","profile":"car","distance":"10488.1","time":"1444.445"}},{"type":"Feature","name":"ShapeMeta","geometry":{"type":"LineString","coordinates":[[4.346293,51.83607],[4.346341,51.83546]]},"properties":{"name":"Snoekenveen","highway":"living_street","profile":"car","distance":"10555.6","time":"1509.245"}},{"type":"Feature","name":"ShapeMeta","geometry":{"type":"LineString","coordinates":[[4.346341,51.83546],[4.346119,51.83549]]},"properties":{"name":"Snoekenveen","highway":"living_street","profile":"car","distance":"10571.2","time":"1524.221"}},{"type":"Feature","name":"ShapeMeta","geometry":{"type":"LineString","coordinates":[[4.346119,51.83549],[4.346109,51.83543],[4.346109,51.83542]]},"properties":{"name":"Snoekenveen","highway":"living_street","profile":"car","distance":"10578.86","time":"1531.579"}},{"type":"Feature","name":"ShapeMeta","geometry":{"type":"LineString","coordinates":[[4.346109,51.83542],[4.346076,51.83495],[4.345782,51.83484]]},"properties":{"name":"Snoekenveen","highway":"living_street","profile":"car","distance":"10654.9","time":"1604.573"}},{"type":"Feature","name":"ShapeMeta","geometry":{"type":"LineString","coordinates":[[4.345782,51.83484],[4.345465,51.83471]]},"properties":{"name":"Snoekenveen","highway":"living_street","profile":"car","distance":"10680.89","time":"1629.529"}},{"type":"Feature","name":"ShapeMeta","geometry":{"type":"LineString","coordinates":[[4.345465,51.83471],[4.345782,51.83484]]},"properties":{"name":"Snoekenveen","highway":"living_street","profile":"car","distance":"10706.89","time":"1654.485"}},{"type":"Feature","name":"ShapeMeta","geometry":{"type":"LineString","coordinates":[[4.345782,51.83484],[4.346076,51.83495],[4.346109,51.83543],[4.346119,51.83549]]},"properties":{"name":"Snoekenveen","highway":"living_street","profile":"car","distance":"10790.59","time":"1734.837"}},{"type":"Feature","name":"ShapeMeta","geometry":{"type":"LineString","coordinates":[[4.346119,51.83549],[4.346341,51.83546]]},"properties":{"name":"Snoekenveen","highway":"living_street","profile":"car","distance":"10806.19","time":"1749.813"}},{"type":"Feature","name":"ShapeMeta","geometry":{"type":"LineString","coordinates":[[4.346341,51.83546],[4.346293,51.83607]]},"properties":{"name":"Snoekenveen","highway":"living_street","profile":"car","distance":"10873.69","time":"1814.613"}},{"type":"Feature","name":"ShapeMeta","geometry":{"type":"LineString","coordinates":[[4.346293,51.83607],[4.345837,51.8361],[4.345557,51.83613]]},"properties":{"name":"De Landmeter","highway":"unclassified","maxspeed":"30","profile":"car","distance":"10924.69","time":"1822.773"}},{"type":"Feature","name":"ShapeMeta","geometry":{"type":"LineString","coordinates":[[4.345557,51.83613],[4.3454,51.83614],[4.344921,51.83622]]},"properties":{"name":"De Landmeter","highway":"unclassified","maxspeed":"30","profile":"car","distance":"10969.49","time":"1829.941"}},{"type":"Feature","name":"ShapeMeta","geometry":{"type":"LineString","coordinates":[[4.344921,51.83622],[4.344803,51.83581],[4.3446,51.835],[4.344673,51.8345]]},"properties":{"name":"De Dijkgraaf","highway":"tertiary","profile":"car","distance":"11162.79","time":"1843.196"}},{"type":"Feature","name":"ShapeMeta","geometry":{"type":"LineString","coordinates":[[4.344673,51.8345],[4.344718,51.83396],[4.344743,51.83375]]},"properties":{"name":"De Dijkgraaf","highway":"tertiary","profile":"car","distance":"11246.49","time":"1848.936"}},{"type":"Feature","name":"ShapeMeta","geometry":{"type":"LineString","coordinates":[[4.344743,51.83375],[4.344756,51.83363],[4.34482,51.83303]]},"properties":{"name":"De Dijkgraaf","highway":"tertiary","profile":"car","distance":"11325.89","time":"1854.38"}},{"type":"Feature","name":"ShapeMeta","geometry":{"type":"LineString","coordinates":[[4.34482,51.83303],[4.345801,51.83301]]},"properties":{"name":"De Ganzenjager","highway":"unclassified","maxspeed":"30","profile":"car","distance":"11393.29","time":"1865.164"}},{"type":"Feature","name":"ShapeMeta","geometry":{"type":"LineString","coordinates":[[4.345801,51.83301],[4.346057,51.83301]]},"properties":{"name":"De Ganzenjager","highway":"unclassified","maxspeed":"30","profile":"car","distance":"11410.89","time":"1867.98"}},{"type":"Feature","name":"ShapeMeta","geometry":{"type":"LineString","coordinates":[[4.346057,51.83301],[4.346077,51.83331]]},"properties":{"name":"Snoekenveen","highway":"living_street","profile":"car","distance":"11444.39","time":"1900.14"}},{"type":"Feature","name":"ShapeMeta","geometry":{"type":"LineString","coordinates":[[4.346077,51.83331],[4.345498,51.83334],[4.34531,51.83342],[4.345284,51.83372]]},"properties":{"name":"Snoekenveen","highway":"living_street","profile":"car","distance":"11533.29","time":"1985.484"}},{"type":"Feature","name":"ShapeMeta","geometry":{"type":"LineString","coordinates":[[4.345284,51.83372],[4.345594,51.83374]]},"properties":{"name":"Snoekenveen","highway":"living_street","profile":"car","distance":"11554.59","time":"2005.932"}},{"type":"Feature","name":"ShapeMeta","geometry":{"type":"LineString","coordinates":[[4.345594,51.83374],[4.345992,51.83382],[4.346124,51.83386]]},"properties":{"name":"Snoekenveen","highway":"living_street","profile":"car","distance":"11593.73","time":"2043.511"}},{"type":"Feature","name":"ShapeMeta","geometry":{"type":"LineString","coordinates":[[4.346124,51.83386],[4.3471,51.8342]]},"properties":{"name":"Snoekenveen","highway":"living_street","profile":"car","distance":"11670.69","time":"2117.388"}},{"type":"Feature","name":"ShapeMeta","geometry":{"type":"LineString","coordinates":[[4.3471,51.8342],[4.34777,51.83447],[4.347791,51.83449]]},"properties":{"name":"Snoekenveen","highway":"living_street","profile":"car","distance":"11728.24","time":"2172.637"}},{"type":"Feature","name":"ShapeMeta","geometry":{"type":"LineString","coordinates":[[4.347791,51.83449],[4.3478,51.8345],[4.3479,51.835]]},"properties":{"name":"Snoekenveen","highway":"living_street","profile":"car","distance":"11785.29","time":"2227.404"}},{"type":"Feature","name":"ShapeMeta","geometry":{"type":"LineString","coordinates":[[4.3479,51.835],[4.347898,51.83503],[4.347622,51.83522],[4.347584,51.8353],[4.347648,51.83539],[4.347904,51.83538],[4.348101,51.83549],[4.348205,51.83558],[4.348212,51.8357]]},"properties":{"name":"Snoekenveen","highway":"living_street","profile":"car","distance":"11899.09","time":"2336.652"}},{"type":"Feature","name":"ShapeMeta","geometry":{"type":"LineString","coordinates":[[4.348212,51.8357],[4.348288,51.8357],[4.348336,51.83586],[4.348238,51.83586]]},"properties":{"name":"Snoekenveen","highway":"living_street","profile":"car","distance":"11929.09","time":"2365.452"}},{"type":"Feature","name":"ShapeMeta","geometry":{"type":"LineString","coordinates":[[4.348238,51.83586],[4.348073,51.83586]]},"properties":{"name":"Snoekenveen","highway":"living_street","profile":"car","distance":"11940.39","time":"2376.3"}},{"type":"Feature","name":"ShapeMeta","geometry":{"type":"LineString","coordinates":[[4.348073,51.83586],[4.348073,51.83619]]},"properties":{"name":"Snoekenveen","highway":"living_street","profile":"car","distance":"11976.79","time":"2411.244"}},{"type":"Feature","name":"ShapeMeta","geometry":{"type":"LineString","coordinates":[[4.348073,51.83619],[4.347182,51.8361],[4.347106,51.83609]]},"properties":{"name":"De Landmeter","highway":"unclassified","maxspeed":"30","profile":"car","distance":"12043.89","time":"2421.98"}},{"type":"Feature","name":"ShapeMeta","geometry":{"type":"LineString","coordinates":[[4.347106,51.83609],[4.346705,51.83607],[4.346293,51.83607]]},"properties":{"name":"De Landmeter","highway":"unclassified","maxspeed":"30","profile":"car","distance":"12099.79","time":"2430.924"}},{"type":"Feature","name":"ShapeMeta","geometry":{"type":"LineString","coordinates":[[4.346293,51.83607],[4.345837,51.8361],[4.345557,51.83613]]},"properties":{"name":"De Landmeter","highway":"unclassified","maxspeed":"30","profile":"car","distance":"12150.79","time":"2439.084"}},{"type":"Feature","name":"ShapeMeta","geometry":{"type":"LineString","coordinates":[[4.345557,51.83613],[4.3454,51.83614],[4.344921,51.83622]]},"properties":{"name":"De Landmeter","highway":"unclassified","maxspeed":"30","profile":"car","distance":"12195.59","time":"2446.252"}},{"type":"Feature","name":"ShapeMeta","geometry":{"type":"LineString","coordinates":[[4.344921,51.83622],[4.34493,51.83625]]},"properties":{"name":"De Dijkgraaf","highway":"unclassified","profile":"car","distance":"12198.99","time":"2446.578"}},{"type":"Feature","name":"ShapeMeta","geometry":{"type":"LineString","coordinates":[[4.34493,51.83625],[4.345014,51.83635],[4.345134,51.8369],[4.345144,51.83719]]},"properties":{"name":"De Dijkgraaf","highway":"tertiary","oneway":"yes","profile":"car","distance":"12305.29","time":"2453.868"}},{"type":"Feature","name":"ShapeMeta","geometry":{"type":"LineString","coordinates":[[4.345144,51.83719],[4.345103,51.83748],[4.345008,51.83847],[4.344985,51.83865]]},"properties":{"name":"De Dijkgraaf","highway":"tertiary","oneway":"yes","profile":"car","distance":"12468.49","time":"2465.059"}},{"type":"Feature","name":"ShapeMeta","geometry":{"type":"LineString","coordinates":[[4.344985,51.83865],[4.344984,51.83874]]},"properties":{"name":"Schenkelweg","maxspeed":"50","highway":"tertiary","oneway":"yes","profile":"car","distance":"12478.19","time":"2465.99"}},{"type":"Feature","name":"ShapeMeta","geometry":{"type":"LineString","coordinates":[[4.344984,51.83874],[4.344983,51.83881],[4.344948,51.83896],[4.344821,51.83929],[4.344628,51.84029],[4.34461,51.84051],[4.344692,51.84129],[4.34469,51.84135]]},"properties":{"name":"Schenkelweg","maxspeed":"50","oneway":"yes","highway":"secondary","profile":"car","distance":"12770.49","time":"2494.051"}},{"type":"Feature","name":"ShapeMeta","geometry":{"type":"LineString","coordinates":[[4.34469,51.84135],[4.344689,51.84147]]},"properties":{"name":"Schenkelweg","maxspeed":"50","oneway":"yes","highway":"secondary","profile":"car","distance":"12783.59","time":"2495.308"}},{"type":"Feature","name":"ShapeMeta","geometry":{"type":"LineString","coordinates":[[4.344689,51.84147],[4.344956,51.84146],[4.345497,51.84148]]},"properties":{"name":"Maaswijkweg","maxspeed":"50","highway":"tertiary","oneway":"yes","profile":"car","distance":"12839.19","time":"2500.646"}},{"type":"Feature","name":"ShapeMeta","geometry":{"type":"LineString","coordinates":[[4.345497,51.84148],[4.346251,51.84152]]},"properties":{"name":"Maaswijkweg","maxspeed":"50","highway":"tertiary","oneway":"yes","profile":"car","distance":"12891.09","time":"2505.628"}},{"type":"Feature","name":"ShapeMeta","geometry":{"type":"LineString","coordinates":[[4.346251,51.84152],[4.347239,51.84156]]},"properties":{"name":"Maaswijkweg","maxspeed":"50","highway":"tertiary","oneway":"yes","profile":"car","distance":"12959.19","time":"2512.166"}},{"type":"Feature","name":"ShapeMeta","geometry":{"type":"LineString","coordinates":[[4.347239,51.84156],[4.348428,51.8416]]},"properties":{"name":"Maaswijkweg","maxspeed":"50","highway":"tertiary","oneway":"yes","profile":"car","distance":"13040.89","time":"2520.009"}},{"type":"Feature","name":"ShapeMeta","geometry":{"type":"LineString","coordinates":[[4.348428,51.8416],[4.348705,51.84158],[4.349051,51.84153],[4.349454,51.84143],[4.349549,51.8414],[4.349648,51.84134]]},"properties":{"name":"Maaswijkweg","maxspeed":"50","highway":"tertiary","oneway":"yes","profile":"car","distance":"13131.29","time":"2528.688"}},{"type":"Feature","name":"ShapeMeta","geometry":{"type":"LineString","coordinates":[[4.349648,51.84134],[4.349666,51.84131],[4.349733,51.84125],[4.349779,51.84123]]},"properties":{"name":"Maaswijkweg","maxspeed":"50","highway":"tertiary","junction":"roundabout","profile":"car","distance":"13146.89","time":"2530.185"}},{"type":"Feature","name":"ShapeMeta","geometry":{"type":"LineString","coordinates":[[4.349779,51.84123],[4.349773,51.84107]]},"properties":{"highway":"unclassified","oneway":"yes","profile":"car","distance":"13164.19","time":"2531.846"}},{"type":"Feature","name":"ShapeMeta","geometry":{"type":"LineString","coordinates":[[4.349773,51.84107],[4.349725,51.84097]]},"properties":{"name":"Hürthstraat","highway":"living_street","profile":"car","distance":"13176.49","time":"2543.654"}},{"type":"Feature","name":"ShapeMeta","geometry":{"type":"LineString","coordinates":[[4.349725,51.84097],[4.349637,51.84082]]},"properties":{"name":"Hürthstraat","highway":"living_street","profile":"car","distance":"13193.69","time":"2560.166"}},{"type":"Feature","name":"ShapeMeta","geometry":{"type":"LineString","coordinates":[[4.349637,51.84082],[4.349562,51.84072],[4.349473,51.84055]]},"properties":{"name":"Hürthstraat","highway":"living_street","profile":"car","distance":"13225.49","time":"2590.694"}},{"type":"Feature","name":"ShapeMeta","geometry":{"type":"LineString","coordinates":[[4.349473,51.84055],[4.349343,51.84038]]},"properties":{"name":"Hürthstraat","highway":"living_street","profile":"car","distance":"13246.89","time":"2611.238"}},{"type":"Feature","name":"ShapeMeta","geometry":{"type":"LineString","coordinates":[[4.349343,51.84038],[4.349247,51.84026],[4.349227,51.84022],[4.349242,51.84018],[4.349291,51.84015],[4.349341,51.84015]]},"properties":{"name":"Hürthstraat","highway":"living_street","profile":"car","distance":"13279.11","time":"2642.171"}},{"type":"Feature","name":"ShapeMeta","geometry":{"type":"LineString","coordinates":[[4.349341,51.84015],[4.349291,51.84015],[4.349242,51.84018],[4.349227,51.84022],[4.349247,51.84026],[4.349343,51.84038]]},"properties":{"name":"Hürthstraat","highway":"living_street","profile":"car","distance":"13311.33","time":"2673.104"}},{"type":"Feature","name":"ShapeMeta","geometry":{"type":"LineString","coordinates":[[4.349343,51.84038],[4.349473,51.84055]]},"properties":{"name":"Hürthstraat","highway":"living_street","profile":"car","distance":"13332.73","time":"2693.648"}},{"type":"Feature","name":"ShapeMeta","geometry":{"type":"LineString","coordinates":[[4.349473,51.84055],[4.349562,51.84072],[4.349637,51.84082]]},"properties":{"name":"Hürthstraat","highway":"living_street","profile":"car","distance":"13364.53","time":"2724.176"}},{"type":"Feature","name":"ShapeMeta","geometry":{"type":"LineString","coordinates":[[4.349637,51.84082],[4.349725,51.84097]]},"properties":{"name":"Hürthstraat","highway":"living_street","profile":"car","distance":"13381.73","time":"2740.688"}},{"type":"Feature","name":"ShapeMeta","geometry":{"type":"LineString","coordinates":[[4.349725,51.84097],[4.349773,51.84107]]},"properties":{"name":"Hürthstraat","highway":"living_street","profile":"car","distance":"13394.03","time":"2752.496"}},{"type":"Feature","name":"ShapeMeta","geometry":{"type":"LineString","coordinates":[[4.349773,51.84107],[4.349949,51.8412]]},"properties":{"name":"Hürthstraat","highway":"unclassified","oneway":"yes","profile":"car","distance":"13412.83","time":"2754.301"}},{"type":"Feature","name":"ShapeMeta","geometry":{"type":"LineString","coordinates":[[4.349949,51.8412],[4.350004,51.84121],[4.350057,51.84122]]},"properties":{"name":"Maaswijkweg","maxspeed":"50","highway":"tertiary","junction":"roundabout","profile":"car","distance":"13420.43","time":"2755.03"}},{"type":"Feature","name":"ShapeMeta","geometry":{"type":"LineString","coordinates":[[4.350057,51.84122],[4.350151,51.84123],[4.350306,51.84121],[4.351436,51.84094],[4.353651,51.84037],[4.355665,51.83982],[4.356448,51.83964]]},"properties":{"name":"Maaswijkweg","maxspeed":"50","highway":"tertiary","oneway":"yes","profile":"car","distance":"13894.63","time":"2800.554"}},{"type":"Feature","name":"ShapeMeta","geometry":{"type":"LineString","coordinates":[[4.356448,51.83964],[4.356467,51.83959],[4.356505,51.83955],[4.356559,51.83953]]},"properties":{"name":"Maaswijkweg","maxspeed":"50","highway":"tertiary","junction":"roundabout","profile":"car","distance":"13909.53","time":"2801.984"}},{"type":"Feature","name":"ShapeMeta","geometry":{"type":"LineString","coordinates":[[4.356559,51.83953],[4.356528,51.83948],[4.356172,51.83889],[4.356095,51.83873]]},"properties":{"name":"Joke Smitlaan","maxspeed":"50","highway":"tertiary","oneway":"yes","profile":"car","distance":"14004.13","time":"2811.066"}},{"type":"Feature","name":"ShapeMeta","geometry":{"type":"LineString","coordinates":[[4.356095,51.83873],[4.356054,51.83867]]},"properties":{"name":"Joke Smitlaan","maxspeed":"50","highway":"tertiary","profile":"car","distance":"14010.63","time":"2811.69"}},{"type":"Feature","name":"ShapeMeta","geometry":{"type":"LineString","coordinates":[[4.356054,51.83867],[4.355865,51.83872]]},"properties":{"name":"Marga Klompéstraat","highway":"residential","maxspeed":"30","profile":"car","distance":"14024.63","time":"2813.93"}},{"type":"Feature","name":"ShapeMeta","geometry":{"type":"LineString","coordinates":[[4.355865,51.83872],[4.355744,51.83854]]},"properties":{"name":"Suze Groenewegstraat","highway":"residential","maxspeed":"30","profile":"car","distance":"14047.04","time":"2817.515"}},{"type":"Feature","name":"ShapeMeta","geometry":{"type":"LineString","coordinates":[[4.355744,51.83854],[4.355442,51.83807]]},"properties":{"name":"Suze Groenewegstraat","highway":"residential","maxspeed":"30","profile":"car","distance":"14103.13","time":"2826.49"}},{"type":"Feature","name":"ShapeMeta","geometry":{"type":"LineString","coordinates":[[4.355442,51.83807],[4.355262,51.83775],[4.355149,51.83741]]},"properties":{"name":"Suze Groenewegstraat","highway":"residential","maxspeed":"30","profile":"car","distance":"14178.46","time":"2838.542"}},{"type":"Feature","name":"ShapeMeta","geometry":{"type":"LineString","coordinates":[[4.355149,51.83741],[4.355262,51.83775],[4.355442,51.83807]]},"properties":{"name":"Suze Groenewegstraat","highway":"residential","maxspeed":"30","profile":"car","distance":"14253.79","time":"2850.595"}},{"type":"Feature","name":"ShapeMeta","geometry":{"type":"LineString","coordinates":[[4.355442,51.83807],[4.354567,51.83827]]},"properties":{"name":"Johanna Engwirda-Agricolastraat","highway":"residential","maxspeed":"30","profile":"car","distance":"14318.09","time":"2860.883"}},{"type":"Feature","name":"ShapeMeta","geometry":{"type":"LineString","coordinates":[[4.354567,51.83827],[4.354502,51.83861],[4.354394,51.83879],[4.354266,51.83889],[4.353954,51.83899],[4.353641,51.83902],[4.353499,51.83899]]},"properties":{"name":"Johanna Engwirda-Agricolastraat","highway":"residential","maxspeed":"30","profile":"car","distance":"14447.39","time":"2881.571"}},{"type":"Feature","name":"ShapeMeta","geometry":{"type":"LineString","coordinates":[[4.353499,51.83899],[4.353641,51.83902],[4.353954,51.83899],[4.354266,51.83889],[4.354394,51.83879],[4.354502,51.83861],[4.354567,51.83827]]},"properties":{"name":"Johanna Engwirda-Agricolastraat","highway":"residential","maxspeed":"30","profile":"car","distance":"14576.69","time":"2902.26"}},{"type":"Feature","name":"ShapeMeta","geometry":{"type":"LineString","coordinates":[[4.354567,51.83827],[4.354431,51.83799],[4.354358,51.83789],[4.354114,51.83788]]},"properties":{"name":"Johanna Engwirda-Agricolastraat","highway":"residential","maxspeed":"30","profile":"car","distance":"14638.29","time":"2912.116"}},{"type":"Feature","name":"ShapeMeta","geometry":{"type":"LineString","coordinates":[[4.354114,51.83788],[4.353674,51.83787]]},"properties":{"name":"Johanna Engwirda-Agricolastraat","highway":"residential","maxspeed":"30","profile":"car","distance":"14668.49","time":"2916.948"}},{"type":"Feature","name":"ShapeMeta","geometry":{"type":"LineString","coordinates":[[4.353674,51.83787],[4.353401,51.83786]]},"properties":{"name":"Johanna Engwirda-Agricolastraat","highway":"residential","maxspeed":"30","profile":"car","distance":"14687.25","time":"2919.949"}},{"type":"Feature","name":"ShapeMeta","geometry":{"type":"LineString","coordinates":[[4.353401,51.83786],[4.3535,51.83787]]},"properties":{"name":"Johanna Engwirda-Agricolastraat","highway":"residential","maxspeed":"30","profile":"car","distance":"14694.06","time":"2921.039"}},{"type":"Feature","name":"ShapeMeta","geometry":{"type":"LineString","coordinates":[[4.3535,51.83787],[4.353249,51.83786]]},"properties":{"name":"Johanna Engwirda-Agricolastraat","highway":"residential","maxspeed":"30","profile":"car","distance":"14711.32","time":"2923.8"}},{"type":"Feature","name":"ShapeMeta","geometry":{"type":"LineString","coordinates":[[4.353249,51.83786],[4.353267,51.83731]]},"properties":{"name":"Carry Pothuis-Smitstraat","highway":"residential","maxspeed":"30","profile":"car","distance":"14772.82","time":"2933.64"}},{"type":"Feature","name":"ShapeMeta","geometry":{"type":"LineString","coordinates":[[4.353267,51.83731],[4.352183,51.83727],[4.35223,51.83674]]},"properties":{"name":"Wilhelmina Hofman-Pootstraat","highway":"residential","maxspeed":"30","profile":"car","distance":"14906.02","time":"2954.952"}},{"type":"Feature","name":"ShapeMeta","geometry":{"type":"LineString","coordinates":[[4.35223,51.83674],[4.352281,51.83624],[4.352559,51.83624]]},"properties":{"name":"Wilhelmina Druckerstraat","highway":"residential","maxspeed":"30","profile":"car","distance":"14981.22","time":"2966.984"}},{"type":"Feature","name":"ShapeMeta","geometry":{"type":"LineString","coordinates":[[4.352559,51.83624],[4.3527,51.83624]]},"properties":{"name":"Wilhelmina Druckerstraat","highway":"residential","maxspeed":"30","profile":"car","distance":"14990.91","time":"2968.535"}},{"type":"Feature","name":"ShapeMeta","geometry":{"type":"LineString","coordinates":[[4.3527,51.83624],[4.353416,51.83625],[4.354496,51.83628]]},"properties":{"name":"Wilhelmina Druckerstraat","highway":"residential","maxspeed":"30","profile":"car","distance":"15114.32","time":"2988.28"}},{"type":"Feature","name":"ShapeMeta","geometry":{"type":"LineString","coordinates":[[4.354496,51.83628],[4.354723,51.8363]]},"properties":{"name":"Wilhelmina Druckerstraat","highway":"residential","maxspeed":"30","profile":"car","distance":"15129.92","time":"2990.776"}},{"type":"Feature","name":"ShapeMeta","geometry":{"type":"LineString","coordinates":[[4.354723,51.8363],[4.355241,51.83632]]},"properties":{"name":"Wilhelmina Druckerstraat","highway":"residential","maxspeed":"30","profile":"car","distance":"15165.62","time":"2996.488"}},{"type":"Feature","name":"ShapeMeta","geometry":{"type":"LineString","coordinates":[[4.355241,51.83632],[4.355292,51.83623]]},"properties":{"name":"Mina Krusemanstraat","highway":"residential","maxspeed":"30","profile":"car","distance":"15176.34","time":"2998.204"}},{"type":"Feature","name":"ShapeMeta","geometry":{"type":"LineString","coordinates":[[4.355292,51.83623],[4.355379,51.83607],[4.355661,51.83566],[4.356078,51.83521]]},"properties":{"name":"Mina Krusemanstraat","highway":"residential","maxspeed":"30","profile":"car","distance":"15302.52","time":"3018.393"}},{"type":"Feature","name":"ShapeMeta","geometry":{"type":"LineString","coordinates":[[4.356078,51.83521],[4.355773,51.83496]]},"properties":{"name":"Maria Doorman-Kielstrastraat","highway":"residential","maxspeed":"30","profile":"car","distance":"15337.02","time":"3023.913"}},{"type":"Feature","name":"ShapeMeta","geometry":{"type":"LineString","coordinates":[[4.355773,51.83496],[4.355624,51.83485]]},"properties":{"name":"Maria Doorman-Kielstrastraat","highway":"residential","maxspeed":"30","profile":"car","distance":"15353.02","time":"3026.472"}},{"type":"Feature","name":"ShapeMeta","geometry":{"type":"LineString","coordinates":[[4.355624,51.83485],[4.35489,51.83435],[4.354307,51.83396]]},"properties":{"name":"Maria Doorman-Kielstrastraat","highway":"residential","maxspeed":"30","profile":"car","distance":"15486.62","time":"3047.848"}},{"type":"Feature","name":"ShapeMeta","geometry":{"type":"LineString","coordinates":[[4.354307,51.83396],[4.354263,51.83387],[4.354132,51.83377]]},"properties":{"name":"Maria Doorman-Kielstrastraat","highway":"residential","maxspeed":"30","profile":"car","distance":"15511.12","time":"3051.769"}},{"type":"Feature","name":"ShapeMeta","geometry":{"type":"LineString","coordinates":[[4.354132,51.83377],[4.353737,51.83353]]},"properties":{"name":"Maria Doorman-Kielstrastraat","highway":"residential","maxspeed":"30","profile":"car","distance":"15549.12","time":"3057.848"}},{"type":"Feature","name":"ShapeMeta","geometry":{"type":"LineString","coordinates":[[4.353737,51.83353],[4.353667,51.83348],[4.35358,51.83342]]},"properties":{"name":"Willemijn Posthumusstraat","highway":"residential","maxspeed":"30","profile":"car","distance":"15565.59","time":"3060.485"}},{"type":"Feature","name":"ShapeMeta","geometry":{"type":"LineString","coordinates":[[4.35358,51.83342],[4.353667,51.83348],[4.353737,51.83353]]},"properties":{"name":"Willemijn Posthumusstraat","highway":"residential","maxspeed":"30","profile":"car","distance":"15582.07","time":"3063.122"}},{"type":"Feature","name":"ShapeMeta","geometry":{"type":"LineString","coordinates":[[4.353737,51.83353],[4.354132,51.83377]]},"properties":{"name":"Maria Doorman-Kielstrastraat","highway":"residential","maxspeed":"30","profile":"car","distance":"15620.07","time":"3069.201"}},{"type":"Feature","name":"ShapeMeta","geometry":{"type":"LineString","coordinates":[[4.354132,51.83377],[4.354263,51.83387],[4.354307,51.83396]]},"properties":{"name":"Maria Doorman-Kielstrastraat","highway":"residential","maxspeed":"30","profile":"car","distance":"15644.57","time":"3073.122"}},{"type":"Feature","name":"ShapeMeta","geometry":{"type":"LineString","coordinates":[[4.354307,51.83396],[4.354862,51.83434]]},"properties":{"name":"Maria Doorman-Kielstrastraat","highway":"residential","maxspeed":"30","profile":"car","distance":"15701.01","time":"3082.152"}},{"type":"Feature","name":"ShapeMeta","geometry":{"type":"LineString","coordinates":[[4.354862,51.83434],[4.35489,51.83435],[4.355624,51.83485]]},"properties":{"name":"Maria Doorman-Kielstrastraat","highway":"residential","maxspeed":"30","profile":"car","distance":"15778.17","time":"3094.498"}},{"type":"Feature","name":"ShapeMeta","geometry":{"type":"LineString","coordinates":[[4.355624,51.83485],[4.354878,51.83525]]},"properties":{"name":"Roosje Vosstraat","highway":"residential","maxspeed":"30","profile":"car","distance":"15845.97","time":"3105.345"}},{"type":"Feature","name":"ShapeMeta","geometry":{"type":"LineString","coordinates":[[4.354878,51.83525],[4.354701,51.83535]]},"properties":{"name":"Roosje Vosstraat","highway":"residential","maxspeed":"30","profile":"car","distance":"15862.37","time":"3107.969"}},{"type":"Feature","name":"ShapeMeta","geometry":{"type":"LineString","coordinates":[[4.354701,51.83535],[4.3546,51.83545],[4.354561,51.83556],[4.354558,51.8356]]},"properties":{"name":"Roosje Vosstraat","highway":"residential","maxspeed":"30","profile":"car","distance":"15892.46","time":"3112.784"}},{"type":"Feature","name":"ShapeMeta","geometry":{"type":"LineString","coordinates":[[4.354558,51.8356],[4.354561,51.83556],[4.3546,51.83545],[4.354701,51.83535]]},"properties":{"name":"Roosje Vosstraat","highway":"residential","maxspeed":"30","profile":"car","distance":"15922.55","time":"3117.599"}},{"type":"Feature","name":"ShapeMeta","geometry":{"type":"LineString","coordinates":[[4.354701,51.83535],[4.354878,51.83525]]},"properties":{"name":"Roosje Vosstraat","highway":"residential","maxspeed":"30","profile":"car","distance":"15938.95","time":"3120.223"}},{"type":"Feature","name":"ShapeMeta","geometry":{"type":"LineString","coordinates":[[4.354878,51.83525],[4.355624,51.83485]]},"properties":{"name":"Roosje Vosstraat","highway":"residential","maxspeed":"30","profile":"car","distance":"16006.75","time":"3131.071"}},{"type":"Feature","name":"ShapeMeta","geometry":{"type":"LineString","coordinates":[[4.355624,51.83485],[4.355773,51.83496]]},"properties":{"name":"Maria Doorman-Kielstrastraat","highway":"residential","maxspeed":"30","profile":"car","distance":"16022.75","time":"3133.631"}},{"type":"Feature","name":"ShapeMeta","geometry":{"type":"LineString","coordinates":[[4.355773,51.83496],[4.35603,51.8348],[4.356064,51.83468],[4.356438,51.83448]]},"properties":{"highway":"residential","maxspeed":"30","profile":"car","distance":"16095.23","time":"3145.227"}},{"type":"Feature","name":"ShapeMeta","geometry":{"type":"LineString","coordinates":[[4.356438,51.83448],[4.35656,51.83442],[4.356722,51.83442],[4.357036,51.83429]]},"properties":{"highway":"residential","maxspeed":"30","profile":"car","distance":"16143.56","time":"3152.959"}},{"type":"Feature","name":"ShapeMeta","geometry":{"type":"LineString","coordinates":[[4.357036,51.83429],[4.357344,51.83449]]},"properties":{"name":"Etty Hillesumstraat","highway":"residential","maxspeed":"30","profile":"car","distance":"16174.36","time":"3157.887"}},{"type":"Feature","name":"ShapeMeta","geometry":{"type":"LineString","coordinates":[[4.357344,51.83449],[4.357435,51.83458]]},"properties":{"name":"Etty Hillesumstraat","highway":"residential","maxspeed":"30","profile":"car","distance":"16186.26","time":"3159.791"}},{"type":"Feature","name":"ShapeMeta","geometry":{"type":"LineString","coordinates":[[4.357435,51.83458],[4.35772,51.83448],[4.358244,51.83437]]},"properties":{"name":"Joke Smitlaan","maxspeed":"50","highway":"tertiary","oneway":"yes","profile":"car","distance":"16246.86","time":"3165.609"}},{"type":"Feature","name":"ShapeMeta","geometry":{"type":"LineString","coordinates":[[4.358244,51.83437],[4.358519,51.8343],[4.358867,51.83425],[4.359239,51.83422]]},"properties":{"name":"Joke Smitlaan","maxspeed":"50","highway":"tertiary","profile":"car","distance":"16317.36","time":"3172.377"}},{"type":"Feature","name":"ShapeMeta","geometry":{"type":"LineString","coordinates":[[4.359239,51.83422],[4.359233,51.8341]]},"properties":{"name":"Anne Frankstraat","highway":"residential","maxspeed":"30","profile":"car","distance":"16330.46","time":"3174.473"}},{"type":"Feature","name":"ShapeMeta","geometry":{"type":"LineString","coordinates":[[4.359233,51.8341],[4.359243,51.83399]]},"properties":{"name":"Anne Frankstraat","highway":"residential","maxspeed":"30","profile":"car","distance":"16342.35","time":"3176.376"}},{"type":"Feature","name":"ShapeMeta","geometry":{"type":"LineString","coordinates":[[4.359243,51.83399],[4.3593,51.8334],[4.359339,51.8329]]},"properties":{"name":"Anne Frankstraat","highway":"residential","maxspeed":"30","profile":"car","distance":"16464.26","time":"3195.881"}},{"type":"Feature","name":"ShapeMeta","geometry":{"type":"LineString","coordinates":[[4.359339,51.8329],[4.359152,51.83241],[4.359224,51.83157]]},"properties":{"name":"Anne Frankstraat","highway":"residential","maxspeed":"30","profile":"car","distance":"16613.05","time":"3219.689"}},{"type":"Feature","name":"ShapeMeta","geometry":{"type":"LineString","coordinates":[[4.359224,51.83157],[4.358534,51.83154]]},"properties":{"name":"Anne Frankstraat","highway":"residential","maxspeed":"30","profile":"car","distance":"16660.55","time":"3227.289"}},{"type":"Feature","name":"ShapeMeta","geometry":{"type":"LineString","coordinates":[[4.358534,51.83154],[4.358211,51.83153]]},"properties":{"name":"Anne Frankstraat","highway":"residential","maxspeed":"30","profile":"car","distance":"16682.76","time":"3230.841"}},{"type":"Feature","name":"ShapeMeta","geometry":{"type":"LineString","coordinates":[[4.358211,51.83153],[4.358202,51.83168]]},"properties":{"name":"Petronella Brugsmastraat","highway":"residential","maxspeed":"30","profile":"car","distance":"16699.26","time":"3233.481"}},{"type":"Feature","name":"ShapeMeta","geometry":{"type":"LineString","coordinates":[[4.358202,51.83168],[4.358144,51.83232],[4.357605,51.83242],[4.357409,51.83244],[4.357197,51.83241],[4.3567,51.8323],[4.356502,51.83228]]},"properties":{"name":"Petronella Brugsmastraat","highway":"residential","maxspeed":"30","profile":"car","distance":"16888.09","time":"3263.694"}},{"type":"Feature","name":"ShapeMeta","geometry":{"type":"LineString","coordinates":[[4.356502,51.83228],[4.3567,51.8323],[4.357197,51.83241],[4.357409,51.83244],[4.357605,51.83242],[4.358144,51.83232],[4.358191,51.8318]]},"properties":{"name":"Petronella Brugsmastraat","highway":"residential","maxspeed":"30","profile":"car","distance":"17063.33","time":"3291.733"}},{"type":"Feature","name":"ShapeMeta","geometry":{"type":"LineString","coordinates":[[4.358191,51.8318],[4.358144,51.83232],[4.357605,51.83242],[4.357409,51.83244],[4.357197,51.83241],[4.3567,51.8323],[4.356392,51.83227],[4.356239,51.83227],[4.356162,51.83229]]},"properties":{"name":"Petronella Brugsmastraat","highway":"residential","maxspeed":"30","profile":"car","distance":"17262.64","time":"3323.623"}},{"type":"Feature","name":"ShapeMeta","geometry":{"type":"LineString","coordinates":[[4.356162,51.83229],[4.356112,51.83237],[4.355743,51.83256]]},"properties":{"name":"Mien Sneevliet-Draaijerstraat","highway":"residential","maxspeed":"30","oneway":"yes","profile":"car","distance":"17305.04","time":"3330.407"}},{"type":"Feature","name":"ShapeMeta","geometry":{"type":"LineString","coordinates":[[4.355743,51.83256],[4.355162,51.83287],[4.355031,51.83289]]},"properties":{"name":"Mien Sneevliet-Draaijerstraat","highway":"residential","maxspeed":"30","oneway":"yes","profile":"car","distance":"17367.04","time":"3340.327"}},{"type":"Feature","name":"ShapeMeta","geometry":{"type":"LineString","coordinates":[[4.355031,51.83289],[4.354982,51.83286]]},"properties":{"name":"Etty Hillesumstraat","highway":"residential","maxspeed":"30","profile":"car","distance":"17372.04","time":"3341.127"}},{"type":"Feature","name":"ShapeMeta","geometry":{"type":"LineString","coordinates":[[4.354982,51.83286],[4.354829,51.83276],[4.354083,51.83223],[4.354129,51.83141],[4.354129,51.83141]]},"properties":{"name":"Etty Hillesumstraat","highway":"residential","maxspeed":"30","profile":"car","distance":"17556.52","time":"3370.643"}},{"type":"Feature","name":"ShapeMeta","geometry":{"type":"LineString","coordinates":[[4.354129,51.83141],[4.354129,51.83141],[4.354083,51.83223],[4.354829,51.83276],[4.354982,51.83286]]},"properties":{"name":"Etty Hillesumstraat","highway":"residential","maxspeed":"30","profile":"car","distance":"17741","time":"3400.159"}},{"type":"Feature","name":"ShapeMeta","geometry":{"type":"LineString","coordinates":[[4.354982,51.83286],[4.355031,51.83289]]},"properties":{"name":"Etty Hillesumstraat","highway":"residential","maxspeed":"30","profile":"car","distance":"17746","time":"3400.959"}},{"type":"Feature","name":"ShapeMeta","geometry":{"type":"LineString","coordinates":[[4.355031,51.83289],[4.355329,51.8331]]},"properties":{"name":"Etty Hillesumstraat","highway":"residential","maxspeed":"30","profile":"car","distance":"17776.7","time":"3405.872"}},{"type":"Feature","name":"ShapeMeta","geometry":{"type":"LineString","coordinates":[[4.355329,51.8331],[4.35606,51.83361]]},"properties":{"name":"Etty Hillesumstraat","highway":"residential","maxspeed":"30","profile":"car","distance":"17852.2","time":"3417.951"}},{"type":"Feature","name":"ShapeMeta","geometry":{"type":"LineString","coordinates":[[4.35606,51.83361],[4.35673,51.83325]]},"properties":{"name":"Hannie Schaftstraat","highway":"residential","maxspeed":"30","profile":"car","distance":"17913.1","time":"3427.696"}},{"type":"Feature","name":"ShapeMeta","geometry":{"type":"LineString","coordinates":[[4.35673,51.83325],[4.357482,51.83284],[4.3575,51.83284]]},"properties":{"name":"Hannie Schaftstraat","highway":"residential","maxspeed":"30","profile":"car","distance":"17983.35","time":"3438.936"}},{"type":"Feature","name":"ShapeMeta","geometry":{"type":"LineString","coordinates":[[4.3575,51.83284],[4.358464,51.83288]]},"properties":{"name":"Hannie Schaftstraat","highway":"residential","maxspeed":"30","profile":"car","distance":"18049.79","time":"3449.567"}},{"type":"Feature","name":"ShapeMeta","geometry":{"type":"LineString","coordinates":[[4.358464,51.83288],[4.359339,51.8329]]},"properties":{"name":"Hannie Schaftstraat","highway":"residential","maxspeed":"30","profile":"car","distance":"18109.89","time":"3459.183"}},{"type":"Feature","name":"ShapeMeta","geometry":{"type":"LineString","coordinates":[[4.359339,51.8329],[4.3593,51.8334],[4.359233,51.8341]]},"properties":{"name":"Anne Frankstraat","highway":"residential","maxspeed":"30","profile":"car","distance":"18243.69","time":"3480.591"}},{"type":"Feature","name":"ShapeMeta","geometry":{"type":"LineString","coordinates":[[4.359233,51.8341],[4.359239,51.83422]]},"properties":{"name":"Anne Frankstraat","highway":"residential","maxspeed":"30","profile":"car","distance":"18256.79","time":"3482.687"}},{"type":"Feature","name":"ShapeMeta","geometry":{"type":"LineString","coordinates":[[4.359239,51.83422],[4.359355,51.83421]]},"properties":{"name":"Joke Smitlaan","maxspeed":"50","highway":"tertiary","profile":"car","distance":"18264.79","time":"3483.455"}},{"type":"Feature","name":"ShapeMeta","geometry":{"type":"LineString","coordinates":[[4.359355,51.83421],[4.359982,51.83422]]},"properties":{"name":"Joke Smitlaan","maxspeed":"50","highway":"tertiary","profile":"car","distance":"18307.79","time":"3487.583"}},{"type":"Feature","name":"ShapeMeta","geometry":{"type":"LineString","coordinates":[[4.359982,51.83422],[4.360428,51.83422]]},"properties":{"name":"Joke Smitlaan","maxspeed":"50","highway":"tertiary","profile":"car","distance":"18338.39","time":"3490.521"}},{"type":"Feature","name":"ShapeMeta","geometry":{"type":"LineString","coordinates":[[4.360428,51.83422],[4.360715,51.83423],[4.361216,51.83426]]},"properties":{"name":"Joke Smitlaan","maxspeed":"50","highway":"tertiary","profile":"car","distance":"18392.69","time":"3495.734"}},{"type":"Feature","name":"ShapeMeta","geometry":{"type":"LineString","coordinates":[[4.361216,51.83426],[4.36149,51.8343]]},"properties":{"name":"Joke Smitlaan","maxspeed":"50","highway":"tertiary","profile":"car","distance":"18412.09","time":"3497.596"}},{"type":"Feature","name":"ShapeMeta","geometry":{"type":"LineString","coordinates":[[4.36149,51.8343],[4.361445,51.8344]]},"properties":{"name":"Margaretha Roosenboomstraat","highway":"residential","profile":"car","distance":"18423.49","time":"3498.69"}},{"type":"Feature","name":"ShapeMeta","geometry":{"type":"LineString","coordinates":[[4.361445,51.8344],[4.361368,51.83445],[4.361287,51.83451],[4.361287,51.83468],[4.361362,51.83472]]},"properties":{"name":"Margaretha Roosenboomstraat","highway":"residential","profile":"car","distance":"18465.29","time":"3502.703"}},{"type":"Feature","name":"ShapeMeta","geometry":{"type":"LineString","coordinates":[[4.361362,51.83472],[4.361629,51.83485]]},"properties":{"name":"Margaretha Roosenboomstraat","highway":"residential","profile":"car","distance":"18488.59","time":"3504.94"}},{"type":"Feature","name":"ShapeMeta","geometry":{"type":"LineString","coordinates":[[4.361629,51.83485],[4.36163,51.83494]]},"properties":{"name":"Margaretha Roosenboomstraat","highway":"residential","profile":"car","distance":"18498.34","time":"3505.875"}},{"type":"Feature","name":"ShapeMeta","geometry":{"type":"LineString","coordinates":[[4.36163,51.83494],[4.361629,51.83485]]},"properties":{"name":"Margaretha Roosenboomstraat","highway":"residential","profile":"car","distance":"18508.08","time":"3506.811"}},{"type":"Feature","name":"ShapeMeta","geometry":{"type":"LineString","coordinates":[[4.361629,51.83485],[4.361362,51.83472]]},"properties":{"name":"Margaretha Roosenboomstraat","highway":"residential","profile":"car","distance":"18531.38","time":"3509.047"}},{"type":"Feature","name":"ShapeMeta","geometry":{"type":"LineString","coordinates":[[4.361362,51.83472],[4.361287,51.83468],[4.361287,51.83451],[4.361368,51.83445],[4.361445,51.8344]]},"properties":{"name":"Margaretha Roosenboomstraat","highway":"residential","profile":"car","distance":"18573.18","time":"3513.06"}},{"type":"Feature","name":"ShapeMeta","geometry":{"type":"LineString","coordinates":[[4.361445,51.8344],[4.36149,51.8343]]},"properties":{"name":"Margaretha Roosenboomstraat","highway":"residential","profile":"car","distance":"18584.58","time":"3514.155"}},{"type":"Feature","name":"ShapeMeta","geometry":{"type":"LineString","coordinates":[[4.36149,51.8343],[4.361663,51.83434]]},"properties":{"name":"Joke Smitlaan","maxspeed":"50","highway":"tertiary","profile":"car","distance":"18596.98","time":"3515.345"}},{"type":"Feature","name":"ShapeMeta","geometry":{"type":"LineString","coordinates":[[4.361663,51.83434],[4.36189,51.8344],[4.362263,51.83449],[4.36259,51.83456]]},"properties":{"name":"Joke Smitlaan","maxspeed":"50","highway":"tertiary","profile":"car","distance":"18665.38","time":"3521.911"}},{"type":"Feature","name":"ShapeMeta","geometry":{"type":"LineString","coordinates":[[4.36259,51.83456],[4.362716,51.8344]]},"properties":{"name":"Annie Romein-Verschoorlaan","maxspeed":"50","highway":"tertiary","profile":"car","distance":"18685.88","time":"3523.879"}},{"type":"Feature","name":"ShapeMeta","geometry":{"type":"LineString","coordinates":[[4.362716,51.8344],[4.362961,51.83414],[4.363196,51.83397]]},"properties":{"name":"Annie Romein-Verschoorlaan","maxspeed":"50","highway":"tertiary","profile":"car","distance":"18744.18","time":"3529.476"}},{"type":"Feature","name":"ShapeMeta","geometry":{"type":"LineString","coordinates":[[4.363196,51.83397],[4.363072,51.8339],[4.362954,51.83384]]},"properties":{"name":"Hadewychplaats","highway":"service","profile":"car","distance":"18765.88","time":"3532.948"}},{"type":"Feature","name":"ShapeMeta","geometry":{"type":"LineString","coordinates":[[4.362954,51.83384],[4.362914,51.83384]]},"properties":{"name":"Ida Gerhardtplein","highway":"service","profile":"car","distance":"18768.62","time":"3533.386"}},{"type":"Feature","name":"ShapeMeta","geometry":{"type":"LineString","coordinates":[[4.362914,51.83384],[4.362954,51.83384]]},"properties":{"name":"Ida Gerhardtplein","highway":"service","profile":"car","distance":"18771.36","time":"3533.824"}},{"type":"Feature","name":"ShapeMeta","geometry":{"type":"LineString","coordinates":[[4.362954,51.83384],[4.363072,51.8339],[4.363196,51.83397]]},"properties":{"name":"Hadewychplaats","highway":"service","profile":"car","distance":"18793.06","time":"3537.296"}},{"type":"Feature","name":"ShapeMeta","geometry":{"type":"LineString","coordinates":[[4.363196,51.83397],[4.362961,51.83414],[4.362716,51.8344]]},"properties":{"name":"Annie Romein-Verschoorlaan","maxspeed":"50","highway":"tertiary","profile":"car","distance":"18851.36","time":"3542.893"}},{"type":"Feature","name":"ShapeMeta","geometry":{"type":"LineString","coordinates":[[4.362716,51.8344],[4.36259,51.83456]]},"properties":{"name":"Annie Romein-Verschoorlaan","maxspeed":"50","highway":"tertiary","profile":"car","distance":"18871.86","time":"3544.861"}},{"type":"Feature","name":"ShapeMeta","geometry":{"type":"LineString","coordinates":[[4.36259,51.83456],[4.362295,51.83504],[4.362207,51.83537],[4.362183,51.8356]]},"properties":{"name":"Annie Romein-Verschoorlaan","maxspeed":"50","highway":"tertiary","profile":"car","distance":"18991.06","time":"3556.304"}},{"type":"Feature","name":"ShapeMeta","geometry":{"type":"LineString","coordinates":[[4.362183,51.8356],[4.362249,51.83609]]},"properties":{"name":"Annie Romein-Verschoorlaan","maxspeed":"50","highway":"tertiary","profile":"car","distance":"19045.96","time":"3561.575"}},{"type":"Feature","name":"ShapeMeta","geometry":{"type":"LineString","coordinates":[[4.362249,51.83609],[4.362183,51.8356]]},"properties":{"name":"Annie Romein-Verschoorlaan","maxspeed":"50","highway":"tertiary","profile":"car","distance":"19100.86","time":"3566.845"}},{"type":"Feature","name":"ShapeMeta","geometry":{"type":"LineString","coordinates":[[4.362183,51.8356],[4.362,51.83559]]},"properties":{"name":"Marie van Regteren Altenastraat","highway":"residential","maxspeed":"30","profile":"car","distance":"19113.36","time":"3568.845"}},{"type":"Feature","name":"ShapeMeta","geometry":{"type":"LineString","coordinates":[[4.362,51.83559],[4.36209,51.83628],[4.362113,51.83641]]},"properties":{"name":"Margaretha Roosenboomstraat","highway":"residential","maxspeed":"30","profile":"car","distance":"19203.99","time":"3583.346"}},{"type":"Feature","name":"ShapeMeta","geometry":{"type":"LineString","coordinates":[[4.362113,51.83641],[4.362199,51.83688]]},"properties":{"name":"Margaretha Roosenboomstraat","highway":"residential","maxspeed":"30","profile":"car","distance":"19256.46","time":"3591.741"}},{"type":"Feature","name":"ShapeMeta","geometry":{"type":"LineString","coordinates":[[4.362199,51.83688],[4.362391,51.8378]]},"properties":{"name":"Ida Wassermanstraat","highway":"residential","maxspeed":"30","profile":"car","distance":"19359.87","time":"3608.286"}},{"type":"Feature","name":"ShapeMeta","geometry":{"type":"LineString","coordinates":[[4.362391,51.8378],[4.362199,51.83688]]},"properties":{"name":"Ida Wassermanstraat","highway":"residential","maxspeed":"30","profile":"car","distance":"19463.28","time":"3624.831"}},{"type":"Feature","name":"ShapeMeta","geometry":{"type":"LineString","coordinates":[[4.362199,51.83688],[4.362395,51.83686]]},"properties":{"name":"Mimi Boesnachstraat","highway":"residential","maxspeed":"30","profile":"car","distance":"19476.78","time":"3626.991"}},{"type":"Feature","name":"ShapeMeta","geometry":{"type":"LineString","coordinates":[[4.362395,51.83686],[4.362588,51.83685]]},"properties":{"name":"Theo Mann-Bouwmeesterstraat","highway":"residential","maxspeed":"30","profile":"car","distance":"19490.17","time":"3629.135"}},{"type":"Feature","name":"ShapeMeta","geometry":{"type":"LineString","coordinates":[[4.362588,51.83685],[4.362637,51.83716]]},"properties":{"name":"Maria Kleine-Gartmanstraat","highway":"residential","maxspeed":"30","profile":"car","distance":"19525.47","time":"3634.783"}},{"type":"Feature","name":"ShapeMeta","geometry":{"type":"LineString","coordinates":[[4.362637,51.83716],[4.362693,51.83744]]},"properties":{"name":"Maria Kleine-Gartmanstraat","highway":"residential","maxspeed":"30","profile":"car","distance":"19557.07","time":"3639.839"}},{"type":"Feature","name":"ShapeMeta","geometry":{"type":"LineString","coordinates":[[4.362693,51.83744],[4.362755,51.83772]]},"properties":{"name":"Maria Kleine-Gartmanstraat","highway":"residential","maxspeed":"30","profile":"car","distance":"19588.28","time":"3644.831"}},{"type":"Feature","name":"ShapeMeta","geometry":{"type":"LineString","coordinates":[[4.362755,51.83772],[4.362759,51.83774]]},"properties":{"name":"Maria Kleine-Gartmanstraat","highway":"residential","maxspeed":"30","profile":"car","distance":"19590.41","time":"3645.172"}},{"type":"Feature","name":"ShapeMeta","geometry":{"type":"LineString","coordinates":[[4.362759,51.83774],[4.362813,51.83805]]},"properties":{"name":"Maria Kleine-Gartmanstraat","highway":"residential","maxspeed":"30","profile":"car","distance":"19624.48","time":"3650.623"}},{"type":"Feature","name":"ShapeMeta","geometry":{"type":"LineString","coordinates":[[4.362813,51.83805],[4.362897,51.83831]]},"properties":{"name":"Maria Kleine-Gartmanstraat","highway":"residential","maxspeed":"30","profile":"car","distance":"19654.68","time":"3655.455"}},{"type":"Feature","name":"ShapeMeta","geometry":{"type":"LineString","coordinates":[[4.362897,51.83831],[4.362933,51.83848],[4.363002,51.83858],[4.36314,51.83867],[4.363311,51.83872],[4.363814,51.83873]]},"properties":{"name":"Maria Kleine-Gartmanstraat","highway":"residential","maxspeed":"30","profile":"car","distance":"19746.68","time":"3670.175"}},{"type":"Feature","name":"ShapeMeta","geometry":{"type":"LineString","coordinates":[[4.363814,51.83873],[4.364505,51.83876]]},"properties":{"name":"Maria Kleine-Gartmanstraat","highway":"residential","maxspeed":"30","profile":"car","distance":"19794.21","time":"3677.779"}},{"type":"Feature","name":"ShapeMeta","geometry":{"type":"LineString","coordinates":[[4.364505,51.83876],[4.364714,51.83876]]},"properties":{"name":"Maria Kleine-Gartmanstraat","highway":"residential","maxspeed":"30","profile":"car","distance":"19808.58","time":"3680.079"}},{"type":"Feature","name":"ShapeMeta","geometry":{"type":"LineString","coordinates":[[4.364714,51.83876],[4.36481,51.83882],[4.366362,51.83887],[4.367903,51.83892]]},"properties":{"name":"Maria Kleine-Gartmanstraat","highway":"residential","maxspeed":"30","profile":"car","distance":"20030.51","time":"3715.588"}},{"type":"Feature","name":"ShapeMeta","geometry":{"type":"LineString","coordinates":[[4.367903,51.83892],[4.366362,51.83887],[4.36481,51.83882],[4.364714,51.83876]]},"properties":{"name":"Maria Kleine-Gartmanstraat","highway":"residential","maxspeed":"30","profile":"car","distance":"20252.44","time":"3751.097"}},{"type":"Feature","name":"ShapeMeta","geometry":{"type":"LineString","coordinates":[[4.364714,51.83876],[4.364704,51.83848]]},"properties":{"name":"Esther de Boer-van Rijkstraat","highway":"residential","maxspeed":"30","profile":"car","distance":"20283.74","time":"3756.105"}},{"type":"Feature","name":"ShapeMeta","geometry":{"type":"LineString","coordinates":[[4.364704,51.83848],[4.36464,51.83818]]},"properties":{"name":"Esther de Boer-van Rijkstraat","highway":"residential","maxspeed":"30","profile":"car","distance":"20317.94","time":"3761.577"}},{"type":"Feature","name":"ShapeMeta","geometry":{"type":"LineString","coordinates":[[4.36464,51.83818],[4.364522,51.83761]]},"properties":{"name":"Esther de Boer-van Rijkstraat","highway":"residential","maxspeed":"30","profile":"car","distance":"20381.24","time":"3771.705"}},{"type":"Feature","name":"ShapeMeta","geometry":{"type":"LineString","coordinates":[[4.364522,51.83761],[4.365499,51.83763]]},"properties":{"name":"Josephine van Gasterenstraat","highway":"residential","maxspeed":"30","profile":"car","distance":"20448.34","time":"3782.441"}},{"type":"Feature","name":"ShapeMeta","geometry":{"type":"LineString","coordinates":[[4.365499,51.83763],[4.365944,51.83764]]},"properties":{"name":"Josephine van Gasterenstraat","highway":"residential","maxspeed":"30","profile":"car","distance":"20478.84","time":"3787.321"}},{"type":"Feature","name":"ShapeMeta","geometry":{"type":"LineString","coordinates":[[4.365944,51.83764],[4.365939,51.8376]]},"properties":{"name":"Corrie Vonkplantsoen","highway":"residential","maxspeed":"30","profile":"car","distance":"20482.66","time":"3787.933"}},{"type":"Feature","name":"ShapeMeta","geometry":{"type":"LineString","coordinates":[[4.365939,51.8376],[4.365883,51.83719],[4.365823,51.83672]]},"properties":{"name":"Corrie Vonkplantsoen","highway":"residential","maxspeed":"30","profile":"car","distance":"20581.74","time":"3803.785"}},{"type":"Feature","name":"ShapeMeta","geometry":{"type":"LineString","coordinates":[[4.365823,51.83672],[4.36506,51.8367]]},"properties":{"name":"Theo Mann-Bouwmeesterstraat","highway":"residential","maxspeed":"30","profile":"car","distance":"20634.14","time":"3812.169"}},{"type":"Feature","name":"ShapeMeta","geometry":{"type":"LineString","coordinates":[[4.36506,51.8367],[4.365064,51.8366]]},"properties":{"name":"Suze Robertsonstraat","highway":"residential","maxspeed":"30","profile":"car","distance":"20644.74","time":"3813.866"}},{"type":"Feature","name":"ShapeMeta","geometry":{"type":"LineString","coordinates":[[4.365064,51.8366],[4.365098,51.83566]]},"properties":{"name":"Suze Robertsonstraat","highway":"residential","maxspeed":"30","profile":"car","distance":"20749.94","time":"3830.697"}},{"type":"Feature","name":"ShapeMeta","geometry":{"type":"LineString","coordinates":[[4.365098,51.83566],[4.365858,51.83567]]},"properties":{"name":"Sientje Mesdag-van Houtenstraat","highway":"residential","maxspeed":"30","profile":"car","distance":"20802.13","time":"3839.049"}},{"type":"Feature","name":"ShapeMeta","geometry":{"type":"LineString","coordinates":[[4.365858,51.83567],[4.365995,51.83579],[4.366209,51.83587],[4.366416,51.83591]]},"properties":{"name":"Sientje Mesdag-van Houtenstraat","highway":"residential","maxspeed":"30","profile":"car","distance":"20850.83","time":"3846.841"}},{"type":"Feature","name":"ShapeMeta","geometry":{"type":"LineString","coordinates":[[4.366416,51.83591],[4.366599,51.83589]]},"properties":{"name":"Sientje Mesdag-van Houtenstraat","highway":"residential","maxspeed":"30","profile":"car","distance":"20863.54","time":"3848.874"}},{"type":"Feature","name":"Stop","Shape":"0","geometry":{"type":"Point","coordinates":[4.3666,51.8359]},"properties":{"index":"160","distance":"0","time":"0"}},{"type":"Feature","name":"Stop","Shape":"7","geometry":{"type":"Point","coordinates":[4.3684,51.837]},"properties":{"index":"154","distance":"270.613","time":"43.29808"}},{"type":"Feature","name":"Stop","Shape":"12","geometry":{"type":"Point","coordinates":[4.3699,51.8377]},"properties":{"index":"151","distance":"493.3932","time":"78.9429"}},{"type":"Feature","name":"Stop","Shape":"25","geometry":{"type":"Point","coordinates":[4.3725,51.8371]},"properties":{"index":"164","distance":"924.7153","time":"145.1"}},{"type":"Feature","name":"Stop","Shape":"30","geometry":{"type":"Point","coordinates":[4.3713,51.8388]},"properties":{"index":"163","distance":"1152.677","time":"181.5739"}},{"type":"Feature","name":"Stop","Shape":"38","geometry":{"type":"Point","coordinates":[4.3702,51.8376]},"properties":{"index":"162","distance":"1356.683","time":"207.2654"}},{"type":"Feature","name":"Stop","Shape":"41","geometry":{"type":"Point","coordinates":[4.370707,51.83658]},"properties":{"index":"152","distance":"1488.814","time":"223.9831"}},{"type":"Feature","name":"Stop","Shape":"46","geometry":{"type":"Point","coordinates":[4.37083,51.83531]},"properties":{"index":"150","distance":"1634.813","time":"247.3429"}},{"type":"Feature","name":"Stop","Shape":"52","geometry":{"type":"Point","coordinates":[4.36964,51.83403]},"properties":{"index":"147","distance":"1825.943","time":"270.89"}},{"type":"Feature","name":"Stop","Shape":"56","geometry":{"type":"Point","coordinates":[4.3676,51.8338]},"properties":{"index":"145","distance":"2007.368","time":"299.918"}},{"type":"Feature","name":"Stop","Shape":"59","geometry":{"type":"Point","coordinates":[4.3661,51.8336]},"properties":{"index":"144","distance":"2129.071","time":"319.3905"}},{"type":"Feature","name":"Stop","Shape":"66","geometry":{"type":"Point","coordinates":[4.3678,51.8326]},"properties":{"index":"146","distance":"2341.959","time":"353.4526"}},{"type":"Feature","name":"Stop","Shape":"74","geometry":{"type":"Point","coordinates":[4.36933,51.83347]},"properties":{"index":"148","distance":"2650.031","time":"402.744"}},{"type":"Feature","name":"Stop","Shape":"77","geometry":{"type":"Point","coordinates":[4.3683,51.8325]},"properties":{"index":"149","distance":"2788.197","time":"424.8505"}},{"type":"Feature","name":"Stop","Shape":"88","geometry":{"type":"Point","coordinates":[4.3705,51.8359]},"properties":{"index":"153","distance":"3246.891","time":"484.3023"}},{"type":"Feature","name":"Stop","Shape":"96","geometry":{"type":"Point","coordinates":[4.3681,51.8348]},"properties":{"index":"161","distance":"3618.023","time":"543.6834"}},{"type":"Feature","name":"Stop","Shape":"110","geometry":{"type":"Point","coordinates":[4.3648,51.8346]},"properties":{"index":"142","distance":"4059.51","time":"614.3212"}},{"type":"Feature","name":"Stop","Shape":"115","geometry":{"type":"Point","coordinates":[4.36365,51.83393]},"properties":{"index":"143","distance":"4428.968","time":"673.4346"}},{"type":"Feature","name":"Stop","Shape":"118","geometry":{"type":"Point","coordinates":[4.3637,51.8356]},"properties":{"index":"141","distance":"4622.272","time":"704.3632"}},{"type":"Feature","name":"Stop","Shape":"123","geometry":{"type":"Point","coordinates":[4.3629,51.8352]},"properties":{"index":"140","distance":"4733.921","time":"722.227"}},{"type":"Feature","name":"Stop","Shape":"141","geometry":{"type":"Point","coordinates":[4.36006,51.83444]},"properties":{"index":"123","distance":"5229.917","time":"782.1112"}},{"type":"Feature","name":"Stop","Shape":"149","geometry":{"type":"Point","coordinates":[4.3588,51.8358]},"properties":{"index":"121","distance":"5444.737","time":"816.4824"}},{"type":"Feature","name":"Stop","Shape":"149","geometry":{"type":"Point","coordinates":[4.3588,51.8358]},"properties":{"index":"122","distance":"5444.737","time":"816.4824"}},{"type":"Feature","name":"Stop","Shape":"155","geometry":{"type":"Point","coordinates":[4.3576,51.8369]},"properties":{"index":"120","distance":"5612.485","time":"843.3221"}},{"type":"Feature","name":"Stop","Shape":"159","geometry":{"type":"Point","coordinates":[4.3593,51.8369]},"properties":{"index":"119","distance":"5729.32","time":"862.0158"}},{"type":"Feature","name":"Stop","Shape":"165","geometry":{"type":"Point","coordinates":[4.3595,51.8387]},"properties":{"index":"118","distance":"5932.641","time":"894.5471"}},{"type":"Feature","name":"Stop","Shape":"171","geometry":{"type":"Point","coordinates":[4.3567,51.838]},"properties":{"index":"117","distance":"6184.701","time":"934.8767"}},{"type":"Feature","name":"Stop","Shape":"210","geometry":{"type":"Point","coordinates":[4.3515,51.84336]},"properties":{"index":"110","distance":"7329.02","time":"1061.887"}},{"type":"Feature","name":"Stop","Shape":"216","geometry":{"type":"Point","coordinates":[4.352472,51.84325]},"properties":{"index":"109","distance":"7560.225","time":"1093.7"}},{"type":"Feature","name":"Stop","Shape":"220","geometry":{"type":"Point","coordinates":[4.353333,51.84256]},"properties":{"index":"108","distance":"7718.029","time":"1118.948"}},{"type":"Feature","name":"Stop","Shape":"228","geometry":{"type":"Point","coordinates":[4.355693,51.84278]},"properties":{"index":"106","distance":"7931.25","time":"1153.063"}},{"type":"Feature","name":"Stop","Shape":"228","geometry":{"type":"Point","coordinates":[4.355694,51.84275]},"properties":{"index":"107","distance":"7931.25","time":"1153.063"}},{"type":"Feature","name":"Stop","Shape":"232","geometry":{"type":"Point","coordinates":[4.3559,51.84351]},"properties":{"index":"105","distance":"8045.198","time":"1171.295"}},{"type":"Feature","name":"Stop","Shape":"237","geometry":{"type":"Point","coordinates":[4.353826,51.84376]},"properties":{"index":"104","distance":"8264.938","time":"1206.453"}},{"type":"Feature","name":"Stop","Shape":"246","geometry":{"type":"Point","coordinates":[4.351015,51.84405]},"properties":{"index":"103","distance":"8477.557","time":"1240.472"}},{"type":"Feature","name":"Stop","Shape":"250","geometry":{"type":"Point","coordinates":[4.350248,51.84405]},"properties":{"index":"102","distance":"8530.197","time":"1247.092"}},{"type":"Feature","name":"Stop","Shape":"257","geometry":{"type":"Point","coordinates":[4.348139,51.84475]},"properties":{"index":"99","distance":"8705.152","time":"1263.888"}},{"type":"Feature","name":"Stop","Shape":"265","geometry":{"type":"Point","coordinates":[4.347083,51.84364]},"properties":{"index":"100","distance":"8887.896","time":"1281.431"}},{"type":"Feature","name":"Stop","Shape":"276","geometry":{"type":"Point","coordinates":[4.349528,51.84339]},"properties":{"index":"101","distance":"9149.082","time":"1311.088"}},{"type":"Feature","name":"Stop","Shape":"326","geometry":{"type":"Point","coordinates":[4.346167,51.83542]},"properties":{"index":"189","distance":"10578.86","time":"1531.579"}},{"type":"Feature","name":"Stop","Shape":"329","geometry":{"type":"Point","coordinates":[4.345472,51.83469]},"properties":{"index":"190","distance":"10680.89","time":"1629.529"}},{"type":"Feature","name":"Stop","Shape":"355","geometry":{"type":"Point","coordinates":[4.346129,51.83385]},"properties":{"index":"47","distance":"11593.73","time":"2043.511"}},{"type":"Feature","name":"Stop","Shape":"358","geometry":{"type":"Point","coordinates":[4.347809,51.83447]},"properties":{"index":"48","distance":"11728.24","time":"2172.637"}},{"type":"Feature","name":"Stop","Shape":"421","geometry":{"type":"Point","coordinates":[4.349341,51.84015]},"properties":{"index":"111","distance":"13279.11","time":"2642.171"}},{"type":"Feature","name":"Stop","Shape":"449","geometry":{"type":"Point","coordinates":[4.3558,51.8385]},"properties":{"index":"112","distance":"14047.04","time":"2817.515"}},{"type":"Feature","name":"Stop","Shape":"452","geometry":{"type":"Point","coordinates":[4.3552,51.8374]},"properties":{"index":"116","distance":"14178.46","time":"2838.542"}},{"type":"Feature","name":"Stop","Shape":"461","geometry":{"type":"Point","coordinates":[4.3535,51.839]},"properties":{"index":"115","distance":"14447.39","time":"2881.571"}},{"type":"Feature","name":"Stop","Shape":"472","geometry":{"type":"Point","coordinates":[4.3534,51.8379]},"properties":{"index":"114","distance":"14687.25","time":"2919.949"}},{"type":"Feature","name":"Stop","Shape":"473","geometry":{"type":"Point","coordinates":[4.3535,51.8379]},"properties":{"index":"113","distance":"14694.06","time":"2921.039"}},{"type":"Feature","name":"Stop","Shape":"480","geometry":{"type":"Point","coordinates":[4.3527,51.8362]},"properties":{"index":"132","distance":"14990.91","time":"2968.535"}},{"type":"Feature","name":"Stop","Shape":"485","geometry":{"type":"Point","coordinates":[4.35533,51.83625]},"properties":{"index":"133","distance":"15176.34","time":"2998.204"}},{"type":"Feature","name":"Stop","Shape":"497","geometry":{"type":"Point","coordinates":[4.3536,51.8334]},"properties":{"index":"129","distance":"15565.59","time":"3060.485"}},{"type":"Feature","name":"Stop","Shape":"503","geometry":{"type":"Point","coordinates":[4.35483,51.83439]},"properties":{"index":"130","distance":"15701.01","time":"3082.152"}},{"type":"Feature","name":"Stop","Shape":"510","geometry":{"type":"Point","coordinates":[4.3546,51.8356]},"properties":{"index":"131","distance":"15892.46","time":"3112.784"}},{"type":"Feature","name":"Stop","Shape":"519","geometry":{"type":"Point","coordinates":[4.3565,51.8346]},"properties":{"index":"134","distance":"16095.23","time":"3145.227"}},{"type":"Feature","name":"Stop","Shape":"531","geometry":{"type":"Point","coordinates":[4.3593,51.834]},"properties":{"index":"124","distance":"16342.35","time":"3176.376"}},{"type":"Feature","name":"Stop","Shape":"544","geometry":{"type":"Point","coordinates":[4.3565,51.8323]},"properties":{"index":"126","distance":"16888.09","time":"3263.694"}},{"type":"Feature","name":"Stop","Shape":"550","geometry":{"type":"Point","coordinates":[4.3582,51.8318]},"properties":{"index":"127","distance":"17063.33","time":"3291.733"}},{"type":"Feature","name":"Stop","Shape":"567","geometry":{"type":"Point","coordinates":[4.3541,51.8314]},"properties":{"index":"128","distance":"17556.52","time":"3370.643"}},{"type":"Feature","name":"Stop","Shape":"577","geometry":{"type":"Point","coordinates":[4.3575,51.83281]},"properties":{"index":"125","distance":"17983.35","time":"3438.936"}},{"type":"Feature","name":"Stop","Shape":"595","geometry":{"type":"Point","coordinates":[4.36169,51.83494]},"properties":{"index":"135","distance":"18498.34","time":"3505.875"}},{"type":"Feature","name":"Stop","Shape":"612","geometry":{"type":"Point","coordinates":[4.362908,51.83392]},"properties":{"index":"136","distance":"18768.62","time":"3533.386"}},{"type":"Feature","name":"Stop","Shape":"622","geometry":{"type":"Point","coordinates":[4.3622,51.8361]},"properties":{"index":"137","distance":"19045.96","time":"3561.575"}},{"type":"Feature","name":"Stop","Shape":"626","geometry":{"type":"Point","coordinates":[4.362184,51.8364]},"properties":{"index":"139","distance":"19203.99","time":"3583.346"}},{"type":"Feature","name":"Stop","Shape":"628","geometry":{"type":"Point","coordinates":[4.3624,51.8378]},"properties":{"index":"138","distance":"19359.87","time":"3608.286"}},{"type":"Feature","name":"Stop","Shape":"635","geometry":{"type":"Point","coordinates":[4.36272,51.83775]},"properties":{"index":"157","distance":"19590.41","time":"3645.172"}},{"type":"Feature","name":"Stop","Shape":"643","geometry":{"type":"Point","coordinates":[4.3645,51.8389]},"properties":{"index":"156","distance":"19794.21","time":"3677.779"}},{"type":"Feature","name":"Stop","Shape":"647","geometry":{"type":"Point","coordinates":[4.3679,51.839]},"properties":{"index":"155","distance":"20030.51","time":"3715.588"}},{"type":"Feature","name":"Stop","Shape":"656","geometry":{"type":"Point","coordinates":[4.366,51.8376]},"properties":{"index":"158","distance":"20482.66","time":"3787.933"}},{"type":"Feature","name":"Stop","Shape":"660","geometry":{"type":"Point","coordinates":[4.3652,51.8366]},"properties":{"index":"159","distance":"20644.74","time":"3813.866"}},{"type":"Feature","name":"Stop","Shape":"666","geometry":{"type":"Point","coordinates":[4.3666,51.8359]},"properties":{"index":"160","distance":"20863.54","time":"3848.874"}}]}