{"type":"FeatureCollection","features":[{"type":"Feature","name":"ShapeMeta","geometry":{"type":"LineString","coordinates":[[4.347548,51.8481],[4.3489,51.8481],[4.3489,51.8479]]},"properties":{"name":"Biesboschstraat","highway":"living_street","profile":"car","distance":"114.894","time":"110.2982"}},{"type":"Feature","name":"ShapeMeta","geometry":{"type":"LineString","coordinates":[[4.3489,51.8479],[4.348896,51.84728]]},"properties":{"name":"Amerstraat","highway":"living_street","profile":"car","distance":"183.594","time":"176.2502"}},{"type":"Feature","name":"ShapeMeta","geometry":{"type":"LineString","coordinates":[[4.348896,51.84728],[4.348893,51.84723]]},"properties":{"name":"Biesboschstraat","highway":"living_street","profile":"car","distance":"189.894","time":"182.2982"}},{"type":"Feature","name":"ShapeMeta","geometry":{"type":"LineString","coordinates":[[4.348893,51.84723],[4.349012,51.84723]]},"properties":{"name":"Donaulaan","highway":"unclassified","maxspeed":"50","profile":"car","distance":"198.094","time":"183.0854"}},{"type":"Feature","name":"ShapeMeta","geometry":{"type":"LineString","coordinates":[[4.349012,51.84723],[4.349415,51.84723],[4.349958,51.84723]]},"properties":{"name":"Donaulaan","highway":"unclassified","maxspeed":"50","profile":"car","distance":"262.994","time":"189.3158"}},{"type":"Feature","name":"ShapeMeta","geometry":{"type":"LineString","coordinates":[[4.349958,51.84723],[4.350032,51.84719],[4.350496,51.84692],[4.350499,51.84662]]},"properties":{"name":"Rivierlaan","highway":"unclassified","maxspeed":"50","profile":"car","distance":"346.594","time":"197.3414"}},{"type":"Feature","name":"ShapeMeta","geometry":{"type":"LineString","coordinates":[[4.350499,51.84662],[4.350501,51.84632]]},"properties":{"name":"Rivierlaan","highway":"unclassified","maxspeed":"50","profile":"car","distance":"380.094","time":"200.5574"}},{"type":"Feature","name":"ShapeMeta","geometry":{"type":"LineString","coordinates":[[4.350501,51.84632],[4.350501,51.84563]]},"properties":{"name":"Rivierlaan","highway":"unclassified","maxspeed":"50","profile":"car","distance":"456.394","time":"207.8822"}},{"type":"Feature","name":"ShapeMeta","geometry":{"type":"LineString","coordinates":[[4.350501,51.84563],[4.35039,51.84563],[4.350027,51.84563],[4.349479,51.84563]]},"properties":{"name":"Gouwestraat","highway":"unclassified","profile":"car","distance":"526.494","time":"214.6118"}},{"type":"Feature","name":"ShapeMeta","geometry":{"type":"LineString","coordinates":[[4.349479,51.84563],[4.349346,51.84555],[4.349108,51.8454]]},"properties":{"name":"Gouwestraat","highway":"unclassified","profile":"car","distance":"562.694","time":"218.087"}},{"type":"Feature","name":"ShapeMeta","geometry":{"type":"LineString","coordinates":[[4.349108,51.8454],[4.348778,51.84562],[4.34876,51.84563]]},"properties":{"name":"Gouwestraat","highway":"unclassified","profile":"car","distance":"597.6601","time":"221.4438"}},{"type":"Feature","name":"ShapeMeta","geometry":{"type":"LineString","coordinates":[[4.34876,51.84563],[4.348778,51.84562],[4.349108,51.8454]]},"properties":{"name":"Gouwestraat","highway":"unclassified","profile":"car","distance":"632.6262","time":"224.8006"}},{"type":"Feature","name":"ShapeMeta","geometry":{"type":"LineString","coordinates":[[4.349108,51.8454],[4.349346,51.84555],[4.349479,51.84563]]},"properties":{"name":"Gouwestraat","highway":"unclassified","profile":"car","distance":"668.8262","time":"228.2757"}},{"type":"Feature","name":"ShapeMeta","geometry":{"type":"LineString","coordinates":[[4.349479,51.84563],[4.350027,51.84563],[4.35039,51.84563],[4.350501,51.84563]]},"properties":{"name":"Gouwestraat","highway":"unclassified","profile":"car","distance":"738.9262","time":"235.0054"}},{"type":"Feature","name":"ShapeMeta","geometry":{"type":"LineString","coordinates":[[4.350501,51.84563],[4.350501,51.84632]]},"properties":{"name":"Rivierlaan","highway":"unclassified","maxspeed":"50","profile":"car","distance":"815.2262","time":"242.3302"}},{"type":"Feature","name":"ShapeMeta","geometry":{"type":"LineString","coordinates":[[4.350501,51.84632],[4.350612,51.84632]]},"properties":{"name":"Waalstraat","highway":"unclassified","profile":"car","distance":"822.8262","time":"243.0598"}},{"type":"Feature","name":"ShapeMeta","geometry":{"type":"LineString","coordinates":[[4.350612,51.84632],[4.351506,51.84632],[4.351615,51.84628]]},"properties":{"name":"Waalstraat","highway":"unclassified","profile":"car","distance":"893.1762","time":"249.8134"}},{"type":"Feature","name":"ShapeMeta","geometry":{"type":"LineString","coordinates":[[4.351615,51.84628],[4.35351,51.84552],[4.353844,51.8451]]},"properties":{"name":"Waalstraat","highway":"unclassified","profile":"car","distance":"1100.326","time":"269.6998"}},{"type":"Feature","name":"ShapeMeta","geometry":{"type":"LineString","coordinates":[[4.353844,51.8451],[4.354144,51.84518]]},"properties":{"name":"Lekstraat","highway":"unclassified","profile":"car","distance":"1122.726","time":"271.8502"}},{"type":"Feature","name":"ShapeMeta","geometry":{"type":"LineString","coordinates":[[4.354144,51.84518],[4.3545,51.8447],[4.35539,51.84448]]},"properties":{"name":"Maasboulevard","highway":"unclassified","profile":"car","distance":"1247.226","time":"283.8022"}},{"type":"Feature","name":"ShapeMeta","geometry":{"type":"LineString","coordinates":[[4.35539,51.84448],[4.355716,51.84436],[4.357849,51.84365]]},"properties":{"name":"Maasboulevard","highway":"unclassified","maxspeed":"30","profile":"car","distance":"1439.626","time":"314.5862"}},{"type":"Feature","name":"ShapeMeta","geometry":{"type":"LineString","coordinates":[[4.357849,51.84365],[4.357891,51.84364]]},"properties":{"name":"Maasboulevard","highway":"unclassified","maxspeed":"30","profile":"car","distance":"1442.887","time":"315.1079"}},{"type":"Feature","name":"ShapeMeta","geometry":{"type":"LineString","coordinates":[[4.357891,51.84364],[4.357849,51.84365]]},"properties":{"name":"Maasboulevard","highway":"unclassified","maxspeed":"30","profile":"car","distance":"1446.148","time":"315.6296"}},{"type":"Feature","name":"ShapeMeta","geometry":{"type":"LineString","coordinates":[[4.357849,51.84365],[4.355716,51.84436],[4.35539,51.84448]]},"properties":{"name":"Maasboulevard","highway":"unclassified","maxspeed":"30","profile":"car","distance":"1638.548","time":"346.4136"}},{"type":"Feature","name":"ShapeMeta","geometry":{"type":"LineString","coordinates":[[4.35539,51.84448],[4.355381,51.84449]]},"properties":{"name":"Maasboulevard","highway":"unclassified","profile":"car","distance":"1639.169","time":"346.4732"}},{"type":"Feature","name":"ShapeMeta","geometry":{"type":"LineString","coordinates":[[4.355381,51.84449],[4.3545,51.8447],[4.354144,51.84518]]},"properties":{"name":"Maasboulevard","highway":"unclassified","profile":"car","distance":"1763.048","time":"358.3656"}},{"type":"Feature","name":"ShapeMeta","geometry":{"type":"LineString","coordinates":[[4.354144,51.84518],[4.353844,51.8451]]},"properties":{"name":"Lekstraat","highway":"unclassified","profile":"car","distance":"1785.448","time":"360.516"}},{"type":"Feature","name":"ShapeMeta","geometry":{"type":"LineString","coordinates":[[4.353844,51.8451],[4.35351,51.84552],[4.353287,51.84561]]},"properties":{"name":"Waalstraat","highway":"unclassified","profile":"car","distance":"1856.052","time":"367.2939"}},{"type":"Feature","name":"ShapeMeta","geometry":{"type":"LineString","coordinates":[[4.353287,51.84561],[4.351506,51.84632],[4.350612,51.84632]]},"properties":{"name":"Waalstraat","highway":"unclassified","profile":"car","distance":"2062.948","time":"387.1559"}},{"type":"Feature","name":"ShapeMeta","geometry":{"type":"LineString","coordinates":[[4.350612,51.84632],[4.350501,51.84632]]},"properties":{"name":"Waalstraat","highway":"unclassified","profile":"car","distance":"2070.548","time":"387.8855"}},{"type":"Feature","name":"ShapeMeta","geometry":{"type":"LineString","coordinates":[[4.350501,51.84632],[4.350371,51.84632],[4.349818,51.84632]]},"properties":{"name":"Zaanstraat","highway":"residential","profile":"car","distance":"2117.448","time":"392.3879"}},{"type":"Feature","name":"ShapeMeta","geometry":{"type":"LineString","coordinates":[[4.349818,51.84632],[4.349578,51.84632]]},"properties":{"name":"Zaanstraat","highway":"residential","profile":"car","distance":"2133.848","time":"393.9623"}},{"type":"Feature","name":"ShapeMeta","geometry":{"type":"LineString","coordinates":[[4.349578,51.84632],[4.349573,51.84652],[4.349569,51.8466],[4.349569,51.8466]]},"properties":{"highway":"service","profile":"car","distance":"2165.2","time":"398.9787"}},{"type":"Feature","name":"ShapeMeta","geometry":{"type":"LineString","coordinates":[[4.349569,51.8466],[4.34947,51.84666],[4.349043,51.84666]]},"properties":{"highway":"service","profile":"car","distance":"2204.047","time":"405.1943"}},{"type":"Feature","name":"ShapeMeta","geometry":{"type":"LineString","coordinates":[[4.349043,51.84666],[4.349046,51.84681]]},"properties":{"name":"Eemstraat","highway":"service","profile":"car","distance":"2220.147","time":"407.7703"}},{"type":"Feature","name":"ShapeMeta","geometry":{"type":"LineString","coordinates":[[4.349046,51.84681],[4.349036,51.84694]]},"properties":{"name":"Eemstraat","highway":"service","profile":"car","distance":"2234.948","time":"410.1383"}},{"type":"Feature","name":"ShapeMeta","geometry":{"type":"LineString","coordinates":[[4.349036,51.84694],[4.349021,51.84713],[4.349012,51.84723]]},"properties":{"name":"Eemstraat","highway":"service","profile":"car","distance":"2267.147","time":"415.2903"}},{"type":"Feature","name":"ShapeMeta","geometry":{"type":"LineString","coordinates":[[4.349012,51.84723],[4.348893,51.84723]]},"properties":{"name":"Donaulaan","highway":"unclassified","maxspeed":"50","profile":"car","distance":"2275.347","time":"416.0775"}},{"type":"Feature","name":"ShapeMeta","geometry":{"type":"LineString","coordinates":[[4.348893,51.84723],[4.347544,51.84721]]},"properties":{"name":"Donaulaan","highway":"unclassified","maxspeed":"50","profile":"car","distance":"2367.948","time":"424.9671"}},{"type":"Feature","name":"ShapeMeta","geometry":{"type":"LineString","coordinates":[[4.347544,51.84721],[4.347535,51.84727]]},"properties":{"highway":"residential","profile":"car","distance":"2374.748","time":"425.6199"}},{"type":"Feature","name":"ShapeMeta","geometry":{"type":"LineString","coordinates":[[4.347535,51.84727],[4.347544,51.84721]]},"properties":{"highway":"residential","profile":"car","distance":"2381.548","time":"426.2727"}},{"type":"Feature","name":"ShapeMeta","geometry":{"type":"LineString","coordinates":[[4.347544,51.84721],[4.346646,51.84721]]},"properties":{"name":"Donaulaan","highway":"unclassified","maxspeed":"50","profile":"car","distance":"2443.148","time":"432.1863"}},{"type":"Feature","name":"ShapeMeta","geometry":{"type":"LineString","coordinates":[[4.346646,51.84721],[4.3461,51.8472]]},"properties":{"name":"Donaulaan","highway":"unclassified","maxspeed":"50","profile":"car","distance":"2480.648","time":"435.7863"}},{"type":"Feature","name":"ShapeMeta","geometry":{"type":"LineString","coordinates":[[4.3461,51.8472],[4.346098,51.84713],[4.346138,51.84668]]},"properties":{"name":"Rijnlaan","highway":"unclassified","maxspeed":"30","profile":"car","distance":"2538.348","time":"445.0183"}},{"type":"Feature","name":"ShapeMeta","geometry":{"type":"LineString","coordinates":[[4.346138,51.84668],[4.346048,51.84661],[4.345543,51.84628]]},"properties":{"name":"Rijnlaan","highway":"unclassified","maxspeed":"30","profile":"car","distance":"2598.848","time":"454.6983"}},{"type":"Feature","name":"ShapeMeta","geometry":{"type":"LineString","coordinates":[[4.345543,51.84628],[4.345771,51.84614]]},"properties":{"name":"Ahrstraat","highway":"residential","maxspeed":"30","profile":"car","distance":"2620.865","time":"458.2209"}},{"type":"Feature","name":"ShapeMeta","geometry":{"type":"LineString","coordinates":[[4.345771,51.84614],[4.345543,51.84628]]},"properties":{"name":"Ahrstraat","highway":"residential","maxspeed":"30","profile":"car","distance":"2642.882","time":"461.7435"}},{"type":"Feature","name":"ShapeMeta","geometry":{"type":"LineString","coordinates":[[4.345543,51.84628],[4.345017,51.84597]]},"properties":{"name":"Rijnlaan","highway":"unclassified","maxspeed":"30","profile":"car","distance":"2692.382","time":"469.6635"}},{"type":"Feature","name":"ShapeMeta","geometry":{"type":"LineString","coordinates":[[4.345017,51.84597],[4.344689,51.84575]]},"properties":{"name":"Rijnlaan","highway":"unclassified","maxspeed":"30","profile":"car","distance":"2726.281","time":"475.0875"}},{"type":"Feature","name":"ShapeMeta","geometry":{"type":"LineString","coordinates":[[4.344689,51.84575],[4.344969,51.84557],[4.344975,51.84557]]},"properties":{"name":"Neckarstraat","highway":"residential","maxspeed":"30","profile":"car","distance":"2753.903","time":"479.507"}},{"type":"Feature","name":"ShapeMeta","geometry":{"type":"LineString","coordinates":[[4.344975,51.84557],[4.344969,51.84557],[4.344689,51.84575]]},"properties":{"name":"Neckarstraat","highway":"residential","maxspeed":"30","profile":"car","distance":"2781.524","time":"483.9264"}},{"type":"Feature","name":"ShapeMeta","geometry":{"type":"LineString","coordinates":[[4.344689,51.84575],[4.343998,51.84533],[4.343934,51.84529]]},"properties":{"name":"Rijnlaan","highway":"unclassified","maxspeed":"30","profile":"car","distance":"2854.224","time":"495.5584"}},{"type":"Feature","name":"ShapeMeta","geometry":{"type":"LineString","coordinates":[[4.343934,51.84529],[4.343448,51.84536],[4.3431,51.8456]]},"properties":{"name":"Ebrostraat","highway":"residential","maxspeed":"30","profile":"car","distance":"2924.125","time":"506.7424"}},{"type":"Feature","name":"ShapeMeta","geometry":{"type":"LineString","coordinates":[[4.3431,51.8456],[4.342484,51.84601]]},"properties":{"name":"Ebrostraat","highway":"residential","maxspeed":"30","profile":"car","distance":"2986.125","time":"516.6624"}},{"type":"Feature","name":"ShapeMeta","geometry":{"type":"LineString","coordinates":[[4.342484,51.84601],[4.342767,51.84619],[4.343916,51.84694],[4.343941,51.84697],[4.344029,51.84711]]},"properties":{"name":"Elbestraat","highway":"residential","maxspeed":"30","profile":"car","distance":"3150.025","time":"542.8864"}},{"type":"Feature","name":"ShapeMeta","geometry":{"type":"LineString","coordinates":[[4.344029,51.84711],[4.344078,51.8472]]},"properties":{"name":"Elbestraat","highway":"residential","profile":"car","distance":"3160.325","time":"543.8752"}},{"type":"Feature","name":"ShapeMeta","geometry":{"type":"LineString","coordinates":[[4.344078,51.8472],[4.3439,51.8473],[4.343564,51.84751]]},"properties":{"name":"Donaulaan","highway":"unclassified","maxspeed":"50","profile":"car","distance":"3209.625","time":"548.608"}},{"type":"Feature","name":"ShapeMeta","geometry":{"type":"LineString","coordinates":[[4.343564,51.84751],[4.342893,51.84793]]},"properties":{"name":"Donaulaan","highway":"unclassified","maxspeed":"50","profile":"car","distance":"3275.125","time":"554.896"}},{"type":"Feature","name":"ShapeMeta","geometry":{"type":"LineString","coordinates":[[4.342893,51.84793],[4.34281,51.84787],[4.342543,51.8477],[4.342034,51.84737]]},"properties":{"name":"Seinestraat","highway":"residential","profile":"car","distance":"3360.925","time":"563.1328"}},{"type":"Feature","name":"ShapeMeta","geometry":{"type":"LineString","coordinates":[[4.342034,51.84737],[4.34173,51.84752],[4.341685,51.84754],[4.341333,51.84753]]},"properties":{"name":"Rhônestraat","highway":"residential","maxspeed":"30","profile":"car","distance":"3415.747","time":"571.9043"}},{"type":"Feature","name":"ShapeMeta","geometry":{"type":"LineString","coordinates":[[4.341333,51.84753],[4.340586,51.84752],[4.340288,51.84734]]},"properties":{"name":"Rhônestraat","highway":"residential","maxspeed":"30","profile":"car","distance":"3495.925","time":"584.7328"}},{"type":"Feature","name":"ShapeMeta","geometry":{"type":"LineString","coordinates":[[4.340288,51.84734],[4.339959,51.84753],[4.339936,51.84761],[4.339946,51.84796],[4.33994,51.84805]]},"properties":{"name":"Seinestraat","highway":"residential","maxspeed":"30","profile":"car","distance":"3584.625","time":"598.9248"}},{"type":"Feature","name":"ShapeMeta","geometry":{"type":"LineString","coordinates":[[4.33994,51.84805],[4.339949,51.84815]]},"properties":{"name":"Seinestraat","highway":"residential","profile":"car","distance":"3596.025","time":"600.0192"}},{"type":"Feature","name":"ShapeMeta","geometry":{"type":"LineString","coordinates":[[4.339949,51.84815],[4.339942,51.84821]]},"properties":{"name":"Oude Maasweg","highway":"unclassified","profile":"car","distance":"3602.325","time":"600.624"}},{"type":"Feature","name":"ShapeMeta","geometry":{"type":"LineString","coordinates":[[4.339942,51.84821],[4.339718,51.84821]]},"properties":{"name":"Donaulaan","highway":"unclassified","maxspeed":"50","oneway":"yes","profile":"car","distance":"3617.725","time":"602.1024"}},{"type":"Feature","name":"ShapeMeta","geometry":{"type":"LineString","coordinates":[[4.339718,51.84821],[4.339446,51.8482],[4.338929,51.84819]]},"properties":{"name":"Donaulaan","highway":"unclassified","maxspeed":"50","oneway":"yes","profile":"car","distance":"3671.925","time":"607.3056"}},{"type":"Feature","name":"ShapeMeta","geometry":{"type":"LineString","coordinates":[[4.338929,51.84819],[4.33885,51.84818],[4.338763,51.84817],[4.338435,51.84813]]},"properties":{"name":"Donaulaan","highway":"unclassified","maxspeed":"50","oneway":"yes","profile":"car","distance":"3706.525","time":"610.6272"}},{"type":"Feature","name":"ShapeMeta","geometry":{"type":"LineString","coordinates":[[4.338435,51.84813],[4.338263,51.84808]]},"properties":{"maxspeed":"50","oneway":"yes","highway":"tertiary_link","profile":"car","distance":"3719.425","time":"611.8656"}},{"type":"Feature","name":"ShapeMeta","geometry":{"type":"LineString","coordinates":[[4.338263,51.84808],[4.338108,51.84803]]},"properties":{"name":"Ruwaard van Puttenweg","maxspeed":"50","highway":"tertiary","oneway":"yes","profile":"car","distance":"3731.325","time":"613.008"}},{"type":"Feature","name":"ShapeMeta","geometry":{"type":"LineString","coordinates":[[4.338108,51.84803],[4.337734,51.84794]]},"properties":{"name":"Ruwaard van Puttenweg","maxspeed":"50","highway":"tertiary","oneway":"yes","profile":"car","distance":"3758.925","time":"615.6576"}},{"type":"Feature","name":"ShapeMeta","geometry":{"type":"LineString","coordinates":[[4.337734,51.84794],[4.337349,51.84785],[4.337033,51.84776],[4.336783,51.84769]]},"properties":{"name":"Ruwaard van Puttenweg","maxspeed":"50","highway":"tertiary","oneway":"yes","profile":"car","distance":"3830.125","time":"622.4928"}},{"type":"Feature","name":"ShapeMeta","geometry":{"type":"LineString","coordinates":[[4.336783,51.84769],[4.336349,51.84756],[4.336016,51.84742],[4.335873,51.84734]]},"properties":{"name":"Ruwaard van Puttenweg","maxspeed":"50","highway":"tertiary","oneway":"yes","profile":"car","distance":"3904.125","time":"629.5968"}},{"type":"Feature","name":"ShapeMeta","geometry":{"type":"LineString","coordinates":[[4.335873,51.84734],[4.335759,51.84726],[4.335579,51.84713],[4.335454,51.84701]]},"properties":{"name":"Ruwaard van Puttenweg","maxspeed":"50","highway":"tertiary","oneway":"yes","profile":"car","distance":"3950.625","time":"634.0608"}},{"type":"Feature","name":"ShapeMeta","geometry":{"type":"LineString","coordinates":[[4.335454,51.84701],[4.335348,51.8469]]},"properties":{"name":"Ruwaard van Puttenweg","maxspeed":"50","highway":"tertiary","oneway":"yes","profile":"car","distance":"3965.225","time":"635.4624"}},{"type":"Feature","name":"ShapeMeta","geometry":{"type":"LineString","coordinates":[[4.335348,51.8469],[4.335281,51.84685]]},"properties":{"name":"Ruwaard van Puttenweg","maxspeed":"50","highway":"tertiary","oneway":"yes","profile":"car","distance":"3972.325","time":"636.144"}},{"type":"Feature","name":"ShapeMeta","geometry":{"type":"LineString","coordinates":[[4.335281,51.84685],[4.335177,51.84675]]},"properties":{"name":"Ruwaard van Puttenweg","maxspeed":"50","highway":"tertiary","oneway":"yes","profile":"car","distance":"3985.125","time":"637.3728"}},{"type":"Feature","name":"ShapeMeta","geometry":{"type":"LineString","coordinates":[[4.335177,51.84675],[4.335135,51.84672],[4.335048,51.84664]]},"properties":{"name":"Ruwaard van Puttenweg","maxspeed":"50","highway":"tertiary","oneway":"yes","profile":"car","distance":"4000.625","time":"638.8608"}},{"type":"Feature","name":"ShapeMeta","geometry":{"type":"LineString","coordinates":[[4.335048,51.84664],[4.334638,51.84629],[4.334208,51.8459],[4.334155,51.84585]]},"properties":{"name":"Ruwaard van Puttenweg","maxspeed":"50","highway":"tertiary","oneway":"yes","profile":"car","distance":"4107.325","time":"649.104"}},{"type":"Feature","name":"ShapeMeta","geometry":{"type":"LineString","coordinates":[[4.334155,51.84585],[4.334116,51.84582]]},"properties":{"name":"Ruwaard van Puttenweg","maxspeed":"50","highway":"tertiary","oneway":"yes","profile":"car","distance":"4111.925","time":"649.5456"}},{"type":"Feature","name":"ShapeMeta","geometry":{"type":"LineString","coordinates":[[4.334116,51.84582],[4.334078,51.84579]]},"properties":{"name":"Ruwaard van Puttenweg","maxspeed":"50","highway":"tertiary","oneway":"yes","profile":"car","distance":"4116.125","time":"649.9488"}},{"type":"Feature","name":"ShapeMeta","geometry":{"type":"LineString","coordinates":[[4.334078,51.84579],[4.333907,51.84564],[4.333808,51.84557]]},"properties":{"name":"Ruwaard van Puttenweg","maxspeed":"50","highway":"tertiary","oneway":"yes","profile":"car","distance":"4146.625","time":"652.8768"}},{"type":"Feature","name":"ShapeMeta","geometry":{"type":"LineString","coordinates":[[4.333808,51.84557],[4.333764,51.84553],[4.333722,51.84551]]},"properties":{"name":"Ruwaard van Puttenweg","maxspeed":"50","highway":"tertiary","oneway":"yes","profile":"car","distance":"4155.625","time":"653.7408"}},{"type":"Feature","name":"ShapeMeta","geometry":{"type":"LineString","coordinates":[[4.333722,51.84551],[4.333552,51.84538],[4.333194,51.84512]]},"properties":{"name":"Ruwaard van Puttenweg","maxspeed":"50","highway":"tertiary","oneway":"yes","profile":"car","distance":"4212.325","time":"659.184"}},{"type":"Feature","name":"ShapeMeta","geometry":{"type":"LineString","coordinates":[[4.333194,51.84512],[4.332952,51.84493],[4.332513,51.84455],[4.332376,51.84445]]},"properties":{"name":"Ruwaard van Puttenweg","maxspeed":"50","highway":"tertiary","oneway":"yes","profile":"car","distance":"4305.425","time":"668.1216"}},{"type":"Feature","name":"ShapeMeta","geometry":{"type":"LineString","coordinates":[[4.332376,51.84445],[4.332081,51.84415],[4.331894,51.84393],[4.331727,51.84383],[4.331326,51.84372],[4.33113,51.84368],[4.330874,51.84364]]},"properties":{"name":"Ruwaard van Puttenweg","maxspeed":"50","highway":"tertiary","oneway":"yes","profile":"car","distance":"4450.325","time":"682.032"}},{"type":"Feature","name":"ShapeMeta","geometry":{"type":"LineString","coordinates":[[4.330874,51.84364],[4.330713,51.84357],[4.330662,51.84353]]},"properties":{"name":"Ruwaard van Puttenweg","maxspeed":"50","highway":"tertiary","oneway":"yes","profile":"car","distance":"4469.325","time":"683.856"}},{"type":"Feature","name":"ShapeMeta","geometry":{"type":"LineString","coordinates":[[4.330662,51.84353],[4.330634,51.84348]]},"properties":{"name":"Ruwaard van Puttenweg","maxspeed":"50","highway":"tertiary","oneway":"yes","profile":"car","distance":"4475.125","time":"684.4128"}},{"type":"Feature","name":"ShapeMeta","geometry":{"type":"LineString","coordinates":[[4.330634,51.84348],[4.33064,51.84335]]},"properties":{"name":"Hekelingseweg","maxspeed":"50","highway":"tertiary","oneway":"yes","profile":"car","distance":"4489.925","time":"685.8336"}},{"type":"Feature","name":"ShapeMeta","geometry":{"type":"LineString","coordinates":[[4.33064,51.84335],[4.33064,51.84331]]},"properties":{"name":"Hekelingseweg","maxspeed":"50","highway":"tertiary","oneway":"yes","profile":"car","distance":"4493.725","time":"686.1984"}},{"type":"Feature","name":"ShapeMeta","geometry":{"type":"LineString","coordinates":[[4.33064,51.84331],[4.330807,51.8426],[4.330707,51.84206],[4.330666,51.84195]]},"properties":{"name":"Hekelingseweg","maxspeed":"50","highway":"tertiary","oneway":"yes","profile":"car","distance":"4646.625","time":"700.8768"}},{"type":"Feature","name":"ShapeMeta","geometry":{"type":"LineString","coordinates":[[4.330666,51.84195],[4.330618,51.84194],[4.330579,51.84192],[4.330551,51.84188]]},"properties":{"name":"Planetenplein","maxspeed":"50","highway":"tertiary","oneway":"yes","junction":"roundabout","profile":"car","distance":"4657.625","time":"701.9328"}},{"type":"Feature","name":"ShapeMeta","geometry":{"type":"LineString","coordinates":[[4.330551,51.84188],[4.330535,51.84185],[4.33054,51.84181],[4.330564,51.84178]]},"properties":{"name":"Planetenplein","maxspeed":"50","highway":"tertiary","oneway":"yes","junction":"roundabout","profile":"car","distance":"4669.925","time":"703.1136"}},{"type":"Feature","name":"ShapeMeta","geometry":{"type":"LineString","coordinates":[[4.330564,51.84178],[4.330614,51.84174],[4.33068,51.84172]]},"properties":{"name":"Planetenplein","maxspeed":"50","highway":"tertiary","oneway":"yes","junction":"roundabout","profile":"car","distance":"4680.025","time":"704.0832"}},{"type":"Feature","name":"ShapeMeta","geometry":{"type":"LineString","coordinates":[[4.33068,51.84172],[4.330733,51.84172],[4.330785,51.84172],[4.330832,51.84174]]},"properties":{"name":"Planetenplein","maxspeed":"50","highway":"tertiary","oneway":"yes","junction":"roundabout","profile":"car","distance":"4690.925","time":"705.1296"}},{"type":"Feature","name":"ShapeMeta","geometry":{"type":"LineString","coordinates":[[4.330832,51.84174],[4.330878,51.84177],[4.330908,51.8418]]},"properties":{"name":"Planetenplein","maxspeed":"50","highway":"tertiary","oneway":"yes","junction":"roundabout","profile":"car","distance":"4699.525","time":"705.9552"}},{"type":"Feature","name":"ShapeMeta","geometry":{"type":"LineString","coordinates":[[4.330908,51.8418],[4.331061,51.84181],[4.331402,51.84182],[4.331864,51.84186],[4.33204,51.84188]]},"properties":{"name":"Eikenlaan","highway":"unclassified","maxspeed":"50","oneway":"yes","profile":"car","distance":"4777.925","time":"713.4816"}},{"type":"Feature","name":"ShapeMeta","geometry":{"type":"LineString","coordinates":[[4.33204,51.84188],[4.332249,51.84189]]},"properties":{"name":"Eikenlaan","highway":"unclassified","maxspeed":"50","profile":"car","distance":"4792.325","time":"714.864"}},{"type":"Feature","name":"ShapeMeta","geometry":{"type":"LineString","coordinates":[[4.332249,51.84189],[4.332633,51.84191],[4.332995,51.84194]]},"properties":{"name":"Eikenlaan","highway":"unclassified","maxspeed":"50","profile":"car","distance":"4843.925","time":"719.8176"}},{"type":"Feature","name":"ShapeMeta","geometry":{"type":"LineString","coordinates":[[4.332995,51.84194],[4.333108,51.84195],[4.333394,51.84196]]},"properties":{"name":"Eikenlaan","highway":"unclassified","maxspeed":"50","profile":"car","distance":"4871.325","time":"722.448"}},{"type":"Feature","name":"ShapeMeta","geometry":{"type":"LineString","coordinates":[[4.333394,51.84196],[4.33377,51.84198],[4.334474,51.84201]]},"properties":{"name":"Eikenlaan","highway":"unclassified","maxspeed":"50","profile":"car","distance":"4945.725","time":"729.5904"}},{"type":"Feature","name":"ShapeMeta","geometry":{"type":"LineString","coordinates":[[4.334474,51.84201],[4.334468,51.84206]]},"properties":{"name":"Goudenregenplein","highway":"living_street","profile":"car","distance":"4951.249","time":"734.8939"}},{"type":"Feature","name":"ShapeMeta","geometry":{"type":"LineString","coordinates":[[4.334468,51.84206],[4.334466,51.84208],[4.3344,51.8426],[4.334,51.8427],[4.3335,51.8428],[4.333413,51.84282]]},"properties":{"name":"Goudenregenplein","highway":"living_street","profile":"car","distance":"5084.213","time":"862.5394"}},{"type":"Feature","name":"ShapeMeta","geometry":{"type":"LineString","coordinates":[[4.333413,51.84282],[4.3335,51.8428],[4.334,51.8427],[4.3344,51.8426],[4.334466,51.84208],[4.334474,51.84201]]},"properties":{"name":"Goudenregenplein","highway":"living_street","profile":"car","distance":"5222.702","time":"995.4884"}},{"type":"Feature","name":"ShapeMeta","geometry":{"type":"LineString","coordinates":[[4.334474,51.84201],[4.33377,51.84198],[4.333394,51.84196]]},"properties":{"name":"Eikenlaan","highway":"unclassified","maxspeed":"50","profile":"car","distance":"5297.102","time":"1002.631"}},{"type":"Feature","name":"ShapeMeta","geometry":{"type":"LineString","coordinates":[[4.333394,51.84196],[4.333108,51.84195],[4.332995,51.84194]]},"properties":{"name":"Eikenlaan","highway":"unclassified","maxspeed":"50","profile":"car","distance":"5324.501","time":"1005.261"}},{"type":"Feature","name":"ShapeMeta","geometry":{"type":"LineString","coordinates":[[4.332995,51.84194],[4.332633,51.84191],[4.332249,51.84189]]},"properties":{"name":"Eikenlaan","highway":"unclassified","maxspeed":"50","profile":"car","distance":"5376.102","time":"1010.215"}},{"type":"Feature","name":"ShapeMeta","geometry":{"type":"LineString","coordinates":[[4.332249,51.84189],[4.33204,51.84188]]},"properties":{"name":"Eikenlaan","highway":"unclassified","maxspeed":"50","profile":"car","distance":"5390.501","time":"1011.597"}},{"type":"Feature","name":"ShapeMeta","geometry":{"type":"LineString","coordinates":[[4.33204,51.84188],[4.331857,51.84188],[4.331058,51.84188],[4.330894,51.8419]]},"properties":{"name":"Eikenlaan","highway":"unclassified","oneway":"yes","profile":"car","distance":"5469.301","time":"1019.162"}},{"type":"Feature","name":"ShapeMeta","geometry":{"type":"LineString","coordinates":[[4.330894,51.8419],[4.330861,51.84192],[4.330818,51.84194]]},"properties":{"name":"Planetenplein","maxspeed":"50","highway":"tertiary","oneway":"yes","junction":"roundabout","profile":"car","distance":"5476.602","time":"1019.863"}},{"type":"Feature","name":"ShapeMeta","geometry":{"type":"LineString","coordinates":[[4.330818,51.84194],[4.330823,51.84206]]},"properties":{"name":"Hekelingseweg","maxspeed":"50","highway":"tertiary","oneway":"yes","profile":"car","distance":"5489.702","time":"1021.12"}},{"type":"Feature","name":"ShapeMeta","geometry":{"type":"LineString","coordinates":[[4.330823,51.84206],[4.330942,51.84253]]},"properties":{"name":"Hekelingseweg","maxspeed":"50","highway":"tertiary","oneway":"yes","profile":"car","distance":"5542.901","time":"1026.228"}},{"type":"Feature","name":"ShapeMeta","geometry":{"type":"LineString","coordinates":[[4.330942,51.84253],[4.330947,51.84267],[4.330758,51.84332]]},"properties":{"name":"Hekelingseweg","maxspeed":"50","highway":"tertiary","oneway":"yes","profile":"car","distance":"5631.401","time":"1034.724"}},{"type":"Feature","name":"ShapeMeta","geometry":{"type":"LineString","coordinates":[[4.330758,51.84332],[4.330816,51.84343]]},"properties":{"maxspeed":"50","oneway":"yes","highway":"tertiary_link","profile":"car","distance":"5643.901","time":"1035.924"}},{"type":"Feature","name":"ShapeMeta","geometry":{"type":"LineString","coordinates":[[4.330816,51.84343],[4.330852,51.84346],[4.330919,51.84349]]},"properties":{"maxspeed":"50","oneway":"yes","highway":"tertiary_link","profile":"car","distance":"5653.802","time":"1036.874"}},{"type":"Feature","name":"ShapeMeta","geometry":{"type":"LineString","coordinates":[[4.330919,51.84349],[4.331181,51.84353],[4.331366,51.84357],[4.331577,51.84363],[4.331679,51.84367],[4.331871,51.8438],[4.331987,51.8439],[4.332088,51.84401]]},"properties":{"name":"Ruwaard van Puttenweg","maxspeed":"50","highway":"tertiary","oneway":"yes","profile":"car","distance":"5757.202","time":"1046.8"}},{"type":"Feature","name":"ShapeMeta","geometry":{"type":"LineString","coordinates":[[4.332088,51.84401],[4.33244,51.84436],[4.332537,51.84447]]},"properties":{"name":"Ruwaard van Puttenweg","maxspeed":"50","highway":"tertiary","oneway":"yes","profile":"car","distance":"5817.001","time":"1052.541"}},{"type":"Feature","name":"ShapeMeta","geometry":{"type":"LineString","coordinates":[[4.332537,51.84447],[4.332789,51.84468],[4.333066,51.84492],[4.33327,51.84508]]},"properties":{"name":"Ruwaard van Puttenweg","maxspeed":"50","highway":"tertiary","oneway":"yes","profile":"car","distance":"5901.501","time":"1060.653"}},{"type":"Feature","name":"ShapeMeta","geometry":{"type":"LineString","coordinates":[[4.33327,51.84508],[4.333418,51.84504],[4.333456,51.84501]]},"properties":{"name":"Barbier","highway":"residential","profile":"car","distance":"5916.501","time":"1062.093"}},{"type":"Feature","name":"ShapeMeta","geometry":{"type":"LineString","coordinates":[[4.333456,51.84501],[4.3331,51.8447],[4.332345,51.84402],[4.332991,51.84376]]},"properties":{"name":"Schrijnwerker","highway":"residential","profile":"car","distance":"6103.684","time":"1080.063"}},{"type":"Feature","name":"ShapeMeta","geometry":{"type":"LineString","coordinates":[[4.332991,51.84376],[4.332345,51.84402],[4.3331,51.8447],[4.333456,51.84501]]},"properties":{"name":"Schrijnwerker","highway":"residential","profile":"car","distance":"6290.867","time":"1098.033"}},{"type":"Feature","name":"ShapeMeta","geometry":{"type":"LineString","coordinates":[[4.333456,51.84501],[4.33348,51.845]]},"properties":{"name":"Barbier","highway":"residential","profile":"car","distance":"6292.895","time":"1098.227"}},{"type":"Feature","name":"ShapeMeta","geometry":{"type":"LineString","coordinates":[[4.33348,51.845],[4.33357,51.84496]]},"properties":{"name":"Barbier","highway":"residential","profile":"car","distance":"6300.367","time":"1098.944"}},{"type":"Feature","name":"ShapeMeta","geometry":{"type":"LineString","coordinates":[[4.33357,51.84496],[4.333834,51.84485]]},"properties":{"name":"Barbier","highway":"residential","profile":"car","distance":"6322.267","time":"1101.047"}},{"type":"Feature","name":"ShapeMeta","geometry":{"type":"LineString","coordinates":[[4.333834,51.84485],[4.33406,51.84476]]},"properties":{"name":"Barbier","highway":"residential","profile":"car","distance":"6341.067","time":"1102.852"}},{"type":"Feature","name":"ShapeMeta","geometry":{"type":"LineString","coordinates":[[4.33406,51.84476],[4.334689,51.84449]]},"properties":{"name":"Barbier","highway":"residential","profile":"car","distance":"6393.667","time":"1107.901"}},{"type":"Feature","name":"ShapeMeta","geometry":{"type":"LineString","coordinates":[[4.334689,51.84449],[4.334772,51.84456]]},"properties":{"name":"Wagenmaker","highway":"residential","profile":"car","distance":"6403.867","time":"1108.88"}},{"type":"Feature","name":"ShapeMeta","geometry":{"type":"LineString","coordinates":[[4.334772,51.84456],[4.335109,51.84489],[4.335527,51.8453]]},"properties":{"name":"Wagenmaker","highway":"residential","profile":"car","distance":"6500.767","time":"1118.183"}},{"type":"Feature","name":"ShapeMeta","geometry":{"type":"LineString","coordinates":[[4.335527,51.8453],[4.334864,51.84559],[4.334764,51.84564]]},"properties":{"name":"Veerman","highway":"residential","maxspeed":"30","profile":"car","distance":"6565.155","time":"1128.485"}},{"type":"Feature","name":"ShapeMeta","geometry":{"type":"LineString","coordinates":[[4.334764,51.84564],[4.334864,51.84559],[4.335527,51.8453]]},"properties":{"name":"Veerman","highway":"residential","maxspeed":"30","profile":"car","distance":"6629.543","time":"1138.787"}},{"type":"Feature","name":"ShapeMeta","geometry":{"type":"LineString","coordinates":[[4.335527,51.8453],[4.335715,51.84522]]},"properties":{"name":"Veerman","highway":"residential","maxspeed":"30","profile":"car","distance":"6644.943","time":"1141.251"}},{"type":"Feature","name":"ShapeMeta","geometry":{"type":"LineString","coordinates":[[4.335715,51.84522],[4.336032,51.84509]]},"properties":{"name":"Veerman","highway":"residential","maxspeed":"30","profile":"car","distance":"6671.427","time":"1145.489"}},{"type":"Feature","name":"ShapeMeta","geometry":{"type":"LineString","coordinates":[[4.336032,51.84509],[4.336197,51.84502],[4.33693,51.84472]]},"properties":{"name":"Veerman","highway":"residential","maxspeed":"30","profile":"car","distance":"6745.443","time":"1157.332"}},{"type":"Feature","name":"ShapeMeta","geometry":{"type":"LineString","coordinates":[[4.33693,51.84472],[4.336959,51.8447]]},"properties":{"name":"Veerman","highway":"residential","maxspeed":"30","profile":"car","distance":"6747.943","time":"1157.732"}},{"type":"Feature","name":"ShapeMeta","geometry":{"type":"LineString","coordinates":[[4.336959,51.8447],[4.337123,51.84464]]},"properties":{"name":"Veerman","highway":"residential","maxspeed":"30","profile":"car","distance":"6761.243","time":"1159.86"}},{"type":"Feature","name":"ShapeMeta","geometry":{"type":"LineString","coordinates":[[4.337123,51.84464],[4.33736,51.84454]]},"properties":{"name":"Veerman","highway":"residential","maxspeed":"30","profile":"car","distance":"6781.143","time":"1163.044"}},{"type":"Feature","name":"ShapeMeta","geometry":{"type":"LineString","coordinates":[[4.33736,51.84454],[4.33733,51.84451]]},"properties":{"name":"Kleermaker","highway":"residential","profile":"car","distance":"6784.891","time":"1163.403"}},{"type":"Feature","name":"ShapeMeta","geometry":{"type":"LineString","coordinates":[[4.33733,51.84451],[4.33736,51.84454]]},"properties":{"name":"Kleermaker","highway":"residential","profile":"car","distance":"6788.64","time":"1163.763"}},{"type":"Feature","name":"ShapeMeta","geometry":{"type":"LineString","coordinates":[[4.33736,51.84454],[4.337861,51.84433]]},"properties":{"name":"Veerman","highway":"residential","maxspeed":"30","profile":"car","distance":"6829.64","time":"1170.323"}},{"type":"Feature","name":"ShapeMeta","geometry":{"type":"LineString","coordinates":[[4.337861,51.84433],[4.33842,51.8441]]},"properties":{"name":"Veerman","highway":"residential","maxspeed":"30","profile":"car","distance":"6876.14","time":"1177.763"}},{"type":"Feature","name":"ShapeMeta","geometry":{"type":"LineString","coordinates":[[4.33842,51.8441],[4.338476,51.84408]]},"properties":{"name":"Veerman","highway":"residential","maxspeed":"30","profile":"car","distance":"6880.439","time":"1178.451"}},{"type":"Feature","name":"ShapeMeta","geometry":{"type":"LineString","coordinates":[[4.338476,51.84408],[4.339207,51.84473]]},"properties":{"name":"Hoepelmaker","highway":"residential","maxspeed":"30","profile":"car","distance":"6968.939","time":"1192.611"}},{"type":"Feature","name":"ShapeMeta","geometry":{"type":"LineString","coordinates":[[4.339207,51.84473],[4.339325,51.84485],[4.339438,51.84496]]},"properties":{"name":"Hoepelmaker","highway":"residential","maxspeed":"30","profile":"car","distance":"6998.54","time":"1197.347"}},{"type":"Feature","name":"ShapeMeta","geometry":{"type":"LineString","coordinates":[[4.339438,51.84496],[4.339592,51.84492]]},"properties":{"name":"Groenewoudlaan","highway":"residential","profile":"car","distance":"7009.996","time":"1198.447"}},{"type":"Feature","name":"ShapeMeta","geometry":{"type":"LineString","coordinates":[[4.339592,51.84492],[4.339438,51.84496]]},"properties":{"name":"Groenewoudlaan","highway":"residential","profile":"car","distance":"7021.453","time":"1199.547"}},{"type":"Feature","name":"ShapeMeta","geometry":{"type":"LineString","coordinates":[[4.339438,51.84496],[4.339327,51.84499],[4.338938,51.84515]]},"properties":{"name":"Groenewoudlaan","highway":"residential","profile":"car","distance":"7061.853","time":"1203.425"}},{"type":"Feature","name":"ShapeMeta","geometry":{"type":"LineString","coordinates":[[4.338938,51.84515],[4.337677,51.84568]]},"properties":{"name":"Groenewoudlaan","highway":"residential","profile":"car","distance":"7166.853","time":"1213.505"}},{"type":"Feature","name":"ShapeMeta","geometry":{"type":"LineString","coordinates":[[4.337677,51.84568],[4.337641,51.8456],[4.337658,51.84554]]},"properties":{"name":"Griendwerker","highway":"living_street","profile":"car","distance":"7183.39","time":"1229.381"}},{"type":"Feature","name":"ShapeMeta","geometry":{"type":"LineString","coordinates":[[4.337658,51.84554],[4.337641,51.8456],[4.337677,51.84568]]},"properties":{"name":"Griendwerker","highway":"living_street","profile":"car","distance":"7199.928","time":"1245.257"}},{"type":"Feature","name":"ShapeMeta","geometry":{"type":"LineString","coordinates":[[4.337677,51.84568],[4.337243,51.84587]]},"properties":{"name":"Groenewoudlaan","highway":"residential","profile":"car","distance":"7236.528","time":"1248.771"}},{"type":"Feature","name":"ShapeMeta","geometry":{"type":"LineString","coordinates":[[4.337243,51.84587],[4.336816,51.84605]]},"properties":{"name":"Groenewoudlaan","highway":"residential","profile":"car","distance":"7271.928","time":"1252.169"}},{"type":"Feature","name":"ShapeMeta","geometry":{"type":"LineString","coordinates":[[4.336816,51.84605],[4.336365,51.84625]]},"properties":{"name":"Groenewoudlaan","highway":"residential","profile":"car","distance":"7309.628","time":"1255.788"}},{"type":"Feature","name":"ShapeMeta","geometry":{"type":"LineString","coordinates":[[4.336365,51.84625],[4.335908,51.84644]]},"properties":{"name":"Groenewoudlaan","highway":"residential","profile":"car","distance":"7347.228","time":"1259.398"}},{"type":"Feature","name":"ShapeMeta","geometry":{"type":"LineString","coordinates":[[4.335908,51.84644],[4.335763,51.8465],[4.335656,51.84656],[4.335611,51.84668],[4.335579,51.84673]]},"properties":{"name":"Groenewoudlaan","highway":"residential","profile":"car","distance":"7388.628","time":"1263.372"}},{"type":"Feature","name":"ShapeMeta","geometry":{"type":"LineString","coordinates":[[4.335579,51.84673],[4.335551,51.84678]]},"properties":{"name":"Groenewoudlaan","highway":"unclassified","maxspeed":"50","oneway":"yes","profile":"car","distance":"7394.428","time":"1263.929"}},{"type":"Feature","name":"ShapeMeta","geometry":{"type":"LineString","coordinates":[[4.335551,51.84678],[4.335526,51.8468],[4.335493,51.84682],[4.335445,51.84685]]},"properties":{"name":"Groenewoudlaan","highway":"unclassified","maxspeed":"50","oneway":"yes","profile":"car","distance":"7405.328","time":"1264.976"}},{"type":"Feature","name":"ShapeMeta","geometry":{"type":"LineString","coordinates":[[4.335445,51.84685],[4.335348,51.8469]]},"properties":{"name":"Centrumlaan","highway":"residential","maxspeed":"50","oneway":"yes","profile":"car","distance":"7413.928","time":"1265.801"}},{"type":"Feature","name":"ShapeMeta","geometry":{"type":"LineString","coordinates":[[4.335348,51.8469],[4.335173,51.84698],[4.33511,51.84701],[4.334812,51.84714]]},"properties":{"name":"Centrumlaan","highway":"residential","maxspeed":"50","oneway":"yes","profile":"car","distance":"7459.428","time":"1270.169"}},{"type":"Feature","name":"ShapeMeta","geometry":{"type":"LineString","coordinates":[[4.334812,51.84714],[4.334324,51.84732],[4.333602,51.84757]]},"properties":{"name":"Centrumlaan","highway":"residential","maxspeed":"50","oneway":"yes","profile":"car","distance":"7555.528","time":"1279.395"}},{"type":"Feature","name":"ShapeMeta","geometry":{"type":"LineString","coordinates":[[4.333602,51.84757],[4.333279,51.84769],[4.332897,51.8478]]},"properties":{"name":"Centrumlaan","highway":"residential","maxspeed":"50","oneway":"yes","profile":"car","distance":"7610.328","time":"1284.656"}},{"type":"Feature","name":"ShapeMeta","geometry":{"type":"LineString","coordinates":[[4.332897,51.8478],[4.332326,51.84809]]},"properties":{"name":"Centrumlaan","highway":"residential","maxspeed":"50","profile":"car","distance":"7660.828","time":"1289.504"}},{"type":"Feature","name":"ShapeMeta","geometry":{"type":"LineString","coordinates":[[4.332326,51.84809],[4.331856,51.84834],[4.331668,51.84846],[4.331352,51.84873],[4.33128,51.8488]]},"properties":{"name":"Centrumlaan","highway":"residential","maxspeed":"50","profile":"car","distance":"7768.428","time":"1299.833"}},{"type":"Feature","name":"ShapeMeta","geometry":{"type":"LineString","coordinates":[[4.33128,51.8488],[4.33132,51.84882],[4.331369,51.84888],[4.331368,51.84894],[4.331348,51.84897]]},"properties":{"name":"Centrumrotonde","highway":"unclassified","maxspeed":"50","oneway":"yes","junction":"roundabout","profile":"car","distance":"7790.028","time":"1301.907"}},{"type":"Feature","name":"ShapeMeta","geometry":{"type":"LineString","coordinates":[[4.331348,51.84897],[4.331888,51.84911],[4.332486,51.84933],[4.332723,51.84946]]},"properties":{"name":"Doctor J M den Uyllaan","highway":"unclassified","maxspeed":"50","oneway":"yes","profile":"car","distance":"7899.33","time":"1312.4"}},{"type":"Feature","name":"ShapeMeta","geometry":{"type":"LineString","coordinates":[[4.332723,51.84946],[4.332773,51.84948],[4.333046,51.84968],[4.33317,51.84978]]},"properties":{"name":"Doctor J M den Uyllaan","highway":"unclassified","maxspeed":"50","oneway":"yes","profile":"car","distance":"7947.128","time":"1316.989"}},{"type":"Feature","name":"ShapeMeta","geometry":{"type":"LineString","coordinates":[[4.33317,51.84978],[4.333248,51.84985]]},"properties":{"name":"Doctor J M den Uyllaan","highway":"unclassified","maxspeed":"50","oneway":"yes","profile":"car","distance":"7956.428","time":"1317.881"}},{"type":"Feature","name":"ShapeMeta","geometry":{"type":"LineString","coordinates":[[4.333248,51.84985],[4.333157,51.8499]]},"properties":{"name":"Gorsstraat","highway":"residential","oneway":"yes","profile":"car","distance":"7964.228","time":"1318.63"}},{"type":"Feature","name":"ShapeMeta","geometry":{"type":"LineString","coordinates":[[4.333157,51.8499],[4.33298,51.84998]]},"properties":{"name":"Gorsstraat","highway":"residential","oneway":"yes","profile":"car","distance":"7979.528","time":"1320.099"}},{"type":"Feature","name":"ShapeMeta","geometry":{"type":"LineString","coordinates":[[4.33298,51.84998],[4.332641,51.8501]]},"properties":{"name":"Gorsstraat","highway":"residential","oneway":"yes","profile":"car","distance":"8006.428","time":"1322.681"}},{"type":"Feature","name":"ShapeMeta","geometry":{"type":"LineString","coordinates":[[4.332641,51.8501],[4.332226,51.85023]]},"properties":{"name":"Gorsstraat","highway":"residential","maxspeed":"30","profile":"car","distance":"8038.528","time":"1327.817"}},{"type":"Feature","name":"ShapeMeta","geometry":{"type":"LineString","coordinates":[[4.332226,51.85023],[4.332183,51.8502],[4.332135,51.84998]]},"properties":{"name":"Gorsstraat","highway":"service","profile":"car","distance":"8067.626","time":"1332.473"}},{"type":"Feature","name":"ShapeMeta","geometry":{"type":"LineString","coordinates":[[4.332135,51.84998],[4.332183,51.8502],[4.332226,51.85023]]},"properties":{"name":"Gorsstraat","highway":"service","profile":"car","distance":"8096.725","time":"1337.129"}},{"type":"Feature","name":"ShapeMeta","geometry":{"type":"LineString","coordinates":[[4.332226,51.85023],[4.332108,51.85028]]},"properties":{"name":"Gorsstraat","highway":"residential","maxspeed":"30","profile":"car","distance":"8106.025","time":"1338.617"}},{"type":"Feature","name":"ShapeMeta","geometry":{"type":"LineString","coordinates":[[4.332108,51.85028],[4.332148,51.85034],[4.332422,51.85058]]},"properties":{"name":"Kolkplein","highway":"service","profile":"car","distance":"8146.025","time":"1345.017"}},{"type":"Feature","name":"ShapeMeta","geometry":{"type":"LineString","coordinates":[[4.332422,51.85058],[4.332453,51.85065]]},"properties":{"name":"Kolkplein","highway":"service","profile":"car","distance":"8154.725","time":"1346.409"}},{"type":"Feature","name":"ShapeMeta","geometry":{"type":"LineString","coordinates":[[4.332453,51.85065],[4.332321,51.85073],[4.332001,51.85083],[4.331883,51.8507]]},"properties":{"name":"Damstraat","highway":"service","profile":"car","distance":"8207.625","time":"1354.873"}},{"type":"Feature","name":"ShapeMeta","geometry":{"type":"LineString","coordinates":[[4.331883,51.8507],[4.331703,51.85074]]},"properties":{"name":"Damstraat","highway":"service","profile":"car","distance":"8220.725","time":"1356.969"}},{"type":"Feature","name":"ShapeMeta","geometry":{"type":"LineString","coordinates":[[4.331703,51.85074],[4.331474,51.8508]]},"properties":{"name":"Damstraat","highway":"service","profile":"car","distance":"8237.625","time":"1359.673"}},{"type":"Feature","name":"ShapeMeta","geometry":{"type":"LineString","coordinates":[[4.331474,51.8508],[4.331285,51.85085]]},"properties":{"name":"Damstraat","highway":"service","profile":"car","distance":"8251.524","time":"1361.897"}},{"type":"Feature","name":"ShapeMeta","geometry":{"type":"LineString","coordinates":[[4.331285,51.85085],[4.331474,51.8508]]},"properties":{"name":"Damstraat","highway":"service","profile":"car","distance":"8265.425","time":"1364.121"}},{"type":"Feature","name":"ShapeMeta","geometry":{"type":"LineString","coordinates":[[4.331474,51.8508],[4.331703,51.85074]]},"properties":{"name":"Damstraat","highway":"service","profile":"car","distance":"8282.324","time":"1366.825"}},{"type":"Feature","name":"ShapeMeta","geometry":{"type":"LineString","coordinates":[[4.331703,51.85074],[4.331883,51.8507]]},"properties":{"name":"Damstraat","highway":"service","profile":"car","distance":"8295.425","time":"1368.921"}},{"type":"Feature","name":"ShapeMeta","geometry":{"type":"LineString","coordinates":[[4.331883,51.8507],[4.332001,51.85083],[4.332321,51.85073],[4.332453,51.85065]]},"properties":{"name":"Damstraat","highway":"service","profile":"car","distance":"8348.324","time":"1377.385"}},{"type":"Feature","name":"ShapeMeta","geometry":{"type":"LineString","coordinates":[[4.332453,51.85065],[4.332422,51.85058]]},"properties":{"name":"Kolkplein","highway":"service","profile":"car","distance":"8357.024","time":"1378.777"}},{"type":"Feature","name":"ShapeMeta","geometry":{"type":"LineString","coordinates":[[4.332422,51.85058],[4.332148,51.85034],[4.332108,51.85028]]},"properties":{"name":"Kolkplein","highway":"service","profile":"car","distance":"8397.024","time":"1385.177"}},{"type":"Feature","name":"ShapeMeta","geometry":{"type":"LineString","coordinates":[[4.332108,51.85028],[4.331715,51.85038]]},"properties":{"name":"Gorsstraat","highway":"residential","maxspeed":"30","profile":"car","distance":"8426.425","time":"1389.881"}},{"type":"Feature","name":"ShapeMeta","geometry":{"type":"LineString","coordinates":[[4.331715,51.85038],[4.331677,51.85033],[4.331636,51.85027],[4.33103,51.85031]]},"properties":{"highway":"service","profile":"car","distance":"8482.124","time":"1398.793"}},{"type":"Feature","name":"ShapeMeta","geometry":{"type":"LineString","coordinates":[[4.33103,51.85031],[4.331636,51.85027],[4.331677,51.85033],[4.331715,51.85038]]},"properties":{"highway":"service","profile":"car","distance":"8537.824","time":"1407.705"}},{"type":"Feature","name":"ShapeMeta","geometry":{"type":"LineString","coordinates":[[4.331715,51.85038],[4.331476,51.85044],[4.331225,51.85048],[4.330701,51.85053]]},"properties":{"name":"Gorsstraat","highway":"residential","maxspeed":"30","profile":"car","distance":"8609.624","time":"1419.193"}},{"type":"Feature","name":"ShapeMeta","geometry":{"type":"LineString","coordinates":[[4.330701,51.85053],[4.33042,51.85056]]},"properties":{"name":"Gorsstraat","highway":"residential","maxspeed":"30","profile":"car","distance":"8629.024","time":"1422.297"}},{"type":"Feature","name":"ShapeMeta","geometry":{"type":"LineString","coordinates":[[4.33042,51.85056],[4.329352,51.85061]]},"properties":{"name":"Gorsstraat","highway":"residential","maxspeed":"30","profile":"car","distance":"8702.624","time":"1434.073"}},{"type":"Feature","name":"ShapeMeta","geometry":{"type":"LineString","coordinates":[[4.329352,51.85061],[4.329322,51.85065],[4.329141,51.8509]]},"properties":{"name":"Noordkade","highway":"residential","maxspeed":"30","profile":"car","distance":"8738.324","time":"1439.785"}},{"type":"Feature","name":"ShapeMeta","geometry":{"type":"LineString","coordinates":[[4.329141,51.8509],[4.328942,51.85114]]},"properties":{"name":"Noordkade","highway":"residential","maxspeed":"30","profile":"car","distance":"8768.624","time":"1444.633"}},{"type":"Feature","name":"ShapeMeta","geometry":{"type":"LineString","coordinates":[[4.328942,51.85114],[4.328838,51.85121]]},"properties":{"name":"Noordkade","highway":"residential","maxspeed":"30","profile":"car","distance":"8778.724","time":"1446.249"}},{"type":"Feature","name":"ShapeMeta","geometry":{"type":"LineString","coordinates":[[4.328838,51.85121],[4.328696,51.85123],[4.328696,51.85123]]},"properties":{"name":"Noordkade","highway":"residential","maxspeed":"30","profile":"car","distance":"8788.847","time":"1447.869"}},{"type":"Feature","name":"ShapeMeta","geometry":{"type":"LineString","coordinates":[[4.328696,51.85123],[4.328696,51.85123],[4.32871,51.85123]]},"properties":{"name":"Noordkade","highway":"residential","maxspeed":"30","profile":"car","distance":"8789.794","time":"1448.021"}},{"type":"Feature","name":"ShapeMeta","geometry":{"type":"LineString","coordinates":[[4.32871,51.85123],[4.328696,51.85123],[4.328546,51.85124]]},"properties":{"name":"Noordkade","highway":"residential","maxspeed":"30","profile":"car","distance":"8801.018","time":"1449.817"}},{"type":"Feature","name":"ShapeMeta","geometry":{"type":"LineString","coordinates":[[4.328546,51.85124],[4.328413,51.85122],[4.328269,51.85118],[4.328048,51.85108],[4.32791,51.85096],[4.327793,51.8508],[4.32772,51.85061]]},"properties":{"name":"Oostkade","highway":"residential","profile":"car","distance":"8897.818","time":"1459.11"}},{"type":"Feature","name":"ShapeMeta","geometry":{"type":"LineString","coordinates":[[4.32772,51.85061],[4.327698,51.85055],[4.327627,51.85034],[4.327489,51.85014],[4.327439,51.85012]]},"properties":{"name":"Oostkade","highway":"residential","profile":"car","distance":"8956.818","time":"1464.774"}},{"type":"Feature","name":"ShapeMeta","geometry":{"type":"LineString","coordinates":[[4.327439,51.85012],[4.327358,51.85014],[4.327279,51.85016]]},"properties":{"name":"Kaaistraat","highway":"residential","profile":"car","distance":"8968.818","time":"1465.926"}},{"type":"Feature","name":"ShapeMeta","geometry":{"type":"LineString","coordinates":[[4.327279,51.85016],[4.326955,51.84972],[4.326699,51.84947],[4.3267,51.84941],[4.326747,51.84937],[4.32674,51.84935]]},"properties":{"name":"Rademacherstraat","highway":"service","profile":"car","distance":"9070.538","time":"1482.201"}},{"type":"Feature","name":"ShapeMeta","geometry":{"type":"LineString","coordinates":[[4.32674,51.84935],[4.326747,51.84937],[4.3267,51.84941],[4.326699,51.84947],[4.326955,51.84972],[4.327279,51.85016]]},"properties":{"name":"Rademacherstraat","highway":"service","profile":"car","distance":"9172.258","time":"1498.476"}},{"type":"Feature","name":"ShapeMeta","geometry":{"type":"LineString","coordinates":[[4.327279,51.85016],[4.327358,51.85014],[4.327439,51.85012]]},"properties":{"name":"Kaaistraat","highway":"residential","profile":"car","distance":"9184.258","time":"1499.628"}},{"type":"Feature","name":"ShapeMeta","geometry":{"type":"LineString","coordinates":[[4.327439,51.85012],[4.327489,51.85014],[4.327627,51.85034],[4.327698,51.85055],[4.32772,51.85061]]},"properties":{"name":"Oostkade","highway":"residential","profile":"car","distance":"9243.258","time":"1505.292"}},{"type":"Feature","name":"ShapeMeta","geometry":{"type":"LineString","coordinates":[[4.32772,51.85061],[4.327793,51.8508],[4.32791,51.85096],[4.328048,51.85108],[4.328269,51.85118],[4.328413,51.85122],[4.328546,51.85124]]},"properties":{"name":"Oostkade","highway":"residential","profile":"car","distance":"9340.058","time":"1514.585"}},{"type":"Feature","name":"ShapeMeta","geometry":{"type":"LineString","coordinates":[[4.328546,51.85124],[4.328696,51.85123],[4.328838,51.85121]]},"properties":{"name":"Noordkade","highway":"residential","maxspeed":"30","profile":"car","distance":"9360.458","time":"1517.849"}},{"type":"Feature","name":"ShapeMeta","geometry":{"type":"LineString","coordinates":[[4.328838,51.85121],[4.328942,51.85114]]},"properties":{"name":"Noordkade","highway":"residential","maxspeed":"30","profile":"car","distance":"9370.558","time":"1519.465"}},{"type":"Feature","name":"ShapeMeta","geometry":{"type":"LineString","coordinates":[[4.328942,51.85114],[4.329141,51.8509]]},"properties":{"name":"Noordkade","highway":"residential","maxspeed":"30","profile":"car","distance":"9400.857","time":"1524.313"}},{"type":"Feature","name":"ShapeMeta","geometry":{"type":"LineString","coordinates":[[4.329141,51.8509],[4.329322,51.85065],[4.329352,51.85061]]},"properties":{"name":"Noordkade","highway":"residential","maxspeed":"30","profile":"car","distance":"9436.558","time":"1530.025"}},{"type":"Feature","name":"ShapeMeta","geometry":{"type":"LineString","coordinates":[[4.329352,51.85061],[4.329581,51.85059]]},"properties":{"name":"Gorsstraat","highway":"residential","maxspeed":"30","profile":"car","distance":"9452.362","time":"1532.554"}},{"type":"Feature","name":"ShapeMeta","geometry":{"type":"LineString","coordinates":[[4.329581,51.85059],[4.33042,51.85056]]},"properties":{"name":"Gorsstraat","highway":"residential","maxspeed":"30","profile":"car","distance":"9510.157","time":"1541.801"}},{"type":"Feature","name":"ShapeMeta","geometry":{"type":"LineString","coordinates":[[4.33042,51.85056],[4.330701,51.85053]]},"properties":{"name":"Gorsstraat","highway":"residential","maxspeed":"30","profile":"car","distance":"9529.558","time":"1544.905"}},{"type":"Feature","name":"ShapeMeta","geometry":{"type":"LineString","coordinates":[[4.330701,51.85053],[4.330697,51.85058],[4.33073,51.85077],[4.330822,51.8509],[4.330999,51.85117]]},"properties":{"name":"Gorsstraat","highway":"residential","profile":"car","distance":"9604.488","time":"1552.099"}},{"type":"Feature","name":"ShapeMeta","geometry":{"type":"LineString","coordinates":[[4.330999,51.85117],[4.331004,51.85118]]},"properties":{"name":"Gorsstraat","highway":"residential","profile":"car","distance":"9605.335","time":"1552.18"}},{"type":"Feature","name":"ShapeMeta","geometry":{"type":"LineString","coordinates":[[4.331004,51.85118],[4.330822,51.8509],[4.33073,51.85077],[4.330697,51.85058],[4.330701,51.85053]]},"properties":{"name":"Gorsstraat","highway":"residential","profile":"car","distance":"9681.113","time":"1559.455"}},{"type":"Feature","name":"ShapeMeta","geometry":{"type":"LineString","coordinates":[[4.330701,51.85053],[4.33042,51.85056]]},"properties":{"name":"Gorsstraat","highway":"residential","maxspeed":"30","profile":"car","distance":"9700.513","time":"1562.559"}},{"type":"Feature","name":"ShapeMeta","geometry":{"type":"LineString","coordinates":[[4.33042,51.85056],[4.329352,51.85061]]},"properties":{"name":"Gorsstraat","highway":"residential","maxspeed":"30","profile":"car","distance":"9774.113","time":"1574.335"}},{"type":"Feature","name":"ShapeMeta","geometry":{"type":"LineString","coordinates":[[4.329352,51.85061],[4.329329,51.85047]]},"properties":{"highway":"service","profile":"car","distance":"9789.018","time":"1576.719"}},{"type":"Feature","name":"ShapeMeta","geometry":{"type":"LineString","coordinates":[[4.329329,51.85047],[4.329352,51.85061]]},"properties":{"highway":"service","profile":"car","distance":"9803.923","time":"1579.104"}},{"type":"Feature","name":"ShapeMeta","geometry":{"type":"LineString","coordinates":[[4.329352,51.85061],[4.329581,51.85059]]},"properties":{"name":"Gorsstraat","highway":"residential","maxspeed":"30","profile":"car","distance":"9819.728","time":"1581.633"}},{"type":"Feature","name":"ShapeMeta","geometry":{"type":"LineString","coordinates":[[4.329581,51.85059],[4.33042,51.85056]]},"properties":{"name":"Gorsstraat","highway":"residential","maxspeed":"30","profile":"car","distance":"9877.522","time":"1590.88"}},{"type":"Feature","name":"ShapeMeta","geometry":{"type":"LineString","coordinates":[[4.33042,51.85056],[4.330701,51.85053]]},"properties":{"name":"Gorsstraat","highway":"residential","maxspeed":"30","profile":"car","distance":"9896.923","time":"1593.984"}},{"type":"Feature","name":"ShapeMeta","geometry":{"type":"LineString","coordinates":[[4.330701,51.85053],[4.331225,51.85048],[4.331476,51.85044],[4.331715,51.85038]]},"properties":{"name":"Gorsstraat","highway":"residential","maxspeed":"30","profile":"car","distance":"9968.723","time":"1605.472"}},{"type":"Feature","name":"ShapeMeta","geometry":{"type":"LineString","coordinates":[[4.331715,51.85038],[4.332108,51.85028]]},"properties":{"name":"Gorsstraat","highway":"residential","maxspeed":"30","profile":"car","distance":"9998.123","time":"1610.176"}},{"type":"Feature","name":"ShapeMeta","geometry":{"type":"LineString","coordinates":[[4.332108,51.85028],[4.332226,51.85023]]},"properties":{"name":"Gorsstraat","highway":"residential","maxspeed":"30","profile":"car","distance":"10007.42","time":"1611.664"}},{"type":"Feature","name":"ShapeMeta","geometry":{"type":"LineString","coordinates":[[4.332226,51.85023],[4.332641,51.8501]]},"properties":{"name":"Gorsstraat","highway":"residential","maxspeed":"30","profile":"car","distance":"10039.52","time":"1616.8"}},{"type":"Feature","name":"ShapeMeta","geometry":{"type":"LineString","coordinates":[[4.332641,51.8501],[4.332908,51.84991]]},"properties":{"name":"Gorsstraat","highway":"residential","oneway":"yes","profile":"car","distance":"10067.12","time":"1619.45"}},{"type":"Feature","name":"ShapeMeta","geometry":{"type":"LineString","coordinates":[[4.332908,51.84991],[4.333076,51.84983]]},"properties":{"name":"Gorsstraat","highway":"residential","oneway":"yes","profile":"car","distance":"10082.22","time":"1620.899"}},{"type":"Feature","name":"ShapeMeta","geometry":{"type":"LineString","coordinates":[[4.333076,51.84983],[4.332958,51.84973],[4.332677,51.84953],[4.332369,51.84938],[4.33193,51.84922],[4.331503,51.84909],[4.331293,51.84901]]},"properties":{"name":"Doctor J M den Uyllaan","highway":"unclassified","maxspeed":"50","oneway":"yes","profile":"car","distance":"10236.52","time":"1635.712"}},{"type":"Feature","name":"ShapeMeta","geometry":{"type":"LineString","coordinates":[[4.331293,51.84901],[4.331227,51.84903],[4.331153,51.84904],[4.33108,51.84903]]},"properties":{"name":"Centrumrotonde","highway":"unclassified","maxspeed":"50","oneway":"yes","junction":"roundabout","profile":"car","distance":"10251.72","time":"1637.172"}},{"type":"Feature","name":"ShapeMeta","geometry":{"type":"LineString","coordinates":[[4.33108,51.84903],[4.331021,51.84912],[4.330998,51.84916]]},"properties":{"highway":"service","profile":"car","distance":"10267.61","time":"1639.713"}},{"type":"Feature","name":"ShapeMeta","geometry":{"type":"LineString","coordinates":[[4.330998,51.84916],[4.331021,51.84912],[4.33108,51.84903]]},"properties":{"highway":"service","profile":"car","distance":"10283.5","time":"1642.255"}},{"type":"Feature","name":"ShapeMeta","geometry":{"type":"LineString","coordinates":[[4.33108,51.84903],[4.331018,51.849],[4.330974,51.84897],[4.330954,51.84892],[4.330959,51.84888]]},"properties":{"name":"Centrumrotonde","highway":"unclassified","maxspeed":"50","oneway":"yes","junction":"roundabout","profile":"car","distance":"10303.9","time":"1644.213"}},{"type":"Feature","name":"ShapeMeta","geometry":{"type":"LineString","coordinates":[[4.330959,51.84888],[4.330841,51.84883],[4.330301,51.84855],[4.330193,51.84849]]},"properties":{"name":"Raadhuislaan","highway":"unclassified","maxspeed":"50","oneway":"yes","profile":"car","distance":"10372.09","time":"1650.76"}},{"type":"Feature","name":"ShapeMeta","geometry":{"type":"LineString","coordinates":[[4.330193,51.84849],[4.330126,51.84853]]},"properties":{"name":"H de Lintweg","highway":"residential","profile":"car","distance":"10378.59","time":"1651.384"}},{"type":"Feature","name":"ShapeMeta","geometry":{"type":"LineString","coordinates":[[4.330126,51.84853],[4.329433,51.84902],[4.32921,51.84918]]},"properties":{"name":"H de Lintweg","highway":"residential","profile":"car","distance":"10474.59","time":"1660.6"}},{"type":"Feature","name":"ShapeMeta","geometry":{"type":"LineString","coordinates":[[4.32921,51.84918],[4.329226,51.84929]]},"properties":{"name":"H de Lintweg","highway":"unclassified","profile":"car","distance":"10486.06","time":"1661.701"}},{"type":"Feature","name":"ShapeMeta","geometry":{"type":"LineString","coordinates":[[4.329226,51.84929],[4.329252,51.84946]]},"properties":{"name":"H de Lintweg","highway":"unclassified","profile":"car","distance":"10505.6","time":"1663.577"}},{"type":"Feature","name":"ShapeMeta","geometry":{"type":"LineString","coordinates":[[4.329252,51.84946],[4.32921,51.84918]]},"properties":{"name":"H de Lintweg","highway":"unclassified","profile":"car","distance":"10536.6","time":"1666.553"}},{"type":"Feature","name":"ShapeMeta","geometry":{"type":"LineString","coordinates":[[4.32921,51.84918],[4.329433,51.84902],[4.330126,51.84853]]},"properties":{"name":"H de Lintweg","highway":"residential","profile":"car","distance":"10632.6","time":"1675.769"}},{"type":"Feature","name":"ShapeMeta","geometry":{"type":"LineString","coordinates":[[4.330126,51.84853],[4.330193,51.84849]]},"properties":{"name":"H de Lintweg","highway":"residential","profile":"car","distance":"10639.1","time":"1676.393"}},{"type":"Feature","name":"ShapeMeta","geometry":{"type":"LineString","coordinates":[[4.330193,51.84849],[4.329443,51.84808],[4.32872,51.84771],[4.328626,51.84762]]},"properties":{"name":"Raadhuislaan","highway":"unclassified","maxspeed":"50","oneway":"yes","profile":"car","distance":"10783.8","time":"1690.284"}},{"type":"Feature","name":"ShapeMeta","geometry":{"type":"LineString","coordinates":[[4.328626,51.84762],[4.328483,51.84769],[4.327596,51.84834],[4.327425,51.84844],[4.327252,51.8485]]},"properties":{"name":"Marrewijklaan","highway":"unclassified","maxspeed":"30","profile":"car","distance":"10920.42","time":"1712.144"}},{"type":"Feature","name":"ShapeMeta","geometry":{"type":"LineString","coordinates":[[4.327252,51.8485],[4.327215,51.84851],[4.326477,51.84868],[4.326209,51.84875],[4.326143,51.84877]]},"properties":{"name":"Marrewijklaan","highway":"unclassified","maxspeed":"30","profile":"car","distance":"11002.6","time":"1725.293"}},{"type":"Feature","name":"ShapeMeta","geometry":{"type":"LineString","coordinates":[[4.326143,51.84877],[4.326109,51.84878]]},"properties":{"name":"Marrewijklaan","highway":"unclassified","maxspeed":"30","profile":"car","distance":"11005","time":"1725.677"}},{"type":"Feature","name":"ShapeMeta","geometry":{"type":"LineString","coordinates":[[4.326109,51.84878],[4.326077,51.84879],[4.325401,51.84909],[4.325277,51.84913],[4.325092,51.84913],[4.324899,51.84908]]},"properties":{"name":"Marrewijklaan","highway":"unclassified","maxspeed":"30","profile":"car","distance":"11101.6","time":"1741.133"}},{"type":"Feature","name":"ShapeMeta","geometry":{"type":"LineString","coordinates":[[4.324899,51.84908],[4.324858,51.84915],[4.324908,51.84934],[4.325124,51.84966],[4.325201,51.84978]]},"properties":{"name":"Eerste Heulbrugstraat","highway":"unclassified","maxspeed":"30","profile":"car","distance":"11184.4","time":"1754.38"}},{"type":"Feature","name":"ShapeMeta","geometry":{"type":"LineString","coordinates":[[4.325201,51.84978],[4.325124,51.84966],[4.324908,51.84934],[4.324858,51.84915],[4.324899,51.84908]]},"properties":{"name":"Eerste Heulbrugstraat","highway":"unclassified","maxspeed":"30","profile":"car","distance":"11267.2","time":"1767.628"}},{"type":"Feature","name":"ShapeMeta","geometry":{"type":"LineString","coordinates":[[4.324899,51.84908],[4.324706,51.84899],[4.324555,51.84892],[4.324349,51.84882]]},"properties":{"name":"Vredehofplein","highway":"unclassified","profile":"car","distance":"11314.7","time":"1772.188"}},{"type":"Feature","name":"ShapeMeta","geometry":{"type":"LineString","coordinates":[[4.324349,51.84882],[4.324225,51.84877]]},"properties":{"name":"Vredehofplein","highway":"unclassified","profile":"car","distance":"11325","time":"1773.177"}},{"type":"Feature","name":"ShapeMeta","geometry":{"type":"LineString","coordinates":[[4.324225,51.84877],[4.323937,51.8489],[4.323685,51.84901]]},"properties":{"name":"Karel Doormanstraat","highway":"residential","maxspeed":"30","profile":"car","distance":"11370.71","time":"1780.491"}},{"type":"Feature","name":"ShapeMeta","geometry":{"type":"LineString","coordinates":[[4.323685,51.84901],[4.323048,51.84929]]},"properties":{"name":"Karel Doormanstraat","highway":"residential","maxspeed":"30","profile":"car","distance":"11424.3","time":"1789.065"}},{"type":"Feature","name":"ShapeMeta","geometry":{"type":"LineString","coordinates":[[4.323048,51.84929],[4.323775,51.85063],[4.323934,51.8508]]},"properties":{"name":"Vierambachtenkade Zuidzijde","highway":"residential","profile":"car","distance":"11604.1","time":"1806.326"}},{"type":"Feature","name":"ShapeMeta","geometry":{"type":"LineString","coordinates":[[4.323934,51.8508],[4.324201,51.85075],[4.324437,51.85071],[4.324591,51.85072]]},"properties":{"name":"Zijlstraat","highway":"residential","profile":"car","distance":"11650.8","time":"1810.809"}},{"type":"Feature","name":"ShapeMeta","geometry":{"type":"LineString","coordinates":[[4.324591,51.85072],[4.324603,51.85044],[4.324648,51.85028],[4.324717,51.85025]]},"properties":{"name":"Kerkring","highway":"service","profile":"car","distance":"11705.3","time":"1819.529"}},{"type":"Feature","name":"ShapeMeta","geometry":{"type":"LineString","coordinates":[[4.324717,51.85025],[4.324599,51.84996]]},"properties":{"name":"Markt","highway":"service","maxspeed":"20","profile":"car","distance":"11738.1","time":"1827.401"}},{"type":"Feature","name":"ShapeMeta","geometry":{"type":"LineString","coordinates":[[4.324599,51.84996],[4.32446,51.84978]]},"properties":{"name":"Kees de Groenplein","highway":"residential","profile":"car","distance":"11760.58","time":"1829.559"}},{"type":"Feature","name":"ShapeMeta","geometry":{"type":"LineString","coordinates":[[4.32446,51.84978],[4.324599,51.84996]]},"properties":{"name":"Kees de Groenplein","highway":"residential","profile":"car","distance":"11783.06","time":"1831.717"}},{"type":"Feature","name":"ShapeMeta","geometry":{"type":"LineString","coordinates":[[4.324599,51.84996],[4.324717,51.85025]]},"properties":{"name":"Markt","highway":"service","maxspeed":"20","profile":"car","distance":"11815.86","time":"1839.589"}},{"type":"Feature","name":"ShapeMeta","geometry":{"type":"LineString","coordinates":[[4.324717,51.85025],[4.324648,51.85028],[4.324603,51.85044],[4.324591,51.85072]]},"properties":{"name":"Kerkring","highway":"service","profile":"car","distance":"11870.36","time":"1848.309"}},{"type":"Feature","name":"ShapeMeta","geometry":{"type":"LineString","coordinates":[[4.324591,51.85072],[4.324437,51.85071],[4.324201,51.85075],[4.323934,51.8508]]},"properties":{"name":"Zijlstraat","highway":"residential","profile":"car","distance":"11917.06","time":"1852.792"}},{"type":"Feature","name":"ShapeMeta","geometry":{"type":"LineString","coordinates":[[4.323934,51.8508],[4.323481,51.85092]]},"properties":{"bridge":"yes","name":"Boezembocht","highway":"residential","profile":"car","distance":"11950.76","time":"1856.027"}},{"type":"Feature","name":"ShapeMeta","geometry":{"type":"LineString","coordinates":[[4.323481,51.85092],[4.323302,51.85097]]},"properties":{"name":"Boezembocht","highway":"residential","profile":"car","distance":"11964.16","time":"1857.314"}},{"type":"Feature","name":"ShapeMeta","geometry":{"type":"LineString","coordinates":[[4.323302,51.85097],[4.323457,51.85166]]},"properties":{"name":"Koningin Julianaplein","highway":"residential","profile":"car","distance":"12041.66","time":"1864.754"}},{"type":"Feature","name":"ShapeMeta","geometry":{"type":"LineString","coordinates":[[4.323457,51.85166],[4.323463,51.85185],[4.323465,51.85203],[4.32341,51.85223],[4.323434,51.85226],[4.323496,51.8523],[4.324084,51.85237],[4.324724,51.8525]]},"properties":{"name":"Jan Campertlaan","highway":"residential","profile":"car","distance":"12202.26","time":"1880.171"}},{"type":"Feature","name":"ShapeMeta","geometry":{"type":"LineString","coordinates":[[4.324724,51.8525],[4.324779,51.85251],[4.324816,51.85252]]},"properties":{"name":"Jan Campertlaan","highway":"residential","profile":"car","distance":"12208.8","time":"1880.8"}},{"type":"Feature","name":"ShapeMeta","geometry":{"type":"LineString","coordinates":[[4.324816,51.85252],[4.324966,51.85254]]},"properties":{"name":"Jan Campertlaan","highway":"residential","profile":"car","distance":"12219.46","time":"1881.823"}},{"type":"Feature","name":"ShapeMeta","geometry":{"type":"LineString","coordinates":[[4.324966,51.85254],[4.325161,51.85257]]},"properties":{"name":"Jan Campertlaan","highway":"residential","profile":"car","distance":"12233.25","time":"1883.148"}},{"type":"Feature","name":"ShapeMeta","geometry":{"type":"LineString","coordinates":[[4.325161,51.85257],[4.325679,51.85267]]},"properties":{"name":"Jan Campertlaan","highway":"residential","profile":"car","distance":"12270.35","time":"1886.709"}},{"type":"Feature","name":"ShapeMeta","geometry":{"type":"LineString","coordinates":[[4.325679,51.85267],[4.325553,51.85301]]},"properties":{"name":"Stationsstraat","highway":"unclassified","profile":"car","distance":"12309.05","time":"1890.425"}},{"type":"Feature","name":"ShapeMeta","geometry":{"type":"LineString","coordinates":[[4.325553,51.85301],[4.325558,51.85328],[4.325558,51.85331],[4.325532,51.85347]]},"properties":{"name":"Stationsstraat","highway":"unclassified","oneway":"yes","profile":"car","distance":"12359.96","time":"1895.311"}},{"type":"Feature","name":"ShapeMeta","geometry":{"type":"LineString","coordinates":[[4.325532,51.85347],[4.325464,51.8536]]},"properties":{"name":"Groene Kruisweg","highway":"unclassified","maxspeed":"50","oneway":"yes","profile":"car","distance":"12375.05","time":"1896.76"}},{"type":"Feature","name":"ShapeMeta","geometry":{"type":"LineString","coordinates":[[4.325464,51.8536],[4.325237,51.85355]]},"properties":{"name":"Groene Kruisweg","oneway":"yes","highway":"primary","maxspeed":"80","profile":"car","distance":"12391.36","time":"1897.739"}},{"type":"Feature","name":"ShapeMeta","geometry":{"type":"LineString","coordinates":[[4.325237,51.85355],[4.325044,51.8535],[4.323891,51.85326],[4.323193,51.85313]]},"properties":{"name":"Groene Kruisweg","oneway":"yes","highway":"primary","maxspeed":"80","profile":"car","distance":"12539.46","time":"1906.625"}},{"type":"Feature","name":"ShapeMeta","geometry":{"type":"LineString","coordinates":[[4.323193,51.85313],[4.321988,51.85291]]},"properties":{"name":"Groene Kruisweg","oneway":"yes","highway":"primary","maxspeed":"80","profile":"car","distance":"12625.46","time":"1911.785"}},{"type":"Feature","name":"ShapeMeta","geometry":{"type":"LineString","coordinates":[[4.321988,51.85291],[4.321598,51.85284]]},"properties":{"name":"Groene Kruisweg","oneway":"yes","highway":"primary","maxspeed":"80","profile":"car","distance":"12653.55","time":"1913.471"}},{"type":"Feature","name":"ShapeMeta","geometry":{"type":"LineString","coordinates":[[4.321598,51.85284],[4.321254,51.85278],[4.319739,51.8525]]},"properties":{"name":"Groene Kruisweg","oneway":"yes","highway":"primary","maxspeed":"80","profile":"car","distance":"12786.55","time":"1921.451"}},{"type":"Feature","name":"ShapeMeta","geometry":{"type":"LineString","coordinates":[[4.319739,51.8525],[4.318846,51.85234],[4.317945,51.85218]]},"properties":{"name":"Groene Kruisweg","oneway":"yes","highway":"primary","maxspeed":"80","profile":"car","distance":"12914.66","time":"1929.137"}},{"type":"Feature","name":"ShapeMeta","geometry":{"type":"LineString","coordinates":[[4.317945,51.85218],[4.317867,51.85217],[4.317599,51.85212]]},"properties":{"name":"Groene Kruisweg","oneway":"yes","highway":"primary","maxspeed":"80","profile":"car","distance":"12939.25","time":"1930.613"}},{"type":"Feature","name":"ShapeMeta","geometry":{"type":"LineString","coordinates":[[4.317599,51.85212],[4.317521,51.8523],[4.317275,51.85261]]},"properties":{"name":"Winston Churchilllaan","maxspeed":"50","highway":"tertiary","oneway":"yes","profile":"car","distance":"12998.16","time":"1936.267"}},{"type":"Feature","name":"ShapeMeta","geometry":{"type":"LineString","coordinates":[[4.317275,51.85261],[4.317192,51.85284],[4.317157,51.85292],[4.317067,51.85312]]},"properties":{"name":"Winston Churchilllaan","maxspeed":"50","highway":"tertiary","profile":"car","distance":"13056.75","time":"1941.893"}},{"type":"Feature","name":"ShapeMeta","geometry":{"type":"LineString","coordinates":[[4.317067,51.85312],[4.317019,51.85323],[4.316827,51.85366]]},"properties":{"name":"Winston Churchilllaan","maxspeed":"50","highway":"tertiary","profile":"car","distance":"13119.16","time":"1947.883"}},{"type":"Feature","name":"ShapeMeta","geometry":{"type":"LineString","coordinates":[[4.316827,51.85366],[4.316722,51.8539],[4.316459,51.8545]]},"properties":{"name":"Winston Churchilllaan","maxspeed":"50","highway":"tertiary","profile":"car","distance":"13215.46","time":"1957.127"}},{"type":"Feature","name":"ShapeMeta","geometry":{"type":"LineString","coordinates":[[4.316459,51.8545],[4.316312,51.85477],[4.315972,51.85545]]},"properties":{"name":"Winston Churchilllaan","maxspeed":"50","highway":"tertiary","profile":"car","distance":"13326.16","time":"1967.755"}},{"type":"Feature","name":"ShapeMeta","geometry":{"type":"LineString","coordinates":[[4.315972,51.85545],[4.315952,51.85565],[4.315853,51.85585],[4.315795,51.85597]]},"properties":{"name":"Winston Churchilllaan","maxspeed":"50","highway":"tertiary","oneway":"yes","profile":"car","distance":"13385.86","time":"1973.486"}},{"type":"Feature","name":"ShapeMeta","geometry":{"type":"LineString","coordinates":[[4.315795,51.85597],[4.315802,51.85608],[4.315858,51.85614]]},"properties":{"highway":"unclassified","maxspeed":"50","oneway":"yes","profile":"car","distance":"13405.46","time":"1975.367"}},{"type":"Feature","name":"ShapeMeta","geometry":{"type":"LineString","coordinates":[[4.315858,51.85614],[4.316232,51.85624],[4.316476,51.85632]]},"properties":{"highway":"unclassified","maxspeed":"50","oneway":"yes","profile":"car","distance":"13452.36","time":"1979.87"}},{"type":"Feature","name":"ShapeMeta","geometry":{"type":"LineString","coordinates":[[4.316476,51.85632],[4.316631,51.85635]]},"properties":{"name":"Willemshoevelaan","highway":"unclassified","maxspeed":"50","profile":"car","distance":"13463.36","time":"1980.926"}},{"type":"Feature","name":"ShapeMeta","geometry":{"type":"LineString","coordinates":[[4.316631,51.85635],[4.316713,51.85616]]},"properties":{"name":"Anjerstraat","highway":"residential","maxspeed":"30","profile":"car","distance":"13485.26","time":"1984.43"}},{"type":"Feature","name":"ShapeMeta","geometry":{"type":"LineString","coordinates":[[4.316713,51.85616],[4.316796,51.85596]]},"properties":{"name":"Anjerstraat","highway":"residential","maxspeed":"30","profile":"car","distance":"13507.56","time":"1987.998"}},{"type":"Feature","name":"ShapeMeta","geometry":{"type":"LineString","coordinates":[[4.316796,51.85596],[4.316669,51.85594]]},"properties":{"name":"Anjerplein","highway":"service","profile":"car","distance":"13516.66","time":"1989.454"}},{"type":"Feature","name":"ShapeMeta","geometry":{"type":"LineString","coordinates":[[4.316669,51.85594],[4.316796,51.85596]]},"properties":{"name":"Anjerplein","highway":"service","profile":"car","distance":"13525.76","time":"1990.91"}},{"type":"Feature","name":"ShapeMeta","geometry":{"type":"LineString","coordinates":[[4.316796,51.85596],[4.316713,51.85616]]},"properties":{"name":"Anjerstraat","highway":"residential","maxspeed":"30","profile":"car","distance":"13548.06","time":"1994.478"}},{"type":"Feature","name":"ShapeMeta","geometry":{"type":"LineString","coordinates":[[4.316713,51.85616],[4.316631,51.85635]]},"properties":{"name":"Anjerstraat","highway":"residential","maxspeed":"30","profile":"car","distance":"13569.96","time":"1997.982"}},{"type":"Feature","name":"ShapeMeta","geometry":{"type":"LineString","coordinates":[[4.316631,51.85635],[4.316476,51.85632]]},"properties":{"name":"Willemshoevelaan","highway":"unclassified","maxspeed":"50","profile":"car","distance":"13580.96","time":"1999.038"}},{"type":"Feature","name":"ShapeMeta","geometry":{"type":"LineString","coordinates":[[4.316476,51.85632],[4.315814,51.85624]]},"properties":{"highway":"unclassified","maxspeed":"50","oneway":"yes","profile":"car","distance":"13627.16","time":"2003.473"}},{"type":"Feature","name":"ShapeMeta","geometry":{"type":"LineString","coordinates":[[4.315814,51.85624],[4.315743,51.8562],[4.315708,51.85615]]},"properties":{"highway":"unclassified","maxspeed":"50","oneway":"yes","profile":"car","distance":"13639.66","time":"2004.673"}},{"type":"Feature","name":"ShapeMeta","geometry":{"type":"LineString","coordinates":[[4.315708,51.85615],[4.315665,51.85609],[4.315639,51.85601]]},"properties":{"highway":"unclassified","maxspeed":"50","oneway":"yes","profile":"car","distance":"13656.06","time":"2006.248"}},{"type":"Feature","name":"ShapeMeta","geometry":{"type":"LineString","coordinates":[[4.315639,51.85601],[4.315657,51.85597],[4.315834,51.85561],[4.315972,51.85545]]},"properties":{"name":"Winston Churchilllaan","maxspeed":"50","highway":"tertiary","oneway":"yes","profile":"car","distance":"13722.76","time":"2012.651"}},{"type":"Feature","name":"ShapeMeta","geometry":{"type":"LineString","coordinates":[[4.315972,51.85545],[4.316312,51.85477],[4.316459,51.8545]]},"properties":{"name":"Winston Churchilllaan","maxspeed":"50","highway":"tertiary","profile":"car","distance":"13833.46","time":"2023.278"}},{"type":"Feature","name":"ShapeMeta","geometry":{"type":"LineString","coordinates":[[4.316459,51.8545],[4.316307,51.85448],[4.315477,51.85431]]},"properties":{"name":"A M de Jongstraat","highway":"unclassified","maxspeed":"30","profile":"car","distance":"13904.26","time":"2034.606"}},{"type":"Feature","name":"ShapeMeta","geometry":{"type":"LineString","coordinates":[[4.315477,51.85431],[4.315199,51.85427]]},"properties":{"name":"A M de Jongstraat","highway":"unclassified","maxspeed":"30","profile":"car","distance":"13923.76","time":"2037.726"}},{"type":"Feature","name":"ShapeMeta","geometry":{"type":"LineString","coordinates":[[4.315199,51.85427],[4.31471,51.85528],[4.314587,51.85526]]},"properties":{"name":"Slauerhoffstraat","highway":"residential","maxspeed":"30","profile":"car","distance":"14050.2","time":"2057.956"}},{"type":"Feature","name":"ShapeMeta","geometry":{"type":"LineString","coordinates":[[4.314587,51.85526],[4.31471,51.85528],[4.315067,51.85454]]},"properties":{"name":"Slauerhoffstraat","highway":"residential","maxspeed":"30","profile":"car","distance":"14144.76","time":"2073.085"}},{"type":"Feature","name":"ShapeMeta","geometry":{"type":"LineString","coordinates":[[4.315067,51.85454],[4.31471,51.85528],[4.314373,51.85522]]},"properties":{"name":"Slauerhoffstraat","highway":"residential","maxspeed":"30","profile":"car","distance":"14254.58","time":"2090.656"}},{"type":"Feature","name":"ShapeMeta","geometry":{"type":"LineString","coordinates":[[4.314373,51.85522],[4.314267,51.85545]]},"properties":{"name":"Heyermansstraat","highway":"residential","maxspeed":"30","profile":"car","distance":"14280.18","time":"2094.752"}},{"type":"Feature","name":"ShapeMeta","geometry":{"type":"LineString","coordinates":[[4.314267,51.85545],[4.314075,51.85585]]},"properties":{"name":"Heyermansstraat","highway":"residential","maxspeed":"30","profile":"car","distance":"14326.98","time":"2102.24"}},{"type":"Feature","name":"ShapeMeta","geometry":{"type":"LineString","coordinates":[[4.314075,51.85585],[4.314385,51.8559]]},"properties":{"highway":"service","profile":"car","distance":"14348.78","time":"2105.728"}},{"type":"Feature","name":"ShapeMeta","geometry":{"type":"LineString","coordinates":[[4.314385,51.8559],[4.314075,51.85585]]},"properties":{"highway":"service","profile":"car","distance":"14370.58","time":"2109.216"}},{"type":"Feature","name":"ShapeMeta","geometry":{"type":"LineString","coordinates":[[4.314075,51.85585],[4.314267,51.85545]]},"properties":{"name":"Heyermansstraat","highway":"residential","maxspeed":"30","profile":"car","distance":"14417.38","time":"2116.704"}},{"type":"Feature","name":"ShapeMeta","geometry":{"type":"LineString","coordinates":[[4.314267,51.85545],[4.314373,51.85522]]},"properties":{"name":"Heyermansstraat","highway":"residential","maxspeed":"30","profile":"car","distance":"14442.98","time":"2120.8"}},{"type":"Feature","name":"ShapeMeta","geometry":{"type":"LineString","coordinates":[[4.314373,51.85522],[4.313647,51.85509]]},"properties":{"name":"Betje Wolffstraat","highway":"residential","maxspeed":"30","profile":"car","distance":"14494.98","time":"2129.12"}},{"type":"Feature","name":"ShapeMeta","geometry":{"type":"LineString","coordinates":[[4.313647,51.85509],[4.3133,51.855],[4.312773,51.85486]]},"properties":{"name":"Slauerhoffstraat","highway":"residential","maxspeed":"30","profile":"car","distance":"14560.08","time":"2139.536"}},{"type":"Feature","name":"ShapeMeta","geometry":{"type":"LineString","coordinates":[[4.312773,51.85486],[4.313175,51.85438]]},"properties":{"name":"Vondelsingel","highway":"unclassified","profile":"car","distance":"14620.5","time":"2145.336"}},{"type":"Feature","name":"ShapeMeta","geometry":{"type":"LineString","coordinates":[[4.313175,51.85438],[4.312773,51.85486]]},"properties":{"name":"Vondelsingel","highway":"unclassified","profile":"car","distance":"14680.92","time":"2151.136"}},{"type":"Feature","name":"ShapeMeta","geometry":{"type":"LineString","coordinates":[[4.312773,51.85486],[4.312426,51.85529]]},"properties":{"name":"Vondelsingel","highway":"unclassified","profile":"car","distance":"14734.02","time":"2156.234"}},{"type":"Feature","name":"ShapeMeta","geometry":{"type":"LineString","coordinates":[[4.312426,51.85529],[4.312379,51.85535]]},"properties":{"name":"Vondelsingel","highway":"unclassified","maxspeed":"30","profile":"car","distance":"14741.11","time":"2157.368"}},{"type":"Feature","name":"ShapeMeta","geometry":{"type":"LineString","coordinates":[[4.312379,51.85535],[4.311979,51.85584]]},"properties":{"name":"Vondelsingel","highway":"unclassified","maxspeed":"30","profile":"car","distance":"14802.32","time":"2167.161"}},{"type":"Feature","name":"ShapeMeta","geometry":{"type":"LineString","coordinates":[[4.311979,51.85584],[4.311938,51.85593]]},"properties":{"name":"Vondelsingel","highway":"unclassified","maxspeed":"30","profile":"car","distance":"14812.42","time":"2168.777"}},{"type":"Feature","name":"ShapeMeta","geometry":{"type":"LineString","coordinates":[[4.311938,51.85593],[4.311883,51.85602],[4.311533,51.85647]]},"properties":{"name":"Vondelsingel","highway":"residential","profile":"car","distance":"14879.12","time":"2175.18"}},{"type":"Feature","name":"ShapeMeta","geometry":{"type":"LineString","coordinates":[[4.311533,51.85647],[4.313444,51.85705]]},"properties":{"name":"Rembrandtstraat","highway":"unclassified","maxspeed":"30","profile":"car","distance":"15025.29","time":"2198.568"}},{"type":"Feature","name":"ShapeMeta","geometry":{"type":"LineString","coordinates":[[4.313444,51.85705],[4.311533,51.85647]]},"properties":{"name":"Rembrandtstraat","highway":"unclassified","maxspeed":"30","profile":"car","distance":"15171.46","time":"2221.956"}},{"type":"Feature","name":"ShapeMeta","geometry":{"type":"LineString","coordinates":[[4.311533,51.85647],[4.311137,51.85637]]},"properties":{"name":"Rembrandtstraat","highway":"unclassified","maxspeed":"30","profile":"car","distance":"15200.96","time":"2226.676"}},{"type":"Feature","name":"ShapeMeta","geometry":{"type":"LineString","coordinates":[[4.311137,51.85637],[4.311067,51.85646]]},"properties":{"name":"Paulus Potterstraat","highway":"unclassified","maxspeed":"30","profile":"car","distance":"15212.21","time":"2228.475"}},{"type":"Feature","name":"ShapeMeta","geometry":{"type":"LineString","coordinates":[[4.311067,51.85646],[4.310829,51.85677]]},"properties":{"name":"Paulus Potterstraat","highway":"unclassified","maxspeed":"30","profile":"car","distance":"15250.26","time":"2234.564"}},{"type":"Feature","name":"ShapeMeta","geometry":{"type":"LineString","coordinates":[[4.310829,51.85677],[4.310744,51.85689]]},"properties":{"name":"Paulus Potterstraat","highway":"unclassified","maxspeed":"30","profile":"car","distance":"15264.96","time":"2236.916"}},{"type":"Feature","name":"ShapeMeta","geometry":{"type":"LineString","coordinates":[[4.310744,51.85689],[4.310449,51.85724]]},"properties":{"name":"Paulus Potterstraat","highway":"unclassified","maxspeed":"30","profile":"car","distance":"15308.87","time":"2243.94"}},{"type":"Feature","name":"ShapeMeta","geometry":{"type":"LineString","coordinates":[[4.310449,51.85724],[4.310363,51.85734],[4.310281,51.85751]]},"properties":{"name":"Paulus Potterstraat","highway":"unclassified","maxspeed":"30","profile":"car","distance":"15340.87","time":"2249.061"}},{"type":"Feature","name":"ShapeMeta","geometry":{"type":"LineString","coordinates":[[4.310281,51.85751],[4.31016,51.85776]]},"properties":{"name":"Paulus Potterstraat","highway":"unclassified","maxspeed":"30","profile":"car","distance":"15370.07","time":"2253.732"}},{"type":"Feature","name":"ShapeMeta","geometry":{"type":"LineString","coordinates":[[4.31016,51.85776],[4.310399,51.85781],[4.311162,51.85796]]},"properties":{"name":"Frans Halsstraat","highway":"unclassified","maxspeed":"30","profile":"car","distance":"15442.17","time":"2265.268"}},{"type":"Feature","name":"ShapeMeta","geometry":{"type":"LineString","coordinates":[[4.311162,51.85796],[4.311145,51.85801],[4.31101,51.85837]]},"properties":{"name":"Frans Halsstraat","highway":"unclassified","maxspeed":"30","profile":"car","distance":"15489.57","time":"2272.852"}},{"type":"Feature","name":"ShapeMeta","geometry":{"type":"LineString","coordinates":[[4.31101,51.85837],[4.310989,51.85842],[4.312162,51.85865],[4.31227,51.85867]]},"properties":{"name":"Frans Halsstraat","highway":"unclassified","maxspeed":"30","profile":"car","distance":"15587.07","time":"2288.453"}},{"type":"Feature","name":"ShapeMeta","geometry":{"type":"LineString","coordinates":[[4.31227,51.85867],[4.312162,51.85865],[4.310989,51.85842],[4.31101,51.85837]]},"properties":{"name":"Frans Halsstraat","highway":"unclassified","maxspeed":"30","profile":"car","distance":"15684.58","time":"2304.054"}},{"type":"Feature","name":"ShapeMeta","geometry":{"type":"LineString","coordinates":[[4.31101,51.85837],[4.311145,51.85801],[4.311162,51.85796]]},"properties":{"name":"Frans Halsstraat","highway":"unclassified","maxspeed":"30","profile":"car","distance":"15731.98","time":"2311.638"}},{"type":"Feature","name":"ShapeMeta","geometry":{"type":"LineString","coordinates":[[4.311162,51.85796],[4.310399,51.85781],[4.31016,51.85776]]},"properties":{"name":"Frans Halsstraat","highway":"unclassified","maxspeed":"30","profile":"car","distance":"15804.08","time":"2323.174"}},{"type":"Feature","name":"ShapeMeta","geometry":{"type":"LineString","coordinates":[[4.31016,51.85776],[4.309658,51.85768],[4.308916,51.85755]]},"properties":{"name":"Frans Halsstraat","highway":"unclassified","maxspeed":"30","profile":"car","distance":"15892.59","time":"2337.335"}},{"type":"Feature","name":"ShapeMeta","geometry":{"type":"LineString","coordinates":[[4.308916,51.85755],[4.308895,51.85755],[4.309099,51.85712],[4.309131,51.85706]]},"properties":{"name":"Frans Halsstraat","highway":"unclassified","maxspeed":"30","profile":"car","distance":"15950.78","time":"2346.645"}},{"type":"Feature","name":"ShapeMeta","geometry":{"type":"LineString","coordinates":[[4.309131,51.85706],[4.308637,51.85698],[4.3082,51.8569]]},"properties":{"name":"Frans Halsstraat","highway":"unclassified","maxspeed":"30","profile":"car","distance":"16017.08","time":"2357.253"}},{"type":"Feature","name":"ShapeMeta","geometry":{"type":"LineString","coordinates":[[4.3082,51.8569],[4.307892,51.85684]]},"properties":{"name":"Frans Halsstraat","highway":"unclassified","maxspeed":"30","profile":"car","distance":"16039.18","time":"2360.789"}},{"type":"Feature","name":"ShapeMeta","geometry":{"type":"LineString","coordinates":[[4.307892,51.85684],[4.307408,51.85676],[4.306632,51.85663]]},"properties":{"name":"Frans Halsstraat","highway":"unclassified","maxspeed":"30","profile":"car","distance":"16128.78","time":"2375.125"}},{"type":"Feature","name":"ShapeMeta","geometry":{"type":"LineString","coordinates":[[4.306632,51.85663],[4.306559,51.85662]]},"properties":{"name":"Pieter de Hooghstraat","highway":"unclassified","maxspeed":"30","profile":"car","distance":"16133.98","time":"2375.957"}},{"type":"Feature","name":"ShapeMeta","geometry":{"type":"LineString","coordinates":[[4.306559,51.85662],[4.306632,51.85663]]},"properties":{"name":"Pieter de Hooghstraat","highway":"unclassified","maxspeed":"30","profile":"car","distance":"16139.18","time":"2376.789"}},{"type":"Feature","name":"ShapeMeta","geometry":{"type":"LineString","coordinates":[[4.306632,51.85663],[4.307408,51.85676],[4.307892,51.85684]]},"properties":{"name":"Frans Halsstraat","highway":"unclassified","maxspeed":"30","profile":"car","distance":"16228.78","time":"2391.125"}},{"type":"Feature","name":"ShapeMeta","geometry":{"type":"LineString","coordinates":[[4.307892,51.85684],[4.3081,51.8564],[4.308173,51.85632]]},"properties":{"name":"Jan Steenstraat","highway":"residential","maxspeed":"30","profile":"car","distance":"16289.96","time":"2400.913"}},{"type":"Feature","name":"ShapeMeta","geometry":{"type":"LineString","coordinates":[[4.308173,51.85632],[4.308512,51.85594],[4.308788,51.85563]]},"properties":{"name":"Jan Steenstraat","highway":"residential","maxspeed":"30","profile":"car","distance":"16377.38","time":"2414.9"}},{"type":"Feature","name":"ShapeMeta","geometry":{"type":"LineString","coordinates":[[4.308788,51.85563],[4.308835,51.85564]]},"properties":{"name":"Rembrandtstraat","highway":"unclassified","maxspeed":"30","profile":"car","distance":"16380.98","time":"2415.476"}},{"type":"Feature","name":"ShapeMeta","geometry":{"type":"LineString","coordinates":[[4.308835,51.85564],[4.309528,51.85586],[4.311137,51.85637]]},"properties":{"name":"Rembrandtstraat","highway":"unclassified","maxspeed":"30","profile":"car","distance":"16558.38","time":"2443.86"}},{"type":"Feature","name":"ShapeMeta","geometry":{"type":"LineString","coordinates":[[4.311137,51.85637],[4.311533,51.85647]]},"properties":{"name":"Rembrandtstraat","highway":"unclassified","maxspeed":"30","profile":"car","distance":"16587.88","time":"2448.58"}},{"type":"Feature","name":"ShapeMeta","geometry":{"type":"LineString","coordinates":[[4.311533,51.85647],[4.311883,51.85602],[4.311938,51.85593]]},"properties":{"name":"Vondelsingel","highway":"residential","profile":"car","distance":"16654.58","time":"2454.983"}},{"type":"Feature","name":"ShapeMeta","geometry":{"type":"LineString","coordinates":[[4.311938,51.85593],[4.312306,51.85604],[4.312825,51.8562]]},"properties":{"name":"Sportlaan","maxspeed":"50","highway":"tertiary","profile":"car","distance":"16722.88","time":"2461.54"}},{"type":"Feature","name":"ShapeMeta","geometry":{"type":"LineString","coordinates":[[4.312825,51.8562],[4.312864,51.85612],[4.312924,51.85599]]},"properties":{"name":"Menno ter Braakstraat","highway":"residential","maxspeed":"30","profile":"car","distance":"16747.96","time":"2465.552"}},{"type":"Feature","name":"ShapeMeta","geometry":{"type":"LineString","coordinates":[[4.312924,51.85599],[4.312864,51.85612],[4.312825,51.8562]]},"properties":{"name":"Menno ter Braakstraat","highway":"residential","maxspeed":"30","profile":"car","distance":"16773.04","time":"2469.564"}},{"type":"Feature","name":"ShapeMeta","geometry":{"type":"LineString","coordinates":[[4.312825,51.8562],[4.312306,51.85604],[4.311938,51.85593]]},"properties":{"name":"Sportlaan","maxspeed":"50","highway":"tertiary","profile":"car","distance":"16841.34","time":"2476.121"}},{"type":"Feature","name":"ShapeMeta","geometry":{"type":"LineString","coordinates":[[4.311938,51.85593],[4.311979,51.85584]]},"properties":{"name":"Vondelsingel","highway":"unclassified","maxspeed":"30","profile":"car","distance":"16851.44","time":"2477.737"}},{"type":"Feature","name":"ShapeMeta","geometry":{"type":"LineString","coordinates":[[4.311979,51.85584],[4.312426,51.85529]]},"properties":{"name":"Vondelsingel","highway":"unclassified","maxspeed":"30","profile":"car","distance":"16919.74","time":"2488.665"}},{"type":"Feature","name":"ShapeMeta","geometry":{"type":"LineString","coordinates":[[4.312426,51.85529],[4.311648,51.85504]]},"properties":{"name":"P C Hooftstraat","highway":"residential","maxspeed":"30","profile":"car","distance":"16979.94","time":"2498.297"}},{"type":"Feature","name":"ShapeMeta","geometry":{"type":"LineString","coordinates":[[4.311648,51.85504],[4.312037,51.85455]]},"properties":{"name":"Bilderdijkstraat","highway":"residential","maxspeed":"30","profile":"car","distance":"17040.04","time":"2507.913"}},{"type":"Feature","name":"ShapeMeta","geometry":{"type":"LineString","coordinates":[[4.312037,51.85455],[4.311436,51.85436],[4.311326,51.85434],[4.311192,51.85436],[4.311101,51.85442],[4.310596,51.85427]]},"properties":{"name":"Jacob van Lennepstraat","highway":"residential","maxspeed":"30","profile":"car","distance":"17151.33","time":"2525.719"}},{"type":"Feature","name":"ShapeMeta","geometry":{"type":"LineString","coordinates":[[4.310596,51.85427],[4.310486,51.85424]]},"properties":{"name":"Jacob van Lennepstraat","highway":"residential","maxspeed":"30","profile":"car","distance":"17159.74","time":"2527.064"}},{"type":"Feature","name":"ShapeMeta","geometry":{"type":"LineString","coordinates":[[4.310486,51.85424],[4.310945,51.85366]]},"properties":{"name":"Jacob Catsstraat","highway":"unclassified","maxspeed":"30","profile":"car","distance":"17231.44","time":"2538.536"}},{"type":"Feature","name":"ShapeMeta","geometry":{"type":"LineString","coordinates":[[4.310945,51.85366],[4.310989,51.85359]]},"properties":{"name":"Jacob Catsstraat","highway":"unclassified","maxspeed":"30","profile":"car","distance":"17239.64","time":"2539.848"}},{"type":"Feature","name":"ShapeMeta","geometry":{"type":"LineString","coordinates":[[4.310989,51.85359],[4.311304,51.85318]]},"properties":{"name":"Jacob Catsstraat","highway":"unclassified","maxspeed":"30","profile":"car","distance":"17290.24","time":"2547.945"}},{"type":"Feature","name":"ShapeMeta","geometry":{"type":"LineString","coordinates":[[4.311304,51.85318],[4.311505,51.85294]]},"properties":{"name":"Jacob Catsstraat","highway":"unclassified","maxspeed":"30","profile":"car","distance":"17320.34","time":"2552.76"}},{"type":"Feature","name":"ShapeMeta","geometry":{"type":"LineString","coordinates":[[4.311505,51.85294],[4.311612,51.85281]]},"properties":{"name":"Jacob Catsstraat","highway":"unclassified","maxspeed":"30","profile":"car","distance":"17335.74","time":"2555.224"}},{"type":"Feature","name":"ShapeMeta","geometry":{"type":"LineString","coordinates":[[4.311612,51.85281],[4.31178,51.85262]]},"properties":{"name":"Jacob Catsstraat","highway":"unclassified","maxspeed":"30","profile":"car","distance":"17360.54","time":"2559.192"}},{"type":"Feature","name":"ShapeMeta","geometry":{"type":"LineString","coordinates":[[4.31178,51.85262],[4.31118,51.85243]]},"properties":{"name":"Westersingel","highway":"residential","maxspeed":"30","profile":"car","distance":"17406.44","time":"2566.536"}},{"type":"Feature","name":"ShapeMeta","geometry":{"type":"LineString","coordinates":[[4.31118,51.85243],[4.3105,51.8522],[4.310389,51.85228],[4.309909,51.85262]]},"properties":{"name":"Westersingel","highway":"residential","maxspeed":"30","profile":"car","distance":"17521.79","time":"2584.992"}},{"type":"Feature","name":"ShapeMeta","geometry":{"type":"LineString","coordinates":[[4.309909,51.85262],[4.310389,51.85228],[4.3105,51.8522],[4.31118,51.85243]]},"properties":{"name":"Westersingel","highway":"residential","maxspeed":"30","profile":"car","distance":"17637.14","time":"2603.448"}},{"type":"Feature","name":"ShapeMeta","geometry":{"type":"LineString","coordinates":[[4.31118,51.85243],[4.31178,51.85262]]},"properties":{"name":"Westersingel","highway":"residential","maxspeed":"30","profile":"car","distance":"17683.04","time":"2610.792"}},{"type":"Feature","name":"ShapeMeta","geometry":{"type":"LineString","coordinates":[[4.31178,51.85262],[4.312022,51.85233]]},"properties":{"name":"Jacob Catsstraat","highway":"unclassified","maxspeed":"30","profile":"car","distance":"17719.38","time":"2616.606"}},{"type":"Feature","name":"ShapeMeta","geometry":{"type":"LineString","coordinates":[[4.312022,51.85233],[4.312043,51.8523],[4.312308,51.85198]]},"properties":{"name":"Jacob Catsstraat","highway":"unclassified","maxspeed":"30","profile":"car","distance":"17762.54","time":"2623.512"}},{"type":"Feature","name":"ShapeMeta","geometry":{"type":"LineString","coordinates":[[4.312308,51.85198],[4.312496,51.85175]]},"properties":{"name":"Jacob Catsstraat","highway":"unclassified","maxspeed":"30","profile":"car","distance":"17791.04","time":"2628.072"}},{"type":"Feature","name":"ShapeMeta","geometry":{"type":"LineString","coordinates":[[4.312496,51.85175],[4.312847,51.85181],[4.3133,51.8519]]},"properties":{"name":"Schiekampsingel","highway":"unclassified","maxspeed":"30","profile":"car","distance":"17848.64","time":"2637.288"}},{"type":"Feature","name":"ShapeMeta","geometry":{"type":"LineString","coordinates":[[4.3133,51.8519],[4.313651,51.85197],[4.314054,51.85204]]},"properties":{"name":"Schiekampsingel","highway":"unclassified","maxspeed":"30","profile":"car","distance":"17902.64","time":"2645.928"}},{"type":"Feature","name":"ShapeMeta","geometry":{"type":"LineString","coordinates":[[4.314054,51.85204],[4.315,51.8522]]},"properties":{"name":"Schiekampsingel","highway":"unclassified","maxspeed":"30","profile":"car","distance":"17970.04","time":"2656.712"}},{"type":"Feature","name":"ShapeMeta","geometry":{"type":"LineString","coordinates":[[4.315,51.8522],[4.314917,51.85229]]},"properties":{"name":"Vondelsingel","highway":"unclassified","maxspeed":"30","profile":"car","distance":"17982.1","time":"2658.641"}},{"type":"Feature","name":"ShapeMeta","geometry":{"type":"LineString","coordinates":[[4.314917,51.85229],[4.314612,51.85265],[4.314386,51.85291]]},"properties":{"name":"Vondelsingel","highway":"unclassified","maxspeed":"30","profile":"car","distance":"18059.04","time":"2670.952"}},{"type":"Feature","name":"ShapeMeta","geometry":{"type":"LineString","coordinates":[[4.314386,51.85291],[4.315232,51.85314]]},"properties":{"bridge":"yes","name":"P A de Genestetstraat","highway":"residential","maxspeed":"30","profile":"car","distance":"18122.64","time":"2681.128"}},{"type":"Feature","name":"ShapeMeta","geometry":{"type":"LineString","coordinates":[[4.315232,51.85314],[4.315956,51.85327]]},"properties":{"name":"P A de Genestetstraat","highway":"residential","maxspeed":"30","profile":"car","distance":"18174.44","time":"2689.416"}},{"type":"Feature","name":"ShapeMeta","geometry":{"type":"LineString","coordinates":[[4.315956,51.85327],[4.315617,51.854]]},"properties":{"name":"Herman Gorterstraat","highway":"residential","maxspeed":"30","profile":"car","distance":"18259.08","time":"2702.959"}},{"type":"Feature","name":"ShapeMeta","geometry":{"type":"LineString","coordinates":[[4.315617,51.854],[4.315622,51.85399]]},"properties":{"name":"Herman Gorterstraat","highway":"residential","maxspeed":"30","profile":"car","distance":"18260.44","time":"2703.176"}},{"type":"Feature","name":"ShapeMeta","geometry":{"type":"LineString","coordinates":[[4.315622,51.85399],[4.315477,51.85431]]},"properties":{"name":"Herman Gorterstraat","highway":"residential","maxspeed":"30","profile":"car","distance":"18296.65","time":"2708.97"}},{"type":"Feature","name":"ShapeMeta","geometry":{"type":"LineString","coordinates":[[4.315477,51.85431],[4.316307,51.85448],[4.316459,51.8545]]},"properties":{"name":"A M de Jongstraat","highway":"unclassified","maxspeed":"30","profile":"car","distance":"18367.46","time":"2720.299"}},{"type":"Feature","name":"ShapeMeta","geometry":{"type":"LineString","coordinates":[[4.316459,51.8545],[4.316722,51.8539],[4.317019,51.85323],[4.317067,51.85312]]},"properties":{"name":"Winston Churchilllaan","maxspeed":"50","highway":"tertiary","profile":"car","distance":"18526.15","time":"2735.534"}},{"type":"Feature","name":"ShapeMeta","geometry":{"type":"LineString","coordinates":[[4.317067,51.85312],[4.317157,51.85292],[4.317192,51.85284],[4.317275,51.85261]]},"properties":{"name":"Winston Churchilllaan","maxspeed":"50","highway":"tertiary","profile":"car","distance":"18584.76","time":"2741.159"}},{"type":"Feature","name":"ShapeMeta","geometry":{"type":"LineString","coordinates":[[4.317275,51.85261],[4.317325,51.85233]]},"properties":{"name":"Winston Churchilllaan","maxspeed":"50","highway":"tertiary","oneway":"yes","profile":"car","distance":"18616.26","time":"2744.183"}},{"type":"Feature","name":"ShapeMeta","geometry":{"type":"LineString","coordinates":[[4.317325,51.85233],[4.317343,51.85227],[4.317437,51.85209]]},"properties":{"name":"Winston Churchilllaan","maxspeed":"50","highway":"tertiary","oneway":"yes","profile":"car","distance":"18643.65","time":"2746.814"}},{"type":"Feature","name":"ShapeMeta","geometry":{"type":"LineString","coordinates":[[4.317437,51.85209],[4.317519,51.85193]]},"properties":{"name":"Groene Kruisweg","maxspeed":"50","highway":"tertiary","oneway":"yes","profile":"car","distance":"18662.26","time":"2748.599"}},{"type":"Feature","name":"ShapeMeta","geometry":{"type":"LineString","coordinates":[[4.317519,51.85193],[4.317684,51.85196]]},"properties":{"name":"Groene Kruisweg","oneway":"yes","highway":"primary","maxspeed":"80","profile":"car","distance":"18674.05","time":"2749.307"}},{"type":"Feature","name":"ShapeMeta","geometry":{"type":"LineString","coordinates":[[4.317684,51.85196],[4.317936,51.85201]]},"properties":{"name":"Groene Kruisweg","oneway":"yes","highway":"primary","maxspeed":"80","profile":"car","distance":"18691.96","time":"2750.381"}},{"type":"Feature","name":"ShapeMeta","geometry":{"type":"LineString","coordinates":[[4.317936,51.85201],[4.318954,51.85219],[4.319805,51.85235],[4.320251,51.85243]]},"properties":{"name":"Groene Kruisweg","oneway":"yes","highway":"primary","maxspeed":"80","profile":"car","distance":"18857.86","time":"2760.335"}},{"type":"Feature","name":"ShapeMeta","geometry":{"type":"LineString","coordinates":[[4.320251,51.85243],[4.321268,51.85262],[4.321321,51.85263],[4.321667,51.8527]]},"properties":{"name":"Groene Kruisweg","oneway":"yes","highway":"primary","maxspeed":"80","profile":"car","distance":"18959.65","time":"2766.443"}},{"type":"Feature","name":"ShapeMeta","geometry":{"type":"LineString","coordinates":[[4.321667,51.8527],[4.322911,51.85293],[4.323774,51.8531]]},"properties":{"name":"Groene Kruisweg","oneway":"yes","highway":"primary","maxspeed":"80","profile":"car","distance":"19111.05","time":"2775.527"}},{"type":"Feature","name":"ShapeMeta","geometry":{"type":"LineString","coordinates":[[4.323774,51.8531],[4.324452,51.85324],[4.325118,51.85337],[4.325302,51.85341]]},"properties":{"name":"Groene Kruisweg","oneway":"yes","highway":"primary","maxspeed":"80","profile":"car","distance":"19221.46","time":"2782.151"}},{"type":"Feature","name":"ShapeMeta","geometry":{"type":"LineString","coordinates":[[4.325302,51.85341],[4.325532,51.85347]]},"properties":{"name":"Groene Kruisweg","oneway":"yes","highway":"primary","maxspeed":"80","profile":"car","distance":"19238.26","time":"2783.159"}},{"type":"Feature","name":"ShapeMeta","geometry":{"type":"LineString","coordinates":[[4.325532,51.85347],[4.325717,51.85351],[4.326247,51.85362]]},"properties":{"name":"Groene Kruisweg","oneway":"yes","highway":"primary","maxspeed":"80","profile":"car","distance":"19290.26","time":"2786.279"}},{"type":"Feature","name":"ShapeMeta","geometry":{"type":"LineString","coordinates":[[4.326247,51.85362],[4.327086,51.85388],[4.327963,51.85422]]},"properties":{"name":"Groene Kruisweg","oneway":"yes","highway":"primary","maxspeed":"80","profile":"car","distance":"19425.55","time":"2794.397"}},{"type":"Feature","name":"ShapeMeta","geometry":{"type":"LineString","coordinates":[[4.327963,51.85422],[4.328825,51.85459]]},"properties":{"name":"Groene Kruisweg","oneway":"yes","highway":"primary","maxspeed":"80","profile":"car","distance":"19497.66","time":"2798.723"}},{"type":"Feature","name":"ShapeMeta","geometry":{"type":"LineString","coordinates":[[4.328825,51.85459],[4.328936,51.85463],[4.329148,51.85471]]},"properties":{"name":"Groene Kruisweg","oneway":"yes","highway":"primary","maxspeed":"80","profile":"car","distance":"19523.86","time":"2800.295"}},{"type":"Feature","name":"ShapeMeta","geometry":{"type":"LineString","coordinates":[[4.329148,51.85471],[4.329277,51.85458],[4.329472,51.85437],[4.330207,51.8536]]},"properties":{"name":"Schenkelweg","maxspeed":"50","oneway":"yes","highway":"secondary","profile":"car","distance":"19667.46","time":"2814.081"}},{"type":"Feature","name":"ShapeMeta","geometry":{"type":"LineString","coordinates":[[4.330207,51.8536],[4.330581,51.85322]]},"properties":{"name":"Schenkelweg","maxspeed":"50","oneway":"yes","highway":"secondary","profile":"car","distance":"19716.66","time":"2818.804"}},{"type":"Feature","name":"ShapeMeta","geometry":{"type":"LineString","coordinates":[[4.330581,51.85322],[4.330812,51.85296]]},"properties":{"name":"Schenkelweg","maxspeed":"50","oneway":"yes","highway":"secondary","profile":"car","distance":"19749.86","time":"2821.991"}},{"type":"Feature","name":"ShapeMeta","geometry":{"type":"LineString","coordinates":[[4.330812,51.85296],[4.330915,51.85284]]},"properties":{"name":"Schenkelweg","maxspeed":"50","oneway":"yes","highway":"secondary","profile":"car","distance":"19764.76","time":"2823.422"}},{"type":"Feature","name":"ShapeMeta","geometry":{"type":"LineString","coordinates":[[4.330915,51.85284],[4.330772,51.85279]]},"properties":{"name":"Noordeinde","highway":"unclassified","profile":"car","distance":"19775.76","time":"2824.478"}},{"type":"Feature","name":"ShapeMeta","geometry":{"type":"LineString","coordinates":[[4.330772,51.85279],[4.330738,51.85278],[4.330648,51.85275],[4.330449,51.85274]]},"properties":{"name":"Noordeinde","highway":"residential","profile":"car","distance":"19799.16","time":"2826.724"}},{"type":"Feature","name":"ShapeMeta","geometry":{"type":"LineString","coordinates":[[4.330449,51.85274],[4.330255,51.85269]]},"properties":{"name":"Noordeinde","highway":"residential","profile":"car","distance":"19813.36","time":"2828.087"}},{"type":"Feature","name":"ShapeMeta","geometry":{"type":"LineString","coordinates":[[4.330255,51.85269],[4.330145,51.85265]]},"properties":{"name":"Noordeinde","highway":"residential","profile":"car","distance":"19822.39","time":"2828.954"}},{"type":"Feature","name":"ShapeMeta","geometry":{"type":"LineString","coordinates":[[4.330145,51.85265],[4.330255,51.85269]]},"properties":{"name":"Noordeinde","highway":"residential","profile":"car","distance":"19831.42","time":"2829.821"}},{"type":"Feature","name":"ShapeMeta","geometry":{"type":"LineString","coordinates":[[4.330255,51.85269],[4.330449,51.85274]]},"properties":{"name":"Noordeinde","highway":"residential","profile":"car","distance":"19845.62","time":"2831.184"}},{"type":"Feature","name":"ShapeMeta","geometry":{"type":"LineString","coordinates":[[4.330449,51.85274],[4.330648,51.85275],[4.330738,51.85278],[4.330772,51.85279]]},"properties":{"name":"Noordeinde","highway":"residential","profile":"car","distance":"19869.02","time":"2833.431"}},{"type":"Feature","name":"ShapeMeta","geometry":{"type":"LineString","coordinates":[[4.330772,51.85279],[4.330915,51.85284]]},"properties":{"name":"Noordeinde","highway":"unclassified","profile":"car","distance":"19880.02","time":"2834.487"}},{"type":"Feature","name":"ShapeMeta","geometry":{"type":"LineString","coordinates":[[4.330915,51.85284],[4.330986,51.85272],[4.331422,51.85225],[4.332001,51.85176],[4.332529,51.85142]]},"properties":{"name":"Schenkelweg","maxspeed":"50","oneway":"yes","highway":"secondary","profile":"car","distance":"20074.22","time":"2853.13"}},{"type":"Feature","name":"ShapeMeta","geometry":{"type":"LineString","coordinates":[[4.332529,51.85142],[4.332928,51.8512],[4.33375,51.85076]]},"properties":{"name":"Schenkelweg","maxspeed":"50","oneway":"yes","highway":"secondary","profile":"car","distance":"20185.92","time":"2863.853"}},{"type":"Feature","name":"ShapeMeta","geometry":{"type":"LineString","coordinates":[[4.33375,51.85076],[4.33386,51.8507],[4.334012,51.85062]]},"properties":{"name":"Schenkelweg","maxspeed":"50","oneway":"yes","highway":"secondary","profile":"car","distance":"20209.72","time":"2866.138"}},{"type":"Feature","name":"ShapeMeta","geometry":{"type":"LineString","coordinates":[[4.334012,51.85062],[4.334143,51.85055]]},"properties":{"name":"Schenkelweg","maxspeed":"50","oneway":"yes","highway":"secondary","profile":"car","distance":"20221.22","time":"2867.242"}},{"type":"Feature","name":"ShapeMeta","geometry":{"type":"LineString","coordinates":[[4.334143,51.85055],[4.334226,51.85064]]},"properties":{"name":"Elementenweg","highway":"unclassified","oneway":"yes","profile":"car","distance":"20232.12","time":"2868.288"}},{"type":"Feature","name":"ShapeMeta","geometry":{"type":"LineString","coordinates":[[4.334226,51.85064],[4.334346,51.85074]]},"properties":{"name":"Elementenweg","highway":"unclassified","oneway":"yes","profile":"car","distance":"20246.52","time":"2869.671"}},{"type":"Feature","name":"ShapeMeta","geometry":{"type":"LineString","coordinates":[[4.334346,51.85074],[4.334366,51.85076],[4.334819,51.85109],[4.334965,51.85118]]},"properties":{"highway":"unclassified","oneway":"yes","profile":"car","distance":"20311.52","time":"2875.911"}},{"type":"Feature","name":"ShapeMeta","geometry":{"type":"LineString","coordinates":[[4.334965,51.85118],[4.33605,51.85184]]},"properties":{"highway":"unclassified","oneway":"yes","profile":"car","distance":"20415.42","time":"2885.885"}},{"type":"Feature","name":"ShapeMeta","geometry":{"type":"LineString","coordinates":[[4.33605,51.85184],[4.336341,51.85201],[4.336764,51.85226]]},"properties":{"highway":"unclassified","oneway":"yes","profile":"car","distance":"20483.72","time":"2892.442"}},{"type":"Feature","name":"ShapeMeta","geometry":{"type":"LineString","coordinates":[[4.336764,51.85226],[4.33733,51.85252],[4.338604,51.85307],[4.338974,51.85324],[4.339354,51.85344]]},"properties":{"highway":"unclassified","oneway":"yes","profile":"car","distance":"20704.72","time":"2913.658"}},{"type":"Feature","name":"ShapeMeta","geometry":{"type":"LineString","coordinates":[[4.339354,51.85344],[4.339975,51.85371]]},"properties":{"name":"Elementenweg","highway":"unclassified","maxspeed":"30","profile":"car","distance":"20756.62","time":"2921.962"}},{"type":"Feature","name":"ShapeMeta","geometry":{"type":"LineString","coordinates":[[4.339975,51.85371],[4.340118,51.85377],[4.340493,51.85393],[4.340727,51.85402]]},"properties":{"name":"Elementenweg","highway":"unclassified","maxspeed":"30","profile":"car","distance":"20818.92","time":"2931.93"}},{"type":"Feature","name":"ShapeMeta","geometry":{"type":"LineString","coordinates":[[4.340727,51.85402],[4.340813,51.85405]]},"properties":{"name":"Elementenweg","highway":"unclassified","maxspeed":"30","profile":"car","distance":"20825.62","time":"2933.002"}},{"type":"Feature","name":"ShapeMeta","geometry":{"type":"LineString","coordinates":[[4.340813,51.85405],[4.341307,51.85425]]},"properties":{"name":"Elementenweg","highway":"unclassified","maxspeed":"30","profile":"car","distance":"20865.82","time":"2939.434"}},{"type":"Feature","name":"ShapeMeta","geometry":{"type":"LineString","coordinates":[[4.341307,51.85425],[4.341385,51.85418],[4.342306,51.85329],[4.342986,51.8528],[4.343039,51.85276]]},"properties":{"name":"Hongerlandsedijk","highway":"residential","maxspeed":"30","profile":"car","distance":"21070.05","time":"2972.111"}},{"type":"Feature","name":"ShapeMeta","geometry":{"type":"LineString","coordinates":[[4.343039,51.85276],[4.342986,51.8528],[4.342385,51.85323]]},"properties":{"name":"Hongerlandsedijk","highway":"residential","maxspeed":"30","profile":"car","distance":"21138.9","time":"2983.127"}},{"type":"Feature","name":"ShapeMeta","geometry":{"type":"LineString","coordinates":[[4.342385,51.85323],[4.342306,51.85329],[4.342105,51.85348]]},"properties":{"name":"Hongerlandsedijk","highway":"residential","maxspeed":"30","profile":"car","distance":"21172.97","time":"2988.578"}},{"type":"Feature","name":"ShapeMeta","geometry":{"type":"LineString","coordinates":[[4.342105,51.85348],[4.341425,51.85414]]},"properties":{"name":"Hongerlandsedijk","highway":"residential","maxspeed":"30","profile":"car","distance":"21259.88","time":"3002.482"}},{"type":"Feature","name":"ShapeMeta","geometry":{"type":"LineString","coordinates":[[4.341425,51.85414],[4.342306,51.85329],[4.342986,51.8528],[4.343447,51.85246]]},"properties":{"name":"Hongerlandsedijk","highway":"residential","maxspeed":"30","profile":"car","distance":"21493.37","time":"3039.841"}},{"type":"Feature","name":"ShapeMeta","geometry":{"type":"LineString","coordinates":[[4.343447,51.85246],[4.343739,51.85225],[4.343954,51.8521]]},"properties":{"name":"Hongerlandsedijk","highway":"residential","maxspeed":"30","profile":"car","distance":"21546.82","time":"3048.392"}},{"type":"Feature","name":"ShapeMeta","geometry":{"type":"LineString","coordinates":[[4.343954,51.8521],[4.344532,51.85169],[4.344573,51.85167]]},"properties":{"name":"Hongerlandsedijk","highway":"residential","maxspeed":"30","profile":"car","distance":"21610.78","time":"3058.625"}},{"type":"Feature","name":"ShapeMeta","geometry":{"type":"LineString","coordinates":[[4.344573,51.85167],[4.34355,51.85109],[4.342261,51.85032],[4.341409,51.84985],[4.340407,51.84923]]},"properties":{"name":"Oude Maasweg","highway":"unclassified","maxspeed":"30","profile":"car","distance":"22004.98","time":"3121.697"}},{"type":"Feature","name":"ShapeMeta","geometry":{"type":"LineString","coordinates":[[4.340407,51.84923],[4.339965,51.84892],[4.339923,51.84883],[4.339904,51.84874]]},"properties":{"name":"Oude Maasweg","highway":"unclassified","maxspeed":"30","profile":"car","distance":"22071.08","time":"3132.273"}},{"type":"Feature","name":"ShapeMeta","geometry":{"type":"LineString","coordinates":[[4.339904,51.84874],[4.339995,51.84884],[4.340555,51.84919],[4.341516,51.84979]]},"properties":{"name":"Groenoordweg","highway":"service","oneway":"yes","profile":"car","distance":"22232.28","time":"3158.065"}},{"type":"Feature","name":"ShapeMeta","geometry":{"type":"LineString","coordinates":[[4.341516,51.84979],[4.341672,51.8497],[4.341758,51.84961]]},"properties":{"name":"Theemsweg","highway":"residential","profile":"car","distance":"22258.38","time":"3160.571"}},{"type":"Feature","name":"ShapeMeta","geometry":{"type":"LineString","coordinates":[[4.341758,51.84961],[4.341951,51.84973],[4.34205,51.84979]]},"properties":{"name":"Groenoord","highway":"residential","profile":"car","distance":"22286.58","time":"3163.278"}},{"type":"Feature","name":"ShapeMeta","geometry":{"type":"LineString","coordinates":[[4.34205,51.84979],[4.342212,51.84968]]},"properties":{"name":"Groenoord","highway":"residential","profile":"car","distance":"22302.93","time":"3164.848"}},{"type":"Feature","name":"ShapeMeta","geometry":{"type":"LineString","coordinates":[[4.342212,51.84968],[4.34225,51.84966],[4.34311,51.84925],[4.343237,51.84914]]},"properties":{"name":"Groenoord","highway":"residential","profile":"car","distance":"22395.97","time":"3173.78"}},{"type":"Feature","name":"ShapeMeta","geometry":{"type":"LineString","coordinates":[[4.343237,51.84914],[4.343457,51.84892]]},"properties":{"name":"Groenoord","highway":"residential","profile":"car","distance":"22424.77","time":"3176.545"}},{"type":"Feature","name":"ShapeMeta","geometry":{"type":"LineString","coordinates":[[4.343457,51.84892],[4.34341,51.84889]]},"properties":{"name":"Groenoord","highway":"residential","profile":"car","distance":"22429.23","time":"3176.973"}},{"type":"Feature","name":"ShapeMeta","geometry":{"type":"LineString","coordinates":[[4.34341,51.84889],[4.343182,51.84875]]},"properties":{"name":"Groenoord","highway":"residential","profile":"car","distance":"22450.97","time":"3179.06"}},{"type":"Feature","name":"ShapeMeta","geometry":{"type":"LineString","coordinates":[[4.343182,51.84875],[4.3428,51.8485],[4.342572,51.84838],[4.342422,51.84838],[4.339931,51.84838]]},"properties":{"name":"Theemsweg","highway":"residential","profile":"car","distance":"22691.37","time":"3202.138"}},{"type":"Feature","name":"ShapeMeta","geometry":{"type":"LineString","coordinates":[[4.339931,51.84838],[4.339941,51.84828],[4.339942,51.84821]]},"properties":{"name":"Oude Maasweg","highway":"unclassified","profile":"car","distance":"22710.47","time":"3203.972"}},{"type":"Feature","name":"ShapeMeta","geometry":{"type":"LineString","coordinates":[[4.339942,51.84821],[4.339949,51.84815]]},"properties":{"name":"Oude Maasweg","highway":"unclassified","profile":"car","distance":"22716.77","time":"3204.577"}},{"type":"Feature","name":"ShapeMeta","geometry":{"type":"LineString","coordinates":[[4.339949,51.84815],[4.340119,51.84816],[4.34066,51.84815],[4.341011,51.84818]]},"properties":{"name":"Donaulaan","highway":"unclassified","maxspeed":"50","oneway":"yes","profile":"car","distance":"22789.77","time":"3211.585"}},{"type":"Feature","name":"ShapeMeta","geometry":{"type":"LineString","coordinates":[[4.341011,51.84818],[4.341807,51.84818]]},"properties":{"name":"Donaulaan","highway":"unclassified","maxspeed":"50","profile":"car","distance":"22844.47","time":"3216.836"}},{"type":"Feature","name":"ShapeMeta","geometry":{"type":"LineString","coordinates":[[4.341807,51.84818],[4.342482,51.84818],[4.342893,51.84793]]},"properties":{"name":"Donaulaan","highway":"unclassified","maxspeed":"50","profile":"car","distance":"22929.97","time":"3225.044"}},{"type":"Feature","name":"ShapeMeta","geometry":{"type":"LineString","coordinates":[[4.342893,51.84793],[4.343564,51.84751]]},"properties":{"name":"Donaulaan","highway":"unclassified","maxspeed":"50","profile":"car","distance":"22995.47","time":"3231.332"}},{"type":"Feature","name":"ShapeMeta","geometry":{"type":"LineString","coordinates":[[4.343564,51.84751],[4.3439,51.8473],[4.344078,51.8472]]},"properties":{"name":"Donaulaan","highway":"unclassified","maxspeed":"50","profile":"car","distance":"23044.77","time":"3236.065"}},{"type":"Feature","name":"ShapeMeta","geometry":{"type":"LineString","coordinates":[[4.344078,51.8472],[4.344829,51.8472]]},"properties":{"name":"Donaulaan","highway":"unclassified","maxspeed":"50","profile":"car","distance":"23096.27","time":"3241.009"}},{"type":"Feature","name":"ShapeMeta","geometry":{"type":"LineString","coordinates":[[4.344829,51.8472],[4.344827,51.84712],[4.344827,51.84711]]},"properties":{"name":"Donaulaan","highway":"residential","profile":"car","distance":"23106.86","time":"3242.025"}},{"type":"Feature","name":"ShapeMeta","geometry":{"type":"LineString","coordinates":[[4.344827,51.84711],[4.344827,51.84712],[4.344829,51.8472]]},"properties":{"name":"Donaulaan","highway":"residential","profile":"car","distance":"23117.45","time":"3243.041"}},{"type":"Feature","name":"ShapeMeta","geometry":{"type":"LineString","coordinates":[[4.344829,51.8472],[4.345412,51.8472],[4.345974,51.8472],[4.3461,51.8472]]},"properties":{"name":"Donaulaan","highway":"unclassified","maxspeed":"50","profile":"car","distance":"23204.64","time":"3251.412"}},{"type":"Feature","name":"ShapeMeta","geometry":{"type":"LineString","coordinates":[[4.3461,51.8472],[4.346646,51.84721]]},"properties":{"name":"Donaulaan","highway":"unclassified","maxspeed":"50","profile":"car","distance":"23242.14","time":"3255.012"}},{"type":"Feature","name":"ShapeMeta","geometry":{"type":"LineString","coordinates":[[4.346646,51.84721],[4.346645,51.84713]]},"properties":{"highway":"living_street","profile":"car","distance":"23251.85","time":"3264.324"}},{"type":"Feature","name":"ShapeMeta","geometry":{"type":"LineString","coordinates":[[4.346645,51.84713],[4.346697,51.84676],[4.347717,51.8461]]},"properties":{"name":"Amstelstraat","highway":"residential","profile":"car","distance":"23394.06","time":"3277.977"}},{"type":"Feature","name":"ShapeMeta","geometry":{"type":"LineString","coordinates":[[4.347717,51.8461],[4.346697,51.84676],[4.346645,51.84713]]},"properties":{"name":"Amstelstraat","highway":"residential","profile":"car","distance":"23536.28","time":"3291.63"}},{"type":"Feature","name":"ShapeMeta","geometry":{"type":"LineString","coordinates":[[4.346645,51.84713],[4.346646,51.84721]]},"properties":{"highway":"living_street","profile":"car","distance":"23545.97","time":"3300.942"}},{"type":"Feature","name":"ShapeMeta","geometry":{"type":"LineString","coordinates":[[4.346646,51.84721],[4.347544,51.84721]]},"properties":{"name":"Donaulaan","highway":"unclassified","maxspeed":"50","profile":"car","distance":"23607.58","time":"3306.855"}},{"type":"Feature","name":"ShapeMeta","geometry":{"type":"LineString","coordinates":[[4.347544,51.84721],[4.348893,51.84723]]},"properties":{"name":"Donaulaan","highway":"unclassified","maxspeed":"50","profile":"car","distance":"23700.18","time":"3315.745"}},{"type":"Feature","name":"ShapeMeta","geometry":{"type":"LineString","coordinates":[[4.348893,51.84723],[4.348896,51.84728]]},"properties":{"name":"Biesboschstraat","highway":"living_street","profile":"car","distance":"23706.47","time":"3321.793"}},{"type":"Feature","name":"ShapeMeta","geometry":{"type":"LineString","coordinates":[[4.348896,51.84728],[4.3489,51.8479]]},"properties":{"name":"Amerstraat","highway":"living_street","profile":"car","distance":"23775.18","time":"3387.745"}},{"type":"Feature","name":"ShapeMeta","geometry":{"type":"LineString","coordinates":[[4.3489,51.8479],[4.3489,51.8481]]},"properties":{"name":"Biesboschstraat","highway":"living_street","profile":"car","distance":"23797.23","time":"3408.915"}},{"type":"Feature","name":"ShapeMeta","geometry":{"type":"LineString","coordinates":[[4.3489,51.8481],[4.3489,51.8481],[4.347548,51.8481]]},"properties":{"name":"Biesboschstraat","highway":"living_street","profile":"car","distance":"23890.07","time":"3498.043"}},{"type":"Feature","name":"Stop","Shape":"0","geometry":{"type":"Point","coordinates":[4.347548,51.84808]},"properties":{"index":"45","distance":"0","time":"0"}},{"type":"Feature","name":"Stop","Shape":"19","geometry":{"type":"Point","coordinates":[4.34875,51.84561]},"properties":{"index":"94","distance":"597.6601","time":"221.4438"}},{"type":"Feature","name":"Stop","Shape":"30","geometry":{"type":"Point","coordinates":[4.351639,51.84633]},"properties":{"index":"95","distance":"893.1762","time":"249.8134"}},{"type":"Feature","name":"Stop","Shape":"38","geometry":{"type":"Point","coordinates":[4.3579,51.84365]},"properties":{"index":"97","distance":"1442.887","time":"315.1079"}},{"type":"Feature","name":"Stop","Shape":"42","geometry":{"type":"Point","coordinates":[4.355392,51.84453]},"properties":{"index":"98","distance":"1639.169","time":"346.4732"}},{"type":"Feature","name":"Stop","Shape":"47","geometry":{"type":"Point","coordinates":[4.353306,51.84566]},"properties":{"index":"96","distance":"1856.052","time":"367.2939"}},{"type":"Feature","name":"Stop","Shape":"56","geometry":{"type":"Point","coordinates":[4.349674,51.84666]},"properties":{"index":"93","distance":"2165.2","time":"398.9787"}},{"type":"Feature","name":"Stop","Shape":"65","geometry":{"type":"Point","coordinates":[4.347611,51.84736]},"properties":{"index":"92","distance":"2374.748","time":"425.6199"}},{"type":"Feature","name":"Stop","Shape":"73","geometry":{"type":"Point","coordinates":[4.34575,51.84611]},"properties":{"index":"44","distance":"2620.865","time":"458.2209"}},{"type":"Feature","name":"Stop","Shape":"78","geometry":{"type":"Point","coordinates":[4.344944,51.84552]},"properties":{"index":"88","distance":"2753.903","time":"479.507"}},{"type":"Feature","name":"Stop","Shape":"85","geometry":{"type":"Point","coordinates":[4.342411,51.84598]},"properties":{"index":"89","distance":"2986.125","time":"516.6624"}},{"type":"Feature","name":"Stop","Shape":"99","geometry":{"type":"Point","coordinates":[4.341333,51.8475]},"properties":{"index":"43","distance":"3415.747","time":"571.9043"}},{"type":"Feature","name":"Stop","Shape":"183","geometry":{"type":"Point","coordinates":[4.334539,51.84207]},"properties":{"index":"50","distance":"4951.249","time":"734.8939"}},{"type":"Feature","name":"Stop","Shape":"188","geometry":{"type":"Point","coordinates":[4.333399,51.84276]},"properties":{"index":"51","distance":"5084.213","time":"862.5394"}},{"type":"Feature","name":"Stop","Shape":"229","geometry":{"type":"Point","coordinates":[4.333,51.84378]},"properties":{"index":"180","distance":"6103.684","time":"1080.063"}},{"type":"Feature","name":"Stop","Shape":"233","geometry":{"type":"Point","coordinates":[4.3335,51.84505]},"properties":{"index":"179","distance":"6292.895","time":"1098.227"}},{"type":"Feature","name":"Stop","Shape":"237","geometry":{"type":"Point","coordinates":[4.33475,51.84447]},"properties":{"index":"178","distance":"6393.667","time":"1107.901"}},{"type":"Feature","name":"Stop","Shape":"242","geometry":{"type":"Point","coordinates":[4.334778,51.84566]},"properties":{"index":"177","distance":"6565.155","time":"1128.485"}},{"type":"Feature","name":"Stop","Shape":"246","geometry":{"type":"Point","coordinates":[4.336056,51.84514]},"properties":{"index":"176","distance":"6671.427","time":"1145.489"}},{"type":"Feature","name":"Stop","Shape":"252","geometry":{"type":"Point","coordinates":[4.33736,51.84447]},"properties":{"index":"175","distance":"6784.891","time":"1163.403"}},{"type":"Feature","name":"Stop","Shape":"260","geometry":{"type":"Point","coordinates":[4.339583,51.84489]},"properties":{"index":"174","distance":"7009.996","time":"1198.447"}},{"type":"Feature","name":"Stop","Shape":"266","geometry":{"type":"Point","coordinates":[4.33772,51.84556]},"properties":{"index":"173","distance":"7183.39","time":"1229.381"}},{"type":"Feature","name":"Stop","Shape":"300","geometry":{"type":"Point","coordinates":[4.332752,51.8494]},"properties":{"index":"169","distance":"7899.33","time":"1312.4"}},{"type":"Feature","name":"Stop","Shape":"310","geometry":{"type":"Point","coordinates":[4.33203,51.85001]},"properties":{"index":"170","distance":"8067.626","time":"1332.473"}},{"type":"Feature","name":"Stop","Shape":"322","geometry":{"type":"Point","coordinates":[4.331289,51.85082]},"properties":{"index":"36","distance":"8251.524","time":"1361.897"}},{"type":"Feature","name":"Stop","Shape":"335","geometry":{"type":"Point","coordinates":[4.33099,51.85031]},"properties":{"index":"37","distance":"8482.124","time":"1398.793"}},{"type":"Feature","name":"Stop","Shape":"349","geometry":{"type":"Point","coordinates":[4.328699,51.85125]},"properties":{"index":"29","distance":"8788.847","time":"1447.869"}},{"type":"Feature","name":"Stop","Shape":"351","geometry":{"type":"Point","coordinates":[4.32871,51.85124]},"properties":{"index":"30","distance":"8789.794","time":"1448.021"}},{"type":"Feature","name":"Stop","Shape":"370","geometry":{"type":"Point","coordinates":[4.32662,51.84939]},"properties":{"index":"28","distance":"9070.538","time":"1482.201"}},{"type":"Feature","name":"Stop","Shape":"394","geometry":{"type":"Point","coordinates":[4.32958,51.85055]},"properties":{"index":"33","distance":"9452.362","time":"1532.554"}},{"type":"Feature","name":"Stop","Shape":"400","geometry":{"type":"Point","coordinates":[4.330974,51.85119]},"properties":{"index":"34","distance":"9604.488","time":"1552.099"}},{"type":"Feature","name":"Stop","Shape":"401","geometry":{"type":"Point","coordinates":[4.330963,51.8512]},"properties":{"index":"35","distance":"9605.335","time":"1552.18"}},{"type":"Feature","name":"Stop","Shape":"408","geometry":{"type":"Point","coordinates":[4.329404,51.85046]},"properties":{"index":"31","distance":"9789.018","time":"1576.719"}},{"type":"Feature","name":"Stop","Shape":"410","geometry":{"type":"Point","coordinates":[4.32958,51.85055]},"properties":{"index":"32","distance":"9819.728","time":"1581.633"}},{"type":"Feature","name":"Stop","Shape":"431","geometry":{"type":"Point","coordinates":[4.330801,51.84913]},"properties":{"index":"1","distance":"10267.61","time":"1639.713"}},{"type":"Feature","name":"Stop","Shape":"444","geometry":{"type":"Point","coordinates":[4.329151,51.84929]},"properties":{"index":"168","distance":"10486.06","time":"1661.701"}},{"type":"Feature","name":"Stop","Shape":"445","geometry":{"type":"Point","coordinates":[4.32926,51.84949]},"properties":{"index":"167","distance":"10505.6","time":"1663.577"}},{"type":"Feature","name":"Stop","Shape":"456","geometry":{"type":"Point","coordinates":[4.327262,51.84854]},"properties":{"index":"0","distance":"10920.42","time":"1712.144"}},{"type":"Feature","name":"Stop","Shape":"470","geometry":{"type":"Point","coordinates":[4.325234,51.8498]},"properties":{"index":"166","distance":"11184.4","time":"1754.38"}},{"type":"Feature","name":"Stop","Shape":"480","geometry":{"type":"Point","coordinates":[4.323657,51.84894]},"properties":{"index":"165","distance":"11370.71","time":"1780.491"}},{"type":"Feature","name":"Stop","Shape":"491","geometry":{"type":"Point","coordinates":[4.324408,51.84981]},"properties":{"index":"27","distance":"11760.58","time":"1829.559"}},{"type":"Feature","name":"Stop","Shape":"511","geometry":{"type":"Point","coordinates":[4.32483,51.85242]},"properties":{"index":"26","distance":"12208.8","time":"1880.8"}},{"type":"Feature","name":"Stop","Shape":"538","geometry":{"type":"Point","coordinates":[4.316804,51.85365]},"properties":{"index":"3","distance":"13119.16","time":"1947.883"}},{"type":"Feature","name":"Stop","Shape":"553","geometry":{"type":"Point","coordinates":[4.316559,51.85595]},"properties":{"index":"4","distance":"13516.66","time":"1989.454"}},{"type":"Feature","name":"Stop","Shape":"572","geometry":{"type":"Point","coordinates":[4.314584,51.8553]},"properties":{"index":"6","distance":"14050.2","time":"2057.956"}},{"type":"Feature","name":"Stop","Shape":"574","geometry":{"type":"Point","coordinates":[4.315077,51.85455]},"properties":{"index":"5","distance":"14144.76","time":"2073.085"}},{"type":"Feature","name":"Stop","Shape":"579","geometry":{"type":"Point","coordinates":[4.314807,51.85614]},"properties":{"index":"7","distance":"14348.78","time":"2105.728"}},{"type":"Feature","name":"Stop","Shape":"586","geometry":{"type":"Point","coordinates":[4.313155,51.85436]},"properties":{"index":"18","distance":"14620.5","time":"2145.336"}},{"type":"Feature","name":"Stop","Shape":"589","geometry":{"type":"Point","coordinates":[4.312361,51.85533]},"properties":{"index":"17","distance":"14741.11","time":"2157.368"}},{"type":"Feature","name":"Stop","Shape":"594","geometry":{"type":"Point","coordinates":[4.313437,51.85707]},"properties":{"index":"16","distance":"15025.29","time":"2198.568"}},{"type":"Feature","name":"Stop","Shape":"597","geometry":{"type":"Point","coordinates":[4.311151,51.85653]},"properties":{"index":"9","distance":"15212.21","time":"2228.475"}},{"type":"Feature","name":"Stop","Shape":"602","geometry":{"type":"Point","coordinates":[4.310231,51.85749]},"properties":{"index":"10","distance":"15340.87","time":"2249.061"}},{"type":"Feature","name":"Stop","Shape":"610","geometry":{"type":"Point","coordinates":[4.312275,51.85863]},"properties":{"index":"15","distance":"15587.07","time":"2288.453"}},{"type":"Feature","name":"Stop","Shape":"619","geometry":{"type":"Point","coordinates":[4.308912,51.85757]},"properties":{"index":"11","distance":"15892.59","time":"2337.335"}},{"type":"Feature","name":"Stop","Shape":"628","geometry":{"type":"Point","coordinates":[4.306557,51.85662]},"properties":{"index":"13","distance":"16133.98","time":"2375.957"}},{"type":"Feature","name":"Stop","Shape":"633","geometry":{"type":"Point","coordinates":[4.308197,51.85633]},"properties":{"index":"12","distance":"16289.96","time":"2400.913"}},{"type":"Feature","name":"Stop","Shape":"636","geometry":{"type":"Point","coordinates":[4.308828,51.85566]},"properties":{"index":"14","distance":"16380.98","time":"2415.476"}},{"type":"Feature","name":"Stop","Shape":"645","geometry":{"type":"Point","coordinates":[4.31295,51.856]},"properties":{"index":"8","distance":"16747.96","time":"2465.552"}},{"type":"Feature","name":"Stop","Shape":"658","geometry":{"type":"Point","coordinates":[4.310591,51.85429]},"properties":{"index":"19","distance":"17151.33","time":"2525.719"}},{"type":"Feature","name":"Stop","Shape":"669","geometry":{"type":"Point","coordinates":[4.309917,51.85264]},"properties":{"index":"20","distance":"17521.79","time":"2584.992"}},{"type":"Feature","name":"Stop","Shape":"674","geometry":{"type":"Point","coordinates":[4.311972,51.85228]},"properties":{"index":"21","distance":"17719.38","time":"2616.606"}},{"type":"Feature","name":"Stop","Shape":"683","geometry":{"type":"Point","coordinates":[4.314861,51.85225]},"properties":{"index":"22","distance":"17982.1","time":"2658.641"}},{"type":"Feature","name":"Stop","Shape":"686","geometry":{"type":"Point","coordinates":[4.315224,51.85316]},"properties":{"index":"23","distance":"18122.64","time":"2681.128"}},{"type":"Feature","name":"Stop","Shape":"688","geometry":{"type":"Point","coordinates":[4.315526,51.85396]},"properties":{"index":"25","distance":"18259.08","time":"2702.959"}},{"type":"Feature","name":"Stop","Shape":"689","geometry":{"type":"Point","coordinates":[4.315493,51.85392]},"properties":{"index":"24","distance":"18260.44","time":"2703.176"}},{"type":"Feature","name":"Stop","Shape":"735","geometry":{"type":"Point","coordinates":[4.33011,51.85273]},"properties":{"index":"2","distance":"19822.39","time":"2828.954"}},{"type":"Feature","name":"Stop","Shape":"772","geometry":{"type":"Point","coordinates":[4.342957,51.85265]},"properties":{"index":"41","distance":"21070.05","time":"2972.111"}},{"type":"Feature","name":"Stop","Shape":"774","geometry":{"type":"Point","coordinates":[4.342323,51.85313]},"properties":{"index":"40","distance":"21138.9","time":"2983.127"}},{"type":"Feature","name":"Stop","Shape":"776","geometry":{"type":"Point","coordinates":[4.342041,51.85342]},"properties":{"index":"39","distance":"21172.97","time":"2988.578"}},{"type":"Feature","name":"Stop","Shape":"777","geometry":{"type":"Point","coordinates":[4.341386,51.8541]},"properties":{"index":"38","distance":"21259.88","time":"3002.482"}},{"type":"Feature","name":"Stop","Shape":"782","geometry":{"type":"Point","coordinates":[4.343845,51.85194]},"properties":{"index":"42","distance":"21546.82","time":"3048.392"}},{"type":"Feature","name":"Stop","Shape":"799","geometry":{"type":"Point","coordinates":[4.342278,51.84978]},"properties":{"index":"171","distance":"22302.93","time":"3164.848"}},{"type":"Feature","name":"Stop","Shape":"804","geometry":{"type":"Point","coordinates":[4.343444,51.84883]},"properties":{"index":"172","distance":"22429.23","time":"3176.973"}},{"type":"Feature","name":"Stop","Shape":"824","geometry":{"type":"Point","coordinates":[4.3449,51.84711]},"properties":{"index":"90","distance":"23106.86","time":"3242.025"}},{"type":"Feature","name":"Stop","Shape":"833","geometry":{"type":"Point","coordinates":[4.347722,51.84611]},"properties":{"index":"91","distance":"23394.06","time":"3277.977"}},{"type":"Feature","name":"Stop","Shape":"841","geometry":{"type":"Point","coordinates":[4.348944,51.84811]},"properties":{"index":"46","distance":"23797.23","time":"3408.915"}},{"type":"Feature","name":"Stop","Shape":"843","geometry":{"type":"Point","coordinates":[4.347548,51.84808]},"properties":{"index":"45","distance":"23890.07","time":"3498.043"}}]}