{"type":"FeatureCollection","features":[{"type":"Feature","name":"ShapeMeta","geometry":{"type":"LineString","coordinates":[[4.329581,51.85059],[4.33042,51.85056]]},"properties":{"name":"Gorsstraat","highway":"residential","maxspeed":"30","profile":"car","distance":"57.79512","time":"9.247219"}},{"type":"Feature","name":"ShapeMeta","geometry":{"type":"LineString","coordinates":[[4.33042,51.85056],[4.330701,51.85053]]},"properties":{"name":"Gorsstraat","highway":"residential","maxspeed":"30","profile":"car","distance":"77.19512","time":"12.35122"}},{"type":"Feature","name":"ShapeMeta","geometry":{"type":"LineString","coordinates":[[4.330701,51.85053],[4.331225,51.85048],[4.331476,51.85044],[4.331715,51.85038]]},"properties":{"name":"Gorsstraat","highway":"residential","maxspeed":"30","profile":"car","distance":"148.9951","time":"23.83922"}},{"type":"Feature","name":"ShapeMeta","geometry":{"type":"LineString","coordinates":[[4.331715,51.85038],[4.332108,51.85028]]},"properties":{"name":"Gorsstraat","highway":"residential","maxspeed":"30","profile":"car","distance":"178.3951","time":"28.54322"}},{"type":"Feature","name":"ShapeMeta","geometry":{"type":"LineString","coordinates":[[4.332108,51.85028],[4.332226,51.85023]]},"properties":{"name":"Gorsstraat","highway":"residential","maxspeed":"30","profile":"car","distance":"187.6951","time":"30.03122"}},{"type":"Feature","name":"ShapeMeta","geometry":{"type":"LineString","coordinates":[[4.332226,51.85023],[4.332641,51.8501]]},"properties":{"name":"Gorsstraat","highway":"residential","maxspeed":"30","profile":"car","distance":"219.7951","time":"35.16722"}},{"type":"Feature","name":"ShapeMeta","geometry":{"type":"LineString","coordinates":[[4.332641,51.8501],[4.332908,51.84991]]},"properties":{"name":"Gorsstraat","highway":"residential","oneway":"yes","profile":"car","distance":"247.3951","time":"37.81682"}},{"type":"Feature","name":"ShapeMeta","geometry":{"type":"LineString","coordinates":[[4.332908,51.84991],[4.333076,51.84983]]},"properties":{"name":"Gorsstraat","highway":"residential","oneway":"yes","profile":"car","distance":"262.4951","time":"39.26642"}},{"type":"Feature","name":"ShapeMeta","geometry":{"type":"LineString","coordinates":[[4.333076,51.84983],[4.33317,51.84978]]},"properties":{"name":"Thorbeckelaan","highway":"residential","oneway":"yes","profile":"car","distance":"270.4951","time":"40.03442"}},{"type":"Feature","name":"ShapeMeta","geometry":{"type":"LineString","coordinates":[[4.33317,51.84978],[4.333248,51.84985]]},"properties":{"name":"Doctor J M den Uyllaan","highway":"unclassified","maxspeed":"50","oneway":"yes","profile":"car","distance":"279.7951","time":"40.92722"}},{"type":"Feature","name":"ShapeMeta","geometry":{"type":"LineString","coordinates":[[4.333248,51.84985],[4.333386,51.84996]]},"properties":{"name":"Doctor J M den Uyllaan","highway":"unclassified","maxspeed":"50","oneway":"yes","profile":"car","distance":"294.9951","time":"42.38642"}},{"type":"Feature","name":"ShapeMeta","geometry":{"type":"LineString","coordinates":[[4.333386,51.84996],[4.333924,51.8504],[4.333994,51.85045],[4.334143,51.85055]]},"properties":{"name":"Doctor J M den Uyllaan","highway":"unclassified","maxspeed":"50","oneway":"yes","profile":"car","distance":"378.7951","time":"50.43122"}},{"type":"Feature","name":"ShapeMeta","geometry":{"type":"LineString","coordinates":[[4.334143,51.85055],[4.334226,51.85064]]},"properties":{"name":"Elementenweg","highway":"unclassified","oneway":"yes","profile":"car","distance":"389.6951","time":"51.47762"}},{"type":"Feature","name":"ShapeMeta","geometry":{"type":"LineString","coordinates":[[4.334226,51.85064],[4.334346,51.85074]]},"properties":{"name":"Elementenweg","highway":"unclassified","oneway":"yes","profile":"car","distance":"404.0951","time":"52.86002"}},{"type":"Feature","name":"ShapeMeta","geometry":{"type":"LineString","coordinates":[[4.334346,51.85074],[4.334366,51.85076],[4.334819,51.85109],[4.334965,51.85118]]},"properties":{"highway":"unclassified","oneway":"yes","profile":"car","distance":"469.0951","time":"59.10002"}},{"type":"Feature","name":"ShapeMeta","geometry":{"type":"LineString","coordinates":[[4.334965,51.85118],[4.33605,51.85184]]},"properties":{"highway":"unclassified","oneway":"yes","profile":"car","distance":"572.9951","time":"69.07442"}},{"type":"Feature","name":"ShapeMeta","geometry":{"type":"LineString","coordinates":[[4.33605,51.85184],[4.336341,51.85201],[4.336764,51.85226]]},"properties":{"highway":"unclassified","oneway":"yes","profile":"car","distance":"641.2951","time":"75.63122"}},{"type":"Feature","name":"ShapeMeta","geometry":{"type":"LineString","coordinates":[[4.336764,51.85226],[4.33733,51.85252],[4.338604,51.85307],[4.338974,51.85324],[4.339354,51.85344]]},"properties":{"highway":"unclassified","oneway":"yes","profile":"car","distance":"862.2951","time":"96.84721"}},{"type":"Feature","name":"ShapeMeta","geometry":{"type":"LineString","coordinates":[[4.339354,51.85344],[4.339975,51.85371]]},"properties":{"name":"Elementenweg","highway":"unclassified","maxspeed":"30","profile":"car","distance":"914.1951","time":"105.1512"}},{"type":"Feature","name":"ShapeMeta","geometry":{"type":"LineString","coordinates":[[4.339975,51.85371],[4.340118,51.85377],[4.340493,51.85393],[4.340727,51.85402]]},"properties":{"name":"Elementenweg","highway":"unclassified","maxspeed":"30","profile":"car","distance":"976.4951","time":"115.1192"}},{"type":"Feature","name":"ShapeMeta","geometry":{"type":"LineString","coordinates":[[4.340727,51.85402],[4.340813,51.85405]]},"properties":{"name":"Elementenweg","highway":"unclassified","maxspeed":"30","profile":"car","distance":"983.1951","time":"116.1912"}},{"type":"Feature","name":"ShapeMeta","geometry":{"type":"LineString","coordinates":[[4.340813,51.85405],[4.341307,51.85425]]},"properties":{"name":"Elementenweg","highway":"unclassified","maxspeed":"30","profile":"car","distance":"1023.395","time":"122.6232"}},{"type":"Feature","name":"ShapeMeta","geometry":{"type":"LineString","coordinates":[[4.341307,51.85425],[4.341385,51.85418],[4.341425,51.85414]]},"properties":{"name":"Hongerlandsedijk","highway":"residential","maxspeed":"30","profile":"car","distance":"1037.803","time":"124.9285"}},{"type":"Feature","name":"ShapeMeta","geometry":{"type":"LineString","coordinates":[[4.341425,51.85414],[4.342105,51.85348]]},"properties":{"name":"Hongerlandsedijk","highway":"residential","maxspeed":"30","profile":"car","distance":"1124.707","time":"318.8331"}},{"type":"Feature","name":"ShapeMeta","geometry":{"type":"LineString","coordinates":[[4.342105,51.85348],[4.342306,51.85329],[4.342986,51.8528],[4.343447,51.85246]]},"properties":{"name":"Hongerlandsedijk","highway":"residential","maxspeed":"30","profile":"car","distance":"1271.295","time":"522.2871"}},{"type":"Feature","name":"ShapeMeta","geometry":{"type":"LineString","coordinates":[[4.343447,51.85246],[4.343739,51.85225],[4.343954,51.8521]]},"properties":{"name":"Hongerlandsedijk","highway":"residential","maxspeed":"30","profile":"car","distance":"1324.738","time":"530.838"}},{"type":"Feature","name":"ShapeMeta","geometry":{"type":"LineString","coordinates":[[4.343954,51.8521],[4.343739,51.85225],[4.343447,51.85246]]},"properties":{"name":"Hongerlandsedijk","highway":"residential","maxspeed":"30","profile":"car","distance":"1378.181","time":"719.3889"}},{"type":"Feature","name":"ShapeMeta","geometry":{"type":"LineString","coordinates":[[4.343447,51.85246],[4.342986,51.8528],[4.342385,51.85323]]},"properties":{"name":"Hongerlandsedijk","highway":"residential","maxspeed":"30","profile":"car","distance":"1490.702","time":"737.3922"}},{"type":"Feature","name":"ShapeMeta","geometry":{"type":"LineString","coordinates":[[4.342385,51.85323],[4.342986,51.8528],[4.343039,51.85276]]},"properties":{"name":"Hongerlandsedijk","highway":"residential","maxspeed":"30","profile":"car","distance":"1559.555","time":"928.4087"}},{"type":"Feature","name":"ShapeMeta","geometry":{"type":"LineString","coordinates":[[4.343039,51.85276],[4.342986,51.8528],[4.342306,51.85329],[4.341385,51.85418],[4.341307,51.85425]]},"properties":{"name":"Hongerlandsedijk","highway":"residential","maxspeed":"30","profile":"car","distance":"1763.787","time":"1141.086"}},{"type":"Feature","name":"ShapeMeta","geometry":{"type":"LineString","coordinates":[[4.341307,51.85425],[4.340813,51.85405]]},"properties":{"name":"Elementenweg","highway":"unclassified","maxspeed":"30","profile":"car","distance":"1803.987","time":"1147.518"}},{"type":"Feature","name":"ShapeMeta","geometry":{"type":"LineString","coordinates":[[4.340813,51.85405],[4.340727,51.85402]]},"properties":{"name":"Elementenweg","highway":"unclassified","maxspeed":"30","profile":"car","distance":"1810.688","time":"1148.59"}},{"type":"Feature","name":"ShapeMeta","geometry":{"type":"LineString","coordinates":[[4.340727,51.85402],[4.340493,51.85393],[4.340118,51.85377],[4.339975,51.85371]]},"properties":{"name":"Elementenweg","highway":"unclassified","maxspeed":"30","profile":"car","distance":"1872.987","time":"1158.558"}},{"type":"Feature","name":"ShapeMeta","geometry":{"type":"LineString","coordinates":[[4.339975,51.85371],[4.339354,51.85344]]},"properties":{"name":"Elementenweg","highway":"unclassified","maxspeed":"30","profile":"car","distance":"1924.887","time":"1166.862"}},{"type":"Feature","name":"ShapeMeta","geometry":{"type":"LineString","coordinates":[[4.339354,51.85344],[4.336773,51.85234],[4.33671,51.85231]]},"properties":{"name":"Elementenweg","highway":"unclassified","oneway":"yes","profile":"car","distance":"2146.188","time":"1188.107"}},{"type":"Feature","name":"ShapeMeta","geometry":{"type":"LineString","coordinates":[[4.33671,51.85231],[4.33632,51.85207],[4.33618,51.85198],[4.335995,51.85187]]},"properties":{"name":"Elementenweg","highway":"unclassified","oneway":"yes","profile":"car","distance":"2215.087","time":"1194.721"}},{"type":"Feature","name":"ShapeMeta","geometry":{"type":"LineString","coordinates":[[4.335995,51.85187],[4.335759,51.85173],[4.334893,51.85123]]},"properties":{"name":"Elementenweg","highway":"unclassified","oneway":"yes","profile":"car","distance":"2318.987","time":"1204.696"}},{"type":"Feature","name":"ShapeMeta","geometry":{"type":"LineString","coordinates":[[4.334893,51.85123],[4.334743,51.85115],[4.334211,51.85078],[4.334111,51.8507]]},"properties":{"name":"Elementenweg","highway":"unclassified","oneway":"yes","profile":"car","distance":"2398.788","time":"1212.357"}},{"type":"Feature","name":"ShapeMeta","geometry":{"type":"LineString","coordinates":[[4.334111,51.8507],[4.333961,51.85078]]},"properties":{"name":"Schenkelweg","maxspeed":"50","oneway":"yes","highway":"secondary","profile":"car","distance":"2412.387","time":"1213.662"}},{"type":"Feature","name":"ShapeMeta","geometry":{"type":"LineString","coordinates":[[4.333961,51.85078],[4.333867,51.85083],[4.332746,51.85145],[4.332399,51.85165],[4.331999,51.85192],[4.331767,51.85211],[4.33172,51.85214]]},"properties":{"name":"Schenkelweg","maxspeed":"50","oneway":"yes","highway":"secondary","profile":"car","distance":"2628.687","time":"1234.427"}},{"type":"Feature","name":"ShapeMeta","geometry":{"type":"LineString","coordinates":[[4.33172,51.85214],[4.331464,51.85237],[4.331298,51.85253],[4.331156,51.8527]]},"properties":{"name":"Schenkelweg","maxspeed":"50","oneway":"yes","highway":"secondary","profile":"car","distance":"2702.187","time":"1241.483"}},{"type":"Feature","name":"ShapeMeta","geometry":{"type":"LineString","coordinates":[[4.331156,51.8527],[4.331108,51.85276],[4.331012,51.85288]]},"properties":{"name":"Schenkelweg","maxspeed":"50","oneway":"yes","highway":"secondary","profile":"car","distance":"2723.987","time":"1243.576"}},{"type":"Feature","name":"ShapeMeta","geometry":{"type":"LineString","coordinates":[[4.331012,51.85288],[4.330915,51.85284]]},"properties":{"name":"Noordeinde","highway":"unclassified","profile":"car","distance":"2731.787","time":"1244.325"}},{"type":"Feature","name":"ShapeMeta","geometry":{"type":"LineString","coordinates":[[4.330915,51.85284],[4.330772,51.85279]]},"properties":{"name":"Noordeinde","highway":"unclassified","profile":"car","distance":"2742.787","time":"1245.381"}},{"type":"Feature","name":"ShapeMeta","geometry":{"type":"LineString","coordinates":[[4.330772,51.85279],[4.330738,51.85278],[4.330648,51.85275],[4.330449,51.85274]]},"properties":{"name":"Noordeinde","highway":"residential","profile":"car","distance":"2766.187","time":"1247.627"}},{"type":"Feature","name":"ShapeMeta","geometry":{"type":"LineString","coordinates":[[4.330449,51.85274],[4.330255,51.85269]]},"properties":{"name":"Noordeinde","highway":"residential","profile":"car","distance":"2780.387","time":"1248.99"}},{"type":"Feature","name":"ShapeMeta","geometry":{"type":"LineString","coordinates":[[4.330255,51.85269],[4.330145,51.85265]]},"properties":{"name":"Noordeinde","highway":"residential","profile":"car","distance":"2789.418","time":"1249.857"}},{"type":"Feature","name":"ShapeMeta","geometry":{"type":"LineString","coordinates":[[4.330145,51.85265],[4.330255,51.85269]]},"properties":{"name":"Noordeinde","highway":"residential","profile":"car","distance":"2798.449","time":"1430.724"}},{"type":"Feature","name":"ShapeMeta","geometry":{"type":"LineString","coordinates":[[4.330255,51.85269],[4.330449,51.85274]]},"properties":{"name":"Noordeinde","highway":"residential","profile":"car","distance":"2812.649","time":"1432.087"}},{"type":"Feature","name":"ShapeMeta","geometry":{"type":"LineString","coordinates":[[4.330449,51.85274],[4.330648,51.85275],[4.330738,51.85278],[4.330772,51.85279]]},"properties":{"name":"Noordeinde","highway":"residential","profile":"car","distance":"2836.049","time":"1434.334"}},{"type":"Feature","name":"ShapeMeta","geometry":{"type":"LineString","coordinates":[[4.330772,51.85279],[4.330915,51.85284]]},"properties":{"name":"Noordeinde","highway":"unclassified","profile":"car","distance":"2847.049","time":"1435.39"}},{"type":"Feature","name":"ShapeMeta","geometry":{"type":"LineString","coordinates":[[4.330915,51.85284],[4.331012,51.85288]]},"properties":{"name":"Noordeinde","highway":"unclassified","profile":"car","distance":"2854.849","time":"1436.138"}},{"type":"Feature","name":"ShapeMeta","geometry":{"type":"LineString","coordinates":[[4.331012,51.85288],[4.330692,51.85326]]},"properties":{"name":"Schenkelweg","maxspeed":"50","oneway":"yes","highway":"secondary","profile":"car","distance":"2902.549","time":"1440.718"}},{"type":"Feature","name":"ShapeMeta","geometry":{"type":"LineString","coordinates":[[4.330692,51.85326],[4.33034,51.85364],[4.329596,51.85443]]},"properties":{"name":"Schenkelweg","maxspeed":"50","oneway":"yes","highway":"secondary","profile":"car","distance":"3052.949","time":"1455.156"}},{"type":"Feature","name":"ShapeMeta","geometry":{"type":"LineString","coordinates":[[4.329596,51.85443],[4.329432,51.85459],[4.329393,51.85463],[4.329253,51.85476]]},"properties":{"name":"Schenkelweg","maxspeed":"50","oneway":"yes","highway":"secondary","profile":"car","distance":"3096.349","time":"1459.322"}},{"type":"Feature","name":"ShapeMeta","geometry":{"type":"LineString","coordinates":[[4.329253,51.85476],[4.32914,51.85486]]},"properties":{"name":"Schenkelweg","maxspeed":"50","oneway":"yes","highway":"secondary","profile":"car","distance":"3110.149","time":"1460.647"}},{"type":"Feature","name":"ShapeMeta","geometry":{"type":"LineString","coordinates":[[4.32914,51.85486],[4.329038,51.85482]]},"properties":{"name":"Groene Kruisweg","oneway":"yes","highway":"primary","maxspeed":"80","profile":"car","distance":"3118.249","time":"1461.133"}},{"type":"Feature","name":"ShapeMeta","geometry":{"type":"LineString","coordinates":[[4.329038,51.85482],[4.328821,51.85473],[4.328488,51.85459]]},"properties":{"name":"Groene Kruisweg","oneway":"yes","highway":"primary","maxspeed":"80","profile":"car","distance":"3163.949","time":"1463.875"}},{"type":"Feature","name":"ShapeMeta","geometry":{"type":"LineString","coordinates":[[4.328488,51.85459],[4.328043,51.8544],[4.327366,51.85414]]},"properties":{"name":"Groene Kruisweg","oneway":"yes","highway":"primary","maxspeed":"80","profile":"car","distance":"3256.049","time":"1469.401"}},{"type":"Feature","name":"ShapeMeta","geometry":{"type":"LineString","coordinates":[[4.327366,51.85414],[4.326777,51.85394],[4.326185,51.85377],[4.325708,51.85365]]},"properties":{"name":"Groene Kruisweg","oneway":"yes","highway":"primary","maxspeed":"80","profile":"car","distance":"3382.349","time":"1476.979"}},{"type":"Feature","name":"ShapeMeta","geometry":{"type":"LineString","coordinates":[[4.325708,51.85365],[4.325644,51.85363],[4.325464,51.8536]]},"properties":{"name":"Groene Kruisweg","oneway":"yes","highway":"primary","maxspeed":"80","profile":"car","distance":"3400.049","time":"1478.041"}},{"type":"Feature","name":"ShapeMeta","geometry":{"type":"LineString","coordinates":[[4.325464,51.8536],[4.325237,51.85355]]},"properties":{"name":"Groene Kruisweg","oneway":"yes","highway":"primary","maxspeed":"80","profile":"car","distance":"3416.349","time":"1479.019"}},{"type":"Feature","name":"ShapeMeta","geometry":{"type":"LineString","coordinates":[[4.325237,51.85355],[4.325302,51.85341]]},"properties":{"name":"Groene Kruisweg","highway":"unclassified","maxspeed":"50","oneway":"yes","profile":"car","distance":"3432.249","time":"1480.546"}},{"type":"Feature","name":"ShapeMeta","geometry":{"type":"LineString","coordinates":[[4.325302,51.85341],[4.325373,51.85328],[4.325553,51.85301]]},"properties":{"name":"Stationsstraat","highway":"unclassified","oneway":"yes","profile":"car","distance":"3480.349","time":"1485.163"}},{"type":"Feature","name":"ShapeMeta","geometry":{"type":"LineString","coordinates":[[4.325553,51.85301],[4.325679,51.85267]]},"properties":{"name":"Stationsstraat","highway":"unclassified","profile":"car","distance":"3519.049","time":"1488.878"}},{"type":"Feature","name":"ShapeMeta","geometry":{"type":"LineString","coordinates":[[4.325679,51.85267],[4.325161,51.85257]]},"properties":{"name":"Jan Campertlaan","highway":"residential","profile":"car","distance":"3556.149","time":"1492.44"}},{"type":"Feature","name":"ShapeMeta","geometry":{"type":"LineString","coordinates":[[4.325161,51.85257],[4.324966,51.85254]]},"properties":{"name":"Jan Campertlaan","highway":"residential","profile":"car","distance":"3569.949","time":"1493.765"}},{"type":"Feature","name":"ShapeMeta","geometry":{"type":"LineString","coordinates":[[4.324966,51.85254],[4.324816,51.85252]]},"properties":{"name":"Jan Campertlaan","highway":"residential","profile":"car","distance":"3580.604","time":"1494.788"}},{"type":"Feature","name":"ShapeMeta","geometry":{"type":"LineString","coordinates":[[4.324816,51.85252],[4.324779,51.85251],[4.324724,51.8525]]},"properties":{"name":"Jan Campertlaan","highway":"residential","profile":"car","distance":"3587.149","time":"1675.416"}},{"type":"Feature","name":"ShapeMeta","geometry":{"type":"LineString","coordinates":[[4.324724,51.8525],[4.324084,51.85237],[4.323496,51.8523],[4.323434,51.85226],[4.32341,51.85223],[4.323465,51.85203],[4.323463,51.85185],[4.323457,51.85166]]},"properties":{"name":"Jan Campertlaan","highway":"residential","profile":"car","distance":"3747.749","time":"1690.834"}},{"type":"Feature","name":"ShapeMeta","geometry":{"type":"LineString","coordinates":[[4.323457,51.85166],[4.323302,51.85097]]},"properties":{"name":"Koningin Julianaplein","highway":"residential","profile":"car","distance":"3825.249","time":"1698.274"}},{"type":"Feature","name":"ShapeMeta","geometry":{"type":"LineString","coordinates":[[4.323302,51.85097],[4.323481,51.85092]]},"properties":{"name":"Boezembocht","highway":"residential","profile":"car","distance":"3838.649","time":"1699.56"}},{"type":"Feature","name":"ShapeMeta","geometry":{"type":"LineString","coordinates":[[4.323481,51.85092],[4.323934,51.8508]]},"properties":{"bridge":"yes","name":"Boezembocht","highway":"residential","profile":"car","distance":"3872.349","time":"1702.795"}},{"type":"Feature","name":"ShapeMeta","geometry":{"type":"LineString","coordinates":[[4.323934,51.8508],[4.324201,51.85075],[4.324437,51.85071],[4.324591,51.85072]]},"properties":{"name":"Zijlstraat","highway":"residential","profile":"car","distance":"3919.049","time":"1707.279"}},{"type":"Feature","name":"ShapeMeta","geometry":{"type":"LineString","coordinates":[[4.324591,51.85072],[4.324603,51.85044],[4.324648,51.85028],[4.324717,51.85025]]},"properties":{"name":"Kerkring","highway":"service","profile":"car","distance":"3973.549","time":"1715.999"}},{"type":"Feature","name":"ShapeMeta","geometry":{"type":"LineString","coordinates":[[4.324717,51.85025],[4.324599,51.84996]]},"properties":{"name":"Markt","highway":"service","maxspeed":"20","profile":"car","distance":"4006.349","time":"1723.871"}},{"type":"Feature","name":"ShapeMeta","geometry":{"type":"LineString","coordinates":[[4.324599,51.84996],[4.32446,51.84978]]},"properties":{"name":"Kees de Groenplein","highway":"residential","profile":"car","distance":"4028.829","time":"1726.029"}},{"type":"Feature","name":"ShapeMeta","geometry":{"type":"LineString","coordinates":[[4.32446,51.84978],[4.324599,51.84996]]},"properties":{"name":"Kees de Groenplein","highway":"residential","profile":"car","distance":"4051.309","time":"1908.187"}},{"type":"Feature","name":"ShapeMeta","geometry":{"type":"LineString","coordinates":[[4.324599,51.84996],[4.324717,51.85025]]},"properties":{"name":"Markt","highway":"service","maxspeed":"20","profile":"car","distance":"4084.109","time":"1916.059"}},{"type":"Feature","name":"ShapeMeta","geometry":{"type":"LineString","coordinates":[[4.324717,51.85025],[4.324648,51.85028],[4.324603,51.85044],[4.324591,51.85072]]},"properties":{"name":"Kerkring","highway":"service","profile":"car","distance":"4138.609","time":"1924.779"}},{"type":"Feature","name":"ShapeMeta","geometry":{"type":"LineString","coordinates":[[4.324591,51.85072],[4.324437,51.85071],[4.324201,51.85075],[4.323934,51.8508]]},"properties":{"name":"Zijlstraat","highway":"residential","profile":"car","distance":"4185.309","time":"1929.262"}},{"type":"Feature","name":"ShapeMeta","geometry":{"type":"LineString","coordinates":[[4.323934,51.8508],[4.323775,51.85063],[4.323048,51.84929]]},"properties":{"name":"Vierambachtenkade Zuidzijde","highway":"residential","profile":"car","distance":"4365.109","time":"1946.523"}},{"type":"Feature","name":"ShapeMeta","geometry":{"type":"LineString","coordinates":[[4.323048,51.84929],[4.323685,51.84901]]},"properties":{"name":"Karel Doormanstraat","highway":"residential","maxspeed":"30","profile":"car","distance":"4418.696","time":"1955.097"}},{"type":"Feature","name":"ShapeMeta","geometry":{"type":"LineString","coordinates":[[4.323685,51.84901],[4.323937,51.8489],[4.324225,51.84877]]},"properties":{"name":"Karel Doormanstraat","highway":"residential","maxspeed":"30","profile":"car","distance":"4464.409","time":"2142.411"}},{"type":"Feature","name":"ShapeMeta","geometry":{"type":"LineString","coordinates":[[4.324225,51.84877],[4.324349,51.84882]]},"properties":{"name":"Vredehofplein","highway":"unclassified","profile":"car","distance":"4474.708","time":"2143.4"}},{"type":"Feature","name":"ShapeMeta","geometry":{"type":"LineString","coordinates":[[4.324349,51.84882],[4.324555,51.84892],[4.324706,51.84899],[4.324899,51.84908]]},"properties":{"name":"Vredehofplein","highway":"unclassified","profile":"car","distance":"4522.208","time":"2147.96"}},{"type":"Feature","name":"ShapeMeta","geometry":{"type":"LineString","coordinates":[[4.324899,51.84908],[4.324858,51.84915],[4.324908,51.84934],[4.325124,51.84966],[4.325201,51.84978]]},"properties":{"name":"Eerste Heulbrugstraat","highway":"unclassified","maxspeed":"30","profile":"car","distance":"4605.008","time":"2161.208"}},{"type":"Feature","name":"ShapeMeta","geometry":{"type":"LineString","coordinates":[[4.325201,51.84978],[4.325124,51.84966],[4.324908,51.84934],[4.324858,51.84915],[4.324899,51.84908]]},"properties":{"name":"Eerste Heulbrugstraat","highway":"unclassified","maxspeed":"30","profile":"car","distance":"4687.808","time":"2354.456"}},{"type":"Feature","name":"ShapeMeta","geometry":{"type":"LineString","coordinates":[[4.324899,51.84908],[4.325092,51.84913],[4.325277,51.84913],[4.325401,51.84909],[4.326077,51.84879],[4.326109,51.84878]]},"properties":{"name":"Marrewijklaan","highway":"unclassified","maxspeed":"30","profile":"car","distance":"4784.408","time":"2369.912"}},{"type":"Feature","name":"ShapeMeta","geometry":{"type":"LineString","coordinates":[[4.326109,51.84878],[4.326143,51.84877]]},"properties":{"name":"Marrewijklaan","highway":"unclassified","maxspeed":"30","profile":"car","distance":"4786.808","time":"2370.296"}},{"type":"Feature","name":"ShapeMeta","geometry":{"type":"LineString","coordinates":[[4.326143,51.84877],[4.326209,51.84875],[4.326477,51.84868],[4.327215,51.84851],[4.327252,51.8485]]},"properties":{"name":"Marrewijklaan","highway":"unclassified","maxspeed":"30","profile":"car","distance":"4868.986","time":"2383.445"}},{"type":"Feature","name":"ShapeMeta","geometry":{"type":"LineString","coordinates":[[4.327252,51.8485],[4.327425,51.84844],[4.327596,51.84834],[4.328483,51.84769],[4.328626,51.84762]]},"properties":{"name":"Marrewijklaan","highway":"unclassified","maxspeed":"30","profile":"car","distance":"5005.608","time":"2585.305"}},{"type":"Feature","name":"ShapeMeta","geometry":{"type":"LineString","coordinates":[[4.328626,51.84762],[4.32875,51.8476],[4.32889,51.84764],[4.328991,51.84769]]},"properties":{"name":"Raadhuislaan","highway":"unclassified","maxspeed":"50","oneway":"yes","profile":"car","distance":"5033.608","time":"2587.993"}},{"type":"Feature","name":"ShapeMeta","geometry":{"type":"LineString","coordinates":[[4.328991,51.84769],[4.329321,51.84789],[4.329386,51.84793]]},"properties":{"name":"Raadhuislaan","highway":"unclassified","maxspeed":"50","oneway":"yes","profile":"car","distance":"5071.408","time":"2591.621"}},{"type":"Feature","name":"ShapeMeta","geometry":{"type":"LineString","coordinates":[[4.329386,51.84793],[4.329487,51.84799],[4.329535,51.84801],[4.3303,51.8484]]},"properties":{"name":"Raadhuislaan","highway":"unclassified","maxspeed":"50","oneway":"yes","profile":"car","distance":"5153.308","time":"2599.484"}},{"type":"Feature","name":"ShapeMeta","geometry":{"type":"LineString","coordinates":[[4.3303,51.8484],[4.3304,51.84846],[4.330956,51.84875],[4.331035,51.8488]]},"properties":{"name":"Raadhuislaan","highway":"unclassified","maxspeed":"50","oneway":"yes","profile":"car","distance":"5220.908","time":"2605.973"}},{"type":"Feature","name":"ShapeMeta","geometry":{"type":"LineString","coordinates":[[4.331035,51.8488],[4.331092,51.84879],[4.331221,51.84879],[4.33128,51.8488]]},"properties":{"name":"Centrumrotonde","highway":"unclassified","maxspeed":"50","oneway":"yes","junction":"roundabout","profile":"car","distance":"5238.708","time":"2607.682"}},{"type":"Feature","name":"ShapeMeta","geometry":{"type":"LineString","coordinates":[[4.33128,51.8488],[4.33132,51.84882],[4.331369,51.84888],[4.331368,51.84894],[4.331348,51.84897]]},"properties":{"name":"Centrumrotonde","highway":"unclassified","maxspeed":"50","oneway":"yes","junction":"roundabout","profile":"car","distance":"5260.308","time":"2609.756"}},{"type":"Feature","name":"ShapeMeta","geometry":{"type":"LineString","coordinates":[[4.331348,51.84897],[4.331324,51.849],[4.331293,51.84901]]},"properties":{"name":"Centrumrotonde","highway":"unclassified","maxspeed":"50","oneway":"yes","junction":"roundabout","profile":"car","distance":"5266.308","time":"2610.332"}},{"type":"Feature","name":"ShapeMeta","geometry":{"type":"LineString","coordinates":[[4.331293,51.84901],[4.331227,51.84903],[4.331153,51.84904],[4.33108,51.84903]]},"properties":{"name":"Centrumrotonde","highway":"unclassified","maxspeed":"50","oneway":"yes","junction":"roundabout","profile":"car","distance":"5281.508","time":"2611.791"}},{"type":"Feature","name":"ShapeMeta","geometry":{"type":"LineString","coordinates":[[4.33108,51.84903],[4.331021,51.84912],[4.330998,51.84916]]},"properties":{"highway":"service","profile":"car","distance":"5297.393","time":"2614.333"}},{"type":"Feature","name":"ShapeMeta","geometry":{"type":"LineString","coordinates":[[4.330998,51.84916],[4.331021,51.84912],[4.33108,51.84903]]},"properties":{"highway":"service","profile":"car","distance":"5313.278","time":"2796.875"}},{"type":"Feature","name":"ShapeMeta","geometry":{"type":"LineString","coordinates":[[4.33108,51.84903],[4.331018,51.849],[4.330974,51.84897],[4.330954,51.84892],[4.330959,51.84888]]},"properties":{"name":"Centrumrotonde","highway":"unclassified","maxspeed":"50","oneway":"yes","junction":"roundabout","profile":"car","distance":"5333.678","time":"2798.833"}},{"type":"Feature","name":"ShapeMeta","geometry":{"type":"LineString","coordinates":[[4.330959,51.84888],[4.330841,51.84883],[4.330301,51.84855],[4.330193,51.84849]]},"properties":{"name":"Raadhuislaan","highway":"unclassified","maxspeed":"50","oneway":"yes","profile":"car","distance":"5401.878","time":"2805.38"}},{"type":"Feature","name":"ShapeMeta","geometry":{"type":"LineString","coordinates":[[4.330193,51.84849],[4.330126,51.84853]]},"properties":{"name":"H de Lintweg","highway":"residential","profile":"car","distance":"5408.378","time":"2806.004"}},{"type":"Feature","name":"ShapeMeta","geometry":{"type":"LineString","coordinates":[[4.330126,51.84853],[4.329433,51.84902],[4.32921,51.84918]]},"properties":{"name":"H de Lintweg","highway":"residential","profile":"car","distance":"5504.378","time":"2815.22"}},{"type":"Feature","name":"ShapeMeta","geometry":{"type":"LineString","coordinates":[[4.32921,51.84918],[4.329226,51.84929]]},"properties":{"name":"H de Lintweg","highway":"unclassified","profile":"car","distance":"5515.842","time":"2816.321"}},{"type":"Feature","name":"ShapeMeta","geometry":{"type":"LineString","coordinates":[[4.329226,51.84929],[4.329252,51.84946]]},"properties":{"name":"H de Lintweg","highway":"unclassified","profile":"car","distance":"5535.378","time":"2998.197"}},{"type":"Feature","name":"ShapeMeta","geometry":{"type":"LineString","coordinates":[[4.329252,51.84946],[4.329259,51.84946]]},"properties":{"name":"D. Losstraat","highway":"residential","profile":"car","distance":"5535.871","time":"2998.244"}},{"type":"Feature","name":"ShapeMeta","geometry":{"type":"LineString","coordinates":[[4.329259,51.84946],[4.329252,51.84946]]},"properties":{"name":"D. Losstraat","highway":"residential","profile":"car","distance":"5536.364","time":"3178.291"}},{"type":"Feature","name":"ShapeMeta","geometry":{"type":"LineString","coordinates":[[4.329252,51.84946],[4.32921,51.84918]]},"properties":{"name":"H de Lintweg","highway":"unclassified","profile":"car","distance":"5567.364","time":"3181.267"}},{"type":"Feature","name":"ShapeMeta","geometry":{"type":"LineString","coordinates":[[4.32921,51.84918],[4.329433,51.84902],[4.330126,51.84853]]},"properties":{"name":"H de Lintweg","highway":"residential","profile":"car","distance":"5663.364","time":"3190.483"}},{"type":"Feature","name":"ShapeMeta","geometry":{"type":"LineString","coordinates":[[4.330126,51.84853],[4.330193,51.84849]]},"properties":{"name":"H de Lintweg","highway":"residential","profile":"car","distance":"5669.864","time":"3191.107"}},{"type":"Feature","name":"ShapeMeta","geometry":{"type":"LineString","coordinates":[[4.330193,51.84849],[4.3303,51.8484]]},"properties":{"name":"Raadhuislaan","highway":"residential","profile":"car","distance":"5682.064","time":"3192.278"}},{"type":"Feature","name":"ShapeMeta","geometry":{"type":"LineString","coordinates":[[4.3303,51.8484],[4.3304,51.84846],[4.330956,51.84875],[4.331035,51.8488]]},"properties":{"name":"Raadhuislaan","highway":"unclassified","maxspeed":"50","oneway":"yes","profile":"car","distance":"5749.664","time":"3198.768"}},{"type":"Feature","name":"ShapeMeta","geometry":{"type":"LineString","coordinates":[[4.331035,51.8488],[4.331092,51.84879],[4.331221,51.84879],[4.33128,51.8488]]},"properties":{"name":"Centrumrotonde","highway":"unclassified","maxspeed":"50","oneway":"yes","junction":"roundabout","profile":"car","distance":"5767.464","time":"3200.477"}},{"type":"Feature","name":"ShapeMeta","geometry":{"type":"LineString","coordinates":[[4.33128,51.8488],[4.331352,51.84873],[4.331668,51.84846],[4.331856,51.84834],[4.332326,51.84809]]},"properties":{"name":"Centrumlaan","highway":"residential","maxspeed":"50","profile":"car","distance":"5875.064","time":"3210.806"}},{"type":"Feature","name":"ShapeMeta","geometry":{"type":"LineString","coordinates":[[4.332326,51.84809],[4.332897,51.8478]]},"properties":{"name":"Centrumlaan","highway":"residential","maxspeed":"50","profile":"car","distance":"5925.564","time":"3215.654"}},{"type":"Feature","name":"ShapeMeta","geometry":{"type":"LineString","coordinates":[[4.332897,51.8478],[4.333105,51.84767],[4.33334,51.84756]]},"properties":{"name":"Centrumlaan","highway":"unclassified","maxspeed":"50","oneway":"yes","profile":"car","distance":"5965.864","time":"3219.523"}},{"type":"Feature","name":"ShapeMeta","geometry":{"type":"LineString","coordinates":[[4.33334,51.84756],[4.334251,51.84725],[4.334736,51.84706]]},"properties":{"name":"Centrumlaan","highway":"residential","maxspeed":"50","oneway":"yes","profile":"car","distance":"6076.664","time":"3230.16"}},{"type":"Feature","name":"ShapeMeta","geometry":{"type":"LineString","coordinates":[[4.334736,51.84706],[4.33496,51.84697],[4.33504,51.84694],[4.335099,51.84692]]},"properties":{"name":"Centrumlaan","highway":"unclassified","maxspeed":"50","oneway":"yes","profile":"car","distance":"6106.564","time":"3233.031"}},{"type":"Feature","name":"ShapeMeta","geometry":{"type":"LineString","coordinates":[[4.335099,51.84692],[4.335281,51.84685]]},"properties":{"name":"Centrumlaan","highway":"unclassified","maxspeed":"50","oneway":"yes","profile":"car","distance":"6121.164","time":"3234.432"}},{"type":"Feature","name":"ShapeMeta","geometry":{"type":"LineString","coordinates":[[4.335281,51.84685],[4.33539,51.8468]]},"properties":{"name":"Ruwaard van Puttenweg","highway":"unclassified","maxspeed":"50","oneway":"yes","profile":"car","distance":"6130.164","time":"3235.296"}},{"type":"Feature","name":"ShapeMeta","geometry":{"type":"LineString","coordinates":[[4.33539,51.8468],[4.335524,51.84675],[4.335579,51.84673]]},"properties":{"name":"Groenewoudlaan","highway":"unclassified","maxspeed":"50","oneway":"yes","profile":"car","distance":"6145.664","time":"3236.784"}},{"type":"Feature","name":"ShapeMeta","geometry":{"type":"LineString","coordinates":[[4.335579,51.84673],[4.335611,51.84668],[4.335656,51.84656],[4.335763,51.8465],[4.335908,51.84644]]},"properties":{"name":"Groenewoudlaan","highway":"residential","profile":"car","distance":"6187.064","time":"3240.758"}},{"type":"Feature","name":"ShapeMeta","geometry":{"type":"LineString","coordinates":[[4.335908,51.84644],[4.336365,51.84625]]},"properties":{"name":"Groenewoudlaan","highway":"residential","profile":"car","distance":"6224.664","time":"3244.368"}},{"type":"Feature","name":"ShapeMeta","geometry":{"type":"LineString","coordinates":[[4.336365,51.84625],[4.336816,51.84605]]},"properties":{"name":"Groenewoudlaan","highway":"residential","profile":"car","distance":"6262.364","time":"3247.987"}},{"type":"Feature","name":"ShapeMeta","geometry":{"type":"LineString","coordinates":[[4.336816,51.84605],[4.337243,51.84587]]},"properties":{"name":"Groenewoudlaan","highway":"residential","profile":"car","distance":"6297.764","time":"3251.385"}},{"type":"Feature","name":"ShapeMeta","geometry":{"type":"LineString","coordinates":[[4.337243,51.84587],[4.337677,51.84568]]},"properties":{"name":"Groenewoudlaan","highway":"residential","profile":"car","distance":"6334.364","time":"3254.899"}},{"type":"Feature","name":"ShapeMeta","geometry":{"type":"LineString","coordinates":[[4.337677,51.84568],[4.338938,51.84515]]},"properties":{"name":"Groenewoudlaan","highway":"residential","profile":"car","distance":"6439.364","time":"3264.979"}},{"type":"Feature","name":"ShapeMeta","geometry":{"type":"LineString","coordinates":[[4.338938,51.84515],[4.339327,51.84499],[4.339438,51.84496]]},"properties":{"name":"Groenewoudlaan","highway":"residential","profile":"car","distance":"6479.764","time":"3268.858"}},{"type":"Feature","name":"ShapeMeta","geometry":{"type":"LineString","coordinates":[[4.339438,51.84496],[4.339592,51.84492]]},"properties":{"name":"Groenewoudlaan","highway":"residential","profile":"car","distance":"6491.22","time":"3269.958"}},{"type":"Feature","name":"ShapeMeta","geometry":{"type":"LineString","coordinates":[[4.339592,51.84492],[4.339438,51.84496]]},"properties":{"name":"Groenewoudlaan","highway":"residential","profile":"car","distance":"6502.677","time":"3451.058"}},{"type":"Feature","name":"ShapeMeta","geometry":{"type":"LineString","coordinates":[[4.339438,51.84496],[4.339327,51.84499],[4.338938,51.84515]]},"properties":{"name":"Groenewoudlaan","highway":"residential","profile":"car","distance":"6543.077","time":"3454.936"}},{"type":"Feature","name":"ShapeMeta","geometry":{"type":"LineString","coordinates":[[4.338938,51.84515],[4.337677,51.84568]]},"properties":{"name":"Groenewoudlaan","highway":"residential","profile":"car","distance":"6648.077","time":"3465.016"}},{"type":"Feature","name":"ShapeMeta","geometry":{"type":"LineString","coordinates":[[4.337677,51.84568],[4.337641,51.8456],[4.337658,51.84554]]},"properties":{"name":"Griendwerker","highway":"living_street","profile":"car","distance":"6664.614","time":"3480.893"}},{"type":"Feature","name":"ShapeMeta","geometry":{"type":"LineString","coordinates":[[4.337658,51.84554],[4.337641,51.8456],[4.337677,51.84568]]},"properties":{"name":"Griendwerker","highway":"living_street","profile":"car","distance":"6681.151","time":"3676.769"}},{"type":"Feature","name":"ShapeMeta","geometry":{"type":"LineString","coordinates":[[4.337677,51.84568],[4.337243,51.84587]]},"properties":{"name":"Groenewoudlaan","highway":"residential","profile":"car","distance":"6717.751","time":"3680.283"}},{"type":"Feature","name":"ShapeMeta","geometry":{"type":"LineString","coordinates":[[4.337243,51.84587],[4.336816,51.84605]]},"properties":{"name":"Groenewoudlaan","highway":"residential","profile":"car","distance":"6753.151","time":"3683.681"}},{"type":"Feature","name":"ShapeMeta","geometry":{"type":"LineString","coordinates":[[4.336816,51.84605],[4.336365,51.84625]]},"properties":{"name":"Groenewoudlaan","highway":"residential","profile":"car","distance":"6790.852","time":"3687.301"}},{"type":"Feature","name":"ShapeMeta","geometry":{"type":"LineString","coordinates":[[4.336365,51.84625],[4.335908,51.84644]]},"properties":{"name":"Groenewoudlaan","highway":"residential","profile":"car","distance":"6828.452","time":"3690.91"}},{"type":"Feature","name":"ShapeMeta","geometry":{"type":"LineString","coordinates":[[4.335908,51.84644],[4.335763,51.8465],[4.335656,51.84656],[4.335611,51.84668],[4.335579,51.84673]]},"properties":{"name":"Groenewoudlaan","highway":"residential","profile":"car","distance":"6869.852","time":"3694.885"}},{"type":"Feature","name":"ShapeMeta","geometry":{"type":"LineString","coordinates":[[4.335579,51.84673],[4.335551,51.84678]]},"properties":{"name":"Groenewoudlaan","highway":"unclassified","maxspeed":"50","oneway":"yes","profile":"car","distance":"6875.651","time":"3695.441"}},{"type":"Feature","name":"ShapeMeta","geometry":{"type":"LineString","coordinates":[[4.335551,51.84678],[4.335531,51.84682],[4.335523,51.84689],[4.335547,51.84694],[4.335573,51.84696]]},"properties":{"name":"Groenewoudlaan","highway":"unclassified","maxspeed":"50","oneway":"yes","profile":"car","distance":"6897.352","time":"3697.524"}},{"type":"Feature","name":"ShapeMeta","geometry":{"type":"LineString","coordinates":[[4.335573,51.84696],[4.3357,51.84708],[4.335877,51.84722],[4.335976,51.84728]]},"properties":{"name":"Ruwaard van Puttenweg","maxspeed":"50","highway":"tertiary","oneway":"yes","profile":"car","distance":"6942.251","time":"3701.835"}},{"type":"Feature","name":"ShapeMeta","geometry":{"type":"LineString","coordinates":[[4.335976,51.84728],[4.33611,51.84735],[4.336409,51.84748],[4.336638,51.84756]]},"properties":{"name":"Ruwaard van Puttenweg","maxspeed":"50","highway":"tertiary","oneway":"yes","profile":"car","distance":"6997.452","time":"3707.134"}},{"type":"Feature","name":"ShapeMeta","geometry":{"type":"LineString","coordinates":[[4.336638,51.84756],[4.336847,51.84761]]},"properties":{"name":"Ruwaard van Puttenweg","maxspeed":"50","highway":"tertiary","oneway":"yes","profile":"car","distance":"7013.151","time":"3708.641"}},{"type":"Feature","name":"ShapeMeta","geometry":{"type":"LineString","coordinates":[[4.336847,51.84761],[4.337088,51.84768],[4.337388,51.84776]]},"properties":{"name":"Ruwaard van Puttenweg","maxspeed":"50","highway":"tertiary","oneway":"yes","profile":"car","distance":"7053.552","time":"3712.52"}},{"type":"Feature","name":"ShapeMeta","geometry":{"type":"LineString","coordinates":[[4.337388,51.84776],[4.338058,51.84794],[4.338166,51.84797],[4.338386,51.84801]]},"properties":{"name":"Ruwaard van Puttenweg","maxspeed":"50","highway":"tertiary","oneway":"yes","profile":"car","distance":"7127.651","time":"3719.633"}},{"type":"Feature","name":"ShapeMeta","geometry":{"type":"LineString","coordinates":[[4.338386,51.84801],[4.338574,51.84804]]},"properties":{"name":"Ruwaard van Puttenweg","maxspeed":"50","highway":"tertiary","oneway":"yes","profile":"car","distance":"7140.952","time":"3720.91"}},{"type":"Feature","name":"ShapeMeta","geometry":{"type":"LineString","coordinates":[[4.338574,51.84804],[4.338907,51.84808],[4.33898,51.84809]]},"properties":{"name":"Donaulaan","highway":"unclassified","maxspeed":"50","oneway":"yes","profile":"car","distance":"7169.352","time":"3723.636"}},{"type":"Feature","name":"ShapeMeta","geometry":{"type":"LineString","coordinates":[[4.33898,51.84809],[4.339411,51.84814],[4.339949,51.84815]]},"properties":{"name":"Donaulaan","highway":"unclassified","maxspeed":"50","oneway":"yes","profile":"car","distance":"7236.452","time":"3730.078"}},{"type":"Feature","name":"ShapeMeta","geometry":{"type":"LineString","coordinates":[[4.339949,51.84815],[4.340119,51.84816],[4.34066,51.84815],[4.341011,51.84818]]},"properties":{"name":"Donaulaan","highway":"unclassified","maxspeed":"50","oneway":"yes","profile":"car","distance":"7309.452","time":"3737.086"}},{"type":"Feature","name":"ShapeMeta","geometry":{"type":"LineString","coordinates":[[4.341011,51.84818],[4.341807,51.84818]]},"properties":{"name":"Donaulaan","highway":"unclassified","maxspeed":"50","profile":"car","distance":"7364.151","time":"3742.337"}},{"type":"Feature","name":"ShapeMeta","geometry":{"type":"LineString","coordinates":[[4.341807,51.84818],[4.342482,51.84818],[4.342893,51.84793]]},"properties":{"name":"Donaulaan","highway":"unclassified","maxspeed":"50","profile":"car","distance":"7449.651","time":"3750.545"}},{"type":"Feature","name":"ShapeMeta","geometry":{"type":"LineString","coordinates":[[4.342893,51.84793],[4.343564,51.84751]]},"properties":{"name":"Donaulaan","highway":"unclassified","maxspeed":"50","profile":"car","distance":"7515.151","time":"3756.833"}},{"type":"Feature","name":"ShapeMeta","geometry":{"type":"LineString","coordinates":[[4.343564,51.84751],[4.3439,51.8473],[4.344078,51.8472]]},"properties":{"name":"Donaulaan","highway":"unclassified","maxspeed":"50","profile":"car","distance":"7564.452","time":"3761.566"}},{"type":"Feature","name":"ShapeMeta","geometry":{"type":"LineString","coordinates":[[4.344078,51.8472],[4.344829,51.8472]]},"properties":{"name":"Donaulaan","highway":"unclassified","maxspeed":"50","profile":"car","distance":"7615.952","time":"3766.51"}},{"type":"Feature","name":"ShapeMeta","geometry":{"type":"LineString","coordinates":[[4.344829,51.8472],[4.344827,51.84712],[4.344827,51.84711]]},"properties":{"name":"Donaulaan","highway":"residential","profile":"car","distance":"7626.537","time":"3767.526"}},{"type":"Feature","name":"ShapeMeta","geometry":{"type":"LineString","coordinates":[[4.344827,51.84711],[4.344827,51.84712],[4.344829,51.8472]]},"properties":{"name":"Donaulaan","highway":"residential","profile":"car","distance":"7637.123","time":"3948.542"}},{"type":"Feature","name":"ShapeMeta","geometry":{"type":"LineString","coordinates":[[4.344829,51.8472],[4.345412,51.8472],[4.345974,51.8472],[4.3461,51.8472]]},"properties":{"name":"Donaulaan","highway":"unclassified","maxspeed":"50","profile":"car","distance":"7724.323","time":"3956.913"}},{"type":"Feature","name":"ShapeMeta","geometry":{"type":"LineString","coordinates":[[4.3461,51.8472],[4.346646,51.84721]]},"properties":{"name":"Donaulaan","highway":"unclassified","maxspeed":"50","profile":"car","distance":"7761.823","time":"3960.513"}},{"type":"Feature","name":"ShapeMeta","geometry":{"type":"LineString","coordinates":[[4.346646,51.84721],[4.347544,51.84721]]},"properties":{"name":"Donaulaan","highway":"unclassified","maxspeed":"50","profile":"car","distance":"7823.423","time":"3966.427"}},{"type":"Feature","name":"ShapeMeta","geometry":{"type":"LineString","coordinates":[[4.347544,51.84721],[4.348893,51.84723]]},"properties":{"name":"Donaulaan","highway":"unclassified","maxspeed":"50","profile":"car","distance":"7916.022","time":"3975.316"}},{"type":"Feature","name":"ShapeMeta","geometry":{"type":"LineString","coordinates":[[4.348893,51.84723],[4.349012,51.84723]]},"properties":{"name":"Donaulaan","highway":"unclassified","maxspeed":"50","profile":"car","distance":"7924.223","time":"3976.104"}},{"type":"Feature","name":"ShapeMeta","geometry":{"type":"LineString","coordinates":[[4.349012,51.84723],[4.349021,51.84713],[4.349036,51.84694]]},"properties":{"name":"Eemstraat","highway":"service","profile":"car","distance":"7956.423","time":"3981.256"}},{"type":"Feature","name":"ShapeMeta","geometry":{"type":"LineString","coordinates":[[4.349036,51.84694],[4.349046,51.84681]]},"properties":{"name":"Eemstraat","highway":"service","profile":"car","distance":"7971.223","time":"3983.624"}},{"type":"Feature","name":"ShapeMeta","geometry":{"type":"LineString","coordinates":[[4.349046,51.84681],[4.349043,51.84666]]},"properties":{"name":"Eemstraat","highway":"service","profile":"car","distance":"7987.323","time":"3986.2"}},{"type":"Feature","name":"ShapeMeta","geometry":{"type":"LineString","coordinates":[[4.349043,51.84666],[4.34947,51.84666],[4.349569,51.8466]]},"properties":{"highway":"service","profile":"car","distance":"8026.17","time":"3992.415"}},{"type":"Feature","name":"ShapeMeta","geometry":{"type":"LineString","coordinates":[[4.349569,51.8466],[4.349569,51.8466],[4.349573,51.84652],[4.349578,51.84632]]},"properties":{"highway":"service","profile":"car","distance":"8057.522","time":"4177.432"}},{"type":"Feature","name":"ShapeMeta","geometry":{"type":"LineString","coordinates":[[4.349578,51.84632],[4.349818,51.84632]]},"properties":{"name":"Zaanstraat","highway":"residential","profile":"car","distance":"8073.922","time":"4179.006"}},{"type":"Feature","name":"ShapeMeta","geometry":{"type":"LineString","coordinates":[[4.349818,51.84632],[4.350371,51.84632],[4.350501,51.84632]]},"properties":{"name":"Zaanstraat","highway":"residential","profile":"car","distance":"8120.822","time":"4183.508"}},{"type":"Feature","name":"ShapeMeta","geometry":{"type":"LineString","coordinates":[[4.350501,51.84632],[4.350501,51.84563]]},"properties":{"name":"Rivierlaan","highway":"unclassified","maxspeed":"50","profile":"car","distance":"8197.122","time":"4190.833"}},{"type":"Feature","name":"ShapeMeta","geometry":{"type":"LineString","coordinates":[[4.350501,51.84563],[4.350529,51.8449]]},"properties":{"name":"Rivierlaan","highway":"unclassified","maxspeed":"50","profile":"car","distance":"8278.522","time":"4198.647"}},{"type":"Feature","name":"ShapeMeta","geometry":{"type":"LineString","coordinates":[[4.350529,51.8449],[4.350529,51.84464]]},"properties":{"name":"Rivierlaan","highway":"unclassified","maxspeed":"50","profile":"car","distance":"8307.322","time":"4201.412"}},{"type":"Feature","name":"ShapeMeta","geometry":{"type":"LineString","coordinates":[[4.350529,51.84464],[4.350654,51.84464]]},"properties":{"name":"Lenastraat","highway":"unclassified","profile":"car","distance":"8315.923","time":"4202.238"}},{"type":"Feature","name":"ShapeMeta","geometry":{"type":"LineString","coordinates":[[4.350654,51.84464],[4.351089,51.84464],[4.351995,51.84464]]},"properties":{"name":"Lenastraat","highway":"residential","maxspeed":"30","profile":"car","distance":"8408.022","time":"4216.974"}},{"type":"Feature","name":"ShapeMeta","geometry":{"type":"LineString","coordinates":[[4.351995,51.84464],[4.353073,51.84465]]},"properties":{"name":"Gangesstraat","highway":"residential","maxspeed":"30","profile":"car","distance":"8482.022","time":"4228.814"}},{"type":"Feature","name":"ShapeMeta","geometry":{"type":"LineString","coordinates":[[4.353073,51.84465],[4.353271,51.84466],[4.355369,51.84391],[4.355422,51.84388]]},"properties":{"name":"Gangesstraat","highway":"residential","maxspeed":"30","profile":"car","distance":"8666.923","time":"4258.398"}},{"type":"Feature","name":"ShapeMeta","geometry":{"type":"LineString","coordinates":[[4.355422,51.84388],[4.3553,51.84374]]},"properties":{"name":"Indusstraat","highway":"residential","maxspeed":"30","profile":"car","distance":"8684.622","time":"4261.23"}},{"type":"Feature","name":"ShapeMeta","geometry":{"type":"LineString","coordinates":[[4.3553,51.84374],[4.355895,51.84354]]},"properties":{"name":"Nijlstraat","highway":"residential","maxspeed":"30","profile":"car","distance":"8731.022","time":"4268.654"}},{"type":"Feature","name":"ShapeMeta","geometry":{"type":"LineString","coordinates":[[4.355895,51.84354],[4.355878,51.84352]]},"properties":{"name":"Gambiastraat","highway":"residential","maxspeed":"30","profile":"car","distance":"8733.385","time":"4269.032"}},{"type":"Feature","name":"ShapeMeta","geometry":{"type":"LineString","coordinates":[[4.355878,51.84352],[4.355454,51.84306]]},"properties":{"name":"Gambiastraat","highway":"residential","maxspeed":"30","profile":"car","distance":"8792.822","time":"4458.542"}},{"type":"Feature","name":"ShapeMeta","geometry":{"type":"LineString","coordinates":[[4.355454,51.84306],[4.3559,51.8429]]},"properties":{"name":"Zambezistraat","highway":"residential","maxspeed":"30","profile":"car","distance":"8828.223","time":"4464.206"}},{"type":"Feature","name":"ShapeMeta","geometry":{"type":"LineString","coordinates":[[4.3559,51.8429],[4.355771,51.84275],[4.355771,51.84275]]},"properties":{"name":"Kongostraat","highway":"residential","maxspeed":"30","profile":"car","distance":"8847.333","time":"4467.264"}},{"type":"Feature","name":"ShapeMeta","geometry":{"type":"LineString","coordinates":[[4.355771,51.84275],[4.355804,51.84259]]},"properties":{"name":"Kongostraat","highway":"residential","maxspeed":"30","profile":"car","distance":"8864.423","time":"4649.999"}},{"type":"Feature","name":"ShapeMeta","geometry":{"type":"LineString","coordinates":[[4.355804,51.84259],[4.355422,51.84256],[4.354947,51.84259],[4.354726,51.84271],[4.354433,51.84291]]},"properties":{"name":"Nijlstraat","highway":"residential","maxspeed":"30","profile":"car","distance":"8973.923","time":"4667.519"}},{"type":"Feature","name":"ShapeMeta","geometry":{"type":"LineString","coordinates":[[4.354433,51.84291],[4.354007,51.84272],[4.353512,51.84256]]},"properties":{"name":"Indusstraat","highway":"residential","maxspeed":"30","profile":"car","distance":"9048.523","time":"4679.455"}},{"type":"Feature","name":"ShapeMeta","geometry":{"type":"LineString","coordinates":[[4.353512,51.84256],[4.353347,51.84252]]},"properties":{"name":"Indusstraat","highway":"residential","maxspeed":"30","profile":"car","distance":"9060.555","time":"4681.379"}},{"type":"Feature","name":"ShapeMeta","geometry":{"type":"LineString","coordinates":[[4.353347,51.84252],[4.352984,51.84244],[4.35244,51.8424]]},"properties":{"name":"Indusstraat","highway":"residential","maxspeed":"30","profile":"car","distance":"9124.623","time":"4871.63"}},{"type":"Feature","name":"ShapeMeta","geometry":{"type":"LineString","coordinates":[[4.35244,51.8424],[4.352435,51.8427],[4.352426,51.84325]]},"properties":{"name":"Tigrisstraat","highway":"residential","maxspeed":"30","profile":"car","distance":"9218.358","time":"4886.627"}},{"type":"Feature","name":"ShapeMeta","geometry":{"type":"LineString","coordinates":[[4.352426,51.84325],[4.352435,51.8427],[4.35244,51.8424]]},"properties":{"name":"Tigrisstraat","highway":"residential","maxspeed":"30","profile":"car","distance":"9312.094","time":"5081.625"}},{"type":"Feature","name":"ShapeMeta","geometry":{"type":"LineString","coordinates":[[4.35244,51.8424],[4.352984,51.84244],[4.353512,51.84256]]},"properties":{"name":"Indusstraat","highway":"residential","maxspeed":"30","profile":"car","distance":"9388.193","time":"5093.801"}},{"type":"Feature","name":"ShapeMeta","geometry":{"type":"LineString","coordinates":[[4.353512,51.84256],[4.354007,51.84272],[4.354433,51.84291]]},"properties":{"name":"Indusstraat","highway":"residential","maxspeed":"30","profile":"car","distance":"9462.793","time":"5105.736"}},{"type":"Feature","name":"ShapeMeta","geometry":{"type":"LineString","coordinates":[[4.354433,51.84291],[4.354726,51.84271],[4.354947,51.84259],[4.355422,51.84256],[4.355804,51.84259]]},"properties":{"name":"Nijlstraat","highway":"residential","maxspeed":"30","profile":"car","distance":"9572.293","time":"5123.256"}},{"type":"Feature","name":"ShapeMeta","geometry":{"type":"LineString","coordinates":[[4.355804,51.84259],[4.355771,51.84275]]},"properties":{"name":"Kongostraat","highway":"residential","maxspeed":"30","profile":"car","distance":"9589.384","time":"5125.991"}},{"type":"Feature","name":"ShapeMeta","geometry":{"type":"LineString","coordinates":[[4.355771,51.84275],[4.355771,51.84275],[4.3559,51.8429]]},"properties":{"name":"Kongostraat","highway":"residential","maxspeed":"30","profile":"car","distance":"9608.494","time":"5309.049"}},{"type":"Feature","name":"ShapeMeta","geometry":{"type":"LineString","coordinates":[[4.3559,51.8429],[4.355454,51.84306]]},"properties":{"name":"Zambezistraat","highway":"residential","maxspeed":"30","profile":"car","distance":"9643.894","time":"5314.713"}},{"type":"Feature","name":"ShapeMeta","geometry":{"type":"LineString","coordinates":[[4.355454,51.84306],[4.354899,51.84327]]},"properties":{"name":"Zambezistraat","highway":"residential","maxspeed":"30","profile":"car","distance":"9688.294","time":"5321.817"}},{"type":"Feature","name":"ShapeMeta","geometry":{"type":"LineString","coordinates":[[4.354899,51.84327],[4.355058,51.84346]]},"properties":{"name":"Indusstraat","highway":"residential","maxspeed":"30","profile":"car","distance":"9712.494","time":"5325.689"}},{"type":"Feature","name":"ShapeMeta","geometry":{"type":"LineString","coordinates":[[4.355058,51.84346],[4.354635,51.84359],[4.35384,51.8438]]},"properties":{"name":"Mekongstraat","highway":"residential","maxspeed":"30","profile":"car","distance":"9804.196","time":"5340.361"}},{"type":"Feature","name":"ShapeMeta","geometry":{"type":"LineString","coordinates":[[4.35384,51.8438],[4.353803,51.84381],[4.352643,51.84421]]},"properties":{"name":"Mekongstraat","highway":"residential","maxspeed":"30","profile":"car","distance":"9898.294","time":"5535.417"}},{"type":"Feature","name":"ShapeMeta","geometry":{"type":"LineString","coordinates":[[4.352643,51.84421],[4.352509,51.84411],[4.352471,51.84408],[4.352411,51.84408]]},"properties":{"name":"Gangesstraat","highway":"residential","maxspeed":"30","profile":"car","distance":"9920.994","time":"5539.048"}},{"type":"Feature","name":"ShapeMeta","geometry":{"type":"LineString","coordinates":[[4.352411,51.84408],[4.351998,51.84408]]},"properties":{"name":"Gangesstraat","highway":"residential","maxspeed":"30","profile":"car","distance":"9949.294","time":"5543.577"}},{"type":"Feature","name":"ShapeMeta","geometry":{"type":"LineString","coordinates":[[4.351998,51.84408],[4.351569,51.84409]]},"properties":{"name":"Gangesstraat","highway":"residential","maxspeed":"30","profile":"car","distance":"9978.794","time":"5548.296"}},{"type":"Feature","name":"ShapeMeta","geometry":{"type":"LineString","coordinates":[[4.351569,51.84409],[4.351089,51.8441],[4.351015,51.8441]]},"properties":{"name":"Gangesstraat","highway":"residential","maxspeed":"30","profile":"car","distance":"10016.81","time":"5554.38"}},{"type":"Feature","name":"ShapeMeta","geometry":{"type":"LineString","coordinates":[[4.351015,51.8441],[4.351089,51.8441],[4.351569,51.84409]]},"properties":{"name":"Gangesstraat","highway":"residential","maxspeed":"30","profile":"car","distance":"10054.83","time":"5740.463"}},{"type":"Feature","name":"ShapeMeta","geometry":{"type":"LineString","coordinates":[[4.351569,51.84409],[4.351569,51.84381],[4.35157,51.84332]]},"properties":{"name":"Eufraatstraat","highway":"residential","profile":"car","distance":"10140.43","time":"5748.681"}},{"type":"Feature","name":"ShapeMeta","geometry":{"type":"LineString","coordinates":[[4.35157,51.84332],[4.351499,51.84332]]},"properties":{"highway":"residential","profile":"car","distance":"10145.32","time":"5749.15"}},{"type":"Feature","name":"ShapeMeta","geometry":{"type":"LineString","coordinates":[[4.351499,51.84332],[4.35157,51.84332]]},"properties":{"highway":"residential","profile":"car","distance":"10150.21","time":"5929.62"}},{"type":"Feature","name":"ShapeMeta","geometry":{"type":"LineString","coordinates":[[4.35157,51.84332],[4.351569,51.84381],[4.351569,51.84409]]},"properties":{"name":"Eufraatstraat","highway":"residential","profile":"car","distance":"10235.81","time":"5937.837"}},{"type":"Feature","name":"ShapeMeta","geometry":{"type":"LineString","coordinates":[[4.351569,51.84409],[4.351089,51.8441],[4.350658,51.8441]]},"properties":{"name":"Gangesstraat","highway":"residential","maxspeed":"30","profile":"car","distance":"10298.31","time":"5947.837"}},{"type":"Feature","name":"ShapeMeta","geometry":{"type":"LineString","coordinates":[[4.350658,51.8441],[4.350525,51.8441]]},"properties":{"name":"Gangesstraat","highway":"unclassified","profile":"car","distance":"10307.41","time":"5948.711"}},{"type":"Feature","name":"ShapeMeta","geometry":{"type":"LineString","coordinates":[[4.350525,51.8441],[4.350538,51.84435],[4.350529,51.84464]]},"properties":{"name":"Rivierlaan","highway":"unclassified","maxspeed":"50","profile":"car","distance":"10367.61","time":"5954.49"}},{"type":"Feature","name":"ShapeMeta","geometry":{"type":"LineString","coordinates":[[4.350529,51.84464],[4.350529,51.8449]]},"properties":{"name":"Rivierlaan","highway":"unclassified","maxspeed":"50","profile":"car","distance":"10396.41","time":"5957.255"}},{"type":"Feature","name":"ShapeMeta","geometry":{"type":"LineString","coordinates":[[4.350529,51.8449],[4.350501,51.84563]]},"properties":{"name":"Rivierlaan","highway":"unclassified","maxspeed":"50","profile":"car","distance":"10477.81","time":"5965.069"}},{"type":"Feature","name":"ShapeMeta","geometry":{"type":"LineString","coordinates":[[4.350501,51.84563],[4.35039,51.84563],[4.350027,51.84563],[4.349479,51.84563]]},"properties":{"name":"Gouwestraat","highway":"unclassified","profile":"car","distance":"10547.91","time":"5971.799"}},{"type":"Feature","name":"ShapeMeta","geometry":{"type":"LineString","coordinates":[[4.349479,51.84563],[4.349346,51.84555],[4.349108,51.8454]]},"properties":{"name":"Gouwestraat","highway":"unclassified","profile":"car","distance":"10584.11","time":"5975.274"}},{"type":"Feature","name":"ShapeMeta","geometry":{"type":"LineString","coordinates":[[4.349108,51.8454],[4.348778,51.84562],[4.34876,51.84563]]},"properties":{"name":"Gouwestraat","highway":"unclassified","profile":"car","distance":"10619.08","time":"5978.631"}},{"type":"Feature","name":"ShapeMeta","geometry":{"type":"LineString","coordinates":[[4.34876,51.84563],[4.348778,51.84562],[4.349108,51.8454]]},"properties":{"name":"Gouwestraat","highway":"unclassified","profile":"car","distance":"10654.05","time":"6161.988"}},{"type":"Feature","name":"ShapeMeta","geometry":{"type":"LineString","coordinates":[[4.349108,51.8454],[4.349346,51.84555],[4.349479,51.84563]]},"properties":{"name":"Gouwestraat","highway":"unclassified","profile":"car","distance":"10690.25","time":"6165.463"}},{"type":"Feature","name":"ShapeMeta","geometry":{"type":"LineString","coordinates":[[4.349479,51.84563],[4.350027,51.84563],[4.35039,51.84563],[4.350501,51.84563]]},"properties":{"name":"Gouwestraat","highway":"unclassified","profile":"car","distance":"10760.35","time":"6172.192"}},{"type":"Feature","name":"ShapeMeta","geometry":{"type":"LineString","coordinates":[[4.350501,51.84563],[4.350501,51.84632]]},"properties":{"name":"Rivierlaan","highway":"unclassified","maxspeed":"50","profile":"car","distance":"10836.65","time":"6179.517"}},{"type":"Feature","name":"ShapeMeta","geometry":{"type":"LineString","coordinates":[[4.350501,51.84632],[4.350612,51.84632]]},"properties":{"name":"Waalstraat","highway":"unclassified","profile":"car","distance":"10844.25","time":"6180.247"}},{"type":"Feature","name":"ShapeMeta","geometry":{"type":"LineString","coordinates":[[4.350612,51.84632],[4.351506,51.84632],[4.351615,51.84628]]},"properties":{"name":"Waalstraat","highway":"unclassified","profile":"car","distance":"10914.6","time":"6187"}},{"type":"Feature","name":"ShapeMeta","geometry":{"type":"LineString","coordinates":[[4.351615,51.84628],[4.35351,51.84552],[4.353844,51.8451]]},"properties":{"name":"Waalstraat","highway":"unclassified","profile":"car","distance":"11121.75","time":"6386.886"}},{"type":"Feature","name":"ShapeMeta","geometry":{"type":"LineString","coordinates":[[4.353844,51.8451],[4.354144,51.84518]]},"properties":{"name":"Lekstraat","highway":"unclassified","profile":"car","distance":"11144.15","time":"6389.037"}},{"type":"Feature","name":"ShapeMeta","geometry":{"type":"LineString","coordinates":[[4.354144,51.84518],[4.3545,51.8447],[4.355381,51.84449]]},"properties":{"name":"Maasboulevard","highway":"unclassified","profile":"car","distance":"11268.03","time":"6400.929"}},{"type":"Feature","name":"ShapeMeta","geometry":{"type":"LineString","coordinates":[[4.355381,51.84449],[4.3545,51.8447],[4.354144,51.84518]]},"properties":{"name":"Maasboulevard","highway":"unclassified","profile":"car","distance":"11391.91","time":"6592.822"}},{"type":"Feature","name":"ShapeMeta","geometry":{"type":"LineString","coordinates":[[4.354144,51.84518],[4.353844,51.8451]]},"properties":{"name":"Lekstraat","highway":"unclassified","profile":"car","distance":"11414.31","time":"6594.972"}},{"type":"Feature","name":"ShapeMeta","geometry":{"type":"LineString","coordinates":[[4.353844,51.8451],[4.35351,51.84552],[4.353287,51.84561]]},"properties":{"name":"Waalstraat","highway":"unclassified","profile":"car","distance":"11484.91","time":"6601.75"}},{"type":"Feature","name":"ShapeMeta","geometry":{"type":"LineString","coordinates":[[4.353287,51.84561],[4.35351,51.84552],[4.353844,51.8451]]},"properties":{"name":"Waalstraat","highway":"unclassified","profile":"car","distance":"11555.51","time":"6788.528"}},{"type":"Feature","name":"ShapeMeta","geometry":{"type":"LineString","coordinates":[[4.353844,51.8451],[4.354144,51.84518]]},"properties":{"name":"Lekstraat","highway":"unclassified","profile":"car","distance":"11577.91","time":"6790.678"}},{"type":"Feature","name":"ShapeMeta","geometry":{"type":"LineString","coordinates":[[4.354144,51.84518],[4.3545,51.8447],[4.35539,51.84448]]},"properties":{"name":"Maasboulevard","highway":"unclassified","profile":"car","distance":"11702.41","time":"6802.63"}},{"type":"Feature","name":"ShapeMeta","geometry":{"type":"LineString","coordinates":[[4.35539,51.84448],[4.355716,51.84436],[4.357849,51.84365]]},"properties":{"name":"Maasboulevard","highway":"unclassified","maxspeed":"30","profile":"car","distance":"11894.81","time":"6833.415"}},{"type":"Feature","name":"ShapeMeta","geometry":{"type":"LineString","coordinates":[[4.357849,51.84365],[4.357891,51.84364]]},"properties":{"name":"Maasboulevard","highway":"unclassified","maxspeed":"30","profile":"car","distance":"11898.08","time":"6833.936"}},{"type":"Feature","name":"ShapeMeta","geometry":{"type":"LineString","coordinates":[[4.357891,51.84364],[4.357849,51.84365]]},"properties":{"name":"Maasboulevard","highway":"unclassified","maxspeed":"30","profile":"car","distance":"11901.34","time":"7014.458"}},{"type":"Feature","name":"ShapeMeta","geometry":{"type":"LineString","coordinates":[[4.357849,51.84365],[4.355716,51.84436],[4.35539,51.84448]]},"properties":{"name":"Maasboulevard","highway":"unclassified","maxspeed":"30","profile":"car","distance":"12093.74","time":"7045.242"}},{"type":"Feature","name":"ShapeMeta","geometry":{"type":"LineString","coordinates":[[4.35539,51.84448],[4.3545,51.8447],[4.354144,51.84518]]},"properties":{"name":"Maasboulevard","highway":"unclassified","profile":"car","distance":"12218.24","time":"7057.194"}},{"type":"Feature","name":"ShapeMeta","geometry":{"type":"LineString","coordinates":[[4.354144,51.84518],[4.3538,51.8457],[4.3537,51.8458],[4.3529,51.8461],[4.351596,51.84663],[4.350595,51.84663]]},"properties":{"name":"Maasboulevard","highway":"unclassified","profile":"car","distance":"12534.14","time":"7087.52"}},{"type":"Feature","name":"ShapeMeta","geometry":{"type":"LineString","coordinates":[[4.350595,51.84663],[4.350499,51.84662]]},"properties":{"name":"Maasboulevard","highway":"unclassified","profile":"car","distance":"12540.74","time":"7088.154"}},{"type":"Feature","name":"ShapeMeta","geometry":{"type":"LineString","coordinates":[[4.350499,51.84662],[4.350496,51.84692],[4.350032,51.84719],[4.349958,51.84723]]},"properties":{"name":"Rivierlaan","highway":"unclassified","maxspeed":"50","profile":"car","distance":"12624.34","time":"7096.179"}},{"type":"Feature","name":"ShapeMeta","geometry":{"type":"LineString","coordinates":[[4.349958,51.84723],[4.349415,51.84723],[4.349012,51.84723]]},"properties":{"name":"Donaulaan","highway":"unclassified","maxspeed":"50","profile":"car","distance":"12689.24","time":"7102.41"}},{"type":"Feature","name":"ShapeMeta","geometry":{"type":"LineString","coordinates":[[4.349012,51.84723],[4.348893,51.84723]]},"properties":{"name":"Donaulaan","highway":"unclassified","maxspeed":"50","profile":"car","distance":"12697.44","time":"7103.197"}},{"type":"Feature","name":"ShapeMeta","geometry":{"type":"LineString","coordinates":[[4.348893,51.84723],[4.348896,51.84728]]},"properties":{"name":"Biesboschstraat","highway":"living_street","profile":"car","distance":"12703.74","time":"7109.245"}},{"type":"Feature","name":"ShapeMeta","geometry":{"type":"LineString","coordinates":[[4.348896,51.84728],[4.3489,51.8479]]},"properties":{"name":"Amerstraat","highway":"living_street","profile":"car","distance":"12772.44","time":"7175.197"}},{"type":"Feature","name":"ShapeMeta","geometry":{"type":"LineString","coordinates":[[4.3489,51.8479],[4.3489,51.8481]]},"properties":{"name":"Biesboschstraat","highway":"living_street","profile":"car","distance":"12794.49","time":"7196.367"}},{"type":"Feature","name":"ShapeMeta","geometry":{"type":"LineString","coordinates":[[4.3489,51.8481],[4.3489,51.8481],[4.347548,51.8481]]},"properties":{"name":"Biesboschstraat","highway":"living_street","profile":"car","distance":"12887.33","time":"7465.495"}},{"type":"Feature","name":"ShapeMeta","geometry":{"type":"LineString","coordinates":[[4.347548,51.8481],[4.3489,51.8481],[4.3489,51.8479]]},"properties":{"name":"Biesboschstraat","highway":"living_street","profile":"car","distance":"13002.22","time":"7755.793"}},{"type":"Feature","name":"ShapeMeta","geometry":{"type":"LineString","coordinates":[[4.3489,51.8479],[4.348896,51.84728]]},"properties":{"name":"Amerstraat","highway":"living_street","profile":"car","distance":"13070.92","time":"7821.745"}},{"type":"Feature","name":"ShapeMeta","geometry":{"type":"LineString","coordinates":[[4.348896,51.84728],[4.348893,51.84723]]},"properties":{"name":"Biesboschstraat","highway":"living_street","profile":"car","distance":"13077.22","time":"7827.793"}},{"type":"Feature","name":"ShapeMeta","geometry":{"type":"LineString","coordinates":[[4.348893,51.84723],[4.347544,51.84721]]},"properties":{"name":"Donaulaan","highway":"unclassified","maxspeed":"50","profile":"car","distance":"13169.82","time":"7836.683"}},{"type":"Feature","name":"ShapeMeta","geometry":{"type":"LineString","coordinates":[[4.347544,51.84721],[4.347535,51.84727]]},"properties":{"highway":"residential","profile":"car","distance":"13176.62","time":"7837.336"}},{"type":"Feature","name":"ShapeMeta","geometry":{"type":"LineString","coordinates":[[4.347535,51.84727],[4.347544,51.84721]]},"properties":{"highway":"residential","profile":"car","distance":"13183.42","time":"8017.989"}},{"type":"Feature","name":"ShapeMeta","geometry":{"type":"LineString","coordinates":[[4.347544,51.84721],[4.346646,51.84721]]},"properties":{"name":"Donaulaan","highway":"unclassified","maxspeed":"50","profile":"car","distance":"13245.02","time":"8023.902"}},{"type":"Feature","name":"ShapeMeta","geometry":{"type":"LineString","coordinates":[[4.346646,51.84721],[4.346645,51.84713]]},"properties":{"highway":"living_street","profile":"car","distance":"13254.72","time":"8033.214"}},{"type":"Feature","name":"ShapeMeta","geometry":{"type":"LineString","coordinates":[[4.346645,51.84713],[4.346697,51.84676],[4.347717,51.8461]]},"properties":{"name":"Amstelstraat","highway":"residential","profile":"car","distance":"13396.93","time":"8046.867"}},{"type":"Feature","name":"ShapeMeta","geometry":{"type":"LineString","coordinates":[[4.347717,51.8461],[4.346697,51.84676],[4.346645,51.84713]]},"properties":{"name":"Amstelstraat","highway":"residential","profile":"car","distance":"13539.14","time":"8240.52"}},{"type":"Feature","name":"ShapeMeta","geometry":{"type":"LineString","coordinates":[[4.346645,51.84713],[4.346646,51.84721]]},"properties":{"highway":"living_street","profile":"car","distance":"13548.84","time":"8249.832"}},{"type":"Feature","name":"ShapeMeta","geometry":{"type":"LineString","coordinates":[[4.346646,51.84721],[4.3461,51.8472]]},"properties":{"name":"Donaulaan","highway":"unclassified","maxspeed":"50","profile":"car","distance":"13586.34","time":"8253.432"}},{"type":"Feature","name":"ShapeMeta","geometry":{"type":"LineString","coordinates":[[4.3461,51.8472],[4.346098,51.84713],[4.346138,51.84668]]},"properties":{"name":"Rijnlaan","highway":"unclassified","maxspeed":"30","profile":"car","distance":"13644.04","time":"8262.664"}},{"type":"Feature","name":"ShapeMeta","geometry":{"type":"LineString","coordinates":[[4.346138,51.84668],[4.346048,51.84661],[4.345543,51.84628]]},"properties":{"name":"Rijnlaan","highway":"unclassified","maxspeed":"30","profile":"car","distance":"13704.54","time":"8272.344"}},{"type":"Feature","name":"ShapeMeta","geometry":{"type":"LineString","coordinates":[[4.345543,51.84628],[4.345771,51.84614]]},"properties":{"name":"Ahrstraat","highway":"residential","maxspeed":"30","profile":"car","distance":"13726.56","time":"8275.866"}},{"type":"Feature","name":"ShapeMeta","geometry":{"type":"LineString","coordinates":[[4.345771,51.84614],[4.345543,51.84628]]},"properties":{"name":"Ahrstraat","highway":"residential","maxspeed":"30","profile":"car","distance":"13748.58","time":"8459.389"}},{"type":"Feature","name":"ShapeMeta","geometry":{"type":"LineString","coordinates":[[4.345543,51.84628],[4.345017,51.84597]]},"properties":{"name":"Rijnlaan","highway":"unclassified","maxspeed":"30","profile":"car","distance":"13798.08","time":"8467.309"}},{"type":"Feature","name":"ShapeMeta","geometry":{"type":"LineString","coordinates":[[4.345017,51.84597],[4.344689,51.84575]]},"properties":{"name":"Rijnlaan","highway":"unclassified","maxspeed":"30","profile":"car","distance":"13831.98","time":"8472.732"}},{"type":"Feature","name":"ShapeMeta","geometry":{"type":"LineString","coordinates":[[4.344689,51.84575],[4.344969,51.84557],[4.344975,51.84557]]},"properties":{"name":"Neckarstraat","highway":"residential","maxspeed":"30","profile":"car","distance":"13859.6","time":"8477.152"}},{"type":"Feature","name":"ShapeMeta","geometry":{"type":"LineString","coordinates":[[4.344975,51.84557],[4.344969,51.84557],[4.344689,51.84575]]},"properties":{"name":"Neckarstraat","highway":"residential","maxspeed":"30","profile":"car","distance":"13887.22","time":"8661.571"}},{"type":"Feature","name":"ShapeMeta","geometry":{"type":"LineString","coordinates":[[4.344689,51.84575],[4.343998,51.84533],[4.343934,51.84529]]},"properties":{"name":"Rijnlaan","highway":"unclassified","maxspeed":"30","profile":"car","distance":"13959.92","time":"8673.204"}},{"type":"Feature","name":"ShapeMeta","geometry":{"type":"LineString","coordinates":[[4.343934,51.84529],[4.343448,51.84536],[4.3431,51.8456]]},"properties":{"name":"Ebrostraat","highway":"residential","maxspeed":"30","profile":"car","distance":"14029.82","time":"8684.388"}},{"type":"Feature","name":"ShapeMeta","geometry":{"type":"LineString","coordinates":[[4.3431,51.8456],[4.342484,51.84601]]},"properties":{"name":"Ebrostraat","highway":"residential","maxspeed":"30","profile":"car","distance":"14091.82","time":"8694.308"}},{"type":"Feature","name":"ShapeMeta","geometry":{"type":"LineString","coordinates":[[4.342484,51.84601],[4.342767,51.84619],[4.343916,51.84694],[4.343941,51.84697],[4.344029,51.84711]]},"properties":{"name":"Elbestraat","highway":"residential","maxspeed":"30","profile":"car","distance":"14255.72","time":"8900.531"}},{"type":"Feature","name":"ShapeMeta","geometry":{"type":"LineString","coordinates":[[4.344029,51.84711],[4.344078,51.8472]]},"properties":{"name":"Elbestraat","highway":"residential","profile":"car","distance":"14266.02","time":"8901.521"}},{"type":"Feature","name":"ShapeMeta","geometry":{"type":"LineString","coordinates":[[4.344078,51.8472],[4.3439,51.8473],[4.343564,51.84751]]},"properties":{"name":"Donaulaan","highway":"unclassified","maxspeed":"50","profile":"car","distance":"14315.32","time":"8906.253"}},{"type":"Feature","name":"ShapeMeta","geometry":{"type":"LineString","coordinates":[[4.343564,51.84751],[4.342893,51.84793]]},"properties":{"name":"Donaulaan","highway":"unclassified","maxspeed":"50","profile":"car","distance":"14380.82","time":"8912.541"}},{"type":"Feature","name":"ShapeMeta","geometry":{"type":"LineString","coordinates":[[4.342893,51.84793],[4.34281,51.84787],[4.342543,51.8477],[4.342034,51.84737]]},"properties":{"name":"Seinestraat","highway":"residential","profile":"car","distance":"14466.62","time":"8920.778"}},{"type":"Feature","name":"ShapeMeta","geometry":{"type":"LineString","coordinates":[[4.342034,51.84737],[4.34173,51.84752],[4.341685,51.84754],[4.341333,51.84753]]},"properties":{"name":"Rhônestraat","highway":"residential","maxspeed":"30","profile":"car","distance":"14521.44","time":"8929.55"}},{"type":"Feature","name":"ShapeMeta","geometry":{"type":"LineString","coordinates":[[4.341333,51.84753],[4.340586,51.84752],[4.340288,51.84734]]},"properties":{"name":"Rhônestraat","highway":"residential","maxspeed":"30","profile":"car","distance":"14601.62","time":"9122.378"}},{"type":"Feature","name":"ShapeMeta","geometry":{"type":"LineString","coordinates":[[4.340288,51.84734],[4.339959,51.84753],[4.339936,51.84761],[4.339946,51.84796],[4.33994,51.84805]]},"properties":{"name":"Seinestraat","highway":"residential","maxspeed":"30","profile":"car","distance":"14690.32","time":"9136.57"}},{"type":"Feature","name":"ShapeMeta","geometry":{"type":"LineString","coordinates":[[4.33994,51.84805],[4.339949,51.84815]]},"properties":{"name":"Seinestraat","highway":"residential","profile":"car","distance":"14701.72","time":"9137.665"}},{"type":"Feature","name":"ShapeMeta","geometry":{"type":"LineString","coordinates":[[4.339949,51.84815],[4.339942,51.84821]]},"properties":{"name":"Oude Maasweg","highway":"unclassified","profile":"car","distance":"14708.02","time":"9138.27"}},{"type":"Feature","name":"ShapeMeta","geometry":{"type":"LineString","coordinates":[[4.339942,51.84821],[4.339941,51.84828],[4.339931,51.84838]]},"properties":{"name":"Oude Maasweg","highway":"unclassified","profile":"car","distance":"14727.12","time":"9140.104"}},{"type":"Feature","name":"ShapeMeta","geometry":{"type":"LineString","coordinates":[[4.339931,51.84838],[4.342422,51.84838],[4.342572,51.84838],[4.3428,51.8485],[4.343182,51.84875]]},"properties":{"name":"Theemsweg","highway":"residential","profile":"car","distance":"14967.52","time":"9163.182"}},{"type":"Feature","name":"ShapeMeta","geometry":{"type":"LineString","coordinates":[[4.343182,51.84875],[4.343457,51.84892]]},"properties":{"name":"Groenoord","highway":"residential","profile":"car","distance":"14993.72","time":"9165.696"}},{"type":"Feature","name":"ShapeMeta","geometry":{"type":"LineString","coordinates":[[4.343457,51.84892],[4.343237,51.84914]]},"properties":{"name":"Groenoord","highway":"residential","profile":"car","distance":"15022.52","time":"9168.462"}},{"type":"Feature","name":"ShapeMeta","geometry":{"type":"LineString","coordinates":[[4.343237,51.84914],[4.34311,51.84925],[4.34225,51.84966],[4.342212,51.84968]]},"properties":{"name":"Groenoord","highway":"residential","profile":"car","distance":"15115.56","time":"9177.394"}},{"type":"Feature","name":"ShapeMeta","geometry":{"type":"LineString","coordinates":[[4.342212,51.84968],[4.34225,51.84966],[4.34311,51.84925],[4.343237,51.84914]]},"properties":{"name":"Groenoord","highway":"residential","profile":"car","distance":"15208.6","time":"9366.326"}},{"type":"Feature","name":"ShapeMeta","geometry":{"type":"LineString","coordinates":[[4.343237,51.84914],[4.343457,51.84892]]},"properties":{"name":"Groenoord","highway":"residential","profile":"car","distance":"15237.4","time":"9369.091"}},{"type":"Feature","name":"ShapeMeta","geometry":{"type":"LineString","coordinates":[[4.343457,51.84892],[4.34341,51.84889]]},"properties":{"name":"Groenoord","highway":"residential","profile":"car","distance":"15241.86","time":"9369.519"}},{"type":"Feature","name":"ShapeMeta","geometry":{"type":"LineString","coordinates":[[4.34341,51.84889],[4.343182,51.84875]]},"properties":{"name":"Groenoord","highway":"residential","profile":"car","distance":"15263.6","time":"9551.605"}},{"type":"Feature","name":"ShapeMeta","geometry":{"type":"LineString","coordinates":[[4.343182,51.84875],[4.3428,51.8485],[4.342572,51.84838],[4.342422,51.84838],[4.339931,51.84838]]},"properties":{"name":"Theemsweg","highway":"residential","profile":"car","distance":"15504","time":"9574.685"}},{"type":"Feature","name":"ShapeMeta","geometry":{"type":"LineString","coordinates":[[4.339931,51.84838],[4.339941,51.84828],[4.339942,51.84821]]},"properties":{"name":"Oude Maasweg","highway":"unclassified","profile":"car","distance":"15523.1","time":"9576.518"}},{"type":"Feature","name":"ShapeMeta","geometry":{"type":"LineString","coordinates":[[4.339942,51.84821],[4.339718,51.84821]]},"properties":{"name":"Donaulaan","highway":"unclassified","maxspeed":"50","oneway":"yes","profile":"car","distance":"15538.5","time":"9577.996"}},{"type":"Feature","name":"ShapeMeta","geometry":{"type":"LineString","coordinates":[[4.339718,51.84821],[4.339446,51.8482],[4.338929,51.84819]]},"properties":{"name":"Donaulaan","highway":"unclassified","maxspeed":"50","oneway":"yes","profile":"car","distance":"15592.7","time":"9583.199"}},{"type":"Feature","name":"ShapeMeta","geometry":{"type":"LineString","coordinates":[[4.338929,51.84819],[4.33885,51.84818],[4.338763,51.84817],[4.338435,51.84813]]},"properties":{"name":"Donaulaan","highway":"unclassified","maxspeed":"50","oneway":"yes","profile":"car","distance":"15627.3","time":"9586.521"}},{"type":"Feature","name":"ShapeMeta","geometry":{"type":"LineString","coordinates":[[4.338435,51.84813],[4.338263,51.84808]]},"properties":{"maxspeed":"50","oneway":"yes","highway":"tertiary_link","profile":"car","distance":"15640.2","time":"9587.76"}},{"type":"Feature","name":"ShapeMeta","geometry":{"type":"LineString","coordinates":[[4.338263,51.84808],[4.338108,51.84803]]},"properties":{"name":"Ruwaard van Puttenweg","maxspeed":"50","highway":"tertiary","oneway":"yes","profile":"car","distance":"15652.1","time":"9588.901"}},{"type":"Feature","name":"ShapeMeta","geometry":{"type":"LineString","coordinates":[[4.338108,51.84803],[4.337734,51.84794]]},"properties":{"name":"Ruwaard van Puttenweg","maxspeed":"50","highway":"tertiary","oneway":"yes","profile":"car","distance":"15679.7","time":"9591.552"}},{"type":"Feature","name":"ShapeMeta","geometry":{"type":"LineString","coordinates":[[4.337734,51.84794],[4.337349,51.84785],[4.337033,51.84776],[4.336783,51.84769]]},"properties":{"name":"Ruwaard van Puttenweg","maxspeed":"50","highway":"tertiary","oneway":"yes","profile":"car","distance":"15750.9","time":"9598.387"}},{"type":"Feature","name":"ShapeMeta","geometry":{"type":"LineString","coordinates":[[4.336783,51.84769],[4.336349,51.84756],[4.336016,51.84742],[4.335873,51.84734]]},"properties":{"name":"Ruwaard van Puttenweg","maxspeed":"50","highway":"tertiary","oneway":"yes","profile":"car","distance":"15824.9","time":"9605.49"}},{"type":"Feature","name":"ShapeMeta","geometry":{"type":"LineString","coordinates":[[4.335873,51.84734],[4.335759,51.84726],[4.335579,51.84713],[4.335454,51.84701]]},"properties":{"name":"Ruwaard van Puttenweg","maxspeed":"50","highway":"tertiary","oneway":"yes","profile":"car","distance":"15871.4","time":"9609.954"}},{"type":"Feature","name":"ShapeMeta","geometry":{"type":"LineString","coordinates":[[4.335454,51.84701],[4.335348,51.8469]]},"properties":{"name":"Ruwaard van Puttenweg","maxspeed":"50","highway":"tertiary","oneway":"yes","profile":"car","distance":"15886","time":"9611.356"}},{"type":"Feature","name":"ShapeMeta","geometry":{"type":"LineString","coordinates":[[4.335348,51.8469],[4.335173,51.84698],[4.33511,51.84701],[4.334812,51.84714]]},"properties":{"name":"Centrumlaan","highway":"residential","maxspeed":"50","oneway":"yes","profile":"car","distance":"15931.5","time":"9615.725"}},{"type":"Feature","name":"ShapeMeta","geometry":{"type":"LineString","coordinates":[[4.334812,51.84714],[4.334324,51.84732],[4.333602,51.84757]]},"properties":{"name":"Centrumlaan","highway":"residential","maxspeed":"50","oneway":"yes","profile":"car","distance":"16027.6","time":"9624.95"}},{"type":"Feature","name":"ShapeMeta","geometry":{"type":"LineString","coordinates":[[4.333602,51.84757],[4.333279,51.84769],[4.332897,51.8478]]},"properties":{"name":"Centrumlaan","highway":"residential","maxspeed":"50","oneway":"yes","profile":"car","distance":"16082.4","time":"9630.211"}},{"type":"Feature","name":"ShapeMeta","geometry":{"type":"LineString","coordinates":[[4.332897,51.8478],[4.332326,51.84809]]},"properties":{"name":"Centrumlaan","highway":"residential","maxspeed":"50","profile":"car","distance":"16132.9","time":"9635.059"}},{"type":"Feature","name":"ShapeMeta","geometry":{"type":"LineString","coordinates":[[4.332326,51.84809],[4.331856,51.84834],[4.331668,51.84846],[4.331352,51.84873],[4.33128,51.8488]]},"properties":{"name":"Centrumlaan","highway":"residential","maxspeed":"50","profile":"car","distance":"16240.5","time":"9645.388"}},{"type":"Feature","name":"ShapeMeta","geometry":{"type":"LineString","coordinates":[[4.33128,51.8488],[4.33132,51.84882],[4.331369,51.84888],[4.331368,51.84894],[4.331348,51.84897]]},"properties":{"name":"Centrumrotonde","highway":"unclassified","maxspeed":"50","oneway":"yes","junction":"roundabout","profile":"car","distance":"16262.1","time":"9647.462"}},{"type":"Feature","name":"ShapeMeta","geometry":{"type":"LineString","coordinates":[[4.331348,51.84897],[4.331888,51.84911],[4.332486,51.84933],[4.332723,51.84946]]},"properties":{"name":"Doctor J M den Uyllaan","highway":"unclassified","maxspeed":"50","oneway":"yes","profile":"car","distance":"16371.4","time":"9657.955"}},{"type":"Feature","name":"ShapeMeta","geometry":{"type":"LineString","coordinates":[[4.332723,51.84946],[4.332773,51.84948],[4.333046,51.84968],[4.33317,51.84978]]},"properties":{"name":"Doctor J M den Uyllaan","highway":"unclassified","maxspeed":"50","oneway":"yes","profile":"car","distance":"16419.2","time":"9842.544"}},{"type":"Feature","name":"ShapeMeta","geometry":{"type":"LineString","coordinates":[[4.33317,51.84978],[4.333248,51.84985]]},"properties":{"name":"Doctor J M den Uyllaan","highway":"unclassified","maxspeed":"50","oneway":"yes","profile":"car","distance":"16428.5","time":"9843.437"}},{"type":"Feature","name":"ShapeMeta","geometry":{"type":"LineString","coordinates":[[4.333248,51.84985],[4.333157,51.8499]]},"properties":{"name":"Gorsstraat","highway":"residential","oneway":"yes","profile":"car","distance":"16436.3","time":"9844.186"}},{"type":"Feature","name":"ShapeMeta","geometry":{"type":"LineString","coordinates":[[4.333157,51.8499],[4.33298,51.84998]]},"properties":{"name":"Gorsstraat","highway":"residential","oneway":"yes","profile":"car","distance":"16451.6","time":"9845.654"}},{"type":"Feature","name":"ShapeMeta","geometry":{"type":"LineString","coordinates":[[4.33298,51.84998],[4.332641,51.8501]]},"properties":{"name":"Gorsstraat","highway":"residential","oneway":"yes","profile":"car","distance":"16478.5","time":"9848.236"}},{"type":"Feature","name":"ShapeMeta","geometry":{"type":"LineString","coordinates":[[4.332641,51.8501],[4.332226,51.85023]]},"properties":{"name":"Gorsstraat","highway":"residential","maxspeed":"30","profile":"car","distance":"16510.6","time":"9853.372"}},{"type":"Feature","name":"ShapeMeta","geometry":{"type":"LineString","coordinates":[[4.332226,51.85023],[4.332183,51.8502],[4.332135,51.84998]]},"properties":{"name":"Gorsstraat","highway":"service","profile":"car","distance":"16539.7","time":"9858.028"}},{"type":"Feature","name":"ShapeMeta","geometry":{"type":"LineString","coordinates":[[4.332135,51.84998],[4.332183,51.8502],[4.332226,51.85023]]},"properties":{"name":"Gorsstraat","highway":"service","profile":"car","distance":"16568.8","time":"10042.69"}},{"type":"Feature","name":"ShapeMeta","geometry":{"type":"LineString","coordinates":[[4.332226,51.85023],[4.332108,51.85028]]},"properties":{"name":"Gorsstraat","highway":"residential","maxspeed":"30","profile":"car","distance":"16578.1","time":"10044.17"}},{"type":"Feature","name":"ShapeMeta","geometry":{"type":"LineString","coordinates":[[4.332108,51.85028],[4.332148,51.85034],[4.332422,51.85058]]},"properties":{"name":"Kolkplein","highway":"service","profile":"car","distance":"16618.1","time":"10050.57"}},{"type":"Feature","name":"ShapeMeta","geometry":{"type":"LineString","coordinates":[[4.332422,51.85058],[4.332453,51.85065]]},"properties":{"name":"Kolkplein","highway":"service","profile":"car","distance":"16626.8","time":"10051.97"}},{"type":"Feature","name":"ShapeMeta","geometry":{"type":"LineString","coordinates":[[4.332453,51.85065],[4.332321,51.85073],[4.332001,51.85083],[4.331883,51.8507]]},"properties":{"name":"Damstraat","highway":"service","profile":"car","distance":"16679.7","time":"10060.43"}},{"type":"Feature","name":"ShapeMeta","geometry":{"type":"LineString","coordinates":[[4.331883,51.8507],[4.331703,51.85074]]},"properties":{"name":"Damstraat","highway":"service","profile":"car","distance":"16692.8","time":"10062.53"}},{"type":"Feature","name":"ShapeMeta","geometry":{"type":"LineString","coordinates":[[4.331703,51.85074],[4.331474,51.8508]]},"properties":{"name":"Damstraat","highway":"service","profile":"car","distance":"16709.7","time":"10065.23"}},{"type":"Feature","name":"ShapeMeta","geometry":{"type":"LineString","coordinates":[[4.331474,51.8508],[4.331285,51.85085]]},"properties":{"name":"Damstraat","highway":"service","profile":"car","distance":"16723.6","time":"10067.45"}},{"type":"Feature","name":"ShapeMeta","geometry":{"type":"LineString","coordinates":[[4.331285,51.85085],[4.331474,51.8508]]},"properties":{"name":"Damstraat","highway":"service","profile":"car","distance":"16737.5","time":"10249.67"}},{"type":"Feature","name":"ShapeMeta","geometry":{"type":"LineString","coordinates":[[4.331474,51.8508],[4.331703,51.85074]]},"properties":{"name":"Damstraat","highway":"service","profile":"car","distance":"16754.4","time":"10252.38"}},{"type":"Feature","name":"ShapeMeta","geometry":{"type":"LineString","coordinates":[[4.331703,51.85074],[4.331883,51.8507]]},"properties":{"name":"Damstraat","highway":"service","profile":"car","distance":"16767.5","time":"10254.47"}},{"type":"Feature","name":"ShapeMeta","geometry":{"type":"LineString","coordinates":[[4.331883,51.8507],[4.332001,51.85083],[4.332321,51.85073],[4.332453,51.85065]]},"properties":{"name":"Damstraat","highway":"service","profile":"car","distance":"16820.4","time":"10262.94"}},{"type":"Feature","name":"ShapeMeta","geometry":{"type":"LineString","coordinates":[[4.332453,51.85065],[4.332422,51.85058]]},"properties":{"name":"Kolkplein","highway":"service","profile":"car","distance":"16829.1","time":"10264.33"}},{"type":"Feature","name":"ShapeMeta","geometry":{"type":"LineString","coordinates":[[4.332422,51.85058],[4.332148,51.85034],[4.332108,51.85028]]},"properties":{"name":"Kolkplein","highway":"service","profile":"car","distance":"16869.1","time":"10270.73"}},{"type":"Feature","name":"ShapeMeta","geometry":{"type":"LineString","coordinates":[[4.332108,51.85028],[4.331715,51.85038]]},"properties":{"name":"Gorsstraat","highway":"residential","maxspeed":"30","profile":"car","distance":"16898.5","time":"10275.43"}},{"type":"Feature","name":"ShapeMeta","geometry":{"type":"LineString","coordinates":[[4.331715,51.85038],[4.331677,51.85033],[4.331636,51.85027],[4.33103,51.85031]]},"properties":{"highway":"service","profile":"car","distance":"16954.2","time":"10284.35"}},{"type":"Feature","name":"ShapeMeta","geometry":{"type":"LineString","coordinates":[[4.33103,51.85031],[4.331636,51.85027],[4.331677,51.85033],[4.331715,51.85038]]},"properties":{"highway":"service","profile":"car","distance":"17009.9","time":"10473.26"}},{"type":"Feature","name":"ShapeMeta","geometry":{"type":"LineString","coordinates":[[4.331715,51.85038],[4.331476,51.85044],[4.331225,51.85048],[4.330701,51.85053]]},"properties":{"name":"Gorsstraat","highway":"residential","maxspeed":"30","profile":"car","distance":"17081.7","time":"10484.75"}},{"type":"Feature","name":"ShapeMeta","geometry":{"type":"LineString","coordinates":[[4.330701,51.85053],[4.330697,51.85058],[4.33073,51.85077],[4.330822,51.8509],[4.330999,51.85117]]},"properties":{"name":"Gorsstraat","highway":"residential","profile":"car","distance":"17156.63","time":"10491.94"}},{"type":"Feature","name":"ShapeMeta","geometry":{"type":"LineString","coordinates":[[4.330999,51.85117],[4.331004,51.85118]]},"properties":{"name":"Gorsstraat","highway":"residential","profile":"car","distance":"17157.48","time":"10672.02"}},{"type":"Feature","name":"ShapeMeta","geometry":{"type":"LineString","coordinates":[[4.331004,51.85118],[4.330822,51.8509],[4.33073,51.85077],[4.330697,51.85058],[4.330701,51.85053]]},"properties":{"name":"Gorsstraat","highway":"residential","profile":"car","distance":"17233.26","time":"10859.29"}},{"type":"Feature","name":"ShapeMeta","geometry":{"type":"LineString","coordinates":[[4.330701,51.85053],[4.33042,51.85056]]},"properties":{"name":"Gorsstraat","highway":"residential","maxspeed":"30","profile":"car","distance":"17252.66","time":"10862.4"}},{"type":"Feature","name":"ShapeMeta","geometry":{"type":"LineString","coordinates":[[4.33042,51.85056],[4.329352,51.85061]]},"properties":{"name":"Gorsstraat","highway":"residential","maxspeed":"30","profile":"car","distance":"17326.26","time":"10874.17"}},{"type":"Feature","name":"ShapeMeta","geometry":{"type":"LineString","coordinates":[[4.329352,51.85061],[4.329322,51.85065],[4.329141,51.8509]]},"properties":{"name":"Noordkade","highway":"residential","maxspeed":"30","profile":"car","distance":"17361.96","time":"10879.89"}},{"type":"Feature","name":"ShapeMeta","geometry":{"type":"LineString","coordinates":[[4.329141,51.8509],[4.328942,51.85114]]},"properties":{"name":"Noordkade","highway":"residential","maxspeed":"30","profile":"car","distance":"17392.26","time":"10884.73"}},{"type":"Feature","name":"ShapeMeta","geometry":{"type":"LineString","coordinates":[[4.328942,51.85114],[4.328838,51.85121]]},"properties":{"name":"Noordkade","highway":"residential","maxspeed":"30","profile":"car","distance":"17402.36","time":"10886.35"}},{"type":"Feature","name":"ShapeMeta","geometry":{"type":"LineString","coordinates":[[4.328838,51.85121],[4.32871,51.85123]]},"properties":{"name":"Noordkade","highway":"residential","maxspeed":"30","profile":"car","distance":"17411.54","time":"10887.82"}},{"type":"Feature","name":"ShapeMeta","geometry":{"type":"LineString","coordinates":[[4.32871,51.85123],[4.328696,51.85123],[4.328546,51.85124]]},"properties":{"name":"Noordkade","highway":"residential","maxspeed":"30","profile":"car","distance":"17422.76","time":"11069.62"}},{"type":"Feature","name":"ShapeMeta","geometry":{"type":"LineString","coordinates":[[4.328546,51.85124],[4.328413,51.85122],[4.328269,51.85118],[4.328048,51.85108],[4.32791,51.85096],[4.327793,51.8508],[4.32772,51.85061]]},"properties":{"name":"Oostkade","highway":"residential","profile":"car","distance":"17519.56","time":"11078.91"}},{"type":"Feature","name":"ShapeMeta","geometry":{"type":"LineString","coordinates":[[4.32772,51.85061],[4.327698,51.85055],[4.327627,51.85034],[4.327489,51.85014],[4.327439,51.85012]]},"properties":{"name":"Oostkade","highway":"residential","profile":"car","distance":"17578.56","time":"11084.57"}},{"type":"Feature","name":"ShapeMeta","geometry":{"type":"LineString","coordinates":[[4.327439,51.85012],[4.327358,51.85014],[4.327279,51.85016]]},"properties":{"name":"Kaaistraat","highway":"residential","profile":"car","distance":"17590.56","time":"11085.72"}},{"type":"Feature","name":"ShapeMeta","geometry":{"type":"LineString","coordinates":[[4.327279,51.85016],[4.326955,51.84972],[4.326699,51.84947],[4.3267,51.84941],[4.326747,51.84937],[4.32674,51.84935]]},"properties":{"name":"Rademacherstraat","highway":"service","profile":"car","distance":"17692.28","time":"11102"}},{"type":"Feature","name":"ShapeMeta","geometry":{"type":"LineString","coordinates":[[4.32674,51.84935],[4.326747,51.84937],[4.3267,51.84941],[4.326699,51.84947],[4.326955,51.84972],[4.327279,51.85016]]},"properties":{"name":"Rademacherstraat","highway":"service","profile":"car","distance":"17794","time":"11298.28"}},{"type":"Feature","name":"ShapeMeta","geometry":{"type":"LineString","coordinates":[[4.327279,51.85016],[4.327358,51.85014],[4.327439,51.85012]]},"properties":{"name":"Kaaistraat","highway":"residential","profile":"car","distance":"17806","time":"11299.43"}},{"type":"Feature","name":"ShapeMeta","geometry":{"type":"LineString","coordinates":[[4.327439,51.85012],[4.327489,51.85014],[4.327627,51.85034],[4.327698,51.85055],[4.32772,51.85061]]},"properties":{"name":"Oostkade","highway":"residential","profile":"car","distance":"17865","time":"11305.09"}},{"type":"Feature","name":"ShapeMeta","geometry":{"type":"LineString","coordinates":[[4.32772,51.85061],[4.327793,51.8508],[4.32791,51.85096],[4.328048,51.85108],[4.328269,51.85118],[4.328413,51.85122],[4.328546,51.85124]]},"properties":{"name":"Oostkade","highway":"residential","profile":"car","distance":"17961.8","time":"11314.38"}},{"type":"Feature","name":"ShapeMeta","geometry":{"type":"LineString","coordinates":[[4.328546,51.85124],[4.328696,51.85123]]},"properties":{"name":"Noordkade","highway":"residential","maxspeed":"30","profile":"car","distance":"17972.08","time":"11316.03"}},{"type":"Feature","name":"ShapeMeta","geometry":{"type":"LineString","coordinates":[[4.328696,51.85123],[4.328696,51.85123],[4.328838,51.85121]]},"properties":{"name":"Noordkade","highway":"residential","maxspeed":"30","profile":"car","distance":"17982.2","time":"11497.65"}},{"type":"Feature","name":"ShapeMeta","geometry":{"type":"LineString","coordinates":[[4.328838,51.85121],[4.328942,51.85114]]},"properties":{"name":"Noordkade","highway":"residential","maxspeed":"30","profile":"car","distance":"17992.3","time":"11499.27"}},{"type":"Feature","name":"ShapeMeta","geometry":{"type":"LineString","coordinates":[[4.328942,51.85114],[4.329141,51.8509]]},"properties":{"name":"Noordkade","highway":"residential","maxspeed":"30","profile":"car","distance":"18022.6","time":"11504.11"}},{"type":"Feature","name":"ShapeMeta","geometry":{"type":"LineString","coordinates":[[4.329141,51.8509],[4.329322,51.85065],[4.329352,51.85061]]},"properties":{"name":"Noordkade","highway":"residential","maxspeed":"30","profile":"car","distance":"18058.3","time":"11509.83"}},{"type":"Feature","name":"ShapeMeta","geometry":{"type":"LineString","coordinates":[[4.329352,51.85061],[4.329329,51.85047]]},"properties":{"highway":"service","profile":"car","distance":"18073.21","time":"11512.21"}},{"type":"Feature","name":"ShapeMeta","geometry":{"type":"LineString","coordinates":[[4.329329,51.85047],[4.329352,51.85061]]},"properties":{"highway":"service","profile":"car","distance":"18088.12","time":"11694.59"}},{"type":"Feature","name":"ShapeMeta","geometry":{"type":"LineString","coordinates":[[4.329352,51.85061],[4.329581,51.85059]]},"properties":{"name":"Gorsstraat","highway":"residential","maxspeed":"30","profile":"car","distance":"18103.92","time":"11697.12"}},{"type":"Feature","name":"Stop","Shape":"0","geometry":{"type":"Point","coordinates":[4.32958,51.85055]},"properties":{"index":"33","distance":"0","time":"0","cost_time":"180"}},{"type":"Feature","name":"Stop","Shape":"36","geometry":{"type":"Point","coordinates":[4.341386,51.8541]},"properties":{"index":"38","distance":"1037.803","time":"124.9285","cost_time":"180"}},{"type":"Feature","name":"Stop","Shape":"37","geometry":{"type":"Point","coordinates":[4.342041,51.85342]},"properties":{"index":"39","distance":"1124.707","time":"318.8331","cost_time":"180"}},{"type":"Feature","name":"Stop","Shape":"42","geometry":{"type":"Point","coordinates":[4.343845,51.85194]},"properties":{"index":"42","distance":"1324.738","time":"530.838","cost_time":"180"}},{"type":"Feature","name":"Stop","Shape":"46","geometry":{"type":"Point","coordinates":[4.342323,51.85313]},"properties":{"index":"40","distance":"1490.702","time":"737.3922","cost_time":"180"}},{"type":"Feature","name":"Stop","Shape":"48","geometry":{"type":"Point","coordinates":[4.342957,51.85265]},"properties":{"index":"41","distance":"1559.555","time":"928.4087","cost_time":"180"}},{"type":"Feature","name":"Stop","Shape":"87","geometry":{"type":"Point","coordinates":[4.33011,51.85273]},"properties":{"index":"2","distance":"2789.418","time":"1249.857","cost_time":"180"}},{"type":"Feature","name":"Stop","Shape":"119","geometry":{"type":"Point","coordinates":[4.32483,51.85242]},"properties":{"index":"26","distance":"3580.604","time":"1494.788","cost_time":"180"}},{"type":"Feature","name":"Stop","Shape":"139","geometry":{"type":"Point","coordinates":[4.324408,51.84981]},"properties":{"index":"27","distance":"4028.829","time":"1726.029","cost_time":"180"}},{"type":"Feature","name":"Stop","Shape":"150","geometry":{"type":"Point","coordinates":[4.323657,51.84894]},"properties":{"index":"165","distance":"4418.696","time":"1955.097","cost_time":"180"}},{"type":"Feature","name":"Stop","Shape":"160","geometry":{"type":"Point","coordinates":[4.325234,51.8498]},"properties":{"index":"166","distance":"4605.008","time":"2161.208","cost_time":"180"}},{"type":"Feature","name":"Stop","Shape":"174","geometry":{"type":"Point","coordinates":[4.327262,51.84854]},"properties":{"index":"0","distance":"4868.986","time":"2383.445","cost_time":"180"}},{"type":"Feature","name":"Stop","Shape":"203","geometry":{"type":"Point","coordinates":[4.330801,51.84913]},"properties":{"index":"1","distance":"5297.393","time":"2614.333","cost_time":"180"}},{"type":"Feature","name":"Stop","Shape":"216","geometry":{"type":"Point","coordinates":[4.329151,51.84929]},"properties":{"index":"168","distance":"5515.842","time":"2816.321","cost_time":"180"}},{"type":"Feature","name":"Stop","Shape":"218","geometry":{"type":"Point","coordinates":[4.32926,51.84949]},"properties":{"index":"167","distance":"5535.871","time":"2998.244","cost_time":"180"}},{"type":"Feature","name":"Stop","Shape":"258","geometry":{"type":"Point","coordinates":[4.339583,51.84489]},"properties":{"index":"174","distance":"6491.22","time":"3269.958","cost_time":"180"}},{"type":"Feature","name":"Stop","Shape":"264","geometry":{"type":"Point","coordinates":[4.33772,51.84556]},"properties":{"index":"173","distance":"6664.614","time":"3480.893","cost_time":"180"}},{"type":"Feature","name":"Stop","Shape":"308","geometry":{"type":"Point","coordinates":[4.3449,51.84711]},"properties":{"index":"90","distance":"7626.537","time":"3767.526","cost_time":"180"}},{"type":"Feature","name":"Stop","Shape":"323","geometry":{"type":"Point","coordinates":[4.349674,51.84666]},"properties":{"index":"93","distance":"8026.17","time":"3992.415","cost_time":"180"}},{"type":"Feature","name":"Stop","Shape":"342","geometry":{"type":"Point","coordinates":[4.3559,51.84351]},"properties":{"index":"105","distance":"8733.385","time":"4269.032","cost_time":"180"}},{"type":"Feature","name":"Stop","Shape":"346","geometry":{"type":"Point","coordinates":[4.355694,51.84275]},"properties":{"index":"107","distance":"8847.333","time":"4467.264","cost_time":"180"}},{"type":"Feature","name":"Stop","Shape":"354","geometry":{"type":"Point","coordinates":[4.353333,51.84256]},"properties":{"index":"108","distance":"9060.555","time":"4681.379","cost_time":"180"}},{"type":"Feature","name":"Stop","Shape":"358","geometry":{"type":"Point","coordinates":[4.352472,51.84325]},"properties":{"index":"109","distance":"9218.358","time":"4886.627","cost_time":"180"}},{"type":"Feature","name":"Stop","Shape":"369","geometry":{"type":"Point","coordinates":[4.355693,51.84278]},"properties":{"index":"106","distance":"9589.384","time":"5125.991","cost_time":"180"}},{"type":"Feature","name":"Stop","Shape":"376","geometry":{"type":"Point","coordinates":[4.353826,51.84376]},"properties":{"index":"104","distance":"9804.196","time":"5340.361","cost_time":"180"}},{"type":"Feature","name":"Stop","Shape":"385","geometry":{"type":"Point","coordinates":[4.351015,51.84405]},"properties":{"index":"103","distance":"10016.81","time":"5554.38","cost_time":"180"}},{"type":"Feature","name":"Stop","Shape":"390","geometry":{"type":"Point","coordinates":[4.3515,51.84336]},"properties":{"index":"110","distance":"10145.32","time":"5749.15","cost_time":"180"}},{"type":"Feature","name":"Stop","Shape":"407","geometry":{"type":"Point","coordinates":[4.34875,51.84561]},"properties":{"index":"94","distance":"10619.08","time":"5978.631","cost_time":"180"}},{"type":"Feature","name":"Stop","Shape":"418","geometry":{"type":"Point","coordinates":[4.351639,51.84633]},"properties":{"index":"95","distance":"10914.6","time":"6187","cost_time":"180"}},{"type":"Feature","name":"Stop","Shape":"423","geometry":{"type":"Point","coordinates":[4.355392,51.84453]},"properties":{"index":"98","distance":"11268.03","time":"6400.929","cost_time":"180"}},{"type":"Feature","name":"Stop","Shape":"428","geometry":{"type":"Point","coordinates":[4.353306,51.84566]},"properties":{"index":"96","distance":"11484.91","time":"6601.75","cost_time":"180"}},{"type":"Feature","name":"Stop","Shape":"436","geometry":{"type":"Point","coordinates":[4.3579,51.84365]},"properties":{"index":"97","distance":"11898.08","time":"6833.936","cost_time":"180"}},{"type":"Feature","name":"Stop","Shape":"456","geometry":{"type":"Point","coordinates":[4.348944,51.84811]},"properties":{"index":"46","distance":"12794.49","time":"7196.367","cost_time":"180"}},{"type":"Feature","name":"Stop","Shape":"458","geometry":{"type":"Point","coordinates":[4.347548,51.84808]},"properties":{"index":"45","distance":"12887.33","time":"7465.495","cost_time":"180"}},{"type":"Feature","name":"Stop","Shape":"464","geometry":{"type":"Point","coordinates":[4.347611,51.84736]},"properties":{"index":"92","distance":"13176.62","time":"7837.336","cost_time":"180"}},{"type":"Feature","name":"Stop","Shape":"469","geometry":{"type":"Point","coordinates":[4.347722,51.84611]},"properties":{"index":"91","distance":"13396.93","time":"8046.867","cost_time":"180"}},{"type":"Feature","name":"Stop","Shape":"478","geometry":{"type":"Point","coordinates":[4.34575,51.84611]},"properties":{"index":"44","distance":"13726.56","time":"8275.866","cost_time":"180"}},{"type":"Feature","name":"Stop","Shape":"483","geometry":{"type":"Point","coordinates":[4.344944,51.84552]},"properties":{"index":"88","distance":"13859.6","time":"8477.152","cost_time":"180"}},{"type":"Feature","name":"Stop","Shape":"490","geometry":{"type":"Point","coordinates":[4.342411,51.84598]},"properties":{"index":"89","distance":"14091.82","time":"8694.308","cost_time":"180"}},{"type":"Feature","name":"Stop","Shape":"504","geometry":{"type":"Point","coordinates":[4.341333,51.8475]},"properties":{"index":"43","distance":"14521.44","time":"8929.55","cost_time":"180"}},{"type":"Feature","name":"Stop","Shape":"523","geometry":{"type":"Point","coordinates":[4.342278,51.84978]},"properties":{"index":"171","distance":"15115.56","time":"9177.394","cost_time":"180"}},{"type":"Feature","name":"Stop","Shape":"528","geometry":{"type":"Point","coordinates":[4.343444,51.84883]},"properties":{"index":"172","distance":"15241.86","time":"9369.519","cost_time":"180"}},{"type":"Feature","name":"Stop","Shape":"573","geometry":{"type":"Point","coordinates":[4.332752,51.8494]},"properties":{"index":"169","distance":"16371.4","time":"9657.955","cost_time":"180"}},{"type":"Feature","name":"Stop","Shape":"583","geometry":{"type":"Point","coordinates":[4.33203,51.85001]},"properties":{"index":"170","distance":"16539.7","time":"9858.028","cost_time":"180"}},{"type":"Feature","name":"Stop","Shape":"595","geometry":{"type":"Point","coordinates":[4.331289,51.85082]},"properties":{"index":"36","distance":"16723.6","time":"10067.45","cost_time":"180"}},{"type":"Feature","name":"Stop","Shape":"608","geometry":{"type":"Point","coordinates":[4.33099,51.85031]},"properties":{"index":"37","distance":"16954.2","time":"10284.35","cost_time":"180"}},{"type":"Feature","name":"Stop","Shape":"618","geometry":{"type":"Point","coordinates":[4.330974,51.85119]},"properties":{"index":"34","distance":"17156.63","time":"10491.94","cost_time":"180"}},{"type":"Feature","name":"Stop","Shape":"619","geometry":{"type":"Point","coordinates":[4.330963,51.8512]},"properties":{"index":"35","distance":"17157.48","time":"10672.02","cost_time":"180"}},{"type":"Feature","name":"Stop","Shape":"630","geometry":{"type":"Point","coordinates":[4.32871,51.85124]},"properties":{"index":"30","distance":"17411.54","time":"10887.82","cost_time":"180"}},{"type":"Feature","name":"Stop","Shape":"649","geometry":{"type":"Point","coordinates":[4.32662,51.84939]},"properties":{"index":"28","distance":"17692.28","time":"11102","cost_time":"180"}},{"type":"Feature","name":"Stop","Shape":"667","geometry":{"type":"Point","coordinates":[4.328699,51.85125]},"properties":{"index":"29","distance":"17972.08","time":"11316.03","cost_time":"180"}},{"type":"Feature","name":"Stop","Shape":"674","geometry":{"type":"Point","coordinates":[4.329404,51.85046]},"properties":{"index":"31","distance":"18073.21","time":"11512.21","cost_time":"180"}},{"type":"Feature","name":"Stop","Shape":"676","geometry":{"type":"Point","coordinates":[4.32958,51.85055]},"properties":{"index":"32","distance":"18103.92","time":"11697.12","cost_time":"180"}},{"type":"Feature","name":"Stop","Shape":"676","geometry":{"type":"Point","coordinates":[4.32958,51.85055]},"properties":{"index":"33","distance":"18103.92","time":"11877.12","cost_time":"180"}}]}