{"type":"FeatureCollection","features":[{"type":"Feature","name":"ShapeMeta","geometry":{"type":"LineString","coordinates":[[4.365939,51.8376],[4.365883,51.83719],[4.365823,51.83672]]},"properties":{"name":"Corrie Vonkplantsoen","highway":"residential","maxspeed":"30","profile":"car","distance":"99.07668","time":"15.85227"}},{"type":"Feature","name":"ShapeMeta","geometry":{"type":"LineString","coordinates":[[4.365823,51.83672],[4.36585,51.83667],[4.365958,51.83659],[4.366187,51.83652],[4.366364,51.83651],[4.366499,51.83652],[4.366606,51.83655],[4.366833,51.83669],[4.36686,51.83676]]},"properties":{"name":"Theo Mann-Bouwmeesterstraat","highway":"residential","maxspeed":"30","profile":"car","distance":"193.0767","time":"30.89227"}},{"type":"Feature","name":"ShapeMeta","geometry":{"type":"LineString","coordinates":[[4.36686,51.83676],[4.367617,51.8368]]},"properties":{"name":"Theo Mann-Bouwmeesterstraat","highway":"residential","maxspeed":"30","profile":"car","distance":"245.1767","time":"39.22827"}},{"type":"Feature","name":"ShapeMeta","geometry":{"type":"LineString","coordinates":[[4.367617,51.8368],[4.368389,51.83685]]},"properties":{"name":"Theo Mann-Bouwmeesterstraat","highway":"residential","maxspeed":"30","profile":"car","distance":"298.5767","time":"47.77227"}},{"type":"Feature","name":"ShapeMeta","geometry":{"type":"LineString","coordinates":[[4.368389,51.83685],[4.368356,51.83699]]},"properties":{"name":"Top Naeffstraat","highway":"residential","maxspeed":"30","profile":"car","distance":"313.9966","time":"50.23946"}},{"type":"Feature","name":"ShapeMeta","geometry":{"type":"LineString","coordinates":[[4.368356,51.83699],[4.368389,51.83685]]},"properties":{"name":"Top Naeffstraat","highway":"residential","maxspeed":"30","profile":"car","distance":"329.4166","time":"232.7067"}},{"type":"Feature","name":"ShapeMeta","geometry":{"type":"LineString","coordinates":[[4.368389,51.83685],[4.368972,51.8369],[4.370177,51.83698]]},"properties":{"name":"Theo Mann-Bouwmeesterstraat","highway":"residential","maxspeed":"30","profile":"car","distance":"452.9166","time":"252.4667"}},{"type":"Feature","name":"ShapeMeta","geometry":{"type":"LineString","coordinates":[[4.370177,51.83698],[4.3704,51.837]]},"properties":{"name":"Theo Mann-Bouwmeesterstraat","highway":"residential","maxspeed":"30","profile":"car","distance":"468.5166","time":"254.9627"}},{"type":"Feature","name":"ShapeMeta","geometry":{"type":"LineString","coordinates":[[4.3704,51.837],[4.370506,51.83659],[4.370606,51.8362],[4.370678,51.83587]]},"properties":{"name":"Geertruida Bosboom-Toussaintlaan","maxspeed":"50","highway":"tertiary","profile":"car","distance":"595.9166","time":"267.1931"}},{"type":"Feature","name":"ShapeMeta","geometry":{"type":"LineString","coordinates":[[4.370678,51.83587],[4.370903,51.83588]]},"properties":{"name":"Sientje Mesdag-van Houtenstraat","highway":"residential","maxspeed":"30","profile":"car","distance":"611.3167","time":"269.6571"}},{"type":"Feature","name":"ShapeMeta","geometry":{"type":"LineString","coordinates":[[4.370903,51.83588],[4.370893,51.83534]]},"properties":{"name":"Else van der Banstraat","highway":"residential","maxspeed":"30","profile":"car","distance":"671.1166","time":"279.2251"}},{"type":"Feature","name":"ShapeMeta","geometry":{"type":"LineString","coordinates":[[4.370893,51.83534],[4.370876,51.83529]]},"properties":{"name":"Else van der Banstraat","highway":"residential","maxspeed":"30","profile":"car","distance":"676.733","time":"280.1237"}},{"type":"Feature","name":"ShapeMeta","geometry":{"type":"LineString","coordinates":[[4.370876,51.83529],[4.370724,51.83487]]},"properties":{"name":"Else van der Banstraat","highway":"residential","maxspeed":"30","profile":"car","distance":"725.3165","time":"467.8971"}},{"type":"Feature","name":"ShapeMeta","geometry":{"type":"LineString","coordinates":[[4.370724,51.83487],[4.370527,51.83491]]},"properties":{"name":"Truus Schröderstraat","highway":"unclassified","maxspeed":"30","profile":"car","distance":"739.6166","time":"470.1851"}},{"type":"Feature","name":"ShapeMeta","geometry":{"type":"LineString","coordinates":[[4.370527,51.83491],[4.370261,51.83447],[4.369798,51.83403]]},"properties":{"name":"Geertruida Bosboom-Toussaintlaan","maxspeed":"50","highway":"tertiary","profile":"car","distance":"849.5166","time":"480.7355"}},{"type":"Feature","name":"ShapeMeta","geometry":{"type":"LineString","coordinates":[[4.369798,51.83403],[4.369626,51.83411]]},"properties":{"name":"Belle van Zuylenstraat","highway":"residential","maxspeed":"30","profile":"car","distance":"864.3166","time":"483.1035"}},{"type":"Feature","name":"ShapeMeta","geometry":{"type":"LineString","coordinates":[[4.369626,51.83411],[4.369594,51.83409]]},"properties":{"name":"Beb Vuykstraat","highway":"residential","maxspeed":"30","profile":"car","distance":"867.8625","time":"483.6708"}},{"type":"Feature","name":"ShapeMeta","geometry":{"type":"LineString","coordinates":[[4.369594,51.83409],[4.369626,51.83411]]},"properties":{"name":"Beb Vuykstraat","highway":"residential","maxspeed":"30","profile":"car","distance":"871.4084","time":"664.2381"}},{"type":"Feature","name":"ShapeMeta","geometry":{"type":"LineString","coordinates":[[4.369626,51.83411],[4.369798,51.83403]]},"properties":{"name":"Belle van Zuylenstraat","highway":"residential","maxspeed":"30","profile":"car","distance":"886.2084","time":"666.6061"}},{"type":"Feature","name":"ShapeMeta","geometry":{"type":"LineString","coordinates":[[4.369798,51.83403],[4.369971,51.83395]]},"properties":{"name":"Belle van Zuylenstraat","highway":"residential","maxspeed":"30","profile":"car","distance":"901.3084","time":"669.0221"}},{"type":"Feature","name":"ShapeMeta","geometry":{"type":"LineString","coordinates":[[4.369971,51.83395],[4.369474,51.83356]]},"properties":{"name":"Else van der Banstraat","highway":"residential","maxspeed":"30","profile":"car","distance":"956.7084","time":"677.8861"}},{"type":"Feature","name":"ShapeMeta","geometry":{"type":"LineString","coordinates":[[4.369474,51.83356],[4.369341,51.83345]]},"properties":{"name":"Else van der Banstraat","highway":"residential","maxspeed":"30","profile":"car","distance":"971.5657","time":"680.2633"}},{"type":"Feature","name":"ShapeMeta","geometry":{"type":"LineString","coordinates":[[4.369341,51.83345],[4.368838,51.83305]]},"properties":{"name":"Else van der Banstraat","highway":"residential","maxspeed":"30","profile":"car","distance":"1028.008","time":"869.2941"}},{"type":"Feature","name":"ShapeMeta","geometry":{"type":"LineString","coordinates":[[4.368838,51.83305],[4.368187,51.83253]]},"properties":{"name":"Else van der Banstraat","highway":"residential","maxspeed":"30","profile":"car","distance":"1100.908","time":"880.9581"}},{"type":"Feature","name":"ShapeMeta","geometry":{"type":"LineString","coordinates":[[4.368187,51.83253],[4.368289,51.83248]]},"properties":{"name":"Hélène Swarthstraat","highway":"residential","maxspeed":"30","profile":"car","distance":"1109.731","time":"882.3698"}},{"type":"Feature","name":"ShapeMeta","geometry":{"type":"LineString","coordinates":[[4.368289,51.83248],[4.368187,51.83253]]},"properties":{"name":"Hélène Swarthstraat","highway":"residential","maxspeed":"30","profile":"car","distance":"1118.554","time":"1063.782"}},{"type":"Feature","name":"ShapeMeta","geometry":{"type":"LineString","coordinates":[[4.368187,51.83253],[4.368838,51.83305]]},"properties":{"name":"Else van der Banstraat","highway":"residential","maxspeed":"30","profile":"car","distance":"1191.454","time":"1075.446"}},{"type":"Feature","name":"ShapeMeta","geometry":{"type":"LineString","coordinates":[[4.368838,51.83305],[4.369474,51.83356]]},"properties":{"name":"Else van der Banstraat","highway":"residential","maxspeed":"30","profile":"car","distance":"1262.754","time":"1086.854"}},{"type":"Feature","name":"ShapeMeta","geometry":{"type":"LineString","coordinates":[[4.369474,51.83356],[4.369971,51.83395]]},"properties":{"name":"Else van der Banstraat","highway":"residential","maxspeed":"30","profile":"car","distance":"1318.154","time":"1095.718"}},{"type":"Feature","name":"ShapeMeta","geometry":{"type":"LineString","coordinates":[[4.369971,51.83395],[4.369798,51.83403]]},"properties":{"name":"Belle van Zuylenstraat","highway":"residential","maxspeed":"30","profile":"car","distance":"1333.254","time":"1098.134"}},{"type":"Feature","name":"ShapeMeta","geometry":{"type":"LineString","coordinates":[[4.369798,51.83403],[4.370261,51.83447],[4.370527,51.83491]]},"properties":{"name":"Geertruida Bosboom-Toussaintlaan","maxspeed":"50","highway":"tertiary","profile":"car","distance":"1443.154","time":"1108.684"}},{"type":"Feature","name":"ShapeMeta","geometry":{"type":"LineString","coordinates":[[4.370527,51.83491],[4.370679,51.83535],[4.370678,51.83587]]},"properties":{"name":"Geertruida Bosboom-Toussaintlaan","maxspeed":"50","highway":"tertiary","profile":"car","distance":"1551.054","time":"1119.042"}},{"type":"Feature","name":"ShapeMeta","geometry":{"type":"LineString","coordinates":[[4.370678,51.83587],[4.370462,51.83586]]},"properties":{"name":"Sientje Mesdag-van Houtenstraat","highway":"residential","maxspeed":"30","profile":"car","distance":"1565.854","time":"1121.41"}},{"type":"Feature","name":"ShapeMeta","geometry":{"type":"LineString","coordinates":[[4.370462,51.83586],[4.370457,51.83588]]},"properties":{"name":"Beb Vuykstraat","highway":"residential","maxspeed":"30","profile":"car","distance":"1568.425","time":"1121.822"}},{"type":"Feature","name":"ShapeMeta","geometry":{"type":"LineString","coordinates":[[4.370457,51.83588],[4.370326,51.83643]]},"properties":{"name":"Beb Vuykstraat","highway":"residential","maxspeed":"30","profile":"car","distance":"1629.654","time":"1311.619"}},{"type":"Feature","name":"ShapeMeta","geometry":{"type":"LineString","coordinates":[[4.370326,51.83643],[4.370177,51.83698]]},"properties":{"name":"Beb Vuykstraat","highway":"residential","maxspeed":"30","profile":"car","distance":"1691.154","time":"1321.459"}},{"type":"Feature","name":"ShapeMeta","geometry":{"type":"LineString","coordinates":[[4.370177,51.83698],[4.3704,51.837]]},"properties":{"name":"Theo Mann-Bouwmeesterstraat","highway":"residential","maxspeed":"30","profile":"car","distance":"1706.754","time":"1323.955"}},{"type":"Feature","name":"ShapeMeta","geometry":{"type":"LineString","coordinates":[[4.3704,51.837],[4.370615,51.83702]]},"properties":{"name":"Theo Mann-Bouwmeesterstraat","highway":"residential","maxspeed":"30","profile":"car","distance":"1721.654","time":"1326.339"}},{"type":"Feature","name":"ShapeMeta","geometry":{"type":"LineString","coordinates":[[4.370615,51.83702],[4.370728,51.8366]]},"properties":{"name":"Else van der Banstraat","highway":"residential","maxspeed":"30","profile":"car","distance":"1769.771","time":"1334.037"}},{"type":"Feature","name":"ShapeMeta","geometry":{"type":"LineString","coordinates":[[4.370728,51.8366],[4.370615,51.83702]]},"properties":{"name":"Else van der Banstraat","highway":"residential","maxspeed":"30","profile":"car","distance":"1817.888","time":"1521.736"}},{"type":"Feature","name":"ShapeMeta","geometry":{"type":"LineString","coordinates":[[4.370615,51.83702],[4.3704,51.837]]},"properties":{"name":"Theo Mann-Bouwmeesterstraat","highway":"residential","maxspeed":"30","profile":"car","distance":"1832.788","time":"1524.12"}},{"type":"Feature","name":"ShapeMeta","geometry":{"type":"LineString","coordinates":[[4.3704,51.837],[4.370241,51.83762]]},"properties":{"name":"Geertruida Bosboom-Toussaintlaan","maxspeed":"50","highway":"tertiary","profile":"car","distance":"1901.902","time":"1530.755"}},{"type":"Feature","name":"ShapeMeta","geometry":{"type":"LineString","coordinates":[[4.370241,51.83762],[4.370094,51.83818]]},"properties":{"name":"Geertruida Bosboom-Toussaintlaan","maxspeed":"50","highway":"tertiary","profile":"car","distance":"1965.888","time":"1716.898"}},{"type":"Feature","name":"ShapeMeta","geometry":{"type":"LineString","coordinates":[[4.370094,51.83818],[4.369893,51.83816]]},"properties":{"name":"Maria Tesselschadestraat","highway":"residential","maxspeed":"30","profile":"car","distance":"1979.888","time":"1719.138"}},{"type":"Feature","name":"ShapeMeta","geometry":{"type":"LineString","coordinates":[[4.369893,51.83816],[4.370005,51.83772]]},"properties":{"name":"Beb Vuykstraat","highway":"residential","maxspeed":"30","profile":"car","distance":"2029.228","time":"1727.032"}},{"type":"Feature","name":"ShapeMeta","geometry":{"type":"LineString","coordinates":[[4.370005,51.83772],[4.369893,51.83816]]},"properties":{"name":"Beb Vuykstraat","highway":"residential","maxspeed":"30","profile":"car","distance":"2078.568","time":"1914.926"}},{"type":"Feature","name":"ShapeMeta","geometry":{"type":"LineString","coordinates":[[4.369893,51.83816],[4.370094,51.83818]]},"properties":{"name":"Maria Tesselschadestraat","highway":"residential","maxspeed":"30","profile":"car","distance":"2092.568","time":"1917.166"}},{"type":"Feature","name":"ShapeMeta","geometry":{"type":"LineString","coordinates":[[4.370094,51.83818],[4.36999,51.83858]]},"properties":{"name":"Geertruida Bosboom-Toussaintlaan","maxspeed":"50","highway":"tertiary","profile":"car","distance":"2137.168","time":"1921.448"}},{"type":"Feature","name":"ShapeMeta","geometry":{"type":"LineString","coordinates":[[4.36999,51.83858],[4.370255,51.83857],[4.370311,51.83854]]},"properties":{"name":"Henriëtte Roland Holststraat","highway":"residential","maxspeed":"30","profile":"car","distance":"2160.268","time":"1925.144"}},{"type":"Feature","name":"ShapeMeta","geometry":{"type":"LineString","coordinates":[[4.370311,51.83854],[4.370436,51.83859],[4.370712,51.83867],[4.37106,51.83872],[4.371407,51.83873],[4.3717,51.83871],[4.372097,51.83863]]},"properties":{"name":"Henriëtte Roland Holststraat","highway":"residential","maxspeed":"30","profile":"car","distance":"2288.568","time":"1945.672"}},{"type":"Feature","name":"ShapeMeta","geometry":{"type":"LineString","coordinates":[[4.372097,51.83863],[4.372175,51.83837],[4.372507,51.8371]]},"properties":{"name":"Lange Groeneweg","highway":"residential","maxspeed":"30","profile":"car","distance":"2460.55","time":"1973.189"}},{"type":"Feature","name":"ShapeMeta","geometry":{"type":"LineString","coordinates":[[4.372507,51.8371],[4.372175,51.83837],[4.372097,51.83863]]},"properties":{"name":"Lange Groeneweg","highway":"residential","maxspeed":"30","profile":"car","distance":"2632.532","time":"2180.706"}},{"type":"Feature","name":"ShapeMeta","geometry":{"type":"LineString","coordinates":[[4.372097,51.83863],[4.3717,51.83871],[4.371407,51.83873],[4.371304,51.83873]]},"properties":{"name":"Henriëtte Roland Holststraat","highway":"residential","maxspeed":"30","profile":"car","distance":"2688.512","time":"2189.663"}},{"type":"Feature","name":"ShapeMeta","geometry":{"type":"LineString","coordinates":[[4.371304,51.83873],[4.37106,51.83872],[4.370712,51.83867],[4.370436,51.83859],[4.370311,51.83854]]},"properties":{"name":"Henriëtte Roland Holststraat","highway":"residential","maxspeed":"30","profile":"car","distance":"2760.833","time":"2381.234"}},{"type":"Feature","name":"ShapeMeta","geometry":{"type":"LineString","coordinates":[[4.370311,51.83854],[4.370255,51.83857],[4.36999,51.83858]]},"properties":{"name":"Henriëtte Roland Holststraat","highway":"residential","maxspeed":"30","profile":"car","distance":"2783.933","time":"2384.93"}},{"type":"Feature","name":"ShapeMeta","geometry":{"type":"LineString","coordinates":[[4.36999,51.83858],[4.369776,51.83852]]},"properties":{"name":"Maria Kleine-Gartmanstraat","highway":"residential","maxspeed":"30","profile":"car","distance":"2799.933","time":"2387.49"}},{"type":"Feature","name":"ShapeMeta","geometry":{"type":"LineString","coordinates":[[4.369776,51.83852],[4.369727,51.83857],[4.369326,51.83877],[4.36897,51.83887],[4.368508,51.83893],[4.367927,51.83892]]},"properties":{"name":"Maria Kleine-Gartmanstraat","highway":"residential","maxspeed":"30","profile":"car","distance":"2940.733","time":"2410.018"}},{"type":"Feature","name":"ShapeMeta","geometry":{"type":"LineString","coordinates":[[4.367927,51.83892],[4.367903,51.83892]]},"properties":{"name":"Maria Kleine-Gartmanstraat","highway":"residential","maxspeed":"30","profile":"car","distance":"2942.401","time":"2410.285"}},{"type":"Feature","name":"ShapeMeta","geometry":{"type":"LineString","coordinates":[[4.367903,51.83892],[4.366362,51.83887],[4.36481,51.83882],[4.364714,51.83876]]},"properties":{"name":"Maria Kleine-Gartmanstraat","highway":"residential","maxspeed":"30","profile":"car","distance":"3164.333","time":"2625.794"}},{"type":"Feature","name":"ShapeMeta","geometry":{"type":"LineString","coordinates":[[4.364714,51.83876],[4.364704,51.83848]]},"properties":{"name":"Esther de Boer-van Rijkstraat","highway":"residential","maxspeed":"30","profile":"car","distance":"3195.633","time":"2630.802"}},{"type":"Feature","name":"ShapeMeta","geometry":{"type":"LineString","coordinates":[[4.364704,51.83848],[4.36464,51.83818]]},"properties":{"name":"Esther de Boer-van Rijkstraat","highway":"residential","maxspeed":"30","profile":"car","distance":"3229.833","time":"2636.274"}},{"type":"Feature","name":"ShapeMeta","geometry":{"type":"LineString","coordinates":[[4.36464,51.83818],[4.364522,51.83761]]},"properties":{"name":"Esther de Boer-van Rijkstraat","highway":"residential","maxspeed":"30","profile":"car","distance":"3293.133","time":"2646.402"}},{"type":"Feature","name":"ShapeMeta","geometry":{"type":"LineString","coordinates":[[4.364522,51.83761],[4.364458,51.83731]]},"properties":{"name":"Esther de Boer-van Rijkstraat","highway":"residential","maxspeed":"30","profile":"car","distance":"3327.333","time":"2651.874"}},{"type":"Feature","name":"ShapeMeta","geometry":{"type":"LineString","coordinates":[[4.364458,51.83731],[4.364371,51.83671]]},"properties":{"name":"Esther de Boer-van Rijkstraat","highway":"residential","maxspeed":"30","profile":"car","distance":"3393.732","time":"2662.498"}},{"type":"Feature","name":"ShapeMeta","geometry":{"type":"LineString","coordinates":[[4.364371,51.83671],[4.36506,51.8367]]},"properties":{"name":"Theo Mann-Bouwmeesterstraat","highway":"residential","maxspeed":"30","profile":"car","distance":"3441.032","time":"2670.066"}},{"type":"Feature","name":"ShapeMeta","geometry":{"type":"LineString","coordinates":[[4.36506,51.8367],[4.365064,51.8366]]},"properties":{"name":"Suze Robertsonstraat","highway":"residential","maxspeed":"30","profile":"car","distance":"3451.638","time":"2671.763"}},{"type":"Feature","name":"ShapeMeta","geometry":{"type":"LineString","coordinates":[[4.365064,51.8366],[4.365098,51.83566]]},"properties":{"name":"Suze Robertsonstraat","highway":"residential","maxspeed":"30","profile":"car","distance":"3556.833","time":"2868.594"}},{"type":"Feature","name":"ShapeMeta","geometry":{"type":"LineString","coordinates":[[4.365098,51.83566],[4.365858,51.83567]]},"properties":{"name":"Sientje Mesdag-van Houtenstraat","highway":"residential","maxspeed":"30","profile":"car","distance":"3609.032","time":"2876.946"}},{"type":"Feature","name":"ShapeMeta","geometry":{"type":"LineString","coordinates":[[4.365858,51.83567],[4.365995,51.83579],[4.366209,51.83587],[4.366416,51.83591]]},"properties":{"name":"Sientje Mesdag-van Houtenstraat","highway":"residential","maxspeed":"30","profile":"car","distance":"3657.732","time":"2884.738"}},{"type":"Feature","name":"ShapeMeta","geometry":{"type":"LineString","coordinates":[[4.366416,51.83591],[4.366599,51.83589]]},"properties":{"name":"Sientje Mesdag-van Houtenstraat","highway":"residential","maxspeed":"30","profile":"car","distance":"3670.439","time":"2886.771"}},{"type":"Feature","name":"ShapeMeta","geometry":{"type":"LineString","coordinates":[[4.366599,51.83589],[4.366675,51.83588],[4.366899,51.83581],[4.367046,51.8357]]},"properties":{"name":"Sientje Mesdag-van Houtenstraat","highway":"residential","maxspeed":"30","profile":"car","distance":"3708.432","time":"3072.85"}},{"type":"Feature","name":"ShapeMeta","geometry":{"type":"LineString","coordinates":[[4.367046,51.8357],[4.367049,51.83558],[4.367056,51.83533],[4.367445,51.83514],[4.368117,51.83483]]},"properties":{"name":"Martina Kramersstraat","highway":"residential","maxspeed":"30","profile":"car","distance":"3841.793","time":"3094.188"}},{"type":"Feature","name":"ShapeMeta","geometry":{"type":"LineString","coordinates":[[4.368117,51.83483],[4.367445,51.83514],[4.367056,51.83533],[4.367049,51.83558],[4.367046,51.8357]]},"properties":{"name":"Martina Kramersstraat","highway":"residential","maxspeed":"30","profile":"car","distance":"3975.154","time":"3295.526"}},{"type":"Feature","name":"ShapeMeta","geometry":{"type":"LineString","coordinates":[[4.367046,51.8357],[4.366899,51.83581],[4.366675,51.83588],[4.366416,51.83591]]},"properties":{"name":"Sientje Mesdag-van Houtenstraat","highway":"residential","maxspeed":"30","profile":"car","distance":"4025.854","time":"3303.638"}},{"type":"Feature","name":"ShapeMeta","geometry":{"type":"LineString","coordinates":[[4.366416,51.83591],[4.366209,51.83587],[4.365995,51.83579],[4.365858,51.83567]]},"properties":{"name":"Sientje Mesdag-van Houtenstraat","highway":"residential","maxspeed":"30","profile":"car","distance":"4074.554","time":"3311.43"}},{"type":"Feature","name":"ShapeMeta","geometry":{"type":"LineString","coordinates":[[4.365858,51.83567],[4.365098,51.83566]]},"properties":{"name":"Sientje Mesdag-van Houtenstraat","highway":"residential","maxspeed":"30","profile":"car","distance":"4126.754","time":"3319.782"}},{"type":"Feature","name":"ShapeMeta","geometry":{"type":"LineString","coordinates":[[4.365098,51.83566],[4.364598,51.83564]]},"properties":{"name":"Sientje Mesdag-van Houtenstraat","highway":"residential","maxspeed":"30","profile":"car","distance":"4161.054","time":"3325.27"}},{"type":"Feature","name":"ShapeMeta","geometry":{"type":"LineString","coordinates":[[4.364598,51.83564],[4.3645,51.8348],[4.364818,51.83464]]},"properties":{"name":"Harriët Freezerstraat","highway":"residential","maxspeed":"30","profile":"car","distance":"4283.279","time":"3344.826"}},{"type":"Feature","name":"ShapeMeta","geometry":{"type":"LineString","coordinates":[[4.364818,51.83464],[4.3645,51.8348],[4.364598,51.83564]]},"properties":{"name":"Harriët Freezerstraat","highway":"residential","maxspeed":"30","profile":"car","distance":"4405.504","time":"3544.382"}},{"type":"Feature","name":"ShapeMeta","geometry":{"type":"LineString","coordinates":[[4.364598,51.83564],[4.363756,51.83563]]},"properties":{"name":"Sientje Mesdag-van Houtenstraat","highway":"residential","maxspeed":"30","profile":"car","distance":"4463.305","time":"3553.63"}},{"type":"Feature","name":"ShapeMeta","geometry":{"type":"LineString","coordinates":[[4.363756,51.83563],[4.363647,51.83459],[4.363661,51.83393]]},"properties":{"name":"Henriëtte van der Meijstraat","highway":"residential","maxspeed":"30","profile":"car","distance":"4652.737","time":"3583.939"}},{"type":"Feature","name":"ShapeMeta","geometry":{"type":"LineString","coordinates":[[4.363661,51.83393],[4.363647,51.83459],[4.363756,51.83563]]},"properties":{"name":"Henriëtte van der Meijstraat","highway":"residential","maxspeed":"30","profile":"car","distance":"4842.169","time":"3794.248"}},{"type":"Feature","name":"ShapeMeta","geometry":{"type":"LineString","coordinates":[[4.363756,51.83563],[4.363699,51.83563]]},"properties":{"name":"Sientje Mesdag-van Houtenstraat","highway":"residential","maxspeed":"30","profile":"car","distance":"4846.041","time":"3794.868"}},{"type":"Feature","name":"ShapeMeta","geometry":{"type":"LineString","coordinates":[[4.363699,51.83563],[4.363351,51.83562]]},"properties":{"name":"Sientje Mesdag-van Houtenstraat","highway":"residential","maxspeed":"30","profile":"car","distance":"4869.97","time":"3978.697"}},{"type":"Feature","name":"ShapeMeta","geometry":{"type":"LineString","coordinates":[[4.363351,51.83562],[4.363294,51.83529]]},"properties":{"name":"Lizzy Ansinghstraat","highway":"unclassified","maxspeed":"30","profile":"car","distance":"4907.47","time":"3984.697"}},{"type":"Feature","name":"ShapeMeta","geometry":{"type":"LineString","coordinates":[[4.363294,51.83529],[4.363256,51.83514]]},"properties":{"name":"Lizzy Ansinghstraat","highway":"unclassified","maxspeed":"30","profile":"car","distance":"4924.17","time":"3987.368"}},{"type":"Feature","name":"ShapeMeta","geometry":{"type":"LineString","coordinates":[[4.363256,51.83514],[4.362886,51.83512],[4.362876,51.8352]]},"properties":{"name":"Lizzy Ansinghstraat","highway":"unclassified","maxspeed":"30","profile":"car","distance":"4957.69","time":"3992.732"}},{"type":"Feature","name":"ShapeMeta","geometry":{"type":"LineString","coordinates":[[4.362876,51.8352],[4.362886,51.83512],[4.363256,51.83514]]},"properties":{"name":"Lizzy Ansinghstraat","highway":"unclassified","maxspeed":"30","profile":"car","distance":"4991.21","time":"4178.095"}},{"type":"Feature","name":"ShapeMeta","geometry":{"type":"LineString","coordinates":[[4.363256,51.83514],[4.363294,51.83529]]},"properties":{"name":"Lizzy Ansinghstraat","highway":"unclassified","maxspeed":"30","profile":"car","distance":"5007.91","time":"4180.767"}},{"type":"Feature","name":"ShapeMeta","geometry":{"type":"LineString","coordinates":[[4.363294,51.83529],[4.363351,51.83562]]},"properties":{"name":"Lizzy Ansinghstraat","highway":"unclassified","maxspeed":"30","profile":"car","distance":"5045.41","time":"4186.767"}},{"type":"Feature","name":"ShapeMeta","geometry":{"type":"LineString","coordinates":[[4.363351,51.83562],[4.362383,51.8356]]},"properties":{"name":"Sientje Mesdag-van Houtenstraat","highway":"residential","maxspeed":"30","profile":"car","distance":"5111.91","time":"4197.407"}},{"type":"Feature","name":"ShapeMeta","geometry":{"type":"LineString","coordinates":[[4.362383,51.8356],[4.362183,51.8356]]},"properties":{"name":"Sientje Mesdag-van Houtenstraat","highway":"residential","maxspeed":"30","profile":"car","distance":"5125.61","time":"4199.599"}},{"type":"Feature","name":"ShapeMeta","geometry":{"type":"LineString","coordinates":[[4.362183,51.8356],[4.362207,51.83537],[4.362295,51.83504],[4.36259,51.83456]]},"properties":{"name":"Annie Romein-Verschoorlaan","maxspeed":"50","highway":"tertiary","profile":"car","distance":"5244.81","time":"4211.042"}},{"type":"Feature","name":"ShapeMeta","geometry":{"type":"LineString","coordinates":[[4.36259,51.83456],[4.362716,51.8344]]},"properties":{"name":"Annie Romein-Verschoorlaan","maxspeed":"50","highway":"tertiary","profile":"car","distance":"5265.31","time":"4213.01"}},{"type":"Feature","name":"ShapeMeta","geometry":{"type":"LineString","coordinates":[[4.362716,51.8344],[4.362961,51.83414],[4.363196,51.83397]]},"properties":{"name":"Annie Romein-Verschoorlaan","maxspeed":"50","highway":"tertiary","profile":"car","distance":"5323.61","time":"4218.607"}},{"type":"Feature","name":"ShapeMeta","geometry":{"type":"LineString","coordinates":[[4.363196,51.83397],[4.363072,51.8339],[4.362954,51.83384]]},"properties":{"name":"Hadewychplaats","highway":"service","profile":"car","distance":"5345.31","time":"4222.079"}},{"type":"Feature","name":"ShapeMeta","geometry":{"type":"LineString","coordinates":[[4.362954,51.83384],[4.362914,51.83384]]},"properties":{"name":"Ida Gerhardtplein","highway":"service","profile":"car","distance":"5348.049","time":"4222.518"}},{"type":"Feature","name":"ShapeMeta","geometry":{"type":"LineString","coordinates":[[4.362914,51.83384],[4.362954,51.83384]]},"properties":{"name":"Ida Gerhardtplein","highway":"service","profile":"car","distance":"5350.789","time":"4402.957"}},{"type":"Feature","name":"ShapeMeta","geometry":{"type":"LineString","coordinates":[[4.362954,51.83384],[4.363072,51.8339],[4.363196,51.83397]]},"properties":{"name":"Hadewychplaats","highway":"service","profile":"car","distance":"5372.488","time":"4406.428"}},{"type":"Feature","name":"ShapeMeta","geometry":{"type":"LineString","coordinates":[[4.363196,51.83397],[4.363334,51.83386],[4.363766,51.83361],[4.365041,51.83299]]},"properties":{"name":"Annie Romein-Verschoorlaan","maxspeed":"50","highway":"tertiary","profile":"car","distance":"5539.389","time":"4422.451"}},{"type":"Feature","name":"ShapeMeta","geometry":{"type":"LineString","coordinates":[[4.365041,51.83299],[4.365505,51.83278]]},"properties":{"name":"Annie Romein-Verschoorlaan","maxspeed":"50","highway":"tertiary","profile":"car","distance":"5578.889","time":"4426.243"}},{"type":"Feature","name":"ShapeMeta","geometry":{"type":"LineString","coordinates":[[4.365505,51.83278],[4.365628,51.83289]]},"properties":{"name":"Marie van Zeggelenstraat","highway":"residential","maxspeed":"30","profile":"car","distance":"5593.389","time":"4428.563"}},{"type":"Feature","name":"ShapeMeta","geometry":{"type":"LineString","coordinates":[[4.365628,51.83289],[4.366334,51.83255]]},"properties":{"name":"Lucretia van Merkenstraat","highway":"residential","maxspeed":"30","profile":"car","distance":"5654.889","time":"4438.403"}},{"type":"Feature","name":"ShapeMeta","geometry":{"type":"LineString","coordinates":[[4.366334,51.83255],[4.366681,51.83285],[4.3668,51.83321],[4.366941,51.83331]]},"properties":{"name":"Anke Servaesstraat","highway":"residential","maxspeed":"30","profile":"car","distance":"5751.088","time":"4453.795"}},{"type":"Feature","name":"ShapeMeta","geometry":{"type":"LineString","coordinates":[[4.366941,51.83331],[4.367129,51.83322],[4.367483,51.83282],[4.367792,51.83266]]},"properties":{"name":"Anke Servaesstraat","highway":"residential","maxspeed":"30","profile":"car","distance":"5845.488","time":"4468.899"}},{"type":"Feature","name":"ShapeMeta","geometry":{"type":"LineString","coordinates":[[4.367792,51.83266],[4.367764,51.83264]]},"properties":{"name":"Beb Vuykstraat","highway":"residential","maxspeed":"30","profile":"car","distance":"5848.603","time":"4469.397"}},{"type":"Feature","name":"ShapeMeta","geometry":{"type":"LineString","coordinates":[[4.367764,51.83264],[4.367792,51.83266]]},"properties":{"name":"Beb Vuykstraat","highway":"residential","maxspeed":"30","profile":"car","distance":"5851.717","time":"4649.895"}},{"type":"Feature","name":"ShapeMeta","geometry":{"type":"LineString","coordinates":[[4.367792,51.83266],[4.367483,51.83282],[4.367129,51.83322],[4.366941,51.83331]]},"properties":{"name":"Anke Servaesstraat","highway":"residential","maxspeed":"30","profile":"car","distance":"5946.117","time":"4664.999"}},{"type":"Feature","name":"ShapeMeta","geometry":{"type":"LineString","coordinates":[[4.366941,51.83331],[4.366846,51.83372]]},"properties":{"name":"Anke Servaesstraat","highway":"residential","maxspeed":"30","profile":"car","distance":"5992.717","time":"4672.455"}},{"type":"Feature","name":"ShapeMeta","geometry":{"type":"LineString","coordinates":[[4.366846,51.83372],[4.367596,51.83383]]},"properties":{"name":"Madelon Lulofsstraat","highway":"residential","maxspeed":"30","profile":"car","distance":"6045.646","time":"4680.924"}},{"type":"Feature","name":"ShapeMeta","geometry":{"type":"LineString","coordinates":[[4.367596,51.83383],[4.366846,51.83372]]},"properties":{"name":"Madelon Lulofsstraat","highway":"residential","maxspeed":"30","profile":"car","distance":"6098.575","time":"4869.393"}},{"type":"Feature","name":"ShapeMeta","geometry":{"type":"LineString","coordinates":[[4.366846,51.83372],[4.365999,51.83372]]},"properties":{"name":"Marie van Zeggelenstraat","highway":"residential","maxspeed":"30","profile":"car","distance":"6156.675","time":"4878.688"}},{"type":"Feature","name":"ShapeMeta","geometry":{"type":"LineString","coordinates":[[4.365999,51.83372],[4.365982,51.83362]]},"properties":{"name":"Marie van Zeggelenstraat","highway":"residential","maxspeed":"30","profile":"car","distance":"6167.349","time":"4880.396"}},{"type":"Feature","name":"ShapeMeta","geometry":{"type":"LineString","coordinates":[[4.365982,51.83362],[4.365887,51.8331],[4.365628,51.83289]]},"properties":{"name":"Marie van Zeggelenstraat","highway":"residential","maxspeed":"30","profile":"car","distance":"6255.075","time":"5074.432"}},{"type":"Feature","name":"ShapeMeta","geometry":{"type":"LineString","coordinates":[[4.365628,51.83289],[4.365505,51.83278]]},"properties":{"name":"Marie van Zeggelenstraat","highway":"residential","maxspeed":"30","profile":"car","distance":"6269.575","time":"5076.752"}},{"type":"Feature","name":"ShapeMeta","geometry":{"type":"LineString","coordinates":[[4.365505,51.83278],[4.365041,51.83299]]},"properties":{"name":"Annie Romein-Verschoorlaan","maxspeed":"50","highway":"tertiary","profile":"car","distance":"6309.075","time":"5080.544"}},{"type":"Feature","name":"ShapeMeta","geometry":{"type":"LineString","coordinates":[[4.365041,51.83299],[4.363766,51.83361],[4.363334,51.83386],[4.363196,51.83397]]},"properties":{"name":"Annie Romein-Verschoorlaan","maxspeed":"50","highway":"tertiary","profile":"car","distance":"6475.975","time":"5096.566"}},{"type":"Feature","name":"ShapeMeta","geometry":{"type":"LineString","coordinates":[[4.363196,51.83397],[4.362961,51.83414],[4.362716,51.8344]]},"properties":{"name":"Annie Romein-Verschoorlaan","maxspeed":"50","highway":"tertiary","profile":"car","distance":"6534.275","time":"5102.164"}},{"type":"Feature","name":"ShapeMeta","geometry":{"type":"LineString","coordinates":[[4.362716,51.8344],[4.36259,51.83456]]},"properties":{"name":"Annie Romein-Verschoorlaan","maxspeed":"50","highway":"tertiary","profile":"car","distance":"6554.775","time":"5104.131"}},{"type":"Feature","name":"ShapeMeta","geometry":{"type":"LineString","coordinates":[[4.36259,51.83456],[4.362263,51.83449],[4.36189,51.8344],[4.361663,51.83434]]},"properties":{"name":"Joke Smitlaan","maxspeed":"50","highway":"tertiary","profile":"car","distance":"6623.175","time":"5110.698"}},{"type":"Feature","name":"ShapeMeta","geometry":{"type":"LineString","coordinates":[[4.361663,51.83434],[4.36149,51.8343]]},"properties":{"name":"Joke Smitlaan","maxspeed":"50","highway":"tertiary","profile":"car","distance":"6635.575","time":"5111.888"}},{"type":"Feature","name":"ShapeMeta","geometry":{"type":"LineString","coordinates":[[4.36149,51.8343],[4.361216,51.83426]]},"properties":{"name":"Joke Smitlaan","maxspeed":"50","highway":"tertiary","profile":"car","distance":"6654.975","time":"5113.75"}},{"type":"Feature","name":"ShapeMeta","geometry":{"type":"LineString","coordinates":[[4.361216,51.83426],[4.360715,51.83423],[4.360428,51.83422]]},"properties":{"name":"Joke Smitlaan","maxspeed":"50","highway":"tertiary","profile":"car","distance":"6709.275","time":"5118.963"}},{"type":"Feature","name":"ShapeMeta","geometry":{"type":"LineString","coordinates":[[4.360428,51.83422],[4.359982,51.83422]]},"properties":{"name":"Joke Smitlaan","maxspeed":"50","highway":"tertiary","profile":"car","distance":"6739.875","time":"5121.901"}},{"type":"Feature","name":"ShapeMeta","geometry":{"type":"LineString","coordinates":[[4.359982,51.83422],[4.359963,51.83443]]},"properties":{"name":"Clara Visserstraat","highway":"residential","maxspeed":"30","profile":"car","distance":"6763.651","time":"5125.705"}},{"type":"Feature","name":"ShapeMeta","geometry":{"type":"LineString","coordinates":[[4.359963,51.83443],[4.359956,51.83451],[4.360041,51.83551],[4.360006,51.83558]]},"properties":{"name":"Clara Visserstraat","highway":"residential","maxspeed":"30","profile":"car","distance":"6891.375","time":"5326.141"}},{"type":"Feature","name":"ShapeMeta","geometry":{"type":"LineString","coordinates":[[4.360006,51.83558],[4.359909,51.83559],[4.359545,51.83559],[4.359371,51.83561]]},"properties":{"name":"Wilhelmina Bladergroenstraat","highway":"residential","maxspeed":"30","profile":"car","distance":"6935.175","time":"5333.149"}},{"type":"Feature","name":"ShapeMeta","geometry":{"type":"LineString","coordinates":[[4.359371,51.83561],[4.358798,51.83573]]},"properties":{"name":"Wilhelmina Bladergroenstraat","highway":"residential","maxspeed":"30","profile":"car","distance":"6976.875","time":"5339.821"}},{"type":"Feature","name":"ShapeMeta","geometry":{"type":"LineString","coordinates":[[4.358798,51.83573],[4.358778,51.83574]]},"properties":{"name":"Wilhelmina Bladergroenstraat","highway":"residential","maxspeed":"30","profile":"car","distance":"6978.471","time":"5340.076"}},{"type":"Feature","name":"ShapeMeta","geometry":{"type":"LineString","coordinates":[[4.358778,51.83574],[4.358304,51.83594],[4.357912,51.83622]]},"properties":{"name":"Wilhelmina Bladergroenstraat","highway":"residential","maxspeed":"30","profile":"car","distance":"7059.375","time":"5713.021"}},{"type":"Feature","name":"ShapeMeta","geometry":{"type":"LineString","coordinates":[[4.357912,51.83622],[4.357645,51.83656]]},"properties":{"name":"Wilhelmina Bladergroenstraat","highway":"residential","maxspeed":"30","profile":"car","distance":"7100.875","time":"5719.661"}},{"type":"Feature","name":"ShapeMeta","geometry":{"type":"LineString","coordinates":[[4.357645,51.83656],[4.357581,51.83673],[4.357536,51.83692]]},"properties":{"name":"Wilhelmina Bladergroenstraat","highway":"residential","maxspeed":"30","profile":"car","distance":"7141.875","time":"5726.221"}},{"type":"Feature","name":"ShapeMeta","geometry":{"type":"LineString","coordinates":[[4.357536,51.83692],[4.357599,51.83693]]},"properties":{"name":"Maria Rutgers-Hoitsemastraat","highway":"residential","maxspeed":"30","profile":"car","distance":"7146.219","time":"5726.916"}},{"type":"Feature","name":"ShapeMeta","geometry":{"type":"LineString","coordinates":[[4.357599,51.83693],[4.358421,51.83695]]},"properties":{"name":"Maria Rutgers-Hoitsemastraat","highway":"residential","maxspeed":"30","profile":"car","distance":"7202.775","time":"5915.965"}},{"type":"Feature","name":"ShapeMeta","geometry":{"type":"LineString","coordinates":[[4.358421,51.83695],[4.358706,51.83696],[4.359236,51.83698],[4.359298,51.83698]]},"properties":{"name":"Maria Rutgers-Hoitsemastraat","highway":"residential","maxspeed":"30","profile":"car","distance":"7263.055","time":"5925.61"}},{"type":"Feature","name":"ShapeMeta","geometry":{"type":"LineString","coordinates":[[4.359298,51.83698],[4.359346,51.83698]]},"properties":{"name":"Maria Rutgers-Hoitsemastraat","highway":"residential","maxspeed":"30","profile":"car","distance":"7266.375","time":"6106.141"}},{"type":"Feature","name":"ShapeMeta","geometry":{"type":"LineString","coordinates":[[4.359346,51.83698],[4.359304,51.83751]]},"properties":{"name":"Hélène Mercierstraat","highway":"residential","maxspeed":"30","profile":"car","distance":"7325.375","time":"6115.581"}},{"type":"Feature","name":"ShapeMeta","geometry":{"type":"LineString","coordinates":[[4.359304,51.83751],[4.359249,51.83808]]},"properties":{"name":"Hélène Mercierstraat","highway":"residential","maxspeed":"30","profile":"car","distance":"7388.675","time":"6125.709"}},{"type":"Feature","name":"ShapeMeta","geometry":{"type":"LineString","coordinates":[[4.359249,51.83808],[4.359207,51.83857]]},"properties":{"name":"Hélène Mercierstraat","highway":"residential","maxspeed":"30","profile":"car","distance":"7443.375","time":"6134.461"}},{"type":"Feature","name":"ShapeMeta","geometry":{"type":"LineString","coordinates":[[4.359207,51.83857],[4.359298,51.83863],[4.359503,51.83864]]},"properties":{"name":"Aletta Jacobsstraat","highway":"residential","maxspeed":"30","profile":"car","distance":"7466.376","time":"6138.141"}},{"type":"Feature","name":"ShapeMeta","geometry":{"type":"LineString","coordinates":[[4.359503,51.83864],[4.359298,51.83863],[4.359207,51.83857]]},"properties":{"name":"Aletta Jacobsstraat","highway":"residential","maxspeed":"30","profile":"car","distance":"7489.377","time":"6321.821"}},{"type":"Feature","name":"ShapeMeta","geometry":{"type":"LineString","coordinates":[[4.359207,51.83857],[4.358305,51.83854]]},"properties":{"name":"Aletta Jacobsstraat","highway":"residential","maxspeed":"30","profile":"car","distance":"7551.477","time":"6331.757"}},{"type":"Feature","name":"ShapeMeta","geometry":{"type":"LineString","coordinates":[[4.358305,51.83854],[4.357405,51.83851]]},"properties":{"name":"Aletta Jacobsstraat","highway":"residential","maxspeed":"30","profile":"car","distance":"7613.277","time":"6341.645"}},{"type":"Feature","name":"ShapeMeta","geometry":{"type":"LineString","coordinates":[[4.357405,51.83851],[4.35744,51.83802]]},"properties":{"name":"Wilhelmina Bladergroenstraat","highway":"residential","maxspeed":"30","profile":"car","distance":"7667.577","time":"6350.333"}},{"type":"Feature","name":"ShapeMeta","geometry":{"type":"LineString","coordinates":[[4.35744,51.83802],[4.3567,51.838]]},"properties":{"name":"Catharina van Tussenbroekstraat","highway":"residential","maxspeed":"30","profile":"car","distance":"7718.436","time":"6358.471"}},{"type":"Feature","name":"ShapeMeta","geometry":{"type":"LineString","coordinates":[[4.3567,51.838],[4.35744,51.83802]]},"properties":{"name":"Catharina van Tussenbroekstraat","highway":"residential","maxspeed":"30","profile":"car","distance":"7769.295","time":"6546.608"}},{"type":"Feature","name":"ShapeMeta","geometry":{"type":"LineString","coordinates":[[4.35744,51.83802],[4.357405,51.83851]]},"properties":{"name":"Wilhelmina Bladergroenstraat","highway":"residential","maxspeed":"30","profile":"car","distance":"7823.595","time":"6555.297"}},{"type":"Feature","name":"ShapeMeta","geometry":{"type":"LineString","coordinates":[[4.357405,51.83851],[4.357304,51.83856],[4.356604,51.83854],[4.356521,51.83856],[4.356054,51.83867]]},"properties":{"name":"Aletta Jacobsstraat","highway":"residential","maxspeed":"30","profile":"car","distance":"7921.395","time":"6570.945"}},{"type":"Feature","name":"ShapeMeta","geometry":{"type":"LineString","coordinates":[[4.356054,51.83867],[4.356095,51.83873]]},"properties":{"name":"Joke Smitlaan","maxspeed":"50","highway":"tertiary","profile":"car","distance":"7927.895","time":"6571.569"}},{"type":"Feature","name":"ShapeMeta","geometry":{"type":"LineString","coordinates":[[4.356095,51.83873],[4.356225,51.83888],[4.356655,51.83944],[4.356703,51.8395]]},"properties":{"name":"Joke Smitlaan","maxspeed":"50","highway":"tertiary","oneway":"yes","profile":"car","distance":"8023.595","time":"6580.756"}},{"type":"Feature","name":"ShapeMeta","geometry":{"type":"LineString","coordinates":[[4.356703,51.8395],[4.356782,51.83951],[4.356853,51.83953]]},"properties":{"name":"Maaswijkweg","maxspeed":"50","highway":"tertiary","junction":"roundabout","profile":"car","distance":"8034.495","time":"6581.802"}},{"type":"Feature","name":"ShapeMeta","geometry":{"type":"LineString","coordinates":[[4.356853,51.83953],[4.356906,51.83957],[4.35694,51.83961],[4.356953,51.83965]]},"properties":{"name":"Maaswijkweg","maxspeed":"50","highway":"tertiary","junction":"roundabout","profile":"car","distance":"8050.095","time":"6583.3"}},{"type":"Feature","name":"ShapeMeta","geometry":{"type":"LineString","coordinates":[[4.356953,51.83965],[4.356946,51.83969],[4.356892,51.83976],[4.356812,51.8398],[4.356715,51.83981],[4.35661,51.8398],[4.356521,51.83977]]},"properties":{"name":"Maaswijkweg","maxspeed":"50","highway":"tertiary","junction":"roundabout","profile":"car","distance":"8091.195","time":"6587.246"}},{"type":"Feature","name":"ShapeMeta","geometry":{"type":"LineString","coordinates":[[4.356521,51.83977],[4.356156,51.83985]]},"properties":{"name":"Maaswijkweg","maxspeed":"50","highway":"tertiary","oneway":"yes","profile":"car","distance":"8117.895","time":"6589.809"}},{"type":"Feature","name":"ShapeMeta","geometry":{"type":"LineString","coordinates":[[4.356156,51.83985],[4.354842,51.84018],[4.350435,51.84134],[4.35021,51.84141]]},"properties":{"name":"Maaswijkweg","maxspeed":"50","highway":"tertiary","oneway":"yes","profile":"car","distance":"8561.595","time":"6632.404"}},{"type":"Feature","name":"ShapeMeta","geometry":{"type":"LineString","coordinates":[[4.35021,51.84141],[4.350195,51.84144],[4.350135,51.8415],[4.350092,51.84152]]},"properties":{"name":"Maaswijkweg","maxspeed":"50","highway":"tertiary","junction":"roundabout","profile":"car","distance":"8576.995","time":"6633.882"}},{"type":"Feature","name":"ShapeMeta","geometry":{"type":"LineString","coordinates":[[4.350092,51.84152],[4.35,51.84155],[4.349898,51.84155]]},"properties":{"name":"Maaswijkweg","maxspeed":"50","highway":"tertiary","junction":"roundabout","profile":"car","distance":"8590.995","time":"6635.226"}},{"type":"Feature","name":"ShapeMeta","geometry":{"type":"LineString","coordinates":[[4.349898,51.84155],[4.349844,51.84155],[4.349792,51.84153]]},"properties":{"name":"Maaswijkweg","maxspeed":"50","highway":"tertiary","junction":"roundabout","profile":"car","distance":"8598.695","time":"6635.965"}},{"type":"Feature","name":"ShapeMeta","geometry":{"type":"LineString","coordinates":[[4.349792,51.84153],[4.349741,51.84151],[4.349668,51.84145],[4.349641,51.84138],[4.349648,51.84134]]},"properties":{"name":"Maaswijkweg","maxspeed":"50","highway":"tertiary","junction":"roundabout","profile":"car","distance":"8624.195","time":"6638.414"}},{"type":"Feature","name":"ShapeMeta","geometry":{"type":"LineString","coordinates":[[4.349648,51.84134],[4.349666,51.84131],[4.349733,51.84125],[4.349779,51.84123]]},"properties":{"name":"Maaswijkweg","maxspeed":"50","highway":"tertiary","junction":"roundabout","profile":"car","distance":"8639.795","time":"6639.911"}},{"type":"Feature","name":"ShapeMeta","geometry":{"type":"LineString","coordinates":[[4.349779,51.84123],[4.349773,51.84107]]},"properties":{"highway":"unclassified","oneway":"yes","profile":"car","distance":"8657.095","time":"6641.572"}},{"type":"Feature","name":"ShapeMeta","geometry":{"type":"LineString","coordinates":[[4.349773,51.84107],[4.349725,51.84097]]},"properties":{"name":"Hürthstraat","highway":"living_street","profile":"car","distance":"8669.396","time":"6653.38"}},{"type":"Feature","name":"ShapeMeta","geometry":{"type":"LineString","coordinates":[[4.349725,51.84097],[4.349637,51.84082]]},"properties":{"name":"Hürthstraat","highway":"living_street","profile":"car","distance":"8686.595","time":"6669.892"}},{"type":"Feature","name":"ShapeMeta","geometry":{"type":"LineString","coordinates":[[4.349637,51.84082],[4.349562,51.84072],[4.349473,51.84055]]},"properties":{"name":"Hürthstraat","highway":"living_street","profile":"car","distance":"8718.396","time":"6700.42"}},{"type":"Feature","name":"ShapeMeta","geometry":{"type":"LineString","coordinates":[[4.349473,51.84055],[4.349343,51.84038]]},"properties":{"name":"Hürthstraat","highway":"living_street","profile":"car","distance":"8739.795","time":"6720.964"}},{"type":"Feature","name":"ShapeMeta","geometry":{"type":"LineString","coordinates":[[4.349343,51.84038],[4.349247,51.84026],[4.349227,51.84022],[4.349242,51.84018],[4.349291,51.84015],[4.349341,51.84015]]},"properties":{"name":"Hürthstraat","highway":"living_street","profile":"car","distance":"8772.018","time":"6751.897"}},{"type":"Feature","name":"ShapeMeta","geometry":{"type":"LineString","coordinates":[[4.349341,51.84015],[4.349291,51.84015],[4.349242,51.84018],[4.349227,51.84022],[4.349247,51.84026],[4.349343,51.84038]]},"properties":{"name":"Hürthstraat","highway":"living_street","profile":"car","distance":"8804.239","time":"6962.83"}},{"type":"Feature","name":"ShapeMeta","geometry":{"type":"LineString","coordinates":[[4.349343,51.84038],[4.349473,51.84055]]},"properties":{"name":"Hürthstraat","highway":"living_street","profile":"car","distance":"8825.64","time":"6983.374"}},{"type":"Feature","name":"ShapeMeta","geometry":{"type":"LineString","coordinates":[[4.349473,51.84055],[4.349562,51.84072],[4.349637,51.84082]]},"properties":{"name":"Hürthstraat","highway":"living_street","profile":"car","distance":"8857.439","time":"7013.902"}},{"type":"Feature","name":"ShapeMeta","geometry":{"type":"LineString","coordinates":[[4.349637,51.84082],[4.349725,51.84097]]},"properties":{"name":"Hürthstraat","highway":"living_street","profile":"car","distance":"8874.64","time":"7030.414"}},{"type":"Feature","name":"ShapeMeta","geometry":{"type":"LineString","coordinates":[[4.349725,51.84097],[4.349773,51.84107]]},"properties":{"name":"Hürthstraat","highway":"living_street","profile":"car","distance":"8886.939","time":"7042.222"}},{"type":"Feature","name":"ShapeMeta","geometry":{"type":"LineString","coordinates":[[4.349773,51.84107],[4.349949,51.8412]]},"properties":{"name":"Hürthstraat","highway":"unclassified","oneway":"yes","profile":"car","distance":"8905.739","time":"7044.027"}},{"type":"Feature","name":"ShapeMeta","geometry":{"type":"LineString","coordinates":[[4.349949,51.8412],[4.350004,51.84121],[4.350057,51.84122]]},"properties":{"name":"Maaswijkweg","maxspeed":"50","highway":"tertiary","junction":"roundabout","profile":"car","distance":"8913.34","time":"7044.756"}},{"type":"Feature","name":"ShapeMeta","geometry":{"type":"LineString","coordinates":[[4.350057,51.84122],[4.350117,51.84124],[4.350166,51.84128],[4.350214,51.84137],[4.35021,51.84141]]},"properties":{"name":"Maaswijkweg","maxspeed":"50","highway":"tertiary","junction":"roundabout","profile":"car","distance":"8938.34","time":"7047.156"}},{"type":"Feature","name":"ShapeMeta","geometry":{"type":"LineString","coordinates":[[4.35021,51.84141],[4.350195,51.84144],[4.350135,51.8415],[4.350092,51.84152]]},"properties":{"name":"Maaswijkweg","maxspeed":"50","highway":"tertiary","junction":"roundabout","profile":"car","distance":"8953.739","time":"7048.635"}},{"type":"Feature","name":"ShapeMeta","geometry":{"type":"LineString","coordinates":[[4.350092,51.84152],[4.350068,51.8416],[4.350081,51.84171],[4.350096,51.84182]]},"properties":{"highway":"unclassified","maxspeed":"50","oneway":"yes","profile":"car","distance":"8987.439","time":"7051.87"}},{"type":"Feature","name":"ShapeMeta","geometry":{"type":"LineString","coordinates":[[4.350096,51.84182],[4.350115,51.84187]]},"properties":{"name":"Rivierlaan","highway":"unclassified","maxspeed":"50","profile":"car","distance":"8993.04","time":"7052.408"}},{"type":"Feature","name":"ShapeMeta","geometry":{"type":"LineString","coordinates":[[4.350115,51.84187],[4.350371,51.84264]]},"properties":{"name":"Rivierlaan","highway":"unclassified","maxspeed":"50","profile":"car","distance":"9079.64","time":"7060.721"}},{"type":"Feature","name":"ShapeMeta","geometry":{"type":"LineString","coordinates":[[4.350371,51.84264],[4.350522,51.84336],[4.350533,51.84388],[4.350525,51.8441]]},"properties":{"name":"Rivierlaan","highway":"unclassified","maxspeed":"50","profile":"car","distance":"9243.14","time":"7076.417"}},{"type":"Feature","name":"ShapeMeta","geometry":{"type":"LineString","coordinates":[[4.350525,51.8441],[4.350395,51.8441],[4.350248,51.8441]]},"properties":{"name":"Coloradostraat","highway":"residential","profile":"car","distance":"9262.2","time":"7078.247"}},{"type":"Feature","name":"ShapeMeta","geometry":{"type":"LineString","coordinates":[[4.350248,51.8441],[4.350013,51.8441],[4.349563,51.8441]]},"properties":{"name":"Coloradostraat","highway":"residential","profile":"car","distance":"9309.239","time":"7262.763"}},{"type":"Feature","name":"ShapeMeta","geometry":{"type":"LineString","coordinates":[[4.349563,51.8441],[4.3491,51.8441],[4.348827,51.84428]]},"properties":{"name":"Coloradostraat","highway":"residential","profile":"car","distance":"9368.039","time":"7268.408"}},{"type":"Feature","name":"ShapeMeta","geometry":{"type":"LineString","coordinates":[[4.348827,51.84428],[4.348561,51.84444],[4.348224,51.84465]]},"properties":{"name":"Coloradostraat","highway":"residential","profile":"car","distance":"9426.64","time":"7274.033"}},{"type":"Feature","name":"ShapeMeta","geometry":{"type":"LineString","coordinates":[[4.348224,51.84465],[4.348118,51.84472]]},"properties":{"name":"Coloradostraat","highway":"residential","profile":"car","distance":"9437.155","time":"7275.042"}},{"type":"Feature","name":"ShapeMeta","geometry":{"type":"LineString","coordinates":[[4.348118,51.84472],[4.348224,51.84465]]},"properties":{"name":"Coloradostraat","highway":"residential","profile":"car","distance":"9447.671","time":"7456.052"}},{"type":"Feature","name":"ShapeMeta","geometry":{"type":"LineString","coordinates":[[4.348224,51.84465],[4.348561,51.84444],[4.348827,51.84428]]},"properties":{"name":"Coloradostraat","highway":"residential","profile":"car","distance":"9506.271","time":"7461.678"}},{"type":"Feature","name":"ShapeMeta","geometry":{"type":"LineString","coordinates":[[4.348827,51.84428],[4.3491,51.8441],[4.349563,51.8441]]},"properties":{"name":"Coloradostraat","highway":"residential","profile":"car","distance":"9565.071","time":"7467.323"}},{"type":"Feature","name":"ShapeMeta","geometry":{"type":"LineString","coordinates":[[4.349563,51.8441],[4.34956,51.84381],[4.349555,51.8434],[4.349551,51.84338]]},"properties":{"name":"Columbiastraat","highway":"residential","maxspeed":"30","profile":"car","distance":"9645.257","time":"7480.153"}},{"type":"Feature","name":"ShapeMeta","geometry":{"type":"LineString","coordinates":[[4.349551,51.84338],[4.349442,51.84301],[4.34936,51.84275]]},"properties":{"name":"Columbiastraat","highway":"residential","maxspeed":"30","profile":"car","distance":"9716.87","time":"7671.611"}},{"type":"Feature","name":"ShapeMeta","geometry":{"type":"LineString","coordinates":[[4.34936,51.84275],[4.348871,51.84282],[4.3484,51.8429],[4.348277,51.84294],[4.348071,51.843]]},"properties":{"name":"Amazonestraat","highway":"residential","profile":"car","distance":"9810.271","time":"7680.578"}},{"type":"Feature","name":"ShapeMeta","geometry":{"type":"LineString","coordinates":[[4.348071,51.843],[4.347911,51.84306],[4.347693,51.84321],[4.347419,51.84338]]},"properties":{"name":"Amazonestraat","highway":"residential","profile":"car","distance":"9872.271","time":"7686.529"}},{"type":"Feature","name":"ShapeMeta","geometry":{"type":"LineString","coordinates":[[4.347419,51.84338],[4.3471,51.84357],[4.347057,51.84359]]},"properties":{"name":"Amazonestraat","highway":"residential","profile":"car","distance":"9906.442","time":"7689.81"}},{"type":"Feature","name":"ShapeMeta","geometry":{"type":"LineString","coordinates":[[4.347057,51.84359],[4.3471,51.84357],[4.347419,51.84338]]},"properties":{"name":"Amazonestraat","highway":"residential","profile":"car","distance":"9940.614","time":"7873.09"}},{"type":"Feature","name":"ShapeMeta","geometry":{"type":"LineString","coordinates":[[4.347419,51.84338],[4.347693,51.84321],[4.347911,51.84306],[4.348071,51.843]]},"properties":{"name":"Amazonestraat","highway":"residential","profile":"car","distance":"10002.61","time":"7879.042"}},{"type":"Feature","name":"ShapeMeta","geometry":{"type":"LineString","coordinates":[[4.348071,51.843],[4.348277,51.84294],[4.3484,51.8429],[4.348871,51.84282],[4.34936,51.84275]]},"properties":{"name":"Amazonestraat","highway":"residential","profile":"car","distance":"10096.01","time":"7888.009"}},{"type":"Feature","name":"ShapeMeta","geometry":{"type":"LineString","coordinates":[[4.34936,51.84275],[4.349819,51.8427],[4.35025,51.84265],[4.350371,51.84264]]},"properties":{"name":"Amazonestraat","highway":"residential","profile":"car","distance":"10166.41","time":"7894.768"}},{"type":"Feature","name":"ShapeMeta","geometry":{"type":"LineString","coordinates":[[4.350371,51.84264],[4.350115,51.84187]]},"properties":{"name":"Rivierlaan","highway":"unclassified","maxspeed":"50","profile":"car","distance":"10253.01","time":"7903.081"}},{"type":"Feature","name":"ShapeMeta","geometry":{"type":"LineString","coordinates":[[4.350115,51.84187],[4.350096,51.84182]]},"properties":{"name":"Rivierlaan","highway":"unclassified","maxspeed":"50","profile":"car","distance":"10258.61","time":"7903.619"}},{"type":"Feature","name":"ShapeMeta","geometry":{"type":"LineString","coordinates":[[4.350096,51.84182],[4.350018,51.84171],[4.349961,51.84163],[4.349898,51.84155]]},"properties":{"name":"Rivierlaan","highway":"unclassified","maxspeed":"50","oneway":"yes","profile":"car","distance":"10291.61","time":"7906.787"}},{"type":"Feature","name":"ShapeMeta","geometry":{"type":"LineString","coordinates":[[4.349898,51.84155],[4.349844,51.84155],[4.349792,51.84153]]},"properties":{"name":"Maaswijkweg","maxspeed":"50","highway":"tertiary","junction":"roundabout","profile":"car","distance":"10299.31","time":"7907.526"}},{"type":"Feature","name":"ShapeMeta","geometry":{"type":"LineString","coordinates":[[4.349792,51.84153],[4.349741,51.84151],[4.349668,51.84145],[4.349641,51.84138],[4.349648,51.84134]]},"properties":{"name":"Maaswijkweg","maxspeed":"50","highway":"tertiary","junction":"roundabout","profile":"car","distance":"10324.81","time":"7909.974"}},{"type":"Feature","name":"ShapeMeta","geometry":{"type":"LineString","coordinates":[[4.349648,51.84134],[4.349666,51.84131],[4.349733,51.84125],[4.349779,51.84123]]},"properties":{"name":"Maaswijkweg","maxspeed":"50","highway":"tertiary","junction":"roundabout","profile":"car","distance":"10340.41","time":"7911.471"}},{"type":"Feature","name":"ShapeMeta","geometry":{"type":"LineString","coordinates":[[4.349779,51.84123],[4.349833,51.84121],[4.34989,51.8412],[4.349949,51.8412]]},"properties":{"name":"Maaswijkweg","maxspeed":"50","highway":"tertiary","junction":"roundabout","profile":"car","distance":"10352.61","time":"7912.643"}},{"type":"Feature","name":"ShapeMeta","geometry":{"type":"LineString","coordinates":[[4.349949,51.8412],[4.350004,51.84121],[4.350057,51.84122]]},"properties":{"name":"Maaswijkweg","maxspeed":"50","highway":"tertiary","junction":"roundabout","profile":"car","distance":"10360.21","time":"7913.372"}},{"type":"Feature","name":"ShapeMeta","geometry":{"type":"LineString","coordinates":[[4.350057,51.84122],[4.350151,51.84123],[4.350306,51.84121],[4.351436,51.84094],[4.353651,51.84037],[4.355665,51.83982],[4.356448,51.83964]]},"properties":{"name":"Maaswijkweg","maxspeed":"50","highway":"tertiary","oneway":"yes","profile":"car","distance":"10834.41","time":"7958.896"}},{"type":"Feature","name":"ShapeMeta","geometry":{"type":"LineString","coordinates":[[4.356448,51.83964],[4.356467,51.83959],[4.356505,51.83955],[4.356559,51.83953]]},"properties":{"name":"Maaswijkweg","maxspeed":"50","highway":"tertiary","junction":"roundabout","profile":"car","distance":"10849.31","time":"7960.326"}},{"type":"Feature","name":"ShapeMeta","geometry":{"type":"LineString","coordinates":[[4.356559,51.83953],[4.356528,51.83948],[4.356172,51.83889],[4.356095,51.83873]]},"properties":{"name":"Joke Smitlaan","maxspeed":"50","highway":"tertiary","oneway":"yes","profile":"car","distance":"10943.91","time":"7969.407"}},{"type":"Feature","name":"ShapeMeta","geometry":{"type":"LineString","coordinates":[[4.356095,51.83873],[4.356054,51.83867]]},"properties":{"name":"Joke Smitlaan","maxspeed":"50","highway":"tertiary","profile":"car","distance":"10950.41","time":"7970.031"}},{"type":"Feature","name":"ShapeMeta","geometry":{"type":"LineString","coordinates":[[4.356054,51.83867],[4.355865,51.83872]]},"properties":{"name":"Marga Klompéstraat","highway":"residential","maxspeed":"30","profile":"car","distance":"10964.41","time":"7972.271"}},{"type":"Feature","name":"ShapeMeta","geometry":{"type":"LineString","coordinates":[[4.355865,51.83872],[4.355744,51.83854]]},"properties":{"name":"Suze Groenewegstraat","highway":"residential","maxspeed":"30","profile":"car","distance":"10986.82","time":"7975.857"}},{"type":"Feature","name":"ShapeMeta","geometry":{"type":"LineString","coordinates":[[4.355744,51.83854],[4.355442,51.83807]]},"properties":{"name":"Suze Groenewegstraat","highway":"residential","maxspeed":"30","profile":"car","distance":"11042.91","time":"8164.832"}},{"type":"Feature","name":"ShapeMeta","geometry":{"type":"LineString","coordinates":[[4.355442,51.83807],[4.355262,51.83775],[4.355149,51.83741]]},"properties":{"name":"Suze Groenewegstraat","highway":"residential","maxspeed":"30","profile":"car","distance":"11118.24","time":"8176.884"}},{"type":"Feature","name":"ShapeMeta","geometry":{"type":"LineString","coordinates":[[4.355149,51.83741],[4.355262,51.83775],[4.355442,51.83807]]},"properties":{"name":"Suze Groenewegstraat","highway":"residential","maxspeed":"30","profile":"car","distance":"11193.57","time":"8368.937"}},{"type":"Feature","name":"ShapeMeta","geometry":{"type":"LineString","coordinates":[[4.355442,51.83807],[4.354567,51.83827]]},"properties":{"name":"Johanna Engwirda-Agricolastraat","highway":"residential","maxspeed":"30","profile":"car","distance":"11257.87","time":"8379.225"}},{"type":"Feature","name":"ShapeMeta","geometry":{"type":"LineString","coordinates":[[4.354567,51.83827],[4.354502,51.83861],[4.354394,51.83879],[4.354266,51.83889],[4.353954,51.83899],[4.353641,51.83902],[4.353499,51.83899]]},"properties":{"name":"Johanna Engwirda-Agricolastraat","highway":"residential","maxspeed":"30","profile":"car","distance":"11387.17","time":"8399.913"}},{"type":"Feature","name":"ShapeMeta","geometry":{"type":"LineString","coordinates":[[4.353499,51.83899],[4.353641,51.83902],[4.353954,51.83899],[4.354266,51.83889],[4.354394,51.83879],[4.354502,51.83861],[4.354567,51.83827]]},"properties":{"name":"Johanna Engwirda-Agricolastraat","highway":"residential","maxspeed":"30","profile":"car","distance":"11516.47","time":"8600.602"}},{"type":"Feature","name":"ShapeMeta","geometry":{"type":"LineString","coordinates":[[4.354567,51.83827],[4.354431,51.83799],[4.354358,51.83789],[4.354114,51.83788]]},"properties":{"name":"Johanna Engwirda-Agricolastraat","highway":"residential","maxspeed":"30","profile":"car","distance":"11578.07","time":"8610.458"}},{"type":"Feature","name":"ShapeMeta","geometry":{"type":"LineString","coordinates":[[4.354114,51.83788],[4.353674,51.83787]]},"properties":{"name":"Johanna Engwirda-Agricolastraat","highway":"residential","maxspeed":"30","profile":"car","distance":"11608.27","time":"8615.29"}},{"type":"Feature","name":"ShapeMeta","geometry":{"type":"LineString","coordinates":[[4.353674,51.83787],[4.353401,51.83786]]},"properties":{"name":"Johanna Engwirda-Agricolastraat","highway":"residential","maxspeed":"30","profile":"car","distance":"11627.03","time":"8618.291"}},{"type":"Feature","name":"ShapeMeta","geometry":{"type":"LineString","coordinates":[[4.353401,51.83786],[4.3535,51.83787]]},"properties":{"name":"Johanna Engwirda-Agricolastraat","highway":"residential","maxspeed":"30","profile":"car","distance":"11633.84","time":"8799.382"}},{"type":"Feature","name":"ShapeMeta","geometry":{"type":"LineString","coordinates":[[4.3535,51.83787],[4.353249,51.83786]]},"properties":{"name":"Johanna Engwirda-Agricolastraat","highway":"residential","maxspeed":"30","profile":"car","distance":"11651.1","time":"8982.143"}},{"type":"Feature","name":"ShapeMeta","geometry":{"type":"LineString","coordinates":[[4.353249,51.83786],[4.353267,51.83731]]},"properties":{"name":"Carry Pothuis-Smitstraat","highway":"residential","maxspeed":"30","profile":"car","distance":"11712.6","time":"8991.982"}},{"type":"Feature","name":"ShapeMeta","geometry":{"type":"LineString","coordinates":[[4.353267,51.83731],[4.352183,51.83727],[4.35223,51.83674]]},"properties":{"name":"Wilhelmina Hofman-Pootstraat","highway":"residential","maxspeed":"30","profile":"car","distance":"11845.8","time":"9013.295"}},{"type":"Feature","name":"ShapeMeta","geometry":{"type":"LineString","coordinates":[[4.35223,51.83674],[4.352281,51.83624],[4.352559,51.83624]]},"properties":{"name":"Wilhelmina Druckerstraat","highway":"residential","maxspeed":"30","profile":"car","distance":"11921","time":"9025.327"}},{"type":"Feature","name":"ShapeMeta","geometry":{"type":"LineString","coordinates":[[4.352559,51.83624],[4.3527,51.83624]]},"properties":{"name":"Wilhelmina Druckerstraat","highway":"residential","maxspeed":"30","profile":"car","distance":"11930.69","time":"9026.878"}},{"type":"Feature","name":"ShapeMeta","geometry":{"type":"LineString","coordinates":[[4.3527,51.83624],[4.353416,51.83625],[4.354496,51.83628]]},"properties":{"name":"Wilhelmina Druckerstraat","highway":"residential","maxspeed":"30","profile":"car","distance":"12054.1","time":"9226.622"}},{"type":"Feature","name":"ShapeMeta","geometry":{"type":"LineString","coordinates":[[4.354496,51.83628],[4.354723,51.8363]]},"properties":{"name":"Wilhelmina Druckerstraat","highway":"residential","maxspeed":"30","profile":"car","distance":"12069.7","time":"9229.118"}},{"type":"Feature","name":"ShapeMeta","geometry":{"type":"LineString","coordinates":[[4.354723,51.8363],[4.355241,51.83632]]},"properties":{"name":"Wilhelmina Druckerstraat","highway":"residential","maxspeed":"30","profile":"car","distance":"12105.4","time":"9234.83"}},{"type":"Feature","name":"ShapeMeta","geometry":{"type":"LineString","coordinates":[[4.355241,51.83632],[4.355292,51.83623]]},"properties":{"name":"Mina Krusemanstraat","highway":"residential","maxspeed":"30","profile":"car","distance":"12116.12","time":"9236.546"}},{"type":"Feature","name":"ShapeMeta","geometry":{"type":"LineString","coordinates":[[4.355292,51.83623],[4.355379,51.83607],[4.355661,51.83566],[4.356078,51.83521]]},"properties":{"name":"Mina Krusemanstraat","highway":"residential","maxspeed":"30","profile":"car","distance":"12242.3","time":"9436.734"}},{"type":"Feature","name":"ShapeMeta","geometry":{"type":"LineString","coordinates":[[4.356078,51.83521],[4.355773,51.83496]]},"properties":{"name":"Maria Doorman-Kielstrastraat","highway":"residential","maxspeed":"30","profile":"car","distance":"12276.8","time":"9442.254"}},{"type":"Feature","name":"ShapeMeta","geometry":{"type":"LineString","coordinates":[[4.355773,51.83496],[4.355624,51.83485]]},"properties":{"name":"Maria Doorman-Kielstrastraat","highway":"residential","maxspeed":"30","profile":"car","distance":"12292.8","time":"9444.814"}},{"type":"Feature","name":"ShapeMeta","geometry":{"type":"LineString","coordinates":[[4.355624,51.83485],[4.35489,51.83435],[4.354307,51.83396]]},"properties":{"name":"Maria Doorman-Kielstrastraat","highway":"residential","maxspeed":"30","profile":"car","distance":"12426.4","time":"9466.19"}},{"type":"Feature","name":"ShapeMeta","geometry":{"type":"LineString","coordinates":[[4.354307,51.83396],[4.354263,51.83387],[4.354132,51.83377]]},"properties":{"name":"Maria Doorman-Kielstrastraat","highway":"residential","maxspeed":"30","profile":"car","distance":"12450.9","time":"9470.11"}},{"type":"Feature","name":"ShapeMeta","geometry":{"type":"LineString","coordinates":[[4.354132,51.83377],[4.353737,51.83353]]},"properties":{"name":"Maria Doorman-Kielstrastraat","highway":"residential","maxspeed":"30","profile":"car","distance":"12488.9","time":"9476.19"}},{"type":"Feature","name":"ShapeMeta","geometry":{"type":"LineString","coordinates":[[4.353737,51.83353],[4.353667,51.83348],[4.35358,51.83342]]},"properties":{"name":"Willemijn Posthumusstraat","highway":"residential","maxspeed":"30","profile":"car","distance":"12505.38","time":"9478.827"}},{"type":"Feature","name":"ShapeMeta","geometry":{"type":"LineString","coordinates":[[4.35358,51.83342],[4.353667,51.83348],[4.353737,51.83353]]},"properties":{"name":"Willemijn Posthumusstraat","highway":"residential","maxspeed":"30","profile":"car","distance":"12521.86","time":"9661.464"}},{"type":"Feature","name":"ShapeMeta","geometry":{"type":"LineString","coordinates":[[4.353737,51.83353],[4.354132,51.83377]]},"properties":{"name":"Maria Doorman-Kielstrastraat","highway":"residential","maxspeed":"30","profile":"car","distance":"12559.86","time":"9667.544"}},{"type":"Feature","name":"ShapeMeta","geometry":{"type":"LineString","coordinates":[[4.354132,51.83377],[4.354263,51.83387],[4.354307,51.83396]]},"properties":{"name":"Maria Doorman-Kielstrastraat","highway":"residential","maxspeed":"30","profile":"car","distance":"12584.36","time":"9671.464"}},{"type":"Feature","name":"ShapeMeta","geometry":{"type":"LineString","coordinates":[[4.354307,51.83396],[4.354862,51.83434]]},"properties":{"name":"Maria Doorman-Kielstrastraat","highway":"residential","maxspeed":"30","profile":"car","distance":"12640.8","time":"9680.494"}},{"type":"Feature","name":"ShapeMeta","geometry":{"type":"LineString","coordinates":[[4.354862,51.83434],[4.35489,51.83435],[4.355624,51.83485]]},"properties":{"name":"Maria Doorman-Kielstrastraat","highway":"residential","maxspeed":"30","profile":"car","distance":"12717.96","time":"9872.84"}},{"type":"Feature","name":"ShapeMeta","geometry":{"type":"LineString","coordinates":[[4.355624,51.83485],[4.354878,51.83525]]},"properties":{"name":"Roosje Vosstraat","highway":"residential","maxspeed":"30","profile":"car","distance":"12785.76","time":"9883.688"}},{"type":"Feature","name":"ShapeMeta","geometry":{"type":"LineString","coordinates":[[4.354878,51.83525],[4.354701,51.83535]]},"properties":{"name":"Roosje Vosstraat","highway":"residential","maxspeed":"30","profile":"car","distance":"12802.16","time":"9886.312"}},{"type":"Feature","name":"ShapeMeta","geometry":{"type":"LineString","coordinates":[[4.354701,51.83535],[4.3546,51.83545],[4.354561,51.83556],[4.354558,51.8356]]},"properties":{"name":"Roosje Vosstraat","highway":"residential","maxspeed":"30","profile":"car","distance":"12832.25","time":"9891.126"}},{"type":"Feature","name":"ShapeMeta","geometry":{"type":"LineString","coordinates":[[4.354558,51.8356],[4.354561,51.83556],[4.3546,51.83545],[4.354701,51.83535]]},"properties":{"name":"Roosje Vosstraat","highway":"residential","maxspeed":"30","profile":"car","distance":"12862.34","time":"10075.94"}},{"type":"Feature","name":"ShapeMeta","geometry":{"type":"LineString","coordinates":[[4.354701,51.83535],[4.354878,51.83525]]},"properties":{"name":"Roosje Vosstraat","highway":"residential","maxspeed":"30","profile":"car","distance":"12878.74","time":"10078.57"}},{"type":"Feature","name":"ShapeMeta","geometry":{"type":"LineString","coordinates":[[4.354878,51.83525],[4.355624,51.83485]]},"properties":{"name":"Roosje Vosstraat","highway":"residential","maxspeed":"30","profile":"car","distance":"12946.54","time":"10089.42"}},{"type":"Feature","name":"ShapeMeta","geometry":{"type":"LineString","coordinates":[[4.355624,51.83485],[4.355773,51.83496]]},"properties":{"name":"Maria Doorman-Kielstrastraat","highway":"residential","maxspeed":"30","profile":"car","distance":"12962.54","time":"10091.98"}},{"type":"Feature","name":"ShapeMeta","geometry":{"type":"LineString","coordinates":[[4.355773,51.83496],[4.35603,51.8348],[4.356064,51.83468],[4.356438,51.83448]]},"properties":{"highway":"residential","maxspeed":"30","profile":"car","distance":"13035.02","time":"10103.57"}},{"type":"Feature","name":"ShapeMeta","geometry":{"type":"LineString","coordinates":[[4.356438,51.83448],[4.35656,51.83442],[4.356722,51.83442],[4.357036,51.83429]]},"properties":{"highway":"residential","maxspeed":"30","profile":"car","distance":"13083.34","time":"10291.3"}},{"type":"Feature","name":"ShapeMeta","geometry":{"type":"LineString","coordinates":[[4.357036,51.83429],[4.357344,51.83449]]},"properties":{"name":"Etty Hillesumstraat","highway":"residential","maxspeed":"30","profile":"car","distance":"13114.15","time":"10296.23"}},{"type":"Feature","name":"ShapeMeta","geometry":{"type":"LineString","coordinates":[[4.357344,51.83449],[4.357435,51.83458]]},"properties":{"name":"Etty Hillesumstraat","highway":"residential","maxspeed":"30","profile":"car","distance":"13126.04","time":"10298.13"}},{"type":"Feature","name":"ShapeMeta","geometry":{"type":"LineString","coordinates":[[4.357435,51.83458],[4.35772,51.83448],[4.358244,51.83437]]},"properties":{"name":"Joke Smitlaan","maxspeed":"50","highway":"tertiary","oneway":"yes","profile":"car","distance":"13186.65","time":"10303.95"}},{"type":"Feature","name":"ShapeMeta","geometry":{"type":"LineString","coordinates":[[4.358244,51.83437],[4.358519,51.8343],[4.358867,51.83425],[4.359239,51.83422]]},"properties":{"name":"Joke Smitlaan","maxspeed":"50","highway":"tertiary","profile":"car","distance":"13257.15","time":"10310.72"}},{"type":"Feature","name":"ShapeMeta","geometry":{"type":"LineString","coordinates":[[4.359239,51.83422],[4.359233,51.8341]]},"properties":{"name":"Anne Frankstraat","highway":"residential","maxspeed":"30","profile":"car","distance":"13270.25","time":"10312.82"}},{"type":"Feature","name":"ShapeMeta","geometry":{"type":"LineString","coordinates":[[4.359233,51.8341],[4.359243,51.83399]]},"properties":{"name":"Anne Frankstraat","highway":"residential","maxspeed":"30","profile":"car","distance":"13282.14","time":"10314.72"}},{"type":"Feature","name":"ShapeMeta","geometry":{"type":"LineString","coordinates":[[4.359243,51.83399],[4.3593,51.8334],[4.359339,51.8329]]},"properties":{"name":"Anne Frankstraat","highway":"residential","maxspeed":"30","profile":"car","distance":"13404.04","time":"10514.22"}},{"type":"Feature","name":"ShapeMeta","geometry":{"type":"LineString","coordinates":[[4.359339,51.8329],[4.359152,51.83241],[4.359224,51.83157]]},"properties":{"name":"Anne Frankstraat","highway":"residential","maxspeed":"30","profile":"car","distance":"13552.84","time":"10538.03"}},{"type":"Feature","name":"ShapeMeta","geometry":{"type":"LineString","coordinates":[[4.359224,51.83157],[4.358534,51.83154]]},"properties":{"name":"Anne Frankstraat","highway":"residential","maxspeed":"30","profile":"car","distance":"13600.34","time":"10545.63"}},{"type":"Feature","name":"ShapeMeta","geometry":{"type":"LineString","coordinates":[[4.358534,51.83154],[4.358211,51.83153]]},"properties":{"name":"Anne Frankstraat","highway":"residential","maxspeed":"30","profile":"car","distance":"13622.54","time":"10549.18"}},{"type":"Feature","name":"ShapeMeta","geometry":{"type":"LineString","coordinates":[[4.358211,51.83153],[4.358202,51.83168]]},"properties":{"name":"Petronella Brugsmastraat","highway":"residential","maxspeed":"30","profile":"car","distance":"13639.04","time":"10551.82"}},{"type":"Feature","name":"ShapeMeta","geometry":{"type":"LineString","coordinates":[[4.358202,51.83168],[4.358144,51.83232],[4.357605,51.83242],[4.357409,51.83244],[4.357197,51.83241],[4.3567,51.8323],[4.356502,51.83228]]},"properties":{"name":"Petronella Brugsmastraat","highway":"residential","maxspeed":"30","profile":"car","distance":"13827.88","time":"10582.04"}},{"type":"Feature","name":"ShapeMeta","geometry":{"type":"LineString","coordinates":[[4.356502,51.83228],[4.3567,51.8323],[4.357197,51.83241],[4.357409,51.83244],[4.357605,51.83242],[4.358144,51.83232],[4.358191,51.8318]]},"properties":{"name":"Petronella Brugsmastraat","highway":"residential","maxspeed":"30","profile":"car","distance":"14003.13","time":"10790.08"}},{"type":"Feature","name":"ShapeMeta","geometry":{"type":"LineString","coordinates":[[4.358191,51.8318],[4.358144,51.83232],[4.357605,51.83242],[4.357409,51.83244],[4.357197,51.83241],[4.3567,51.8323],[4.356392,51.83227],[4.356239,51.83227],[4.356162,51.83229]]},"properties":{"name":"Petronella Brugsmastraat","highway":"residential","maxspeed":"30","profile":"car","distance":"14202.44","time":"11001.97"}},{"type":"Feature","name":"ShapeMeta","geometry":{"type":"LineString","coordinates":[[4.356162,51.83229],[4.356112,51.83237],[4.355743,51.83256]]},"properties":{"name":"Mien Sneevliet-Draaijerstraat","highway":"residential","maxspeed":"30","oneway":"yes","profile":"car","distance":"14244.84","time":"11008.75"}},{"type":"Feature","name":"ShapeMeta","geometry":{"type":"LineString","coordinates":[[4.355743,51.83256],[4.355162,51.83287],[4.355031,51.83289]]},"properties":{"name":"Mien Sneevliet-Draaijerstraat","highway":"residential","maxspeed":"30","oneway":"yes","profile":"car","distance":"14306.84","time":"11018.67"}},{"type":"Feature","name":"ShapeMeta","geometry":{"type":"LineString","coordinates":[[4.355031,51.83289],[4.354982,51.83286]]},"properties":{"name":"Etty Hillesumstraat","highway":"residential","maxspeed":"30","profile":"car","distance":"14311.84","time":"11019.47"}},{"type":"Feature","name":"ShapeMeta","geometry":{"type":"LineString","coordinates":[[4.354982,51.83286],[4.354829,51.83276],[4.354083,51.83223],[4.354129,51.83141],[4.354129,51.83141]]},"properties":{"name":"Etty Hillesumstraat","highway":"residential","maxspeed":"30","profile":"car","distance":"14496.32","time":"11048.99"}},{"type":"Feature","name":"ShapeMeta","geometry":{"type":"LineString","coordinates":[[4.354129,51.83141],[4.354129,51.83141],[4.354083,51.83223],[4.354829,51.83276],[4.354982,51.83286]]},"properties":{"name":"Etty Hillesumstraat","highway":"residential","maxspeed":"30","profile":"car","distance":"14680.8","time":"11258.51"}},{"type":"Feature","name":"ShapeMeta","geometry":{"type":"LineString","coordinates":[[4.354982,51.83286],[4.355031,51.83289]]},"properties":{"name":"Etty Hillesumstraat","highway":"residential","maxspeed":"30","profile":"car","distance":"14685.8","time":"11259.31"}},{"type":"Feature","name":"ShapeMeta","geometry":{"type":"LineString","coordinates":[[4.355031,51.83289],[4.355329,51.8331]]},"properties":{"name":"Etty Hillesumstraat","highway":"residential","maxspeed":"30","profile":"car","distance":"14716.5","time":"11264.22"}},{"type":"Feature","name":"ShapeMeta","geometry":{"type":"LineString","coordinates":[[4.355329,51.8331],[4.35606,51.83361]]},"properties":{"name":"Etty Hillesumstraat","highway":"residential","maxspeed":"30","profile":"car","distance":"14792","time":"11276.3"}},{"type":"Feature","name":"ShapeMeta","geometry":{"type":"LineString","coordinates":[[4.35606,51.83361],[4.35673,51.83325]]},"properties":{"name":"Hannie Schaftstraat","highway":"residential","maxspeed":"30","profile":"car","distance":"14852.9","time":"11286.04"}},{"type":"Feature","name":"ShapeMeta","geometry":{"type":"LineString","coordinates":[[4.35673,51.83325],[4.357482,51.83284],[4.3575,51.83284]]},"properties":{"name":"Hannie Schaftstraat","highway":"residential","maxspeed":"30","profile":"car","distance":"14923.15","time":"11297.28"}},{"type":"Feature","name":"ShapeMeta","geometry":{"type":"LineString","coordinates":[[4.3575,51.83284],[4.358464,51.83288]]},"properties":{"name":"Hannie Schaftstraat","highway":"residential","maxspeed":"30","profile":"car","distance":"14989.59","time":"11487.91"}},{"type":"Feature","name":"ShapeMeta","geometry":{"type":"LineString","coordinates":[[4.358464,51.83288],[4.359339,51.8329]]},"properties":{"name":"Hannie Schaftstraat","highway":"residential","maxspeed":"30","profile":"car","distance":"15049.7","time":"11497.53"}},{"type":"Feature","name":"ShapeMeta","geometry":{"type":"LineString","coordinates":[[4.359339,51.8329],[4.3593,51.8334],[4.359233,51.8341]]},"properties":{"name":"Anne Frankstraat","highway":"residential","maxspeed":"30","profile":"car","distance":"15183.5","time":"11518.94"}},{"type":"Feature","name":"ShapeMeta","geometry":{"type":"LineString","coordinates":[[4.359233,51.8341],[4.359239,51.83422]]},"properties":{"name":"Anne Frankstraat","highway":"residential","maxspeed":"30","profile":"car","distance":"15196.59","time":"11521.03"}},{"type":"Feature","name":"ShapeMeta","geometry":{"type":"LineString","coordinates":[[4.359239,51.83422],[4.359355,51.83421]]},"properties":{"name":"Joke Smitlaan","maxspeed":"50","highway":"tertiary","profile":"car","distance":"15204.59","time":"11521.8"}},{"type":"Feature","name":"ShapeMeta","geometry":{"type":"LineString","coordinates":[[4.359355,51.83421],[4.359982,51.83422]]},"properties":{"name":"Joke Smitlaan","maxspeed":"50","highway":"tertiary","profile":"car","distance":"15247.59","time":"11525.93"}},{"type":"Feature","name":"ShapeMeta","geometry":{"type":"LineString","coordinates":[[4.359982,51.83422],[4.360428,51.83422]]},"properties":{"name":"Joke Smitlaan","maxspeed":"50","highway":"tertiary","profile":"car","distance":"15278.2","time":"11528.87"}},{"type":"Feature","name":"ShapeMeta","geometry":{"type":"LineString","coordinates":[[4.360428,51.83422],[4.360715,51.83423],[4.361216,51.83426]]},"properties":{"name":"Joke Smitlaan","maxspeed":"50","highway":"tertiary","profile":"car","distance":"15332.5","time":"11534.08"}},{"type":"Feature","name":"ShapeMeta","geometry":{"type":"LineString","coordinates":[[4.361216,51.83426],[4.36149,51.8343]]},"properties":{"name":"Joke Smitlaan","maxspeed":"50","highway":"tertiary","profile":"car","distance":"15351.89","time":"11535.94"}},{"type":"Feature","name":"ShapeMeta","geometry":{"type":"LineString","coordinates":[[4.36149,51.8343],[4.361445,51.8344]]},"properties":{"name":"Margaretha Roosenboomstraat","highway":"residential","profile":"car","distance":"15363.29","time":"11537.03"}},{"type":"Feature","name":"ShapeMeta","geometry":{"type":"LineString","coordinates":[[4.361445,51.8344],[4.361368,51.83445],[4.361287,51.83451],[4.361287,51.83468],[4.361362,51.83472]]},"properties":{"name":"Margaretha Roosenboomstraat","highway":"residential","profile":"car","distance":"15405.09","time":"11541.05"}},{"type":"Feature","name":"ShapeMeta","geometry":{"type":"LineString","coordinates":[[4.361362,51.83472],[4.361629,51.83485]]},"properties":{"name":"Margaretha Roosenboomstraat","highway":"residential","profile":"car","distance":"15428.39","time":"11543.28"}},{"type":"Feature","name":"ShapeMeta","geometry":{"type":"LineString","coordinates":[[4.361629,51.83485],[4.36163,51.83494]]},"properties":{"name":"Margaretha Roosenboomstraat","highway":"residential","profile":"car","distance":"15438.14","time":"11544.22"}},{"type":"Feature","name":"ShapeMeta","geometry":{"type":"LineString","coordinates":[[4.36163,51.83494],[4.361629,51.83485]]},"properties":{"name":"Margaretha Roosenboomstraat","highway":"residential","profile":"car","distance":"15447.88","time":"11725.16"}},{"type":"Feature","name":"ShapeMeta","geometry":{"type":"LineString","coordinates":[[4.361629,51.83485],[4.361362,51.83472]]},"properties":{"name":"Margaretha Roosenboomstraat","highway":"residential","profile":"car","distance":"15471.18","time":"11727.39"}},{"type":"Feature","name":"ShapeMeta","geometry":{"type":"LineString","coordinates":[[4.361362,51.83472],[4.361287,51.83468],[4.361287,51.83451],[4.361368,51.83445],[4.361445,51.8344]]},"properties":{"name":"Margaretha Roosenboomstraat","highway":"residential","profile":"car","distance":"15512.98","time":"11731.4"}},{"type":"Feature","name":"ShapeMeta","geometry":{"type":"LineString","coordinates":[[4.361445,51.8344],[4.36149,51.8343]]},"properties":{"name":"Margaretha Roosenboomstraat","highway":"residential","profile":"car","distance":"15524.38","time":"11732.5"}},{"type":"Feature","name":"ShapeMeta","geometry":{"type":"LineString","coordinates":[[4.36149,51.8343],[4.361663,51.83434]]},"properties":{"name":"Joke Smitlaan","maxspeed":"50","highway":"tertiary","profile":"car","distance":"15536.78","time":"11733.69"}},{"type":"Feature","name":"ShapeMeta","geometry":{"type":"LineString","coordinates":[[4.361663,51.83434],[4.36189,51.8344],[4.362263,51.83449],[4.36259,51.83456]]},"properties":{"name":"Joke Smitlaan","maxspeed":"50","highway":"tertiary","profile":"car","distance":"15605.18","time":"11740.26"}},{"type":"Feature","name":"ShapeMeta","geometry":{"type":"LineString","coordinates":[[4.36259,51.83456],[4.362295,51.83504],[4.362207,51.83537],[4.362183,51.8356]]},"properties":{"name":"Annie Romein-Verschoorlaan","maxspeed":"50","highway":"tertiary","profile":"car","distance":"15724.38","time":"11751.7"}},{"type":"Feature","name":"ShapeMeta","geometry":{"type":"LineString","coordinates":[[4.362183,51.8356],[4.362249,51.83609]]},"properties":{"name":"Annie Romein-Verschoorlaan","maxspeed":"50","highway":"tertiary","profile":"car","distance":"15779.29","time":"11756.97"}},{"type":"Feature","name":"ShapeMeta","geometry":{"type":"LineString","coordinates":[[4.362249,51.83609],[4.362183,51.8356]]},"properties":{"name":"Annie Romein-Verschoorlaan","maxspeed":"50","highway":"tertiary","profile":"car","distance":"15834.19","time":"11942.24"}},{"type":"Feature","name":"ShapeMeta","geometry":{"type":"LineString","coordinates":[[4.362183,51.8356],[4.362,51.83559]]},"properties":{"name":"Marie van Regteren Altenastraat","highway":"residential","maxspeed":"30","profile":"car","distance":"15846.69","time":"11944.24"}},{"type":"Feature","name":"ShapeMeta","geometry":{"type":"LineString","coordinates":[[4.362,51.83559],[4.36209,51.83628],[4.362113,51.83641]]},"properties":{"name":"Margaretha Roosenboomstraat","highway":"residential","maxspeed":"30","profile":"car","distance":"15937.32","time":"11958.74"}},{"type":"Feature","name":"ShapeMeta","geometry":{"type":"LineString","coordinates":[[4.362113,51.83641],[4.362199,51.83688]]},"properties":{"name":"Margaretha Roosenboomstraat","highway":"residential","maxspeed":"30","profile":"car","distance":"15989.79","time":"12147.14"}},{"type":"Feature","name":"ShapeMeta","geometry":{"type":"LineString","coordinates":[[4.362199,51.83688],[4.362391,51.8378]]},"properties":{"name":"Ida Wassermanstraat","highway":"residential","maxspeed":"30","profile":"car","distance":"16093.2","time":"12163.68"}},{"type":"Feature","name":"ShapeMeta","geometry":{"type":"LineString","coordinates":[[4.362391,51.8378],[4.362199,51.83688]]},"properties":{"name":"Ida Wassermanstraat","highway":"residential","maxspeed":"30","profile":"car","distance":"16196.61","time":"12360.22"}},{"type":"Feature","name":"ShapeMeta","geometry":{"type":"LineString","coordinates":[[4.362199,51.83688],[4.362395,51.83686]]},"properties":{"name":"Mimi Boesnachstraat","highway":"residential","maxspeed":"30","profile":"car","distance":"16210.11","time":"12362.38"}},{"type":"Feature","name":"ShapeMeta","geometry":{"type":"LineString","coordinates":[[4.362395,51.83686],[4.362588,51.83685]]},"properties":{"name":"Theo Mann-Bouwmeesterstraat","highway":"residential","maxspeed":"30","profile":"car","distance":"16223.51","time":"12364.53"}},{"type":"Feature","name":"ShapeMeta","geometry":{"type":"LineString","coordinates":[[4.362588,51.83685],[4.362637,51.83716]]},"properties":{"name":"Maria Kleine-Gartmanstraat","highway":"residential","maxspeed":"30","profile":"car","distance":"16258.81","time":"12370.18"}},{"type":"Feature","name":"ShapeMeta","geometry":{"type":"LineString","coordinates":[[4.362637,51.83716],[4.362693,51.83744]]},"properties":{"name":"Maria Kleine-Gartmanstraat","highway":"residential","maxspeed":"30","profile":"car","distance":"16290.41","time":"12375.23"}},{"type":"Feature","name":"ShapeMeta","geometry":{"type":"LineString","coordinates":[[4.362693,51.83744],[4.362755,51.83772]]},"properties":{"name":"Maria Kleine-Gartmanstraat","highway":"residential","maxspeed":"30","profile":"car","distance":"16321.61","time":"12380.22"}},{"type":"Feature","name":"ShapeMeta","geometry":{"type":"LineString","coordinates":[[4.362755,51.83772],[4.362759,51.83774]]},"properties":{"name":"Maria Kleine-Gartmanstraat","highway":"residential","maxspeed":"30","profile":"car","distance":"16323.74","time":"12380.57"}},{"type":"Feature","name":"ShapeMeta","geometry":{"type":"LineString","coordinates":[[4.362759,51.83774],[4.362813,51.83805]]},"properties":{"name":"Maria Kleine-Gartmanstraat","highway":"residential","maxspeed":"30","profile":"car","distance":"16357.81","time":"12566.02"}},{"type":"Feature","name":"ShapeMeta","geometry":{"type":"LineString","coordinates":[[4.362813,51.83805],[4.362897,51.83831]]},"properties":{"name":"Maria Kleine-Gartmanstraat","highway":"residential","maxspeed":"30","profile":"car","distance":"16388.01","time":"12570.85"}},{"type":"Feature","name":"ShapeMeta","geometry":{"type":"LineString","coordinates":[[4.362897,51.83831],[4.362933,51.83848],[4.363002,51.83858],[4.36314,51.83867],[4.363311,51.83872],[4.363814,51.83873]]},"properties":{"name":"Maria Kleine-Gartmanstraat","highway":"residential","maxspeed":"30","profile":"car","distance":"16480.01","time":"12585.57"}},{"type":"Feature","name":"ShapeMeta","geometry":{"type":"LineString","coordinates":[[4.363814,51.83873],[4.364505,51.83876]]},"properties":{"name":"Maria Kleine-Gartmanstraat","highway":"residential","maxspeed":"30","profile":"car","distance":"16527.54","time":"12593.18"}},{"type":"Feature","name":"ShapeMeta","geometry":{"type":"LineString","coordinates":[[4.364505,51.83876],[4.364714,51.83876]]},"properties":{"name":"Maria Kleine-Gartmanstraat","highway":"residential","maxspeed":"30","profile":"car","distance":"16541.91","time":"12775.48"}},{"type":"Feature","name":"ShapeMeta","geometry":{"type":"LineString","coordinates":[[4.364714,51.83876],[4.364704,51.83848]]},"properties":{"name":"Esther de Boer-van Rijkstraat","highway":"residential","maxspeed":"30","profile":"car","distance":"16573.21","time":"12780.49"}},{"type":"Feature","name":"ShapeMeta","geometry":{"type":"LineString","coordinates":[[4.364704,51.83848],[4.36464,51.83818]]},"properties":{"name":"Esther de Boer-van Rijkstraat","highway":"residential","maxspeed":"30","profile":"car","distance":"16607.41","time":"12785.96"}},{"type":"Feature","name":"ShapeMeta","geometry":{"type":"LineString","coordinates":[[4.36464,51.83818],[4.364522,51.83761]]},"properties":{"name":"Esther de Boer-van Rijkstraat","highway":"residential","maxspeed":"30","profile":"car","distance":"16670.71","time":"12796.09"}},{"type":"Feature","name":"ShapeMeta","geometry":{"type":"LineString","coordinates":[[4.364522,51.83761],[4.365499,51.83763]]},"properties":{"name":"Josephine van Gasterenstraat","highway":"residential","maxspeed":"30","profile":"car","distance":"16737.81","time":"12806.82"}},{"type":"Feature","name":"ShapeMeta","geometry":{"type":"LineString","coordinates":[[4.365499,51.83763],[4.365944,51.83764]]},"properties":{"name":"Josephine van Gasterenstraat","highway":"residential","maxspeed":"30","profile":"car","distance":"16768.31","time":"12811.7"}},{"type":"Feature","name":"ShapeMeta","geometry":{"type":"LineString","coordinates":[[4.365944,51.83764],[4.365939,51.8376]]},"properties":{"name":"Corrie Vonkplantsoen","highway":"residential","maxspeed":"30","profile":"car","distance":"16772.13","time":"12812.31"}},{"type":"Feature","name":"Stop","Shape":"0","geometry":{"type":"Point","coordinates":[4.366,51.8376]},"properties":{"index":"158","distance":"0","time":"0","cost_time":"180"}},{"type":"Feature","name":"Stop","Shape":"13","geometry":{"type":"Point","coordinates":[4.3684,51.837]},"properties":{"index":"154","distance":"313.9966","time":"50.23946","cost_time":"180"}},{"type":"Feature","name":"Stop","Shape":"23","geometry":{"type":"Point","coordinates":[4.37083,51.83531]},"properties":{"index":"150","distance":"676.733","time":"280.1237","cost_time":"180"}},{"type":"Feature","name":"Stop","Shape":"29","geometry":{"type":"Point","coordinates":[4.36964,51.83403]},"properties":{"index":"147","distance":"867.8625","time":"483.6708","cost_time":"180"}},{"type":"Feature","name":"Stop","Shape":"34","geometry":{"type":"Point","coordinates":[4.36933,51.83347]},"properties":{"index":"148","distance":"971.5657","time":"680.2633","cost_time":"180"}},{"type":"Feature","name":"Stop","Shape":"37","geometry":{"type":"Point","coordinates":[4.3683,51.8325]},"properties":{"index":"149","distance":"1109.731","time":"882.3698","cost_time":"180"}},{"type":"Feature","name":"Stop","Shape":"48","geometry":{"type":"Point","coordinates":[4.3705,51.8359]},"properties":{"index":"153","distance":"1568.425","time":"1121.822","cost_time":"180"}},{"type":"Feature","name":"Stop","Shape":"53","geometry":{"type":"Point","coordinates":[4.370707,51.83658]},"properties":{"index":"152","distance":"1769.771","time":"1334.037","cost_time":"180"}},{"type":"Feature","name":"Stop","Shape":"56","geometry":{"type":"Point","coordinates":[4.3702,51.8376]},"properties":{"index":"162","distance":"1901.902","time":"1530.755","cost_time":"180"}},{"type":"Feature","name":"Stop","Shape":"59","geometry":{"type":"Point","coordinates":[4.3699,51.8377]},"properties":{"index":"151","distance":"2029.228","time":"1727.032","cost_time":"180"}},{"type":"Feature","name":"Stop","Shape":"72","geometry":{"type":"Point","coordinates":[4.3725,51.8371]},"properties":{"index":"164","distance":"2460.55","time":"1973.189","cost_time":"180"}},{"type":"Feature","name":"Stop","Shape":"77","geometry":{"type":"Point","coordinates":[4.3713,51.8388]},"properties":{"index":"163","distance":"2688.512","time":"2189.663","cost_time":"180"}},{"type":"Feature","name":"Stop","Shape":"90","geometry":{"type":"Point","coordinates":[4.3679,51.839]},"properties":{"index":"155","distance":"2942.401","time":"2410.285","cost_time":"180"}},{"type":"Feature","name":"Stop","Shape":"100","geometry":{"type":"Point","coordinates":[4.3652,51.8366]},"properties":{"index":"159","distance":"3451.638","time":"2671.763","cost_time":"180"}},{"type":"Feature","name":"Stop","Shape":"106","geometry":{"type":"Point","coordinates":[4.3666,51.8359]},"properties":{"index":"160","distance":"3670.439","time":"2886.771","cost_time":"180"}},{"type":"Feature","name":"Stop","Shape":"113","geometry":{"type":"Point","coordinates":[4.3681,51.8348]},"properties":{"index":"161","distance":"3841.793","time":"3094.188","cost_time":"180"}},{"type":"Feature","name":"Stop","Shape":"127","geometry":{"type":"Point","coordinates":[4.3648,51.8346]},"properties":{"index":"142","distance":"4283.279","time":"3344.826","cost_time":"180"}},{"type":"Feature","name":"Stop","Shape":"132","geometry":{"type":"Point","coordinates":[4.36365,51.83393]},"properties":{"index":"143","distance":"4652.737","time":"3583.939","cost_time":"180"}},{"type":"Feature","name":"Stop","Shape":"135","geometry":{"type":"Point","coordinates":[4.3637,51.8356]},"properties":{"index":"141","distance":"4846.041","time":"3794.868","cost_time":"180"}},{"type":"Feature","name":"Stop","Shape":"140","geometry":{"type":"Point","coordinates":[4.3629,51.8352]},"properties":{"index":"140","distance":"4957.69","time":"3992.732","cost_time":"180"}},{"type":"Feature","name":"Stop","Shape":"155","geometry":{"type":"Point","coordinates":[4.362908,51.83392]},"properties":{"index":"136","distance":"5348.049","time":"4222.518","cost_time":"180"}},{"type":"Feature","name":"Stop","Shape":"171","geometry":{"type":"Point","coordinates":[4.3678,51.8326]},"properties":{"index":"146","distance":"5848.603","time":"4469.397","cost_time":"180"}},{"type":"Feature","name":"Stop","Shape":"177","geometry":{"type":"Point","coordinates":[4.3676,51.8338]},"properties":{"index":"145","distance":"6045.646","time":"4680.924","cost_time":"180"}},{"type":"Feature","name":"Stop","Shape":"180","geometry":{"type":"Point","coordinates":[4.3661,51.8336]},"properties":{"index":"144","distance":"6167.349","time":"4880.396","cost_time":"180"}},{"type":"Feature","name":"Stop","Shape":"199","geometry":{"type":"Point","coordinates":[4.36006,51.83444]},"properties":{"index":"123","distance":"6763.651","time":"5125.705","cost_time":"180"}},{"type":"Feature","name":"Stop","Shape":"207","geometry":{"type":"Point","coordinates":[4.3588,51.8358]},"properties":{"index":"121","distance":"6978.471","time":"5340.076","cost_time":"180"}},{"type":"Feature","name":"Stop","Shape":"207","geometry":{"type":"Point","coordinates":[4.3588,51.8358]},"properties":{"index":"122","distance":"6978.471","time":"5520.076","cost_time":"180"}},{"type":"Feature","name":"Stop","Shape":"213","geometry":{"type":"Point","coordinates":[4.3576,51.8369]},"properties":{"index":"120","distance":"7146.219","time":"5726.916","cost_time":"180"}},{"type":"Feature","name":"Stop","Shape":"217","geometry":{"type":"Point","coordinates":[4.3593,51.8369]},"properties":{"index":"119","distance":"7263.055","time":"5925.61","cost_time":"180"}},{"type":"Feature","name":"Stop","Shape":"223","geometry":{"type":"Point","coordinates":[4.3595,51.8387]},"properties":{"index":"118","distance":"7466.376","time":"6138.141","cost_time":"180"}},{"type":"Feature","name":"Stop","Shape":"229","geometry":{"type":"Point","coordinates":[4.3567,51.838]},"properties":{"index":"117","distance":"7718.436","time":"6358.471","cost_time":"180"}},{"type":"Feature","name":"Stop","Shape":"279","geometry":{"type":"Point","coordinates":[4.349341,51.84015]},"properties":{"index":"111","distance":"8772.018","time":"6751.897","cost_time":"180"}},{"type":"Feature","name":"Stop","Shape":"309","geometry":{"type":"Point","coordinates":[4.350248,51.84405]},"properties":{"index":"102","distance":"9262.2","time":"7078.247","cost_time":"180"}},{"type":"Feature","name":"Stop","Shape":"316","geometry":{"type":"Point","coordinates":[4.348139,51.84475]},"properties":{"index":"99","distance":"9437.155","time":"7275.042","cost_time":"180"}},{"type":"Feature","name":"Stop","Shape":"324","geometry":{"type":"Point","coordinates":[4.349528,51.84339]},"properties":{"index":"101","distance":"9645.257","time":"7480.153","cost_time":"180"}},{"type":"Feature","name":"Stop","Shape":"335","geometry":{"type":"Point","coordinates":[4.347083,51.84364]},"properties":{"index":"100","distance":"9906.442","time":"7689.81","cost_time":"180"}},{"type":"Feature","name":"Stop","Shape":"381","geometry":{"type":"Point","coordinates":[4.3558,51.8385]},"properties":{"index":"112","distance":"10986.82","time":"7975.857","cost_time":"180"}},{"type":"Feature","name":"Stop","Shape":"384","geometry":{"type":"Point","coordinates":[4.3552,51.8374]},"properties":{"index":"116","distance":"11118.24","time":"8176.884","cost_time":"180"}},{"type":"Feature","name":"Stop","Shape":"393","geometry":{"type":"Point","coordinates":[4.3535,51.839]},"properties":{"index":"115","distance":"11387.17","time":"8399.913","cost_time":"180"}},{"type":"Feature","name":"Stop","Shape":"404","geometry":{"type":"Point","coordinates":[4.3534,51.8379]},"properties":{"index":"114","distance":"11627.03","time":"8618.291","cost_time":"180"}},{"type":"Feature","name":"Stop","Shape":"405","geometry":{"type":"Point","coordinates":[4.3535,51.8379]},"properties":{"index":"113","distance":"11633.84","time":"8799.382","cost_time":"180"}},{"type":"Feature","name":"Stop","Shape":"412","geometry":{"type":"Point","coordinates":[4.3527,51.8362]},"properties":{"index":"132","distance":"11930.69","time":"9026.878","cost_time":"180"}},{"type":"Feature","name":"Stop","Shape":"417","geometry":{"type":"Point","coordinates":[4.35533,51.83625]},"properties":{"index":"133","distance":"12116.12","time":"9236.546","cost_time":"180"}},{"type":"Feature","name":"Stop","Shape":"429","geometry":{"type":"Point","coordinates":[4.3536,51.8334]},"properties":{"index":"129","distance":"12505.38","time":"9478.827","cost_time":"180"}},{"type":"Feature","name":"Stop","Shape":"435","geometry":{"type":"Point","coordinates":[4.35483,51.83439]},"properties":{"index":"130","distance":"12640.8","time":"9680.494","cost_time":"180"}},{"type":"Feature","name":"Stop","Shape":"442","geometry":{"type":"Point","coordinates":[4.3546,51.8356]},"properties":{"index":"131","distance":"12832.25","time":"9891.126","cost_time":"180"}},{"type":"Feature","name":"Stop","Shape":"451","geometry":{"type":"Point","coordinates":[4.3565,51.8346]},"properties":{"index":"134","distance":"13035.02","time":"10103.57","cost_time":"180"}},{"type":"Feature","name":"Stop","Shape":"463","geometry":{"type":"Point","coordinates":[4.3593,51.834]},"properties":{"index":"124","distance":"13282.14","time":"10314.72","cost_time":"180"}},{"type":"Feature","name":"Stop","Shape":"476","geometry":{"type":"Point","coordinates":[4.3565,51.8323]},"properties":{"index":"126","distance":"13827.88","time":"10582.04","cost_time":"180"}},{"type":"Feature","name":"Stop","Shape":"482","geometry":{"type":"Point","coordinates":[4.3582,51.8318]},"properties":{"index":"127","distance":"14003.13","time":"10790.08","cost_time":"180"}},{"type":"Feature","name":"Stop","Shape":"499","geometry":{"type":"Point","coordinates":[4.3541,51.8314]},"properties":{"index":"128","distance":"14496.32","time":"11048.99","cost_time":"180"}},{"type":"Feature","name":"Stop","Shape":"509","geometry":{"type":"Point","coordinates":[4.3575,51.83281]},"properties":{"index":"125","distance":"14923.15","time":"11297.28","cost_time":"180"}},{"type":"Feature","name":"Stop","Shape":"527","geometry":{"type":"Point","coordinates":[4.36169,51.83494]},"properties":{"index":"135","distance":"15438.14","time":"11544.22","cost_time":"180"}},{"type":"Feature","name":"Stop","Shape":"542","geometry":{"type":"Point","coordinates":[4.3622,51.8361]},"properties":{"index":"137","distance":"15779.29","time":"11756.97","cost_time":"180"}},{"type":"Feature","name":"Stop","Shape":"546","geometry":{"type":"Point","coordinates":[4.362184,51.8364]},"properties":{"index":"139","distance":"15937.32","time":"11958.74","cost_time":"180"}},{"type":"Feature","name":"Stop","Shape":"548","geometry":{"type":"Point","coordinates":[4.3624,51.8378]},"properties":{"index":"138","distance":"16093.2","time":"12163.68","cost_time":"180"}},{"type":"Feature","name":"Stop","Shape":"555","geometry":{"type":"Point","coordinates":[4.36272,51.83775]},"properties":{"index":"157","distance":"16323.74","time":"12380.57","cost_time":"180"}},{"type":"Feature","name":"Stop","Shape":"563","geometry":{"type":"Point","coordinates":[4.3645,51.8389]},"properties":{"index":"156","distance":"16527.54","time":"12593.18","cost_time":"180"}},{"type":"Feature","name":"Stop","Shape":"570","geometry":{"type":"Point","coordinates":[4.366,51.8376]},"properties":{"index":"158","distance":"16772.13","time":"12812.31","cost_time":"180"}}]}